"ID","Address","City","State","Zip","lat","long","id","input_address","match_indicator","match_type","matched_address","tiger_line_id","tiger_side"
859001,"7782 S LOUTHAN ST","LITTLETON","CO",80120,39.5775922130001,-105.006925526,1,"7782 S LOUTHAN ST, LITTLETON, CO, 80120","Match","Exact","7782 S LOUTHAN ST, LITTLETON, CO, 80120",177393771,"R"
859002,"7782 SAMURA PL STE 6","GARDEN GROVE","CA",92841,33.7798841760001,-117.996265495,2,"7782 SAMURA PL STE 6, GARDEN GROVE, CA, 92841","Match","Non_Exact","7782 SAMURA LN, GARDEN GROVE, CA, 92841",144015012,"R"
859003,"7782 TOKATEE DR","PICKERINGTON","OH",43147,39.919547116,-82.791945867,3,"7782 TOKATEE DR, PICKERINGTON, OH, 43147","Match","Exact","7782 TOKATEE DR, PICKERINGTON, OH, 43147",37234753,"L"
859004,"7783 AMHERST COURT","LAKE SPIVEY","GA",30236,33.5419489830001,-84.312258733,4,"7783 AMHERST COURT, LAKE SPIVEY, GA, 30236","Match","Exact","7783 AMHERST CT, LAKE SPIVEY, GA, 30236",23334021,"R"
859005,"7783 DRAGONHEAD RD","FAYETTEVILLE","NC",28311,35.2050603120001,-78.8810386379999,5,"7783 DRAGONHEAD RD, FAYETTEVILLE, NC, 28311","Match","Exact","7783 DRAGONHEAD RD, FAYETTEVILLE, NC, 28311",64230615,"R"
859006,"7783 FENWAY RD","NEW ALBANY","OH",43054,40.0696320160001,-82.814164814,6,"7783 FENWAY RD, NEW ALBANY, OH, 43054","Match","Exact","7783 FENWAY RD, NEW ALBANY, OH, 43054",135752865,"R"
859007,"7783 WROTHAM CIRCLE","ATLANTA","GA",30349,33.6711043010001,-84.6410116549999,7,"7783 WROTHAM CIRCLE, ATLANTA, GA, 30349","Match","Exact","7783 WROTHAM CIR, ATLANTA, GA, 30349",634083727,"L"
859008,"7784 BETTY LOUISE DR","PANAMA CITY","FL",32404,30.1445850970001,-85.557746128,8,"7784 BETTY LOUISE DR, PANAMA CITY, FL, 32404","Match","Exact","7784 BETTY LOUISE DR, PANAMA CITY, FL, 32404",7088848,"R"
859009,"7784 CONSTANCE AVE","FRISCO","TX",75034,33.142891596,-96.854188575,9,"7784 CONSTANCE AVE, FRISCO, TX, 75034","Match","Exact","7784 CONSTANCE AVE, FRISCO, TX, 75034",646702368,"R"
859010,"7784 E 1410 NORTH ROAD","FAIRMONT","IL",61841,40.079544529,-87.791320116,10,"7784 E 1410 NORTH ROAD, FAIRMONT, IL, 61841","Match","Non_Exact","7784 E 1410 NORTH RD, FAIRMOUNT, IL, 61841",65995617,"L"
859011,"7784 HANNUM ROAD","MAYVILLE","NY",14757,42.239614128,-79.556533072,11,"7784 HANNUM ROAD, MAYVILLE, NY, 14757","Match","Exact","7784 HANNUM RD, MAYVILLE, NY, 14757",120798570,"R"
859012,"7784 HIGHLAND ST","OMAHA","NE",68127,41.204865306,-96.034894736,12,"7784 HIGHLAND ST, OMAHA, NE, 68127","Match","Exact","7784 HIGHLAND ST, OMAHA, NE, 68127",116982485,"R"
859013,"7784 N SANCTUARY LANE","MOORESVILLE","IN",46158,39.5394321860001,-86.30611989,13,"7784 N SANCTUARY LANE, MOORESVILLE, IN, 46158","Match","Exact","7784 SANCTUARY LN, MOORESVILLE, IN, 46158",43568302,"R"
859014,"7784 N SANCTUARY","MOORESVILLE","IN",46158,NA,NA,14,"7784 N SANCTUARY, MOORESVILLE, IN, 46158","Tie",NA,NA,NA,NA
859015,"7784 POLO CROSSE AVE","SACRAMENTO","CA",95829,38.4590114750001,-121.302261157,15,"7784 POLO CROSSE AVE, SACRAMENTO, CA, 95829","Match","Exact","7784 POLO CROSSE AVE, SACRAMENTO, CA, 95829",133395585,"R"
859016,"77840","BRYAN","TX",77802,NA,NA,16,"77840, BRYAN, TX, 77802","No_Match",NA,NA,NA,NA
859017,"77845 JACOB STREET","MARINGOUIN","LA",70757,30.48177358,-91.5182426759999,17,"77845 JACOB STREET, MARINGOUIN, LA, 70757","Match","Exact","77845 JACOB ST, MARINGOUIN, LA, 70757",85560117,"R"
859018,"7785 ASPENWOOD DRIVE SE","GRAND RAPIDS","MI",49546,NA,NA,18,"7785 ASPENWOOD DRIVE SE, GRAND RAPIDS, MI, 49546","No_Match",NA,NA,NA,NA
859019,"7785 CHAPEL POINT RD","PORT TOBACCO","MD",20677,38.4988194310001,-77.017500325,19,"7785 CHAPEL POINT RD, PORT TOBACCO, MD, 20677","Match","Exact","7785 CHAPEL POINT RD, PORT TOBACCO, MD, 20677",25390530,"L"
859020,"7785 GRANDMONT","DETROIT","MI",48208,NA,NA,20,"7785 GRANDMONT, DETROIT, MI, 48208","No_Match",NA,NA,NA,NA
859021,"7785 JAY PL","COLUMBUS","OH",43235,40.122036387,-83.009676949,21,"7785 JAY PL, COLUMBUS, OH, 43235","Match","Exact","7785 JAY PL, COLUMBUS, OH, 43235",135622073,"L"
859022,"7785 OAKHURST RD","SEMINOLE","FL",33776,27.8438831120001,-82.828173791,22,"7785 OAKHURST RD, SEMINOLE, FL, 33776","Match","Exact","7785 OAKHURST RD, SEMINOLE, FL, 33776",124690102,"R"
859023,"7785 RICHFIELD DR","ARPIN","WI",54410,44.569256722,-90.103974427,23,"7785 RICHFIELD DR, ARPIN, WI, 54410","Match","Exact","7785 RICHFIELD DR, ARPIN, WI, 54410",51279534,"L"
859024,"7785 S GUARDSMANS PASS RD","BRIGHTON","UT",84121,NA,NA,24,"7785 S GUARDSMANS PASS RD, BRIGHTON, UT, 84121","No_Match",NA,NA,NA,NA
859025,"7785 S GUARDSMANS PASS ROAD","BRIGHTON","UT",84121,NA,NA,25,"7785 S GUARDSMANS PASS ROAD, BRIGHTON, UT, 84121","No_Match",NA,NA,NA,NA
859026,"7785 SALEM DRIVE","HUDSON","OH",44236,41.2748118970001,-81.4224128879999,26,"7785 SALEM DRIVE, HUDSON, OH, 44236","Match","Exact","7785 SALEM DR, HUDSON, OH, 44236",61364295,"R"
859027,"7785 SALIX PLACE","SAN DIEGO","CA",92129,32.939687371,-117.1545076,27,"7785 SALIX PLACE, SAN DIEGO, CA, 92129","Match","Exact","7785 SALIX PL, SAN DIEGO, CA, 92129",195653187,"R"
859028,"7785 SOLITUDE CT","MCLEAN","VA",22102,38.950356019,-77.214839841,28,"7785 SOLITUDE CT, MCLEAN, VA, 22102","Match","Exact","7785 SOLITUDE CT, MCLEAN, VA, 22102",619927697,"R"
859029,"7785 STERLING PLACE","DAYTON","OH",45343,39.63380018,-84.137515787,29,"7785 STERLING PLACE, DAYTON, OH, 45343","Match","Non_Exact","7785 STERLING PL, DAYTON, OH, 45459",143584436,"R"
859030,"7785 SW 86TH STREET","MIAMI","FL",33143,25.6902321910001,-80.3202637749999,30,"7785 SW 86TH STREET, MIAMI, FL, 33143","Match","Exact","7785 SW 86TH ST, MIAMI, FL, 33143",611797868,"R"
859031,"7785 W SAHARA AVENUE  SUITE 202","LAS VEGAS","NV",89117,36.1436944050001,-115.260616236,31,"7785 W SAHARA AVENUE  SUITE 202, LAS VEGAS, NV, 89117","Match","Non_Exact","7785 W SAHARA AVE, LAS VEGAS, NV, 89117",201861570,"L"
859032,"7785 WILDERNESS WAY","MAINEVILLE","OH",45039,39.320496807,-84.20210873,32,"7785 WILDERNESS WAY, MAINEVILLE, OH, 45039","Match","Exact","7785 WILDERNESS WAY, MAINEVILLE, OH, 45039",159037020,"R"
859033,"7785 YANKEE CT","ARVADA","CO",80007,39.8368291680001,-105.202070855,33,"7785 YANKEE CT, ARVADA, CO, 80007","Match","Exact","7785 YANKEE CT, ARVADA, CO, 80007",177764780,"R"
859034,"7786 CARMELIAN RD","KIMBALL","MN",55353,45.3643762070001,-94.273994537,34,"7786 CARMELIAN RD, KIMBALL, MN, 55353","Match","Non_Exact","7786 CARNELIAN RD, KIMBALL, MN, 55353",107437637,"L"
859035,"7786 GLORIA DRIVE","BALDWINSVILLE","NY",13027,43.147214574,-76.281173471,35,"7786 GLORIA DRIVE, BALDWINSVILLE, NY, 13027","Match","Exact","7786 GLORIA DR, BALDWINSVILLE, NY, 13027",640456849,"R"
859036,"7786 HARRISBURG LONDON ROAD","ORIENT","OH",43146,39.819483119,-83.212348634,36,"7786 HARRISBURG LONDON ROAD, ORIENT, OH, 43146","Match","Exact","7786 HARRISBURG LONDON RD, ORIENT, OH, 43146",633586574,"R"
859037,"7786 HEYDEN","DETROIT","MI",48219,NA,NA,37,"7786 HEYDEN, DETROIT, MI, 48219","No_Match",NA,NA,NA,NA
859038,"7786 HIGHBROOK DRIVE","MAINEVILLE","OH",45039,39.3226876140001,-84.2118033469999,38,"7786 HIGHBROOK DRIVE, MAINEVILLE, OH, 45039","Match","Exact","7786 HIGHBROOK DR, MAINEVILLE, OH, 45039",617732125,"L"
859039,"7786 LYN DR","CARLISLE","OH",45005,39.571662648,-84.342141436,39,"7786 LYN DR, CARLISLE, OH, 45005","Match","Exact","7786 LYN DR, CARLISLE, OH, 45005",159017164,"L"
859040,"7786 MCBRIDE WAY","SACRAMENTO","CA",95832,38.475601311,-121.4996197,40,"7786 MCBRIDE WAY, SACRAMENTO, CA, 95832","Match","Exact","7786 MCBRIDE WAY, SACRAMENTO, CA, 95832",133393300,"R"
859041,"7786 MCKINLEY AVE","SAN BERNARDINO","CA",92410,34.1125519240001,-117.236424023,41,"7786 MCKINLEY AVE, SAN BERNARDINO, CA, 92410","Match","Exact","7786 MCKINLEY AVE, SAN BERNARDINO, CA, 92410",633185443,"R"
859042,"7786 PEACEFUL VALLEY","WILLIAMSBURG","MI",49690,44.8000714040001,-85.49988412,42,"7786 PEACEFUL VALLEY, WILLIAMSBURG, MI, 49690","Match","Exact","7786 PEACEFUL VALLEY, WILLIAMSBURG, MI, 49690",145530903,"R"
859043,"7786 RILEY RD","BRYAN","TX",77808,30.731439003,-96.2203052689999,43,"7786 RILEY RD, BRYAN, TX, 77808","Match","Exact","7786 RILEY RD, BRYAN, TX, 77808",21839713,"L"
859044,"7786 TANGIER DR","SPRINGFIELD","VA",22153,38.746802523,-77.214207474,44,"7786 TANGIER DR, SPRINGFIELD, VA, 22153","Match","Exact","7786 TANGIER DR, SPRINGFIELD, VA, 22153",75977243,"L"
859045,"7786 TANGIER DRIVE","SPRINGFIELD","VA",22153,38.746802523,-77.214207474,45,"7786 TANGIER DRIVE, SPRINGFIELD, VA, 22153","Match","Exact","7786 TANGIER DR, SPRINGFIELD, VA, 22153",75977243,"L"
859046,"7787 ARUNDEL MILLS BLVD UNIT 1201","HANOVER","MD",20176,39.1534568330001,-76.742615611,46,"7787 ARUNDEL MILLS BLVD UNIT 1201, HANOVER, MD, 20176","Match","Non_Exact","7787 ARUNDEL MILLS BLVD, HANOVER, MD, 21076",637910139,"R"
859047,"7787 CAMINITO MONARCA UNIT 105","CARLSBAD","CA",92009,NA,NA,47,"7787 CAMINITO MONARCA UNIT 105, CARLSBAD, CA, 92009","No_Match",NA,NA,NA,NA
859048,"7787 CRESTWOOD CIRCLE","EAGLE MOUNTAIN","UT",84005,40.359358571,-111.95426947,48,"7787 CRESTWOOD CIRCLE, EAGLE MOUNTAIN, UT, 84005","Match","Exact","7787 CRESTWOOD CIR, EAGLE MOUNTAIN, UT, 84005",629755046,"R"
859049,"7787 MOUNT HOOD","HUBER HEIGHTS","OH",45424,39.865424008,-84.132529239,49,"7787 MOUNT HOOD, HUBER HEIGHTS, OH, 45424","Match","Exact","7787 MOUNT HOOD, HUBER HEIGHTS, OH, 45424",651761894,"L"
859050,"7787 NE PERSHING LN","HILLSBORO","OR",97124,45.5226594800001,-122.900131583,50,"7787 NE PERSHING LN, HILLSBORO, OR, 97124","Match","Exact","7787 NE PERSHING LN, HILLSBORO, OR, 97124",627943082,"R"
859051,"7787 ROCK CRK","AVON","IN",46123,39.793896998,-86.385530681,51,"7787 ROCK CRK, AVON, IN, 46123","Match","Exact","7787 ROCK CREEK, AVON, IN, 46123",646617723,"R"
859052,"7787 SEDGEBROOK DRIVE EAST","STANLEY","NC",28164,35.4363424570001,-80.991019611,52,"7787 SEDGEBROOK DRIVE EAST, STANLEY, NC, 28164","Match","Exact","7787 SEDGEBROOK DR E, STANLEY, NC, 28164",69539079,"L"
859053,"7787 WHITNEY DRIVE","RIVERSIDE","CA",92509,33.9980972060001,-117.453750851,53,"7787 WHITNEY DRIVE, RIVERSIDE, CA, 92509","Match","Exact","7787 WHITNEY DR, RIVERSIDE, CA, 92509",195077570,"R"
859054,"7788 E VIA DE BELLEZA","SCOTTSDALE","AZ",85252,33.5392593010001,-111.912866282,54,"7788 E VIA DE BELLEZA, SCOTTSDALE, AZ, 85252","Match","Non_Exact","7788 E VIA DE BELLEZA, SCOTTSDALE, AZ, 85258",643582207,"L"
859055,"7788 EMBASSY BLVD","MIRAMAR","FL",33023,25.9771392430001,-80.241450642,55,"7788 EMBASSY BLVD, MIRAMAR, FL, 33023","Match","Exact","7788 EMBASSY BLVD, MIRAMAR, FL, 33023",114734134,"L"
859056,"7788 LEGARE ROAD","EDISTO ISLAND","SC",29438,NA,NA,56,"7788 LEGARE ROAD, EDISTO ISLAND, SC, 29438","No_Match",NA,NA,NA,NA
859057,"7788 OLD GLASGOW ROAD","SCOTTSVILLE","KY",42164,36.8272313100001,-86.106409689,57,"7788 OLD GLASGOW ROAD, SCOTTSVILLE, KY, 42164","Match","Exact","7788 OLD GLASGOW RD, SCOTTSVILLE, KY, 42164",649869699,"R"
859058,"7788 PINTAIL DRIVE","FAYETTEVILLE","NC",28311,35.203894615,-78.8819084469999,58,"7788 PINTAIL DRIVE, FAYETTEVILLE, NC, 28311","Match","Exact","7788 PINTAIL DR, FAYETTEVILLE, NC, 28311",64230608,"R"
859059,"7788 POE ST","DETROIT","MI",48206,42.3689334790001,-83.088982634,59,"7788 POE ST, DETROIT, MI, 48206","Match","Exact","7788 POE ST, DETROIT, MI, 48206",642524832,"R"
859060,"7788 SKYLINE DR","SAN DIEGO","CA",92114,32.7023858160001,-117.032354711,60,"7788 SKYLINE DR, SAN DIEGO, CA, 92114","Match","Exact","7788 SKYLINE DR, SAN DIEGO, CA, 92114",195415321,"L"
859061,"7788 TIMBERCREST DR","HUBER HEIGHTS","OH",45424,39.8664171520001,-84.1541861059999,61,"7788 TIMBERCREST DR, HUBER HEIGHTS, OH, 45424","Match","Exact","7788 TIMBERCREST DR, HUBER HEIGHTS, OH, 45424",143628888,"R"
859062,"7789 ARUNDEL MILLS BLVD APT 250","HANOVER","MD",21076,39.1534994800001,-76.742648462,62,"7789 ARUNDEL MILLS BLVD APT 250, HANOVER, MD, 21076","Match","Exact","7789 ARUNDEL MILLS BLVD, HANOVER, MD, 21076",637910139,"R"
859063,"7789 KIANA DRIVE","COLORADO SPRINGS","CO",80908,38.9460709860001,-104.697075683,63,"7789 KIANA DRIVE, COLORADO SPRINGS, CO, 80908","Match","Exact","7789 KIANA DR, COLORADO SPRINGS, CO, 80908",643508590,"L"
859064,"7789 N STATE ROAD 57","WASHINGTON","IN",47501,38.770625749,-87.1673158629999,64,"7789 N STATE ROAD 57, WASHINGTON, IN, 47501","Match","Exact","7789 STATE RD 57, WASHINGTON, IN, 47501",32066948,"L"
859065,"7789 ORANGE PLAINS DR","SPARKS","NV",89436,39.629955001,-119.657233234,65,"7789 ORANGE PLAINS DR, SPARKS, NV, 89436","Match","Exact","7789 ORANGE PLAINS DR, SPARKS, NV, 89436",649141750,"R"
859066,"7789 POINT VICENTE COURT","JACKSONVILLE","FL",32256,30.2308964170001,-81.567113868,66,"7789 POINT VICENTE COURT, JACKSONVILLE, FL, 32256","Match","Exact","7789 POINT VICENTE CT, JACKSONVILLE, FL, 32256",83973775,"R"
859067,"7789 S 18TH ST S","Muskogee","OK",74403,35.7328030570001,-95.2493690749999,67,"7789 S 18TH ST S, Muskogee, OK, 74403","Match","Non_Exact","7789 E 18TH ST S, MUSKOGEE, OK, 74403",91936092,"R"
859068,"77899 WOLF RD","PALM DESERT","CA",92211,33.764192506,-116.306077976,68,"77899 WOLF RD, PALM DESERT, CA, 92211","Match","Exact","77899 WOLF RD, PALM DESERT, CA, 92211",195044490,"R"
859069,"778A LAFAYETTE STREET","BROOKLYN","NY",11221,40.690971292,-73.941810069,69,"778A LAFAYETTE STREET, BROOKLYN, NY, 11221","Match","Non_Exact","778 LAFAYETTE AVE, BROOKLYN, NY, 11221",59079031,"R"
859070,"779 11TH AVE","PATERSON","NJ",7514,40.920039312,-74.133242912,70,"779 11TH AVE, PATERSON, NJ, 7514","Match","Exact","779 11TH AVE, PATERSON, NJ, 07514",65266815,"L"
859071,"779 11TH AVENUE APT 4D","PATERSON","NJ",7514,40.920039312,-74.133242912,71,"779 11TH AVENUE APT 4D, PATERSON, NJ, 7514","Match","Exact","779 11TH AVE, PATERSON, NJ, 07514",65266815,"L"
859072,"779 15TH AVE E","WEST FARGO","ND",58078,46.85887812,-96.8869123329999,72,"779 15TH AVE E, WEST FARGO, ND, 58078","Match","Exact","779 15TH AVE E, WEST FARGO, ND, 58078",151453405,"L"
859073,"779 ALEXANDRIA COLONY COURT","COLUMBUS","OH",43215,39.976784035,-83.0155750599999,73,"779 ALEXANDRIA COLONY COURT, COLUMBUS, OH, 43215","Match","Exact","779 ALEXANDRIA COLONY CT, COLUMBUS, OH, 43215",135575233,"L"
859074,"779 ALPINE THISTLE DR","BROOKSVILLE","FL",34604,28.4431316000001,-82.477199335,74,"779 ALPINE THISTLE DR, BROOKSVILLE, FL, 34604","Match","Exact","779 ALPINE THISTLE DR, BROOKSVILLE, FL, 34604",646238836,"L"
859075,"779 ATWOOD ST","ATLANTA","GA",30354,NA,NA,75,"779 ATWOOD ST, ATLANTA, GA, 30354","No_Match",NA,NA,NA,NA
859076,"779 BERGEN BLVD","RIDGEFIELD","NJ",7657,40.833888103,-73.990624396,76,"779 BERGEN BLVD, RIDGEFIELD, NJ, 7657","Match","Exact","779 BERGEN BLVD, RIDGEFIELD, NJ, 07657",64429829,"L"
859077,"779 BOWLING ALLEY RD","WYALUSING","PA",18853,41.6764683310001,-76.2438480129999,77,"779 BOWLING ALLEY RD, WYALUSING, PA, 18853","Match","Exact","779 BOWLING ALLEY RD, WYALUSING, PA, 18853",649194642,"L"
859078,"779 BRIARCLIFF","ORANGE CITY","FL",32763,28.9254758880001,-81.310028867,78,"779 BRIARCLIFF, ORANGE CITY, FL, 32763","Match","Non_Exact","779 BRIARCLIFF DR, ORANGE CITY, FL, 32763",94517067,"L"
859079,"779 BROADWAY AVE","CRYSTAL LAKE","IL",60014,42.229374674,-88.34976639,79,"779 BROADWAY AVE, CRYSTAL LAKE, IL, 60014","Match","Exact","779 BROADWAY AVE, CRYSTAL LAKE, IL, 60014",119820254,"R"
859080,"779 CAMINITO FRANCISCO APT 4","CHULA VISTA","CA",91913,NA,NA,80,"779 CAMINITO FRANCISCO APT 4, CHULA VISTA, CA, 91913","No_Match",NA,NA,NA,NA
859081,"779 CARRIAGE LAKE WAY","VERO BEACH","FL",32968,27.616382183,-80.448956138,81,"779 CARRIAGE LAKE WAY, VERO BEACH, FL, 32968","Match","Exact","779 CARRIAGE LAKE WAY, VERO BEACH, FL, 32968",635996491,"R"
859082,"779 CLIFTON ROAD","ATLANTA","GA",30307,33.7751613360001,-84.329596292,82,"779 CLIFTON ROAD, ATLANTA, GA, 30307","Match","Non_Exact","779 CLIFTON RD NE, ATLANTA, GA, 30307",23365082,"R"
859083,"779 COLORADO AVE","BRIDGEPORT","CT",6604,41.177411901,-73.2151816259999,83,"779 COLORADO AVE, BRIDGEPORT, CT, 6604","Match","Exact","779 COLORADO AVE, BRIDGEPORT, CT, 06604",635938951,"L"
859084,"779 CONCOURSE VILLAGE APT 4K","BRONX","NY",10451,NA,NA,84,"779 CONCOURSE VILLAGE APT 4K, BRONX, NY, 10451","Tie",NA,NA,NA,NA
859085,"779 CONCOURSE VILLAGE EAST","BRONX","NY",10451,40.823741823,-73.919472903,85,"779 CONCOURSE VILLAGE EAST, BRONX, NY, 10451","Match","Exact","779 CONCOURSE VILLAGE E, BRONX, NY, 10451",609066116,"L"
859086,"779 COONPATH RD NW","LANCASTER","OH",43130,39.7687167990001,-82.612638455,86,"779 COONPATH RD NW, LANCASTER, OH, 43130","Match","Exact","779 COONPATH RD NW, LANCASTER, OH, 43130",37243441,"L"
859087,"779 COUNTY ROAD 185","JEMISON","AL",35085,32.9789862580001,-86.6553210819999,87,"779 COUNTY ROAD 185, JEMISON, AL, 35085","Match","Exact","779 CO RD 185, JEMISON, AL, 35085",1245044,"L"
859088,"779 CRAWFORD LANE","FAIRPLAY","CO",80421,39.227968887,-105.99488831,88,"779 CRAWFORD LANE, FAIRPLAY, CO, 80421","Match","Non_Exact","779 CRAWFORD LN, FAIRPLAY, CO, 80440",108455691,"L"
859089,"779 CRESTON ROAD","BERKELEY","CA",94708,37.899016085,-122.262638338,89,"779 CRESTON ROAD, BERKELEY, CA, 94708","Match","Exact","779 CRESTON RD, BERKELEY, CA, 94708",653150933,"L"
859090,"779 DENARDS MILL SE","MARIETTA","GA",30067,33.932252561,-84.4495159099999,90,"779 DENARDS MILL SE, MARIETTA, GA, 30067","Match","Exact","779 DENARDS ML SE, MARIETTA, GA, 30067",17241189,"R"
859091,"779 E VERSAILLES","BATON ROUGE","LA",70819,30.4561074010001,-91.020852642,91,"779 E VERSAILLES, BATON ROUGE, LA, 70819","Match","Non_Exact","779 E VERSAILLES DR, BATON ROUGE, LA, 70819",92194366,"L"
859092,"779 FLOWERS CROSSING","LAWRENCEVILLE","GA",30044,33.9065975560001,-84.031239877,92,"779 FLOWERS CROSSING, LAWRENCEVILLE, GA, 30044","Match","Exact","779 FLOWERS CROSSING, LAWRENCEVILLE, GA, 30044",88904113,"L"
859093,"779 GEORGE STREET","TROUTMAN","NC",28166,35.690023168,-80.895428393,93,"779 GEORGE STREET, TROUTMAN, NC, 28166","Match","Non_Exact","779 GEORGIE ST, TROUTMAN, NC, 28166",46021534,"L"
859094,"779 GEORGIE STREET","TROUTMAN","NC",28166,35.690023168,-80.895428393,94,"779 GEORGIE STREET, TROUTMAN, NC, 28166","Match","Exact","779 GEORGIE ST, TROUTMAN, NC, 28166",46021534,"L"
859095,"779 GLENHURST ROAD","WILLOWICK","OH",44095,41.6325004290001,-81.457640968,95,"779 GLENHURST ROAD, WILLOWICK, OH, 44095","Match","Exact","779 GLENHURST RD, WILLOWICK, OH, 44095",137460115,"L"
859096,"779 HAIRETOWN RD","JONESBOROUGH","TN",37659,36.327871239,-82.493479494,96,"779 HAIRETOWN RD, JONESBOROUGH, TN, 37659","Match","Exact","779 HAIRETOWN RD, JONESBOROUGH, TN, 37659",635559238,"L"
859097,"779 HAWKS POINTE LANE","CLINTON","IA",52732,41.897547027,-90.196456626,97,"779 HAWKS POINTE LANE, CLINTON, IA, 52732","Match","Exact","779 HAWKS POINTE LN, CLINTON, IA, 52732",16815343,"R"
859098,"779 HIGH STREET","CALIFORNIA","PA",15419,40.059966795,-79.8885845409999,98,"779 HIGH STREET, CALIFORNIA, PA, 15419","Match","Exact","779 HIGH ST, CALIFORNIA, PA, 15419",641810784,"L"
859099,"779 HOBART PLACE NW","WASHINGTON","DC",20001,38.9274186580001,-77.025260513,99,"779 HOBART PLACE NW, WASHINGTON, DC, 20001","Match","Exact","779 HOBART PL NW, WASHINGTON, DC, 20001",76224187,"R"
859100,"779 HOMEWORTH ROAD","ALLIANCE","OH",44601,40.889822791,-81.077616647,100,"779 HOMEWORTH ROAD, ALLIANCE, OH, 44601","Match","Exact","779 HOMEWORTH RD, ALLIANCE, OH, 44601",63660933,"L"
859101,"779 HUYBERT PLACE 204","VIRGINIA BEACH","VA",23462,36.8652637540001,-76.1731305549999,101,"779 HUYBERT PLACE 204, VIRGINIA BEACH, VA, 23462","Match","Exact","779 HUYBERT PL, VA BCH, VA, 23462",122292558,"R"
859102,"779 JASON AVE","AKRON","OH",44314,41.0544139620001,-81.554693549,102,"779 JASON AVE, AKRON, OH, 44314","Match","Exact","779 JASON AVE, AKRON, OH, 44314",61343807,"R"
859103,"779 JOHN CARROLL LN","WEST MELBOURNE","FL",32904,28.0624972740001,-80.650602078,103,"779 JOHN CARROLL LN, WEST MELBOURNE, FL, 32904","Match","Exact","779 JOHN CARROLL LN, W MELBOURNE, FL, 32904",650536921,"L"
859104,"779 LAKE REGION RD","ORLEANS","VT",5860,44.789440535,-72.2237825839999,104,"779 LAKE REGION RD, ORLEANS, VT, 5860","Match","Exact","779 LAKE REGION RD, ORLEANS, VT, 05860",648425564,"L"
859105,"779 LIVINGSTON AVENUE","VENTURA","CA",93003,34.2677704230001,-119.221267675,105,"779 LIVINGSTON AVENUE, VENTURA, CA, 93003","Match","Exact","779 LIVINGSTON AVE, VENTURA, CA, 93003",110107608,"R"
859106,"779 LOCUST ST","LAWRENCE","KS",66044,38.9778448640001,-95.2203941779999,106,"779 LOCUST ST, LAWRENCE, KS, 66044","Match","Exact","779 LOCUST ST, LAWRENCE, KS, 66044",17685487,"L"
859107,"779 MASSACHUSETTS AVE","LUNENBURG","MA",1462,42.5975749670001,-71.733765584,107,"779 MASSACHUSETTS AVE, LUNENBURG, MA, 1462","Match","Exact","779 MASSACHUSETTS AVE, LUNENBURG, MA, 01462",624163695,"L"
859108,"779 MCCOY ROAD","FRANKLIN LAKES","NJ",7417,41.0120602370001,-74.229033076,108,"779 MCCOY ROAD, FRANKLIN LAKES, NJ, 7417","Match","Exact","779 MCCOY RD, FRANKLIN LAKES, NJ, 07417",64400955,"L"
859109,"779 MICHIE LANE","MIDWAY","UT",84049,NA,NA,109,"779 MICHIE LANE, MIDWAY, UT, 84049","No_Match",NA,NA,NA,NA
859110,"779 MILLER ISLAND ROAD","KLAMATH FALLS","OR",97603,42.155031561,-121.782608136,110,"779 MILLER ISLAND ROAD, KLAMATH FALLS, OR, 97603","Match","Exact","779 MILLER ISLAND RD, KLAMATH FALLS, OR, 97603",614550136,"R"
859111,"779 NW I STREET","TOLEDO","OR",97391,44.624876855,-123.947110425,111,"779 NW I STREET, TOLEDO, OR, 97391","Match","Exact","779 NW I ST, TOLEDO, OR, 97391",155942402,"L"
859112,"779 OXEN ST","PASO ROBLES","CA",93446,35.607587348,-120.673628343,112,"779 OXEN ST, PASO ROBLES, CA, 93446","Match","Exact","779 OXEN ST, PASO ROBLES, CA, 93446",109858188,"L"
859113,"779 PENNY BRANCH ROAD","WARSAW","NC",28398,35.0046848330001,-78.1146559919999,113,"779 PENNY BRANCH ROAD, WARSAW, NC, 28398","Match","Exact","779 PENNY BRANCH RD, WARSAW, NC, 28398",13438790,"R"
859114,"779 PIT COURT","LUXEMBURG","WI",54217,44.7096226680001,-87.660916307,114,"779 PIT COURT, LUXEMBURG, WI, 54217","Match","Exact","779 PIT CT, LUXEMBURG, WI, 54217",167258818,"L"
859115,"779 PONCE DE LEON PLACE","ATLANTA","GA",30306,33.7759006640001,-84.363683282,115,"779 PONCE DE LEON PLACE, ATLANTA, GA, 30306","Match","Non_Exact","779 PONCE DE LEON PL NE, ATLANTA, GA, 30306",17356996,"R"
859116,"779 PROSPECT AVE  C-1","WEST HARTFORD","CT",6105,41.771537015,-72.71619473,116,"779 PROSPECT AVE  C-1, WEST HARTFORD, CT, 6105","Match","Exact","779 PROSPECT AVE, WEST HARTFORD, CT, 06105",617510592,"L"
859117,"779 READING","MASON","OH",45040,39.348641345,-84.326204892,117,"779 READING, MASON, OH, 45040","Match","Non_Exact","779 READING RD, MASON, OH, 45040",641179281,"R"
859118,"779 RIVERSIDE DR C12","NEW YORK","NY",10032,40.8346288330001,-73.947508668,118,"779 RIVERSIDE DR C12, NEW YORK, NY, 10032","Match","Exact","779 RIVERSIDE DR, NEW YORK, NY, 10032",640811292,"L"
859119,"779 ROANOKE STREET","MEMPHIS","TN",38106,35.110057768,-90.0370688949999,119,"779 ROANOKE STREET, MEMPHIS, TN, 38106","Match","Non_Exact","779 ROANOKE AVE, MEMPHIS, TN, 38106",72907861,"R"
859120,"779 ROCKY HOLLOW ROAD","CHARLOTTESVILLE","VA",22911,38.057651219,-78.4298987,120,"779 ROCKY HOLLOW ROAD, CHARLOTTESVILLE, VA, 22911","Match","Exact","779 ROCKY HOLLOW RD, CHARLOTTESVILLE, VA, 22911",83385864,"R"
859121,"779 S CODY LOOP RD","ORACLE","AZ",85623,32.5927464660001,-110.749633197,121,"779 S CODY LOOP RD, ORACLE, AZ, 85623","Match","Exact","779 CODY LOOP RD, ORACLE, AZ, 85623",129269268,"R"
859122,"779 SHAWNEE DRIVE","BUCKHANNON","WV",26201,38.978285591,-80.2393269199999,122,"779 SHAWNEE DRIVE, BUCKHANNON, WV, 26201","Match","Exact","779 SHAWNEE DR, BUCKHANNON, WV, 26201",611597952,"R"
859123,"779 STATE ROUTE 261","BOONVILLE","IN",47601,NA,NA,123,"779 STATE ROUTE 261, BOONVILLE, IN, 47601","No_Match",NA,NA,NA,NA
859124,"779 SUNSHINE DRIVE","LOS ALTOS","CA",94024,37.3772833990001,-122.094111894,124,"779 SUNSHINE DRIVE, LOS ALTOS, CA, 94024","Match","Exact","779 SUNSHINE DR, LOS ALTOS, CA, 94024",122954543,"L"
859125,"779 TEXAS HOLLOW RD","MIFFLINTOWN","PA",17059,40.5603324850001,-77.302996133,125,"779 TEXAS HOLLOW RD, MIFFLINTOWN, PA, 17059","Match","Exact","779 TEXAS HOLLOW RD, MIFFLINTOWN, PA, 17059",627038376,"L"
859126,"779 VILAS STREET","LEAVENWORTH","KS",66048,39.2906588760001,-94.9230078049999,126,"779 VILAS STREET, LEAVENWORTH, KS, 66048","Match","Exact","779 VILAS ST, LEAVENWORTH, KS, 66048",91402433,"L"
859127,"779 W DEEP CREEK ROAD","BRYSON CITY","NC",28713,35.444137938,-83.4430721579999,127,"779 W DEEP CREEK ROAD, BRYSON CITY, NC, 28713","Match","Exact","779 W DEEP CREEK RD, BRYSON CITY, NC, 28713",36125992,"L"
859128,"779 W END AVE","CLIFFSIDE PK","NJ",7010,40.833250429,-73.989076185,128,"779 W END AVE, CLIFFSIDE PK, NJ, 7010","Match","Exact","779 W END AVE, CLIFFSIDE PARK, NJ, 07010",64391099,"L"
859129,"779 W SOUTHLAWN BLVD","BIRMINGHAM","MI",48009,42.5338426590001,-83.222559577,129,"779 W SOUTHLAWN BLVD, BIRMINGHAM, MI, 48009","Match","Exact","779 W SOUTHLAWN BLVD, BIRMINGHAM, MI, 48009",69735439,"L"
859130,"779 W VINEYARD PLAINS","SAN TAN VALLEY","AZ",85143,33.1863795720001,-111.574756208,130,"779 W VINEYARD PLAINS, SAN TAN VALLEY, AZ, 85143","Match","Non_Exact","779 VINEYARD PLAINS DR, SAN TAN VALLEY, AZ, 85143",633479851,"R"
859131,"779 WEST 4050 NORTH","PLEASANT VIEW","UT",84414,41.3317406620001,-111.990608435,131,"779 WEST 4050 NORTH, PLEASANT VIEW, UT, 84414","Match","Exact","779 W 4050 N, PLEASANT VIEW, UT, 84414",639951488,"R"
859132,"779 WEST DEEP CREEK RD","BRYSON CITY","NC",28713,35.444117502,-83.44307614,132,"779 WEST DEEP CREEK RD, BRYSON CITY, NC, 28713","Match","Exact","779 W DEEP CREEK RD, BRYSON CITY, NC, 28713",36125992,"L"
859133,"779 WEST MCAULEY DRIVE","WEST MEMPHIS","AR",72301,35.1550584400001,-90.172944001,133,"779 WEST MCAULEY DRIVE, WEST MEMPHIS, AR, 72301","Match","Exact","779 W MCAULEY DR, WEST MEMPHIS, AR, 72301",69372617,"L"
859134,"779 WESTBROOKE DR","SOUTH LYON","MI",48178,42.4524345340001,-83.641994606,134,"779 WESTBROOKE DR, SOUTH LYON, MI, 48178","Match","Exact","779 WESTBROOKE DR, SOUTH LYON, MI, 48178",69783981,"L"
859135,"779 WISEMAN RD","MARSHFIELD","MO",65706,37.3567094140001,-93.060139077,135,"779 WISEMAN RD, MARSHFIELD, MO, 65706","Match","Exact","779 WISEMAN RD, MARSHFIELD, MO, 65706",649584856,"R"
859136,"779 ZETUS RD NW","BROOKHAVEN","MS",39601,31.5624378730001,-90.492185824,136,"779 ZETUS RD NW, BROOKHAVEN, MS, 39601","Match","Exact","779 ZETUS RD NW, BROOKHAVEN, MS, 39601",617487382,"R"
859137,"7790 18TH STREET NORTH","OAKDALE","MN",55128,44.975486419,-92.948317489,137,"7790 18TH STREET NORTH, OAKDALE, MN, 55128","Match","Exact","7790 18TH ST N, OAKDALE, MN, 55128",97798554,"L"
859138,"7790 COOKE CAYNON ROAD","ELLENSBURG","WA",98926,47.1124295880001,-120.373429093,138,"7790 COOKE CAYNON ROAD, ELLENSBURG, WA, 98926","Match","Non_Exact","7790 COOKE CANYON RD, ELLENSBURG, WA, 98926",157222796,"L"
859139,"7790 GREEN MEADOW LAKE CIRCLE","WINSTON SALEM","NC",27106,NA,NA,139,"7790 GREEN MEADOW LAKE CIRCLE, WINSTON SALEM, NC, 27106","No_Match",NA,NA,NA,NA
859140,"7790 HOLTON RD","HOLTON","MI",49425,43.3954049650001,-86.1004758179999,140,"7790 HOLTON RD, HOLTON, MI, 49425","Match","Exact","7790 HOLTON RD, HOLTON, MI, 49425",633201604,"R"
859141,"7790 LAGO DEL MAR DR STE 907","BOCA RATON","FL",33433,26.3441981550001,-80.166044668,141,"7790 LAGO DEL MAR DR STE 907, BOCA RATON, FL, 33433","Match","Exact","7790 LAGO DEL MAR DR, BOCA RATON, FL, 33433",115484769,"R"
859142,"7790 LAGRANGE ROAD","SMITHFIELD","KY",40068,NA,NA,142,"7790 LAGRANGE ROAD, SMITHFIELD, KY, 40068","No_Match",NA,NA,NA,NA
859143,"7790 LEEWARD COVE CT","CUMMING","GA",30041,34.214675302,-84.046659381,143,"7790 LEEWARD COVE CT, CUMMING, GA, 30041","Match","Exact","7790 LEEWARD COVE, CUMMING, GA, 30041",629757151,"R"
859144,"7790 NE 184TH TERRACE","WILLISTON","FL",32696,29.446250369,-82.468080459,144,"7790 NE 184TH TERRACE, WILLISTON, FL, 32696","Match","Exact","7790 NE 184TH TER, WILLISTON, FL, 32696",43332584,"L"
859145,"7790 ROSEWOOD LN","WEST BLOOMFIELD","MI",48323,42.5671776240001,-83.4338075269999,145,"7790 ROSEWOOD LN, WEST BLOOMFIELD, MI, 48323","Match","Exact","7790 ROSEWOOD LN, W BLOOMFIELD, MI, 48323",69799619,"L"
859146,"7790 SAN ANSELMO ST","BEAUMONT","TX",77708,30.1502923050001,-94.1895397549999,146,"7790 SAN ANSELMO ST, BEAUMONT, TX, 77708","Match","Exact","7790 SAN ANSELMO ST, BEAUMONT, TX, 77708",73849313,"R"
859147,"7790 SW GEARHART DRIVE","BEAVERTON","OR",97007,45.463712705,-122.834240216,147,"7790 SW GEARHART DRIVE, BEAVERTON, OR, 97007","Match","Exact","7790 SW GEARHART DR, BEAVERTON, OR, 97007",158222743,"R"
859148,"7790 TANGIER DR","SPRINGFIELD","VA",22153,38.746850093,-77.214259313,148,"7790 TANGIER DR, SPRINGFIELD, VA, 22153","Match","Exact","7790 TANGIER DR, SPRINGFIELD, VA, 22153",75977243,"L"
859149,"7790 W EMERSON DR","KIRKLAND","AZ",86332,34.4258779620001,-112.599226437,149,"7790 W EMERSON DR, KIRKLAND, AZ, 86332","Match","Exact","7790 EMERSON DR, KIRKLAND, AZ, 86332",647941239,"L"
859150,"77900 MICHIGAN DRIVE C7","PALM DESERT","CA",92211,33.74228307,-116.306654175,150,"77900 MICHIGAN DRIVE C7, PALM DESERT, CA, 92211","Match","Exact","77900 MICHIGAN DR, PALM DESERT, CA, 92211",195075873,"L"
859151,"77903 CHISHOLM TRAIL DR","COTTAGE GROVE","OR",97424,43.7726065310001,-123.039590162,151,"77903 CHISHOLM TRAIL DR, COTTAGE GROVE, OR, 97424","Match","Non_Exact","77903 CHISHOLM TRAIL RD, COTTAGE GROVE, OR, 97424",178229792,"L"
859152,"7791 BITTERROOT LANE","CINCINNATI","OH",45224,39.2133796900001,-84.5334975,152,"7791 BITTERROOT LANE, CINCINNATI, OH, 45224","Match","Non_Exact","7791 BITTEROOT LN, CINCINNATI, OH, 45224",103921207,"L"
859153,"7791 GRUNDY ST","PENSACOLA","FL",32507,30.381375496,-87.3179645009999,153,"7791 GRUNDY ST, PENSACOLA, FL, 32507","Match","Exact","7791 GRUNDY ST, PENSACOLA, FL, 32507",93233645,"L"
859154,"7791 HALL BLVD","LOXAHATCHEE","FL",33470,26.7927079130001,-80.277760938,154,"7791 HALL BLVD, LOXAHATCHEE, FL, 33470","Match","Exact","7791 HALL BLVD, LOXAHATCHEE, FL, 33470",115244397,"L"
859155,"7791 N ASH POINT CIR","EAGLE MOUNTAIN","UT",84005,40.358501646,-111.987091319,155,"7791 N ASH POINT CIR, EAGLE MOUNTAIN, UT, 84005","Match","Exact","7791 ASH POINT CIR, EAGLE MOUNTAIN, UT, 84005",642864935,"L"
859156,"7791 NW 46TH STREET","DORAL","FL",33166,NA,NA,156,"7791 NW 46TH STREET, DORAL, FL, 33166","No_Match",NA,NA,NA,NA
859157,"7791 PACIFIC CIRCLE","MIDWAY CITY","CA",92655,33.7422754770001,-117.992405965,157,"7791 PACIFIC CIRCLE, MIDWAY CITY, CA, 92655","Match","Exact","7791 PACIFIC CIR, MIDWAY CITY, CA, 92655",144263772,"R"
859158,"7791 REFLECTION COVE DR APT 207","FORT MYERS","FL",33907,26.5425495490001,-81.884704143,158,"7791 REFLECTION COVE DR APT 207, FORT MYERS, FL, 33907","Match","Exact","7791 REFLECTION COVE DR, FORT MYERS, FL, 33907",618928935,"R"
859159,"7791 STAFFORD RD","GREENFIELD","OH",45123,39.4115787590001,-83.494467618,159,"7791 STAFFORD RD, GREENFIELD, OH, 45123","Match","Non_Exact","7791 STAFFORD RD SW, GREENFIELD, OH, 45123",119062689,"R"
859160,"7791 STONEHAVEN SE","ADA","MI",49301,42.9042458210001,-85.4751058639999,160,"7791 STONEHAVEN SE, ADA, MI, 49301","Match","Non_Exact","7791 STONEHAVEN DR SE, ADA, MI, 49301",12474963,"L"
859161,"7791 SW 68 TERRACE","MIAMI","FL",33143,25.7060860660001,-80.3211605129999,161,"7791 SW 68 TERRACE, MIAMI, FL, 33143","Match","Exact","7791 SW 68TH TER, MIAMI, FL, 33143",115977090,"R"
859162,"7791 TROTTERS PARK ST","YPSILANTI","MI",48197,42.1834899630001,-83.605180447,162,"7791 TROTTERS PARK ST, YPSILANTI, MI, 48197","Match","Exact","7791 TROTTERS PARK ST, YPSILANTI, MI, 48197",636264235,"R"
859163,"77910 ALSTON MAYGER","RAINIER","OR",97048,46.128510954,-123.048064892,163,"77910 ALSTON MAYGER, RAINIER, OR, 97048","Match","Non_Exact","77910 ALSTON MAYGER RD, RAINIER, OR, 97048",606172950,"R"
859164,"7792 BLUEBERRY HILL LANE","ELLICOTT CITY","MD",21043,39.1988413340001,-76.7820536949999,164,"7792 BLUEBERRY HILL LANE, ELLICOTT CITY, MD, 21043","Match","Exact","7792 BLUEBERRY HILL LN, ELLICOTT CITY, MD, 21043",158965431,"L"
859165,"7792 C ST","CHESAPEAKE BEACH","MD",20732,38.6887200730001,-76.534769269,165,"7792 C ST, CHESAPEAKE BEACH, MD, 20732","Match","Exact","7792 C ST, CHESAPEAKE BEACH, MD, 20732",78178227,"L"
859166,"7792 COUNTRY PLACE ROAD","WINTER PARK","FL",32789,28.614005064,-81.280770057,166,"7792 COUNTRY PLACE ROAD, WINTER PARK, FL, 32789","Match","Non_Exact","7792 COUNTRY PL, WINTER PARK, FL, 32792",642153070,"L"
859167,"7792 DOUG HILL CT","SAN DIEGO","CA",92127,32.9868707970001,-117.158147336,167,"7792 DOUG HILL CT, SAN DIEGO, CA, 92127","Match","Exact","7792 DOUG HILL CT, SAN DIEGO, CA, 92127",618753438,"R"
859168,"7792 E BERKELEY RD","DENVER","NC",28037,35.4794430850001,-81.003086162,168,"7792 E BERKELEY RD, DENVER, NC, 28037","Match","Exact","7792 E BERKELEY RD, DENVER, NC, 28037",639878283,"L"
859169,"7792 E TEA PARTY DR","NAMPA","ID",83687,43.615832803,-116.54885125,169,"7792 E TEA PARTY DR, NAMPA, ID, 83687","Match","Exact","7792 TEA PARTY DR, NAMPA, ID, 83687",652114535,"L"
859170,"7792 HICKORY MEADOW","MILLINGTON","TN",38053,35.339197187,-89.9173164009999,170,"7792 HICKORY MEADOW, MILLINGTON, TN, 38053","Match","Non_Exact","7792 HICKORY MEADOW RD, MILLINGTON, TN, 38053",72897656,"R"
859171,"7792 HWY 79","HAYNESVILLE","LA",71038,32.8987708720001,-93.0804887049999,171,"7792 HWY 79, HAYNESVILLE, LA, 71038","Match","Non_Exact","7792 US HWY 79, HAYNESVILLE, LA, 71038",605882033,"R"
859172,"7792 JEWETT HOLMWOOD","ORCHARD PARK","NY",14127,42.752682576,-78.701527163,172,"7792 JEWETT HOLMWOOD, ORCHARD PARK, NY, 14127","Match","Non_Exact","7792 JEWETT HOLMWOOD RD, ORCHARD PARK, NY, 14127",48311581,"L"
859173,"7792 JEWETT-HOLMWOOD ROAD","ORCHARD PARK","NY",14127,42.752682576,-78.701527163,173,"7792 JEWETT-HOLMWOOD ROAD, ORCHARD PARK, NY, 14127","Match","Non_Exact","7792 JEWETT HOLMWOOD RD, ORCHARD PARK, NY, 14127",48311581,"L"
859174,"7792 RONALD DR","HUNTINGTON BEACH","CA",92647,33.703590304,-117.991315709,174,"7792 RONALD DR, HUNTINGTON BEACH, CA, 92647","Match","Non_Exact","7792 RONALD RD, HUNTINGTON BEACH, CA, 92647",651723378,"R"
859175,"7792 TREE LAKE BLVD","POWELL","OH",43065,40.192433705,-83.119104522,175,"7792 TREE LAKE BLVD, POWELL, OH, 43065","Match","Exact","7792 TREE LAKE BLVD, POWELL, OH, 43065",213001451,"R"
859176,"7792 TUMBLING CREEK DRIVE","MILLINGTON","TN",38053,35.339699834,-89.915514963,176,"7792 TUMBLING CREEK DRIVE, MILLINGTON, TN, 38053","Match","Exact","7792 TUMBLING CREEK DR, MILLINGTON, TN, 38053",72955924,"R"
859177,"7793 HIGHWAY 6 EAST","KELLOGG","IA",50135,41.7027709910001,-92.955774386,177,"7793 HIGHWAY 6 EAST, KELLOGG, IA, 50135","Match","Non_Exact","7793 US HWY 6 E, KELLOGG, IA, 50135",89418500,"L"
859178,"7793 HORSESHOE BEND","LITHONIA","GA",30058,33.773037217,-84.070006356,178,"7793 HORSESHOE BEND, LITHONIA, GA, 30058","Match","Exact","7793 HORSESHOE BEND, LITHONIA, GA, 30058",23375549,"R"
859179,"7793 HOSRESHOE BEND","LITHONIA","GA",30058,NA,NA,179,"7793 HOSRESHOE BEND, LITHONIA, GA, 30058","No_Match",NA,NA,NA,NA
859180,"7793 LA MONICA STREET","HIGHLAND","CA",92346,NA,NA,180,"7793 LA MONICA STREET, HIGHLAND, CA, 92346","No_Match",NA,NA,NA,NA
859181,"7793 LAKEVIEW LN NE","SPRING LAKE PARK","MN",55432,45.110418259,-93.237079132,181,"7793 LAKEVIEW LN NE, SPRING LAKE PARK, MN, 55432","Match","Exact","7793 LAKEVIEW LN NE, SPRING LAKE PARK, MN, 55432",645488212,"R"
859182,"7793 LEANING PINE COURT","MIDLAND","GA",31820,32.555574549,-84.822521149,182,"7793 LEANING PINE COURT, MIDLAND, GA, 31820","Match","Exact","7793 LEANING PINE CT, MIDLAND, GA, 31820",644922469,"L"
859183,"7793 NASHVILLE STREET","RINGGOLD","GA",30736,34.9159096020001,-85.109914138,183,"7793 NASHVILLE STREET, RINGGOLD, GA, 30736","Match","Exact","7793 NASHVILLE ST, RINGGOLD, GA, 30736",66688136,"R"
859184,"7793 RANGER CREEK ROAD","BOERNE","TX",78006,29.8150582430001,-98.8744640359999,184,"7793 RANGER CREEK ROAD, BOERNE, TX, 78006","Match","Exact","7793 RANGER CREEK RD, BOERNE, TX, 78006",636522283,"R"
859185,"7793 RICHMOND ROAD","TOANO","VA",23168,37.3774767900001,-76.799266437,185,"7793 RICHMOND ROAD, TOANO, VA, 23168","Match","Exact","7793 RICHMOND RD, TOANO, VA, 23168",635863174,"R"
859186,"7793 S J STOCK ROAD","TUCSON","AZ",85746,32.1099642680001,-110.980056903,186,"7793 S J STOCK ROAD, TUCSON, AZ, 85746","Match","Exact","7793 S J STOCK RD, TUCSON, AZ, 85746",618218726,"L"
859187,"77936 RUTTERS ROAD","CLATSKANIE","OR",97016,46.126757647,-123.16061664,187,"77936 RUTTERS ROAD, CLATSKANIE, OR, 97016","Match","Exact","77936 RUTTERS RD, CLATSKANIE, OR, 97016",158088378,"R"
859188,"7794 EAGLE CREEK","KIRTLAND","OH",44094,NA,NA,188,"7794 EAGLE CREEK, KIRTLAND, OH, 44094","Tie",NA,NA,NA,NA
859189,"7794 HARBOR MASTER COURT","DENVER","NC",28037,35.466281258,-80.991175939,189,"7794 HARBOR MASTER COURT, DENVER, NC, 28037","Match","Exact","7794 HARBOR MASTER CT, DENVER, NC, 28037",624507670,"R"
859190,"7794 HARBOR MASTER CT","DENVER","NC",28037,35.466281258,-80.991175939,190,"7794 HARBOR MASTER CT, DENVER, NC, 28037","Match","Exact","7794 HARBOR MASTER CT, DENVER, NC, 28037",624507670,"R"
859191,"7794 JOSHUA ROAD","JURUPA VALLEY","CA",92509,34.0091076080001,-117.453627749,191,"7794 JOSHUA ROAD, JURUPA VALLEY, CA, 92509","Match","Exact","7794 JOSHUA RD, JURUPA VALLEY, CA, 92509",646287845,"R"
859192,"7794 MORGANTON ROAD","GREENBACK","TN",37742,NA,NA,192,"7794 MORGANTON ROAD, GREENBACK, TN, 37742","No_Match",NA,NA,NA,NA
859193,"7794 RUSHING OAKS DRIVE","BILOXI","MS",39532,30.502357599,-88.962298769,193,"7794 RUSHING OAKS DRIVE, BILOXI, MS, 39532","Match","Exact","7794 RUSHING OAKS DR, BILOXI, MS, 39532",111415797,"L"
859194,"7794 SAINT JAMES DRIVE","MENTOR","OH",44060,41.6925901280001,-81.3612545239999,194,"7794 SAINT JAMES DRIVE, MENTOR, OH, 44060","Match","Exact","7794 SAINT JAMES DR, MENTOR, OH, 44060",137461899,"L"
859195,"7794 SILVER BIRCH DR","COLORADO SPRINGS","CO",80927,38.9291850820001,-104.680209842,195,"7794 SILVER BIRCH DR, COLORADO SPRINGS, CO, 80927","Match","Exact","7794 SILVER BIRCH DR, COLORADO SPRINGS, CO, 80927",637576994,"R"
859196,"7794 SOUTH COMBS ROAD","MERCED","CA",95341,37.175033608,-120.546224611,196,"7794 SOUTH COMBS ROAD, MERCED, CA, 95341","Match","Exact","7794 S COMBS RD, MERCED, CA, 95341",125346210,"R"
859197,"7794 SOUTH COMBS ROAD","WINTON","CA",95388,NA,NA,197,"7794 SOUTH COMBS ROAD, WINTON, CA, 95388","No_Match",NA,NA,NA,NA
859198,"7794 SWANSONG CIRCLE","MAINEVILLE","OH",45039,39.320064518,-84.19938193,198,"7794 SWANSONG CIRCLE, MAINEVILLE, OH, 45039","Match","Exact","7794 SWANSONG CIR, MAINEVILLE, OH, 45039",159036029,"R"
859199,"7794 THORNAPPLE CLUB DR","ADA","MI",49301,42.9465335370001,-85.475765188,199,"7794 THORNAPPLE CLUB DR, ADA, MI, 49301","Match","Non_Exact","7794 THORNAPPLE CLUB DR SE, ADA, MI, 49301",616676112,"L"
859200,"7794 W 39TH AVE","WHEAT RIDGE","CO",80033,39.7711661290001,-105.083349978,200,"7794 W 39TH AVE, WHEAT RIDGE, CO, 80033","Match","Exact","7794 W 39TH AVE, WHEAT RIDGE, CO, 80033",177290107,"L"
859201,"7794 YUCCA LANE NORTH","MAPLE GROVE","MN",55311,45.096580042,-93.453057455,201,"7794 YUCCA LANE NORTH, MAPLE GROVE, MN, 55311","Match","Exact","7794 YUCCA LN N, MAPLE GROVE, MN, 55311",43815411,"R"
859202,"7795 BERMUDA ROAD","LAS VEGAS","NV",89123,36.0479230440001,-115.154386723,202,"7795 BERMUDA ROAD, LAS VEGAS, NV, 89123","Match","Exact","7795 BERMUDA RD, LAS VEGAS, NV, 89123",627339569,"R"
859203,"7795 CO RD 47","SAINT CLOUD","MN",56301,45.4720351820001,-94.270784906,203,"7795 CO RD 47, SAINT CLOUD, MN, 56301","Match","Exact","7795 CO RD 47, SAINT CLOUD, MN, 56301",612015863,"R"
859204,"7795 E MCGEE MOUNTAIN ROAD","TUCSON","AZ",85750,32.293218913,-110.825754295,204,"7795 E MCGEE MOUNTAIN ROAD, TUCSON, AZ, 85750","Match","Exact","7795 E MCGEE MOUNTAIN RD, TUCSON, AZ, 85750",121413027,"L"
859205,"7795 E NEW CUT ROAD","SCOTTSBURG","IN",47170,38.691971197,-85.9630792459999,205,"7795 E NEW CUT ROAD, SCOTTSBURG, IN, 47170","Match","Exact","7795 E NEW CUT RD, SCOTTSBURG, IN, 47170",647653165,"R"
859206,"7795 EASTON AVE","ORWELL","OH",44076,41.5364091770001,-80.8546864799999,206,"7795 EASTON AVE, ORWELL, OH, 44076","Match","Non_Exact","7795 EASTON RD, ORWELL, OH, 44076",117322087,"L"
859207,"7795 FOREST RIDGE DR","BREMERTON","WA",98311,47.633837698,-122.625414309,207,"7795 FOREST RIDGE DR, BREMERTON, WA, 98311","Match","Non_Exact","7795 NE FOREST RIDGE DR, BREMERTON, WA, 98311",187640619,"L"
859208,"7795 HARP TREE ST","LAS VEGAS","NV",89139,36.0477359500001,-115.221471072,208,"7795 HARP TREE ST, LAS VEGAS, NV, 89139","Match","Exact","7795 HARP TREE ST, LAS VEGAS, NV, 89139",632848752,"R"
859209,"7795 HIGH MAPLE CIRCLE","N CHARLESTON","SC",29418,32.915277777,-80.084926018,209,"7795 HIGH MAPLE CIRCLE, N CHARLESTON, SC, 29418","Match","Exact","7795 HIGH MAPLE CIR, N CHARLESTON, SC, 29418",630122772,"L"
859210,"7795 HUGHES GLEN COVE","MEMPHIS","TN",38125,35.028613394,-89.8030137059999,210,"7795 HUGHES GLEN COVE, MEMPHIS, TN, 38125","Match","Exact","7795 HUGHES GLEN COVE, MEMPHIS, TN, 38125",72960475,"L"
859211,"7795 INVERNESS DR","NEWARK","CA",94560,37.536174427,-122.056363293,211,"7795 INVERNESS DR, NEWARK, CA, 94560","Match","Exact","7795 INVERNESS DR, NEWARK, CA, 94560",125027120,"R"
859212,"7795 N SWEET RIVER CT","COEUR D ALENE","ID",83815,47.7414765440001,-116.798349901,212,"7795 N SWEET RIVER CT, COEUR D ALENE, ID, 83815","Match","Exact","7795 N SWEET RIVER CT, COEUR D ALENE, ID, 83815",192933834,"L"
859213,"7795 TWIN LAKES ROAD","MANSON","IA",50563,42.485239075,-94.635588405,213,"7795 TWIN LAKES ROAD, MANSON, IA, 50563","Match","Exact","7795 TWIN LAKES RD, MANSON, IA, 50563",647835930,"R"
859214,"7795 W FLAGLER ST SUITE42","MIAMI","FL",33144,25.769841575,-80.3241320509999,214,"7795 W FLAGLER ST SUITE42, MIAMI, FL, 33144","Match","Non_Exact","7795 W FLAGLER ST, MIAMI, FL, 33144",115974372,"R"
859215,"7795 W ROSADA WAY","LAS VEGAS","NV",89149,36.253580191,-115.264885715,215,"7795 W ROSADA WAY, LAS VEGAS, NV, 89149","Match","Exact","7795 W ROSADA WAY, LAS VEGAS, NV, 89149",201934835,"L"
859216,"77950 CAPAC RD","ARMADA","MI",48004,42.8717501130001,-82.945118405,216,"77950 CAPAC RD, ARMADA, MI, 48004","Match","Non_Exact","77950 CAPAC RD, ARMADA, MI, 48005",110655523,"R"
859217,"7796 COACHLIGHT DR","PINE BLUFF","AR",71603,34.1427718800001,-92.0350615469999,217,"7796 COACHLIGHT DR, PINE BLUFF, AR, 71603","Match","Exact","7796 COACHLIGHT DR, PINE BLUFF, AR, 71603",2554211,"L"
859218,"7796 COACHLIGHT DRIVE","PINE BLUFF","AR",71603,34.1427718800001,-92.0350615469999,218,"7796 COACHLIGHT DRIVE, PINE BLUFF, AR, 71603","Match","Exact","7796 COACHLIGHT DR, PINE BLUFF, AR, 71603",2554211,"L"
859219,"7796 ORCHARD VILLAGE DR","INDIANAPOLIS","IN",46217,39.6535480430001,-86.162796509,219,"7796 ORCHARD VILLAGE DR, INDIANAPOLIS, IN, 46217","Match","Exact","7796 ORCHARD VILLAGE DR, INDIANAPOLIS, IN, 46217",108026798,"R"
859220,"7796 PASO ROBLES STREET","VENTURA","CA",93004,34.2831198470001,-119.192318547,220,"7796 PASO ROBLES STREET, VENTURA, CA, 93004","Match","Exact","7796 PASO ROBLES ST, VENTURA, CA, 93004",110039131,"R"
859221,"7796 TIMBERCREST DR","HUBER HEIGHTS","OH",45424,39.8665848640001,-84.154275865,221,"7796 TIMBERCREST DR, HUBER HEIGHTS, OH, 45424","Match","Exact","7796 TIMBERCREST DR, HUBER HEIGHTS, OH, 45424",143628888,"R"
859222,"7796 VIA CASSANO","BURBANK","CA",91504,34.212343079,-118.343276649,222,"7796 VIA CASSANO, BURBANK, CA, 91504","Match","Exact","7796 VIA CASSANO, BURBANK, CA, 91504",142041184,"R"
859223,"77963 DUDLEY DR","PALM DESERT","CA",92211,33.7395984240001,-116.30445719,223,"77963 DUDLEY DR, PALM DESERT, CA, 92211","Match","Exact","77963 DUDLEY DR, PALM DESERT, CA, 92211",195046104,"L"
859224,"7797 CORDWOOD SHORES DR","CHEBOYGAN","MI",49721,45.661818645,-84.338184688,224,"7797 CORDWOOD SHORES DR, CHEBOYGAN, MI, 49721","Match","Exact","7797 CORDWOOD SHORES DR, CHEBOYGAN, MI, 49721",134525284,"L"
859225,"7797 ELM SPRINGS RD","ORLINDA","TN",37141,36.590217463,-86.694956222,225,"7797 ELM SPRINGS RD, ORLINDA, TN, 37141","Match","Exact","7797 ELM SPRINGS RD, ORLINDA, TN, 37141",97442897,"L"
859226,"7797 FULLER STREET","BRIGHTON","MI",48116,42.4988695170001,-83.793931643,226,"7797 FULLER STREET, BRIGHTON, MI, 48116","Match","Non_Exact","7797 FULLER, BRIGHTON, MI, 48116",23558531,"R"
859227,"7797 GOLF CIR DR J-211","MARGATE","FL",33063,26.2420855940001,-80.226577612,227,"7797 GOLF CIR DR J-211, MARGATE, FL, 33063","Match","Exact","7797 GOLF CIRCLE DR, MARGATE, FL, 33063",637471249,"R"
859228,"7797 HIGHBROOK DR","MAINEVILLE","OH",45039,39.3225567850001,-84.211778964,228,"7797 HIGHBROOK DR, MAINEVILLE, OH, 45039","Match","Exact","7797 HIGHBROOK DR, MAINEVILLE, OH, 45039",617732125,"R"
859229,"7797 LOCKLIN","WEST BLOOMFIELD","MI",48324,42.613856856,-83.438550237,229,"7797 LOCKLIN, WEST BLOOMFIELD, MI, 48324","Match","Non_Exact","7797 LOCKLIN LN, W BLOOMFIELD, MI, 48324",69792312,"L"
859230,"7797 N SR 23","WALKERTON","IN",46574,41.4156444180001,-86.4894701969999,230,"7797 N SR 23, WALKERTON, IN, 46574","Match","Non_Exact","7797 N STATE RD 23, WALKERTON, IN, 46574",604881864,"L"
859231,"7797 NORTH FIRST ST NO 47","FRESNO","CA",93720,36.8501096690001,-119.774544698,231,"7797 NORTH FIRST ST NO 47, FRESNO, CA, 93720","Match","Non_Exact","7797 N 1ST ST, FRESNO, CA, 93720",197572931,"L"
859232,"7797 S BAY VIEW ROAD","PRESQUE ISLE","WI",54557,46.2234866900001,-89.764741225,232,"7797 S BAY VIEW ROAD, PRESQUE ISLE, WI, 54557","Match","Exact","7797 S BAY VIEW RD, PRESQUE ISLE, WI, 54557",165537374,"L"
859233,"77973 DUDLEY DRIVE","PALM DESERT","CA",92211,33.7395994890001,-116.304324055,233,"77973 DUDLEY DRIVE, PALM DESERT, CA, 92211","Match","Exact","77973 DUDLEY DR, PALM DESERT, CA, 92211",195046104,"L"
859234,"77974 S 6TH ST","COTTAGE GROVE","OR",97424,43.777095998,-123.062021971,234,"77974 S 6TH ST, COTTAGE GROVE, OR, 97424","Match","Exact","77974 S 6TH ST, COTTAGE GROVE, OR, 97424",635524403,"L"
859235,"7798 160TH AVENUE","FOLEY","MN",56357,45.661252,-93.739190712,235,"7798 160TH AVENUE, FOLEY, MN, 56357","Match","Exact","7798 160TH AVE, FOLEY, MN, 56357",163071014,"R"
859236,"7798 HIGHWAY 8","CULVER","MN",55779,46.923931285,-92.5052330029999,236,"7798 HIGHWAY 8, CULVER, MN, 55779","Match","Exact","7798 HWY 8, CULVER, MN, 55779",163162813,"L"
859237,"7798 NORTH POINT STREET","MILWAUKEE","WI",53224,NA,NA,237,"7798 NORTH POINT STREET, MILWAUKEE, WI, 53224","No_Match",NA,NA,NA,NA
859238,"7798 SILVER MAPLE LN","COLORADO SPRINGS","CO",80920,38.944164759,-104.7442388,238,"7798 SILVER MAPLE LN, COLORADO SPRINGS, CO, 80920","Match","Exact","7798 SILVER MAPLE LN, CO SPGS, CO, 80920",639692618,"L"
859239,"7798 TABLELAND VIEW CT","LAS VEGAS","NV",89179,35.99780918,-115.261492282,239,"7798 TABLELAND VIEW CT, LAS VEGAS, NV, 89179","Match","Exact","7798 TABLELAND VIEW CT, LAS VEGAS, NV, 89179",650734692,"L"
859240,"7798 TIMBERLAND STREET","LAS VEGAS","NV",89123,36.0479712920001,-115.138716742,240,"7798 TIMBERLAND STREET, LAS VEGAS, NV, 89123","Match","Exact","7798 TIMBERLAND ST, LAS VEGAS, NV, 89123",201954056,"R"
859241,"77982 466 A AVE","LITCHFIELD","NE",68852,NA,NA,241,"77982 466 A AVE, LITCHFIELD, NE, 68852","No_Match",NA,NA,NA,NA
859242,"7799 N E 20TH CT","OCALA","FL",34479,29.267732714,-82.1094901009999,242,"7799 N E 20TH CT, OCALA, FL, 34479","Match","Exact","7799 NE 20TH CT, OCALA, FL, 34479",116764235,"R"
859243,"7799 NE 20TH CT","OCALA","FL",34479,29.2677311100001,-82.1094901439999,243,"7799 NE 20TH CT, OCALA, FL, 34479","Match","Exact","7799 NE 20TH CT, OCALA, FL, 34479",116764235,"R"
859244,"7799 S 1800 E","SOUTH WEBER","UT",84405,41.125036734,-111.932840068,244,"7799 S 1800 E, SOUTH WEBER, UT, 84405","Match","Exact","7799 S 1800 E, SOUTH WEBER, UT, 84405",155327724,"R"
859245,"7799 VALLEY VIEW ST E114","LA PALMA","CA",90623,33.848383491,-118.028612455,245,"7799 VALLEY VIEW ST E114, LA PALMA, CA, 90623","Match","Exact","7799 VALLEY VIEW ST, LA PALMA, CA, 90623",608143959,"L"
859246,"7799 WELTER RD","OVID","MI",48866,42.9794663490001,-84.409280537,246,"7799 WELTER RD, OVID, MI, 48866","Match","Exact","7799 WELTER RD, OVID, MI, 48866",17308099,"L"
859247,"77A HOBART AVENUE","BYONNE","NJ",7002,40.649602563,-74.1240134499999,247,"77A HOBART AVENUE, BYONNE, NJ, 7002","Match","Non_Exact","77 HOBART AVE, BAYONNE, NJ, 07002",59610528,"L"
859248,"77B PARKWAY DRIVE WEST","EAST ORANGE","NJ",7017,40.7694747520001,-74.2048960119999,248,"77B PARKWAY DRIVE WEST, EAST ORANGE, NJ, 7017","Match","Non_Exact","77 PARKWAY DR, EAST ORANGE, NJ, 07017",63451523,"L"
859249,"78  ELLISDALE RD","ALLENTOWN","NJ",8501,40.143404091,-74.5957162239999,249,"78  ELLISDALE RD, ALLENTOWN, NJ, 8501","Match","Exact","78 ELLISDALE RD, ALLENTOWN, NJ, 08501",60202100,"L"
859250,"78 101ST AVE NW","DUNN CENTER","ND",58626,NA,NA,250,"78 101ST AVE NW, DUNN CENTER, ND, 58626","No_Match",NA,NA,NA,NA
859251,"78 10TH ST E UNIT 1404","SAINT PAUL","MN",55101,NA,NA,251,"78 10TH ST E UNIT 1404, SAINT PAUL, MN, 55101","No_Match",NA,NA,NA,NA
859252,"78 10TH ST E UNIT 2004","ST PAUL","MN",55101,NA,NA,252,"78 10TH ST E UNIT 2004, ST PAUL, MN, 55101","No_Match",NA,NA,NA,NA
859253,"78 10TH STREET EAST","SAINT PAUL","MN",55101,NA,NA,253,"78 10TH STREET EAST, SAINT PAUL, MN, 55101","No_Match",NA,NA,NA,NA
859254,"78 27TH STREET WEST","BILLINGS","MT",59102,45.771197661,-108.584833701,254,"78 27TH STREET WEST, BILLINGS, MT, 59102","Match","Exact","78 27TH ST W, BILLINGS, MT, 59102",181475557,"L"
859255,"78 4TH ST","CARROLLTON","OH",44615,NA,NA,255,"78 4TH ST, CARROLLTON, OH, 44615","Tie",NA,NA,NA,NA
859256,"78 85TH STREET","BROOKLYN","NY",11209,40.625753553,-74.036745453,256,"78 85TH STREET, BROOKLYN, NY, 11209","Match","Exact","78 85TH ST, BROOKLYN, NY, 11209",59093437,"R"
859257,"78 ACAPESKET ROAD","EAST FALMOUTH","MA",2536,41.574134289,-70.568848889,257,"78 ACAPESKET ROAD, EAST FALMOUTH, MA, 2536","Match","Exact","78 ACAPESKET RD, EAST FALMOUTH, MA, 02536",121574718,"R"
859258,"78 ADAMS STREET","FAIRHAVEN","MA",2719,41.6418341560001,-70.8991658739999,258,"78 ADAMS STREET, FAIRHAVEN, MA, 2719","Match","Exact","78 ADAMS ST, FAIRHAVEN, MA, 02719",46755505,"R"
859259,"78 AIKAHI LOOP","KAILUA","HI",96734,21.4267038080001,-157.74964075,259,"78 AIKAHI LOOP, KAILUA, HI, 96734","Match","Exact","78 AIKAHI LOOP, KAILUA, HI, 96734",203258198,"L"
859260,"78 ALEJANDRA AVE","ATHERTON","CA",94027,37.454460544,-122.195911695,260,"78 ALEJANDRA AVE, ATHERTON, CA, 94027","Match","Exact","78 ALEJANDRA AVE, ATHERTON, CA, 94027",638038040,"R"
859261,"78 ALICE DRIVE","LANCASTER","NH",3584,44.5610079640001,-71.5609447109999,261,"78 ALICE DRIVE, LANCASTER, NH, 3584","Match","Exact","78 ALICE DR, LANCASTER, NH, 03584",627007764,"L"
859262,"78 ANNE STREET","CLINTONVILLE","WI",54929,44.6258984290001,-88.755951279,262,"78 ANNE STREET, CLINTONVILLE, WI, 54929","Match","Exact","78 ANNE ST, CLINTONVILLE, WI, 54929",74960224,"R"
859263,"78 ARIES STREET","REXBURG","ID",83440,43.8240558050001,-111.802417579,263,"78 ARIES STREET, REXBURG, ID, 83440","Match","Non_Exact","78 ARIES DR, REXBURG, ID, 83440",119091005,"L"
859264,"78 ARROW LANE","STUARTS DRAFT","VA",24477,38.0346147160001,-79.0713632169999,264,"78 ARROW LANE, STUARTS DRAFT, VA, 24477","Match","Exact","78 ARROW LN, STUARTS DRAFT, VA, 24477",98840704,"L"
859265,"78 ASPENGLOW BLVD 7","PAGOSA SPRINGS","CO",81147,37.2852664800001,-107.081901872,265,"78 ASPENGLOW BLVD 7, PAGOSA SPRINGS, CO, 81147","Match","Exact","78 ASPENGLOW BLVD, PAGOSA SPRINGS, CO, 81147",127335468,"L"
859266,"78 AZALEA LOOP","CONWAY","AR",72032,35.1096448260001,-92.409782919,266,"78 AZALEA LOOP, CONWAY, AR, 72032","Match","Exact","78 AZALEA LOOP, CONWAY, AR, 72032",141043445,"R"
859267,"78 AZTEC DRIVE","STARKVILLE","MS",39759,33.4879372400001,-88.823984734,267,"78 AZTEC DRIVE, STARKVILLE, MS, 39759","Match","Non_Exact","78 AZTEC ST, STARKVILLE, MS, 39759",796472,"R"
859268,"78 BALDWIN RD","HEMPSTEAD","NY",11550,40.6991071140001,-73.616352962,268,"78 BALDWIN RD, HEMPSTEAD, NY, 11550","Match","Exact","78 BALDWIN RD, HEMPSTEAD, NY, 11550",147628808,"R"
859269,"78 BALLANTREE DRIVE","ASHEVILLE","NC",28803,35.512861758,-82.511886926,269,"78 BALLANTREE DRIVE, ASHEVILLE, NC, 28803","Match","Exact","78 BALLANTREE DR, ASHEVILLE, NC, 28803",36851067,"L"
859270,"78 BAYBERRY LANE","SMITHTOWN","NY",11787,40.8384885620001,-73.2540748019999,270,"78 BAYBERRY LANE, SMITHTOWN, NY, 11787","Match","Exact","78 BAYBERRY LN, SMITHTOWN, NY, 11787",113983379,"L"
859271,"78 BAYBERRY LANE","SMITHTWON","NY",11787,40.8384885620001,-73.2540748019999,271,"78 BAYBERRY LANE, SMITHTWON, NY, 11787","Match","Non_Exact","78 BAYBERRY LN, SMITHTOWN, NY, 11787",113983379,"L"
859272,"78 BEACH STREET","QUINCY","MA",2170,42.2705166690001,-71.015495734,272,"78 BEACH STREET, QUINCY, MA, 2170","Match","Exact","78 BEACH ST, QUINCY, MA, 02170",87248859,"L"
859273,"78 BEACON HILL LANE","NEW CANAAN","CT",6840,41.1522418430001,-73.481526061,273,"78 BEACON HILL LANE, NEW CANAAN, CT, 6840","Match","Non_Exact","78 BEACON HILL RD, NEW CANAAN, CT, 06840",3278073,"L"
859274,"78 BEAVER LAKE CIRCLE","ORMOND BEACH","FL",32174,29.2472343950001,-81.1032575839999,274,"78 BEAVER LAKE CIRCLE, ORMOND BEACH, FL, 32174","Match","Exact","78 BEAVER LAKE CIR, ORMOND BEACH, FL, 32174",636389970,"L"
859275,"78 BEL AIR DRIVE","FITCHBURG","MA",1420,42.56137303,-71.8200426939999,275,"78 BEL AIR DRIVE, FITCHBURG, MA, 1420","Match","Exact","78 BEL AIR DR, FITCHBURG, MA, 01420",40027729,"L"
859276,"78 BENJAMIN STREET","CRANFORD","NJ",7016,40.651364906,-74.311243667,276,"78 BENJAMIN STREET, CRANFORD, NJ, 7016","Match","Exact","78 BENJAMIN ST, CRANFORD, NJ, 07016",60604532,"R"
859277,"78 BEVERLY DRIVE","SAGLE","ID",83860,48.201403267,-116.57462206,277,"78 BEVERLY DRIVE, SAGLE, ID, 83860","Match","Exact","78 BEVERLY DR, SAGLE, ID, 83860",169503918,"L"
859278,"78 BIRK STREET","SADDLE BROOK","NJ",7663,40.9083978150001,-74.095373772,278,"78 BIRK STREET, SADDLE BROOK, NJ, 7663","Match","Exact","78 BIRK ST, SADDLE BROOK, NJ, 07663",64381540,"L"
859279,"78 BISSELL ROAD","LEBANON","NJ",8833,40.6716059840001,-74.815866727,279,"78 BISSELL ROAD, LEBANON, NJ, 8833","Match","Exact","78 BISSELL RD, LEBANON, NJ, 08833",60009933,"L"
859280,"78 BITTERROOT DR","LEWISTOWN","MT",59457,47.122754295,-109.459261482,280,"78 BITTERROOT DR, LEWISTOWN, MT, 59457","Match","Non_Exact","78 BITTER ROOT DR, LEWISTOWN, MT, 59457",170604337,"R"
859281,"78 BLACKJACK DR","DURANT","OK",74701,34.0389007300001,-96.424429977,281,"78 BLACKJACK DR, DURANT, OK, 74701","Match","Non_Exact","78 BLACK JACK DR, DURANT, OK, 74701",62500919,"R"
859282,"78 BOULEVARD AVE","LINCOLN","RI",2865,41.901976318,-71.4103418239999,282,"78 BOULEVARD AVE, LINCOLN, RI, 2865","Match","Exact","78 BOULEVARD AVE, LINCOLN, RI, 02865",47454501,"R"
859283,"78 BOUNDARY POINT ROAD","OROVILLE","WA",98844,48.9956323420001,-119.455553114,283,"78 BOUNDARY POINT ROAD, OROVILLE, WA, 98844","Match","Exact","78 BOUNDARY POINT RD, OROVILLE, WA, 98844",157368673,"L"
859284,"78 BOY SCOUT","CONESTOGA","PA",17516,39.951302781,-76.3587330519999,284,"78 BOY SCOUT, CONESTOGA, PA, 17516","Match","Non_Exact","78 BOY SCOUT RD, CONESTOGA, PA, 17516",179700643,"L"
859285,"78 BRENTWOOD LN","FAIRPORT","NY",14450,43.089279618,-77.476113727,285,"78 BRENTWOOD LN, FAIRPORT, NY, 14450","Match","Exact","78 BRENTWOOD LN, FAIRPORT, NY, 14450",14547191,"R"
859286,"78 BRIDGE STREET","SALEM","MA",1970,42.5304251810001,-70.889320117,286,"78 BRIDGE STREET, SALEM, MA, 1970","Match","Exact","78 BRIDGE ST, SALEM, MA, 01970",86643315,"R"
859287,"78 BROOK ST","SCITUATE","MA",2066,42.1935615520001,-70.7328217799999,287,"78 BROOK ST, SCITUATE, MA, 2066","Match","Exact","78 BROOK ST, SCITUATE, MA, 02066",647352956,"L"
859288,"78 BROOKHAVEN CT","ELLERSLIE","GA",31807,32.6270249720001,-84.776226725,288,"78 BROOKHAVEN CT, ELLERSLIE, GA, 31807","Match","Exact","78 BROOKHAVEN CT, ELLERSLIE, GA, 31807",614169555,"R"
859289,"78 BROOKLYN HOMES","BRUNSWICK","GA",31520,NA,NA,289,"78 BROOKLYN HOMES, BRUNSWICK, GA, 31520","No_Match",NA,NA,NA,NA
859290,"78 BROOKSTONE PARK","NEWNAN","GA",30265,33.4152237590001,-84.6799779689999,290,"78 BROOKSTONE PARK, NEWNAN, GA, 30265","Match","Exact","78 BROOKSTONE PARK, NEWNAN, GA, 30265",647456170,"L"
859291,"78 BRUNELLO LN","CAMDENTON","MO",65020,NA,NA,291,"78 BRUNELLO LN, CAMDENTON, MO, 65020","No_Match",NA,NA,NA,NA
859292,"78 BRUNING AVE","RIO VISTA","CA",94571,38.1535743520001,-121.691947819,292,"78 BRUNING AVE, RIO VISTA, CA, 94571","Match","Exact","78 BRUNING AVE, RIO VISTA, CA, 94571",192525998,"L"
859293,"78 CEDAR LANE - APT D","HIGHLAND PARK","NJ",8904,40.5075294850001,-74.43652573,293,"78 CEDAR LANE - APT D, HIGHLAND PARK, NJ, 8904","Match","Exact","78 CEDAR LN, HIGHLAND PARK, NJ, 08904",639003483,"R"
859294,"78 CHATHAM CT","DOWNINGTOWN","PA",19335,40.0427487090001,-75.775566699,294,"78 CHATHAM CT, DOWNINGTOWN, PA, 19335","Match","Exact","78 CHATHAM CT, DOWNINGTOWN, PA, 19335",179479139,"R"
859295,"78 CHESTNUT HILL ROAD","BRIGHTON","MA",2135,42.3450020860001,-71.153107107,295,"78 CHESTNUT HILL ROAD, BRIGHTON, MA, 2135","Match","Non_Exact","78 CHESTNUT HILL AVE, BRIGHTON, MA, 02135",85695139,"L"
859296,"78 CHRISDON LANE","WEST UNION","OH",45693,38.8144190300001,-83.514475292,296,"78 CHRISDON LANE, WEST UNION, OH, 45693","Match","Exact","78 CHRISDON LN, WEST UNION, OH, 45693",624888797,"L"
859297,"78 CHRISTIAN AVE","SETAUKET","NY",11733,40.939611176,-73.127810902,297,"78 CHRISTIAN AVE, SETAUKET, NY, 11733","Match","Exact","78 CHRISTIAN AVE, SETAUKET, NY, 11733",113986856,"L"
859298,"78 CHURCH ST","LIVINGSTON MANOR","NY",12758,41.895330598,-74.826800308,298,"78 CHURCH ST, LIVINGSTON MANOR, NY, 12758","Match","Exact","78 CHURCH ST, LIVINGSTON MANOR, NY, 12758",128974813,"L"
859299,"78 CLAIRE WAY","TIBURON","CA",94920,37.901097296,-122.498584731,299,"78 CLAIRE WAY, TIBURON, CA, 94920","Match","Exact","78 CLAIRE WAY, TIBURON, CA, 94920",192768736,"R"
859300,"78 CLEAVES AVE","SAN JOSE","CA",95126,37.3295966520001,-121.907326284,300,"78 CLEAVES AVE, SAN JOSE, CA, 95126","Match","Exact","78 CLEAVES AVE, SAN JOSE, CA, 95126",638019776,"L"
859301,"78 CLEVELAND ST APT 1","PAWTUCKET","RI",2860,41.866762823,-71.386379484,301,"78 CLEVELAND ST APT 1, PAWTUCKET, RI, 2860","Match","Exact","78 CLEVELAND ST, PAWTUCKET, RI, 02860",47464461,"L"
859302,"78 CLOVERLEAF CIRCLE","BRENTWOOD","CA",94513,37.9293138420001,-121.716145552,302,"78 CLOVERLEAF CIRCLE, BRENTWOOD, CA, 94513","Match","Exact","78 CLOVERLEAF CIR, BRENTWOOD, CA, 94513",192090221,"R"
859303,"78 CLUB HOUSE ROAD","BRECKENRIDGE","CO",80424,39.4672311740001,-106.014550199,303,"78 CLUB HOUSE ROAD, BRECKENRIDGE, CO, 80424","Match","Exact","78 CLUB HOUSE RD, BRECKENRIDGE, CO, 80424",106057412,"R"
859304,"78 CLYDES WAY","HOSCHTON","GA",30548,34.085838708,-83.718446963,304,"78 CLYDES WAY, HOSCHTON, GA, 30548","Match","Exact","78 CLYDES WAY, HOSCHTON, GA, 30548",619842754,"R"
859305,"78 COLD BROOK  RD","SARANAC","NY",12981,44.5877629190001,-73.908099857,305,"78 COLD BROOK  RD, SARANAC, NY, 12981","Match","Exact","78 COLD BROOK RD, SARANAC, NY, 12981",136071957,"R"
859306,"78 CONCETTA DRIVE","BRIDGEWATER","MA",2324,41.962032288,-71.022478854,306,"78 CONCETTA DRIVE, BRIDGEWATER, MA, 2324","Match","Exact","78 CONCETTA DR, BRIDGEWATER, MA, 02324",87511589,"L"
859307,"78 CONCORD DRIVE","ROCKY HILL","CT",6067,41.674383688,-72.656757192,307,"78 CONCORD DRIVE, ROCKY HILL, CT, 6067","Match","Exact","78 CONCORD DR, ROCKY HILL, CT, 06067",3520260,"L"
859308,"78 COOKE ROAD","AVELLA","PA",15312,40.2940268040001,-80.422308261,308,"78 COOKE ROAD, AVELLA, PA, 15312","Match","Exact","78 COOKE RD, AVELLA, PA, 15312",52789389,"L"
859309,"78 COQUINA RDGE WAY","ORMOND BEACH","FL",32174,29.2665363400001,-81.145660678,309,"78 COQUINA RDGE WAY, ORMOND BEACH, FL, 32174","Match","Exact","78 COQUINA RIDGE WAY, ORMOND BEACH, FL, 32174",94592069,"L"
859310,"78 CORSICA DR SE","RIO RANCHO","NM",87124,35.243605727,-106.735029826,310,"78 CORSICA DR SE, RIO RANCHO, NM, 87124","Match","Exact","78 CORSICA DR SE, RIO RANCHO, NM, 87124",193994245,"L"
859311,"78 COUTY ROAD 522","MANALAPAN","NJ",7726,NA,NA,311,"78 COUTY ROAD 522, MANALAPAN, NJ, 7726","No_Match",NA,NA,NA,NA
859312,"78 CRAESCOT WAY","MAHOPAC","NY",10541,41.41266147,-73.746760136,312,"78 CRAESCOT WAY, MAHOPAC, NY, 10541","Match","Exact","78 CRAESCOT WAY, MAHOPAC, NY, 10541",139693208,"R"
859313,"78 CRANBROOK ROAD","TONAWANDA","NY",14150,43.0049608,-78.864111943,313,"78 CRANBROOK ROAD, TONAWANDA, NY, 14150","Match","Exact","78 CRANBROOK RD, TONAWANDA, NY, 14150",48287579,"L"
859314,"78 CRESTRIDGE DR","VERNON","CT",6066,41.847179967,-72.471318191,314,"78 CRESTRIDGE DR, VERNON, CT, 6066","Match","Exact","78 CRESTRIDGE DR, VERNON, CT, 06066",56997070,"R"
859315,"78 CULLEN CT","CLAYTON","NC",27520,35.66329353,-78.462120522,315,"78 CULLEN CT, CLAYTON, NC, 27520","Match","Exact","78 CULLEN CT, CLAYTON, NC, 27520",651416153,"L"
859316,"78 CULVER STREET","BUFFALO","NY",14215,NA,NA,316,"78 CULVER STREET, BUFFALO, NY, 14215","No_Match",NA,NA,NA,NA
859317,"78 CUMBERLAND","SMYRNA","GA",30080,NA,NA,317,"78 CUMBERLAND, SMYRNA, GA, 30080","Tie",NA,NA,NA,NA
859318,"78 CUTLER STREET","NEWARK","NJ",7104,40.7535549410001,-74.175530571,318,"78 CUTLER STREET, NEWARK, NJ, 7104","Match","Exact","78 CUTLER ST, NEWARK, NJ, 07104",63455104,"L"
859319,"78 CYPRESS STREET","BROOKLINE","MA",2245,NA,NA,319,"78 CYPRESS STREET, BROOKLINE, MA, 2245","No_Match",NA,NA,NA,NA
859320,"78 DAWSON VILLAGE WAY NORTH","DAWSONVILLE","GA",30534,NA,NA,320,"78 DAWSON VILLAGE WAY NORTH, DAWSONVILLE, GA, 30534","Tie",NA,NA,NA,NA
859321,"78 DECATUR ST 2","BROOKLYN","NY",11216,40.6806587610001,-73.9402394219999,321,"78 DECATUR ST 2, BROOKLYN, NY, 11216","Match","Exact","78 DECATUR ST, BROOKLYN, NY, 11216",59079285,"R"
859322,"78 DECATUR ST","BROOKLYN","NY",11216,40.6806587610001,-73.9402394219999,322,"78 DECATUR ST, BROOKLYN, NY, 11216","Match","Exact","78 DECATUR ST, BROOKLYN, NY, 11216",59079285,"R"
859323,"78 DEER CREEK RD","PITTSFORD","NY",14534,43.037744753,-77.489672613,323,"78 DEER CREEK RD, PITTSFORD, NY, 14534","Match","Exact","78 DEER CREEK RD, PITTSFORD, NY, 14534",14547590,"L"
859324,"78 DEER CREEK TRL","MORELAND","GA",30259,33.246914368,-84.756401172,324,"78 DEER CREEK TRL, MORELAND, GA, 30259","Match","Exact","78 DEER CREEK TRL, MORELAND, GA, 30259",614455304,"R"
859325,"78 DEERFIELD RD","NORTH BERWICK","ME",3906,43.3166786190001,-70.773317122,325,"78 DEERFIELD RD, NORTH BERWICK, ME, 3906","Match","Exact","78 DEERFIELD RD, NORTH BERWICK, ME, 03906",92785927,"R"
859326,"78 DELMAR STREET","LUMBERTON","NC",28358,34.6336981580001,-79.0218635589999,326,"78 DELMAR STREET, LUMBERTON, NC, 28358","Match","Exact","78 DELMAR ST, LUMBERTON, NC, 28358",49136946,"L"
859327,"78 DIAMONDCREST LANE","STAMFORD","CT",6903,41.1206849210001,-73.546864367,327,"78 DIAMONDCREST LANE, STAMFORD, CT, 6903","Match","Exact","78 DIAMONDCREST LN, STAMFORD, CT, 06903",618525757,"L"
859328,"78 DORCHESTER ST APT 2","LAWRENCE","MA",1843,42.693314641,-71.152677571,328,"78 DORCHESTER ST APT 2, LAWRENCE, MA, 1843","Match","Exact","78 DORCHESTER ST, LAWRENCE, MA, 01843",86628983,"L"
859329,"78 DUNHAM POND ROAD","STORRS","CT",6268,41.7888769890001,-72.261204311,329,"78 DUNHAM POND ROAD, STORRS, CT, 6268","Match","Exact","78 DUNHAM POND RD, STORRS, CT, 06268",610943450,"L"
859330,"78 DYSDALE LOOP","GAINESVILLE","MO",65655,NA,NA,330,"78 DYSDALE LOOP, GAINESVILLE, MO, 65655","No_Match",NA,NA,NA,NA
859331,"78 E 10 STREET","ST. PAUL","MN",55101,44.950545622,-93.0962686459999,331,"78 E 10 STREET, ST. PAUL, MN, 55101","Match","Exact","78 E 10TH ST, SAINT PAUL, MN, 55101",97648393,"R"
859332,"78 EAST 12TH STREET SUITE 24","NEW YORK","NY",10035,NA,NA,332,"78 EAST 12TH STREET SUITE 24, NEW YORK, NY, 10035","Tie",NA,NA,NA,NA
859333,"78 EAST MAIN STREET","AYER","MA",1432,42.5556677050001,-71.578581797,333,"78 EAST MAIN STREET, AYER, MA, 1432","Match","Exact","78 E MAIN ST, AYER, MA, 01432",86834765,"R"
859334,"78 EAST MAIN STREET","ROMNEY","WV",26757,NA,NA,334,"78 EAST MAIN STREET, ROMNEY, WV, 26757","Tie",NA,NA,NA,NA
859335,"78 EAST SHORE RD","NEW PRESTON","CT",6777,41.682862228,-73.3521446669999,335,"78 EAST SHORE RD, NEW PRESTON, CT, 6777","Match","Exact","78 E SHORE RD, NEW PRESTON, CT, 06777",3124257,"R"
859336,"78 EAST STREET","WHITINSVILLE","MA",1588,42.112836309,-71.6552558189999,336,"78 EAST STREET, WHITINSVILLE, MA, 1588","Match","Exact","78 EAST ST, WHITINSVILLE, MA, 01588",40024316,"L"
859337,"78 EAST WASHINGTOM AVE","LAKELAND","GA",31635,31.034666105,-83.062611341,337,"78 EAST WASHINGTOM AVE, LAKELAND, GA, 31635","Match","Non_Exact","78 E WASHINGTON AVE, LAKELAND, GA, 31635",5218921,"R"
859338,"78 EASTWOOD CRT","SAN JOSE","CA",95116,37.353138589,-121.859583538,338,"78 EASTWOOD CRT, SAN JOSE, CA, 95116","Match","Exact","78 EASTWOOD CT, SAN JOSE, CA, 95116",122908545,"R"
859339,"78 EDGEWOOD DRIVE","IRVINE","KY",40336,37.711474997,-83.973777994,339,"78 EDGEWOOD DRIVE, IRVINE, KY, 40336","Match","Exact","78 EDGEWOOD DR, IRVINE, KY, 40336",31898512,"R"
859340,"78 EHRET AVE","HARRINGTON PK","NJ",7640,40.9967934840001,-73.978084318,340,"78 EHRET AVE, HARRINGTON PK, NJ, 7640","Match","Exact","78 EHRET AVE, HARRINGTON PARK, NJ, 07640",64370094,"L"
859341,"78 EILEEN DRIVE","MAHWAH","NJ",7430,41.0541011180001,-74.1754186699999,341,"78 EILEEN DRIVE, MAHWAH, NJ, 7430","Match","Exact","78 EILEEN DR, MAHWAH, NJ, 07430",64401628,"R"
859342,"78 EL REY DR","CORRALES","NM",87048,35.217473512,-106.648099749,342,"78 EL REY DR, CORRALES, NM, 87048","Match","Exact","78 EL REY DR, CORRALES, NM, 87048",635848344,"R"
859343,"78 ELIZABETH ST","PITTSTON","PA",18640,41.319069235,-75.7967379899999,343,"78 ELIZABETH ST, PITTSTON, PA, 18640","Match","Exact","78 ELIZABETH ST, PITTSTON, PA, 18640",80917749,"L"
859344,"78 ELIZABETH STREET","SOUTH WINDSOR","CT",6075,NA,NA,344,"78 ELIZABETH STREET, SOUTH WINDSOR, CT, 6075","No_Match",NA,NA,NA,NA
859345,"78 ELM ST","KEENE","NH",3431,42.9383106770001,-72.2803360739999,345,"78 ELM ST, KEENE, NH, 3431","Match","Exact","78 ELM ST, KEENE, NH, 03431",124051072,"L"
859346,"78 ELMWOOD STREET","REVERE","MA",2151,42.4203684830001,-70.997129004,346,"78 ELMWOOD STREET, REVERE, MA, 2151","Match","Exact","78 ELMWOOD ST, REVERE, MA, 02151",85707794,"L"
859347,"78 EMERALD DRIVE","DANVILLE","NH",3819,42.9325307600001,-71.102535018,347,"78 EMERALD DRIVE, DANVILLE, NH, 3819","Match","Exact","78 EMERALD DR, DANVILLE, NH, 03819",113694459,"L"
859348,"78 EMPIRE STREET","NEWARK","NJ",7114,40.708386864,-74.194662588,348,"78 EMPIRE STREET, NEWARK, NJ, 7114","Match","Exact","78 EMPIRE ST, NEWARK, NJ, 07114",638040614,"L"
859349,"78 ESPARITO AVE","FREMONT","CA",94539,37.5531841120001,-121.941412005,349,"78 ESPARITO AVE, FREMONT, CA, 94539","Match","Exact","78 ESPARITO AVE, FREMONT, CA, 94539",125033450,"L"
859350,"78 ESSEX STREET","LEWISTON","ME",4240,44.083972128,-70.2059778889999,350,"78 ESSEX STREET, LEWISTON, ME, 4240","Match","Exact","78 ESSEX ST, LEWISTON, ME, 04240",77974928,"L"
859351,"78 ESTANCIA LANE","DURANGO","CO",81301,37.3996022010001,-107.8450981,351,"78 ESTANCIA LANE, DURANGO, CO, 81301","Match","Exact","78 ESTANCIA LN, DURANGO, CO, 81301",653309157,"R"
859352,"78 EUCLID AVE","ALBANY","NY",12203,42.6663786410001,-73.802137063,352,"78 EUCLID AVE, ALBANY, NY, 12203","Match","Exact","78 EUCLID AVE, ALBANY, NY, 12203",18308468,"R"
859353,"78 FABER STREET 1ST FLOOR","STATEN ISLAND","NY",10302,40.6386915050001,-74.13538921,353,"78 FABER STREET 1ST FLOOR, STATEN ISLAND, NY, 10302","Match","Exact","78 FABER ST, STATEN ISLAND, NY, 10302",59883755,"R"
859354,"78 FAIR OAKS","SAN FRANCISCO","CA",94110,37.7555144510001,-122.424334863,354,"78 FAIR OAKS, SAN FRANCISCO, CA, 94110","Match","Non_Exact","78 FAIR OAKS ST, SAN FRANCISCO, CA, 94110",192284864,"R"
859355,"78 FARR ROAD","LEBANON","NH",3766,43.641502115,-72.208003069,355,"78 FARR ROAD, LEBANON, NH, 3766","Match","Exact","78 FARR RD, LEBANON, NH, 03766",145682349,"R"
859356,"78 FAWN DRIVE","EAST ISLIP","NY",11752,40.719234026,-73.1705650709999,356,"78 FAWN DRIVE, EAST ISLIP, NY, 11752","Match","Non_Exact","78 FAWN DR, EAST ISLIP, NY, 11730",113999131,"R"
859357,"78 FAWN LANE","TAMAQUA","PA",18252,40.765951106,-75.983747847,357,"78 FAWN LANE, TAMAQUA, PA, 18252","Match","Exact","78 FAWN LN, TAMAQUA, PA, 18252",70972100,"L"
859358,"78 FENNO STREET","QUINCY","MA",2170,42.2660645080001,-71.0109209509999,358,"78 FENNO STREET, QUINCY, MA, 2170","Match","Exact","78 FENNO ST, QUINCY, MA, 02170",87249495,"L"
859359,"78 FENWICK PLACE","ATLANTA","GA",30328,33.960276579,-84.358278383,359,"78 FENWICK PLACE, ATLANTA, GA, 30328","Match","Non_Exact","78 FENWICK PL NE, ATLANTA, GA, 30328",17361333,"L"
859360,"78 FLAT TOP RD","BURBANK","WA",99323,46.213525213,-118.971374188,360,"78 FLAT TOP RD, BURBANK, WA, 99323","Match","Exact","78 FLAT TOP RD, BURBANK, WA, 99323",174678499,"R"
859361,"78 FRANCIS LN","STOUTLAND","MO",65567,37.864868433,-92.5976706279999,361,"78 FRANCIS LN, STOUTLAND, MO, 65567","Match","Exact","78 FRANCIS LN, STOUTLAND, MO, 65567",22866981,"L"
859362,"78 FRANKLIN ROAD","TEANECK","NJ",7666,40.8968867520001,-73.9990428199999,362,"78 FRANKLIN ROAD, TEANECK, NJ, 7666","Match","Exact","78 FRANKLIN RD, TEANECK, NJ, 07666",64412775,"R"
859363,"78 FREEMAN HALL ROAD","NOTTINGHAM","NH",3290,43.170900998,-71.1016511289999,363,"78 FREEMAN HALL ROAD, NOTTINGHAM, NH, 3290","Match","Exact","78 FREEMAN HALL RD, NOTTINGHAM, NH, 03290",113701983,"L"
859364,"78 FRENCHTOWN ROAD","MILFORD","NJ",8848,40.5671241650001,-75.091967337,364,"78 FRENCHTOWN ROAD, MILFORD, NJ, 8848","Match","Exact","78 FRENCHTOWN RD, MILFORD, NJ, 08848",636225687,"R"
859365,"78 FULTON STREET","KEYPORT","NJ",7735,40.436121343,-74.1921396129999,365,"78 FULTON STREET, KEYPORT, NJ, 7735","Match","Exact","78 FULTON ST, KEYPORT, NJ, 07735",641747450,"R"
859366,"78 FUZZY DR","GEORGETOWN","SC",29440,33.500349188,-79.3446391209999,366,"78 FUZZY DR, GEORGETOWN, SC, 29440","Match","Exact","78 FUZZY DR, GEORGETOWN, SC, 29440",648156231,"L"
859367,"78 GARDEN HOUSE ROAD","HURLEYVILLE","NY",12747,41.7561877790001,-74.6954446189999,367,"78 GARDEN HOUSE ROAD, HURLEYVILLE, NY, 12747","Match","Exact","78 GARDEN HOUSE RD, HURLEYVILLE, NY, 12747",128994193,"R"
859368,"78 GARDENIA","CASPER","WY",82604,42.822582185,-106.399799915,368,"78 GARDENIA, CASPER, WY, 82604","Match","Exact","78 GARDENIA, CASPER, WY, 82604",645429698,"R"
859369,"78 GARDNER ROAD","MUNCY","PA",17756,41.189536075,-76.6296749799999,369,"78 GARDNER ROAD, MUNCY, PA, 17756","Match","Exact","78 GARDNER RD, MUNCY, PA, 17756",59457938,"L"
859370,"78 GARONDAH WAY","ELIZABETHTOWN","NY",12932,NA,NA,370,"78 GARONDAH WAY, ELIZABETHTOWN, NY, 12932","No_Match",NA,NA,NA,NA
859371,"78 GARVIN HILL ROAD","CHICHESTER","NH",3258,43.2234438180001,-71.427834661,371,"78 GARVIN HILL ROAD, CHICHESTER, NH, 3258","Match","Exact","78 GARVIN HILL RD, CHICHESTER, NH, 03258",117718495,"L"
859372,"78 GLEN OAKS COURT","HURRICANE","WV",25526,38.456361009,-81.952715992,372,"78 GLEN OAKS COURT, HURRICANE, WV, 25526","Match","Exact","78 GLEN OAKS CT, HURRICANE, WV, 25526",649377410,"L"
859373,"78 GLENWOOD AVE","POUGHKEEPSIE","NY",12603,41.690838151,-73.911675837,373,"78 GLENWOOD AVE, POUGHKEEPSIE, NY, 12603","Match","Exact","78 GLENWOOD AVE, POUGHKEEPSIE, NY, 12603",4168284,"R"
859374,"78 GLENWOOD AVENUE","POUGHKEEPSIE","NY",12603,41.690838151,-73.911675837,374,"78 GLENWOOD AVENUE, POUGHKEEPSIE, NY, 12603","Match","Exact","78 GLENWOOD AVE, POUGHKEEPSIE, NY, 12603",4168284,"R"
859375,"78 GOLFVIEW DRIVE","SEWELL","NJ",8080,39.7534345660001,-75.084094899,375,"78 GOLFVIEW DRIVE, SEWELL, NJ, 8080","Match","Exact","78 GOLFVIEW DR, SEWELL, NJ, 08080",134596642,"L"
859376,"78 GOOD HILL RD","SOUTH WINDSOR","CT",6074,41.8181720850001,-72.51980543,376,"78 GOOD HILL RD, SOUTH WINDSOR, CT, 6074","Match","Exact","78 GOOD HILL RD, SOUTH WINDSOR, CT, 06074",3529358,"L"
859377,"78 GRANT COURT","NORWICH","CT",6360,41.5280376530001,-72.0911006969999,377,"78 GRANT COURT, NORWICH, CT, 6360","Match","Exact","78 GRANT CT, NORWICH, CT, 06360",56839765,"L"
859378,"78 HANCOCK DR","MORRISTOWN","NJ",7960,40.8152034440001,-74.5146263459999,378,"78 HANCOCK DR, MORRISTOWN, NJ, 7960","Match","Exact","78 HANCOCK DR, MORRISTOWN, NJ, 07960",60493181,"R"
859379,"78 HARLEN DRIVE","NEW ROCHELLE","NY",10804,40.9742204500001,-73.7765946609999,379,"78 HARLEN DRIVE, NEW ROCHELLE, NY, 10804","Match","Non_Exact","78 HARLAN DR, NEW ROCHELLE, NY, 10804",640546371,"L"
859380,"78 HAROLD STREET","ROXBURY","MA",2119,42.318412956,-71.089338867,380,"78 HAROLD STREET, ROXBURY, MA, 2119","Match","Exact","78 HAROLD ST, ROXBURY, MA, 02119",85700446,"L"
859381,"78 HARRINGTON LANE","SOMERSET","MA",2726,41.7608820040001,-71.135703135,381,"78 HARRINGTON LANE, SOMERSET, MA, 2726","Match","Exact","78 HARRINGTON LN, SOMERSET, MA, 02726",46846170,"R"
859382,"78 HARRISON STREET","PROVIDENCE","RI",2909,41.8144660350001,-71.429291169,382,"78 HARRISON STREET, PROVIDENCE, RI, 2909","Match","Exact","78 HARRISON ST, PROVIDENCE, RI, 02909",651142120,"L"
859383,"78 HAWKINS ST","HOLLISTER","CA",95023,36.846340313,-121.399333248,383,"78 HAWKINS ST, HOLLISTER, CA, 95023","Match","Exact","78 HAWKINS ST, HOLLISTER, CA, 95023",125435932,"R"
859384,"78 HAWTHORNE PL","LEONIA","NJ",7605,40.8618948540001,-73.983476632,384,"78 HAWTHORNE PL, LEONIA, NJ, 7605","Match","Non_Exact","78 HAWTHORNE TER, LEONIA, NJ, 07605",64390057,"L"
859385,"78 HAYTIE LANE","SWOOPE","VA",24479,38.073249092,-79.219834579,385,"78 HAYTIE LANE, SWOOPE, VA, 24479","Match","Non_Exact","78 HAYTIE RD, SWOOPE, VA, 24479",98842806,"L"
859386,"78 HEARD DRIVE","TOCCOA","GA",30577,NA,NA,386,"78 HEARD DRIVE, TOCCOA, GA, 30577","No_Match",NA,NA,NA,NA
859387,"78 HEMLOCK STREET","OAKLAND","NJ",7436,41.0204961270001,-74.2541635979999,387,"78 HEMLOCK STREET, OAKLAND, NJ, 7436","Match","Exact","78 HEMLOCK ST, OAKLAND, NJ, 07436",64436700,"R"
859388,"78 HICKORY CIRCLE","BUTLER","AL",36904,32.108991238,-88.2334739619999,388,"78 HICKORY CIRCLE, BUTLER, AL, 36904","Match","Exact","78 HICKORY CIR, BUTLER, AL, 36904",111253,"R"
859389,"78 HICKORY HILLS CT","BRANDENBURG","KY",40108,37.968993309,-86.103061816,389,"78 HICKORY HILLS CT, BRANDENBURG, KY, 40108","Match","Exact","78 HICKORY HILLS CT, BRANDENBURG, KY, 40108",8163576,"R"
859390,"78 HICKORY ST","ROCHESTER","NY",14620,43.1428862760001,-77.608027928,390,"78 HICKORY ST, ROCHESTER, NY, 14620","Match","Exact","78 HICKORY ST, ROCHESTER, NY, 14620",14540411,"L"
859391,"78 HIGHLAND AVENUE UNIT 2","ARLINGTON","MA",2476,42.4151098820001,-71.168418039,391,"78 HIGHLAND AVENUE UNIT 2, ARLINGTON, MA, 2476","Match","Exact","78 HIGHLAND AVE, ARLINGTON, MA, 02476",86885600,"L"
859392,"78 HIGHVIEW","WEST WARWICK","RI",2893,41.685912064,-71.513188288,392,"78 HIGHVIEW, WEST WARWICK, RI, 2893","Match","Non_Exact","78 HIGHVIEW DR, WEST WARWICK, RI, 02893",159143736,"L"
859393,"78 HINGHAM STREET","ROCKLAND","MA",2370,42.1387244530001,-70.901149768,393,"78 HINGHAM STREET, ROCKLAND, MA, 2370","Match","Exact","78 HINGHAM ST, ROCKLAND, MA, 02370",640932425,"L"
859394,"78 HOLLAND ROAD","SOUTH ORANGE","NJ",7079,40.747549581,-74.2368437109999,394,"78 HOLLAND ROAD, SOUTH ORANGE, NJ, 7079","Match","Exact","78 HOLLAND RD, SOUTH ORANGE, NJ, 07079",63463797,"R"
859395,"78 HOOKSETT TURNPIKE","CONCORD","NH",3301,43.1562830870001,-71.595481955,395,"78 HOOKSETT TURNPIKE, CONCORD, NH, 3301","Match","Exact","78 HOOKSETT TPKE, CONCORD, NH, 03301",117718170,"R"
859396,"78 HOOMALU STREET","PEARL CITY","HI",96782,21.404464917,-157.95390271,396,"78 HOOMALU STREET, PEARL CITY, HI, 96782","Match","Exact","78 HOOMALU ST, PEARL CITY, HI, 96782",203228747,"L"
859397,"78 HUXLEY WAY","FAIRPOT","NY",14450,43.07390536,-77.4455025679999,397,"78 HUXLEY WAY, FAIRPOT, NY, 14450","Match","Non_Exact","78 HUXLEY WAY, FAIRPORT, NY, 14450",14557590,"L"
859398,"78 INTERVALE ST","DORCHESTER","MA",2121,42.310869924,-71.078267032,398,"78 INTERVALE ST, DORCHESTER, MA, 2121","Match","Exact","78 INTERVALE ST, DORCHESTER, MA, 02121",85701527,"L"
859399,"78 JACKSON ST","NAHUNTA","GA",31553,31.199655282,-81.989735948,399,"78 JACKSON ST, NAHUNTA, GA, 31553","Match","Exact","78 JACKSON ST, NAHUNTA, GA, 31553",9104123,"L"
859400,"78 JARVIS COURT","FAIRFIELD","CT",6824,41.133932025,-73.2485353179999,400,"78 JARVIS COURT, FAIRFIELD, CT, 6824","Match","Exact","78 JARVIS CT, FAIRFIELD, CT, 06824",3267145,"R"
859401,"78 JENNINGS DRIVE","ALBANY","NY",12204,42.6757833940001,-73.7409317889999,401,"78 JENNINGS DRIVE, ALBANY, NY, 12204","Match","Exact","78 JENNINGS DR, ALBANY, NY, 12204",18310671,"L"
859402,"78 JOHN MILLER WAY APT 303","KEARNEY","NJ",7032,40.7545280890001,-74.159098365,402,"78 JOHN MILLER WAY APT 303, KEARNEY, NJ, 7032","Match","Non_Exact","78 JOHN ST, KEARNY, NJ, 07032",59600947,"R"
859403,"78 JOHNSON ROAD","BROWNSVILLE","VT",5071,NA,NA,403,"78 JOHNSON ROAD, BROWNSVILLE, VT, 5071","No_Match",NA,NA,NA,NA
859404,"78 JOLLY ROAD","OKEMOS","MI",48864,42.683079967,-84.365899553,404,"78 JOLLY ROAD, OKEMOS, MI, 48864","Match","Exact","78 JOLLY RD, OKEMOS, MI, 48864",17507095,"R"
859405,"78 JUDITH DRIVE","CORAM","NY",11727,40.8673446020001,-72.978558848,405,"78 JUDITH DRIVE, CORAM, NY, 11727","Match","Exact","78 JUDITH DR, CORAM, NY, 11727",114011183,"R"
859406,"78 KATIE LANE","KINGSLAND","GA",31548,30.7831682510001,-81.713911691,406,"78 KATIE LANE, KINGSLAND, GA, 31548","Match","Exact","78 KATIE LN, KINGSLAND, GA, 31548",627320439,"L"
859407,"78 KELLY DR","LANCASTER","MA",1523,42.4352380030001,-71.7023375219999,407,"78 KELLY DR, LANCASTER, MA, 1523","Match","Exact","78 KELLY DR, LANCASTER, MA, 01523",40035051,"L"
859408,"78 KELLY ROAD","CARMEL","NY",10512,41.407172464,-73.657893969,408,"78 KELLY ROAD, CARMEL, NY, 10512","Match","Exact","78 KELLY RD, CARMEL, NY, 10512",647212633,"R"
859409,"78 KELSEY AVENUE","TRENTON","NJ",8618,40.23542709,-74.769451912,409,"78 KELSEY AVENUE, TRENTON, NJ, 8618","Match","Exact","78 KELSEY AVE, TRENTON, NJ, 08618",60178324,"R"
859410,"78 KNIGHTS RD","BUCKINGHAM","VA",23921,37.541694142,-78.510900578,410,"78 KNIGHTS RD, BUCKINGHAM, VA, 23921","Match","Exact","78 KNIGHTS RD, BUCKINGHAM, VA, 23921",627142728,"R"
859411,"78 KOYEN STREET","FORDS","NJ",8863,40.532733766,-74.3032387219999,411,"78 KOYEN STREET, FORDS, NJ, 8863","Match","Exact","78 KOYEN ST, FORDS, NJ, 08863",60279545,"L"
859412,"78 LAFAYETTE ST","PATERSON","NJ",7501,40.9256303000001,-74.162591558,412,"78 LAFAYETTE ST, PATERSON, NJ, 7501","Match","Exact","78 LAFAYETTE ST, PATERSON, NJ, 07501",642139254,"R"
859413,"78 LAKE CHARLES CROSSING","COVINGTON","GA",30016,33.558051173,-83.966231652,413,"78 LAKE CHARLES CROSSING, COVINGTON, GA, 30016","Match","Exact","78 LAKE CHARLES CROSSING, COVINGTON, GA, 30016",23638240,"L"
859414,"78 LAKE DRIVE","WYANDANCH","NY",11798,40.7491643770001,-73.355418857,414,"78 LAKE DRIVE, WYANDANCH, NY, 11798","Match","Exact","78 LAKE DR, WYANDANCH, NY, 11798",113975067,"R"
859415,"78 LAKE ROAD","OTISFIELD","ME",4270,44.049033681,-70.498297513,415,"78 LAKE ROAD, OTISFIELD, ME, 4270","Match","Exact","78 LAKE RD, OTISFIELD, ME, 04270",627325763,"R"
859416,"78 LARRIMER AVE","WORTHINGTON","OH",43085,40.0995881150001,-83.0195414089999,416,"78 LARRIMER AVE, WORTHINGTON, OH, 43085","Match","Exact","78 LARRIMER AVE, WORTHINGTON, OH, 43085",135568211,"R"
859417,"78 LASALLE STREET","EAST LONGMEADOW","MA",1028,42.0782007,-72.518547707,417,"78 LASALLE STREET, EAST LONGMEADOW, MA, 1028","Match","Exact","78 LASALLE ST, E LONGMEADOW, MA, 01028",4039772,"L"
859418,"78 LASSO COURT","ANGIER","NC",27501,35.523699745,-78.598252394,418,"78 LASSO COURT, ANGIER, NC, 27501","Match","Exact","78 LASSO CT, ANGIER, NC, 27501",623953361,"R"
859419,"78 LAUREL DRIVE","SPRINGFIELD","NJ",7081,40.6977055400001,-74.309393985,419,"78 LAUREL DRIVE, SPRINGFIELD, NJ, 7081","Match","Exact","78 LAUREL DR, SPRINGFIELD, NJ, 07081",60569854,"R"
859420,"78 LEBER RD","BLAUVELT","NY",10913,41.072084601,-73.9573373819999,420,"78 LEBER RD, BLAUVELT, NY, 10913","Match","Exact","78 LEBER RD, BLAUVELT, NY, 10913",124628941,"L"
859421,"78 LEDFORD RD","HARRISBURG","IL",62946,37.6890024300001,-88.61124839,421,"78 LEDFORD RD, HARRISBURG, IL, 62946","Match","Exact","78 LEDFORD RD, HARRISBURG, IL, 62946",640535302,"R"
859422,"78 LEE AVENUE","BRIDGEPORT","CT",6605,41.169487459,-73.205377007,422,"78 LEE AVENUE, BRIDGEPORT, CT, 6605","Match","Exact","78 LEE AVE, BRIDGEPORT, CT, 06605",3223905,"R"
859423,"78 LEWIS LN","BASALT","CO",81621,39.384703798,-107.086825048,423,"78 LEWIS LN, BASALT, CO, 81621","Match","Exact","78 LEWIS LN, BASALT, CO, 81621",625072686,"L"
859424,"78 LEXINGTON AVENUE","SALAMANCA","NY",14779,42.15230518,-78.708208804,424,"78 LEXINGTON AVENUE, SALAMANCA, NY, 14779","Match","Exact","78 LEXINGTON AVE, SALAMANCA, NY, 14779",122025561,"R"
859425,"78 LEXINGTON AVENUE","WESTBURY","NY",11590,40.751284744,-73.590102193,425,"78 LEXINGTON AVENUE, WESTBURY, NY, 11590","Match","Exact","78 LEXINGTON AVE, WESTBURY, NY, 11590",147627891,"R"
859426,"78 LIBERTY ST","NEWINGTON","CT",6111,41.6843538460001,-72.746861356,426,"78 LIBERTY ST, NEWINGTON, CT, 6111","Match","Exact","78 LIBERTY ST, NEWINGTON, CT, 06111",3514554,"R"
859427,"78 LINCOLN AVENUE","FLORHAM PARK","NJ",7932,40.774637247,-74.386353554,427,"78 LINCOLN AVENUE, FLORHAM PARK, NJ, 7932","Match","Exact","78 LINCOLN AVE, FLORHAM PARK, NJ, 07932",60453830,"R"
859428,"78 LOGGERHEAD DRIVE","COLUMBIA","SC",29229,34.1430472230001,-80.867198484,428,"78 LOGGERHEAD DRIVE, COLUMBIA, SC, 29229","Match","Exact","78 LOGGERHEAD DR, COLUMBIA, SC, 29229",71863829,"L"
859429,"78 LONG LN","EAST HAMPTON","NY",11937,40.9700491040001,-72.204234033,429,"78 LONG LN, EAST HAMPTON, NY, 11937","Match","Exact","78 LONG LN, EAST HAMPTON, NY, 11937",634985973,"R"
859430,"78 LUSARD ST","PAINESVILLE","OH",44077,41.718842022,-81.239899639,430,"78 LUSARD ST, PAINESVILLE, OH, 44077","Match","Exact","78 LUSARD ST, PAINESVILLE, OH, 44077",137466254,"R"
859431,"78 LYNN DR","MOUNDSVILLE","WV",26041,NA,NA,431,"78 LYNN DR, MOUNDSVILLE, WV, 26041","No_Match",NA,NA,NA,NA
859432,"78 LYNNHAVEN PARKWAY SUIT 450","VIRGINIA BEACH","VA",23452,NA,NA,432,"78 LYNNHAVEN PARKWAY SUIT 450, VIRGINIA BEACH, VA, 23452","No_Match",NA,NA,NA,NA
859433,"78 LYON COURT","JERSEY CITY","NJ",7305,40.7117107890001,-74.1048729189999,433,"78 LYON COURT, JERSEY CITY, NJ, 7305","Match","Exact","78 LYON CT, JERSEY CITY, NJ, 07305",626225112,"R"
859434,"78 LYON ROAD","WEST BROOKFIELD","MA",1585,42.2838953890001,-72.207328766,434,"78 LYON ROAD, WEST BROOKFIELD, MA, 1585","Match","Exact","78 LYON RD, W BROOKFIELD, MA, 01585",40149361,"L"
859435,"78 MAGNOLIA RIDGE","MILLBROOK","AL",36054,32.514282345,-86.3856457209999,435,"78 MAGNOLIA RIDGE, MILLBROOK, AL, 36054","Match","Exact","78 MAGNOLIA RIDGE, MILLBROOK, AL, 36054",623581313,"L"
859436,"78 MAHLON STREET","SHINNSTON","WV",26431,39.3964752570001,-80.297425631,436,"78 MAHLON STREET, SHINNSTON, WV, 26431","Match","Exact","78 MAHLON ST, SHINNSTON, WV, 26431",53297880,"R"
859437,"78 MAIN STREET","LITTLE FERRY","NJ",7463,NA,NA,437,"78 MAIN STREET, LITTLE FERRY, NJ, 7463","No_Match",NA,NA,NA,NA
859438,"78 MAIN STREET","SALISBURY","CT",6068,41.978127713,-73.425274279,438,"78 MAIN STREET, SALISBURY, CT, 6068","Match","Exact","78 MAIN ST, SALISBURY, CT, 06068",3114142,"L"
859439,"78 MAIN STREET","WEST PARIS","ME",4289,44.3283161580001,-70.5617649009999,439,"78 MAIN STREET, WEST PARIS, ME, 4289","Match","Exact","78 MAIN ST, WEST PARIS, ME, 04289",92668100,"L"
859440,"78 MAJOR WILLHOIT ROAD","FRENCHBURG","KY",40322,37.9567918980001,-83.729055586,440,"78 MAJOR WILLHOIT ROAD, FRENCHBURG, KY, 40322","Match","Non_Exact","78 MAJOR WILHOIT RD, FRENCHBURG, KY, 40322",43441936,"R"
859441,"78 MANHATTAN AVENUE APT 2F","NEW YORK","NY",10025,40.796999677,-73.962672321,441,"78 MANHATTAN AVENUE APT 2F, NEW YORK, NY, 10025","Match","Exact","78 MANHATTAN AVE, NEW YORK, NY, 10025",59656911,"R"
859442,"78 MANION STREET","SOMERVILLE","MA",2143,NA,NA,442,"78 MANION STREET, SOMERVILLE, MA, 2143","No_Match",NA,NA,NA,NA
859443,"78 MAPLE DRIVE","WOODBURY","TN",37190,35.8191608430001,-86.0547630949999,443,"78 MAPLE DRIVE, WOODBURY, TN, 37190","Match","Exact","78 MAPLE DR, WOODBURY, TN, 37190",612057438,"R"
859444,"78 MAPLE SPRINGS ROAD","ASHEVILLE","NC",28805,35.5901517140001,-82.491398541,444,"78 MAPLE SPRINGS ROAD, ASHEVILLE, NC, 28805","Match","Exact","78 MAPLE SPRINGS RD, ASHEVILLE, NC, 28805",645367192,"L"
859445,"78 MAPLE ST APT 17","LEWISTON","ME",4240,44.0913780380001,-70.210568646,445,"78 MAPLE ST APT 17, LEWISTON, ME, 4240","Match","Exact","78 MAPLE ST, LEWISTON, ME, 04240",77961755,"L"
859446,"78 MARBROOK LANE","FINCHVILLE","KY",40022,38.1567921660001,-85.3060412889999,446,"78 MARBROOK LANE, FINCHVILLE, KY, 40022","Match","Exact","78 MARBROOK LN, FINCHVILLE, KY, 40022",97093829,"L"
859447,"78 MATTY HOUSE CIRCLE","LYNDON CENTER","VT",5850,44.5374597100001,-72.01051993,447,"78 MATTY HOUSE CIRCLE, LYNDON CENTER, VT, 5850","Match","Exact","78 MATTY HOUSE CIR, LYNDON CENTER, VT, 05850",642860635,"L"
859448,"78 MAY VALLEY LANE","FENTON","MO",63026,38.519198547,-90.467046103,448,"78 MAY VALLEY LANE, FENTON, MO, 63026","Match","Exact","78 MAY VALLEY LN, FENTON, MO, 63026",100129447,"L"
859449,"78 MEADOW ROAD","BRIARCLIFF MANOR","NY",10510,41.1545145650001,-73.854162135,449,"78 MEADOW ROAD, BRIARCLIFF MANOR, NY, 10510","Match","Exact","78 MEADOW RD, BRIARCLIFF MANOR, NY, 10510",139730253,"L"
859450,"78 MEADOW ROAD","RIVERSIDED","CT",6878,41.0243423360001,-73.579466043,450,"78 MEADOW ROAD, RIVERSIDED, CT, 6878","Match","Non_Exact","78 MEADOW RD, RIVERSIDE, CT, 06878",618528425,"R"
859451,"78 MEADOWLARK DR","HARTSELL","AL",35640,34.4547283690001,-86.8956427369999,451,"78 MEADOWLARK DR, HARTSELL, AL, 35640","Match","Non_Exact","78 MEADOWLARK DR, HARTSELLE, AL, 35640",623834746,"L"
859452,"78 MEDFORD STREET","MEDFORD","MA",2155,42.3988838170001,-71.105031423,452,"78 MEDFORD STREET, MEDFORD, MA, 2155","Match","Exact","78 MEDFORD ST, MEDFORD, MA, 02155",86859112,"L"
859453,"78 MILLER LANE EAST","EAST HAMPTON","NY",11937,40.975378569,-72.1841267629999,453,"78 MILLER LANE EAST, EAST HAMPTON, NY, 11937","Match","Exact","78 MILLER LN E, EAST HAMPTON, NY, 11937",113961639,"L"
859454,"78 MONTAGUE","TURNER FALLS","MA",1376,42.592869756,-72.55366678,454,"78 MONTAGUE, TURNER FALLS, MA, 1376","Match","Non_Exact","78 MONTAGUE ST, TURNERS FALLS, MA, 01376",647324891,"L"
859455,"78 MOSSWOOD DRIVE","SUSUIN","CA",94581,NA,NA,455,"78 MOSSWOOD DRIVE, SUSUIN, CA, 94581","No_Match",NA,NA,NA,NA
859456,"78 MOTT STREET SUITE 303","NEW YORK","NY",10013,40.7164857290001,-73.997955885,456,"78 MOTT STREET SUITE 303, NEW YORK, NY, 10013","Match","Exact","78 MOTT ST, NEW YORK, NY, 10013",59653819,"R"
859457,"78 MOUNTAIN VIEW DR","ROCKMARG","GA",30153,34.0069704260001,-85.013969236,457,"78 MOUNTAIN VIEW DR, ROCKMARG, GA, 30153","Match","Non_Exact","78 MOUNTAIN VIEW DR, ROCKMART, GA, 30153",636100553,"R"
859458,"78 MOZART ST UNT 2","JAMAICA PLAIN","MA",2130,42.320254409,-71.104208012,458,"78 MOZART ST UNT 2, JAMAICA PLAIN, MA, 2130","Match","Exact","78 MOZART ST, JAMAICA PLAIN, MA, 02130",85698734,"L"
859459,"78 MT MUIR CT","SAN RAFAEL","CA",94903,38.0271846260001,-122.573548975,459,"78 MT MUIR CT, SAN RAFAEL, CA, 94903","Match","Exact","78 MOUNT MUIR CT, SAN RAFAEL, CA, 94903",192761836,"R"
859460,"78 N CRUSADER CROSSING","BEAUFORT","SC",29906,NA,NA,460,"78 N CRUSADER CROSSING, BEAUFORT, SC, 29906","No_Match",NA,NA,NA,NA
859461,"78 N HILLCREST RD","SILER CITY","NC",27344,35.744981598,-79.469161936,461,"78 N HILLCREST RD, SILER CITY, NC, 27344","Match","Exact","78 N HILLCREST RD, SILER CITY, NC, 27344",71359360,"L"
859462,"78 N RIDGE RD","THOMASVILLE","PA",17364,39.906457974,-76.951139312,462,"78 N RIDGE RD, THOMASVILLE, PA, 17364","Match","Exact","78 N RIDGE RD, THOMASVILLE, PA, 17364",88761653,"L"
859463,"78 NEWTOWN PLAINS RD","LEE","NH",3861,NA,NA,463,"78 NEWTOWN PLAINS RD, LEE, NH, 3861","No_Match",NA,NA,NA,NA
859464,"78 NEWTOWN PLAINS ROAD","LEE","NH",3681,NA,NA,464,"78 NEWTOWN PLAINS ROAD, LEE, NH, 3681","No_Match",NA,NA,NA,NA
859465,"78 NORTH CROWNPOINTE DRIVE","JACKSON","MS",39211,32.397224653,-90.122786637,465,"78 NORTH CROWNPOINTE DRIVE, JACKSON, MS, 39211","Match","Exact","78 N CROWNPOINTE DR, JACKSON, MS, 39211",611215408,"L"
859466,"78 NORTH FRANKLIN STREET","ATHENS","NY",12015,42.266622995,-73.806592628,466,"78 NORTH FRANKLIN STREET, ATHENS, NY, 12015","Match","Exact","78 N FRANKLIN ST, ATHENS, NY, 12015",35671268,"L"
859467,"78 NORTHVIEW HILLS CT","SAG HARBOR","NY",11963,40.9873770300001,-72.3374567279999,467,"78 NORTHVIEW HILLS CT, SAG HARBOR, NY, 11963","Match","Exact","78 NORTHVIEW HILLS CT, SAG HARBOR, NY, 11963",114071110,"L"
859468,"78 NW 3RD STREET","HOMESTEAD","FL",33030,25.472566522,-80.478207267,468,"78 NW 3RD STREET, HOMESTEAD, FL, 33030","Match","Exact","78 NW 3RD ST, HOMESTEAD, FL, 33030",115991643,"L"
859469,"78 OAK RUN ROAD","LOCK HAVEN","PA",17745,41.183486343,-77.334381212,469,"78 OAK RUN ROAD, LOCK HAVEN, PA, 17745","Match","Exact","78 OAK RUN RD, LOCK HAVEN, PA, 17745",624370846,"R"
859470,"78 OAKRIDGE","GREENWICH","CT",6830,41.0217541740001,-73.6348397209999,470,"78 OAKRIDGE, GREENWICH, CT, 6830","Match","Non_Exact","78 OAK RIDGE ST, GREENWICH, CT, 06830",3256735,"R"
859471,"78 OLD COLEBROOK RD","COLEBROOK","CT",6021,41.973689332,-73.090998392,471,"78 OLD COLEBROOK RD, COLEBROOK, CT, 6021","Match","Exact","78 OLD COLEBROOK RD, COLEBROOK, CT, 06021",3130068,"R"
859472,"78 OLD LAKE SHORE ROAD","GILFORD","NH",3249,43.5631774730001,-71.4259207169999,472,"78 OLD LAKE SHORE ROAD, GILFORD, NH, 3249","Match","Exact","78 OLD LAKE SHORE RD, GILFORD, NH, 03249",145503567,"R"
859473,"78 OLD OAK ROAD","WARWICK","NY",10990,41.264116674,-74.341032367,473,"78 OLD OAK ROAD, WARWICK, NY, 10990","Match","Exact","78 OLD OAK RD, WARWICK, NY, 10990",124434259,"L"
859474,"78 OLD POST ROAD","NORTHFORD","CT",6472,41.3987334290001,-72.790530812,474,"78 OLD POST ROAD, NORTHFORD, CT, 6472","Match","Exact","78 OLD POST RD, NORTHFORD, CT, 06472",3722340,"L"
859475,"78 OLIVE STREET","NEW HAVEN","CT",6511,41.3048295560001,-72.919986593,475,"78 OLIVE STREET, NEW HAVEN, CT, 6511","Match","Exact","78 OLIVE ST, NEW HAVEN, CT, 06511",3701593,"L"
859476,"78 ONDAORA PARKWAY","HIGHLAND FALLS","NY",10928,41.361290927,-73.9662767259999,476,"78 ONDAORA PARKWAY, HIGHLAND FALLS, NY, 10928","Match","Exact","78 ONDAORA PKWY, HIGHLAND FALLS, NY, 10928",124498874,"L"
859477,"78 ORCHARD ST","NEW YORK CITY","NY",10002,40.71769772,-73.9904405089999,477,"78 ORCHARD ST, NEW YORK CITY, NY, 10002","Match","Exact","78 ORCHARD ST, NEW YORK, NY, 10002",59654031,"R"
859478,"78 OVERLOOK ROAD","HASTINGS ON HUDSON","NY",10706,40.992813219,-73.864552459,478,"78 OVERLOOK ROAD, HASTINGS ON HUDSON, NY, 10706","Match","Exact","78 OVERLOOK RD, HASTINGS ON HUDSON, NY, 10706",139777158,"R"
859479,"78 PARK AVENUE","FREEPORT","NY",11520,40.653779108,-73.599308954,479,"78 PARK AVENUE, FREEPORT, NY, 11520","Match","Exact","78 PARK AVE, FREEPORT, NY, 11520",147631231,"R"
859480,"78 PASEO ALTA CALLE 2","SAN JUAN","PR",926,NA,NA,480,"78 PASEO ALTA CALLE 2, SAN JUAN, PR, 926","No_Match",NA,NA,NA,NA
859481,"78 PAVILION PARK","ROCHESTER","NY",14620,43.1309783470001,-77.6116512249999,481,"78 PAVILION PARK, ROCHESTER, NY, 14620","Match","Non_Exact","78 PAVILION ST, ROCHESTER, NY, 14620",14540618,"R"
859482,"78 PEARL ST UNIT 3","NEW HAVEN","CT",6511,41.3141298730001,-72.9162063209999,482,"78 PEARL ST UNIT 3, NEW HAVEN, CT, 6511","Match","Exact","78 PEARL ST, NEW HAVEN, CT, 06511",3701441,"L"
859483,"78 PEMBERWICK ROAD","GREENWICH","CT",6831,41.019601085,-73.654820477,483,"78 PEMBERWICK ROAD, GREENWICH, CT, 6831","Match","Exact","78 PEMBERWICK RD, GREENWICH, CT, 06831",636470056,"L"
859484,"78 PFISTER DRIVE","NEWINGTON","CT",6111,41.6626577750001,-72.7325164929999,484,"78 PFISTER DRIVE, NEWINGTON, CT, 6111","Match","Exact","78 PFISTER DR, NEWINGTON, CT, 06111",635488900,"R"
859485,"78 PINE STREET","DANVERS","MA",1923,42.5654605340001,-70.951215572,485,"78 PINE STREET, DANVERS, MA, 1923","Match","Exact","78 PINE ST, DANVERS, MA, 01923",623768727,"L"
859486,"78 PONDS EDGE COURT","FELTON","DE",19943,39.0098533280001,-75.549136427,486,"78 PONDS EDGE COURT, FELTON, DE, 19943","Match","Exact","78 PONDS EDGE CT, FELTON, DE, 19943",617129725,"R"
859487,"78 PORT AVE","ELIZABETH","NJ",7201,NA,NA,487,"78 PORT AVE, ELIZABETH, NJ, 7201","No_Match",NA,NA,NA,NA
859488,"78 PORTLAND PLACE","JONESBORO","GA",30238,33.52153071,-84.388616945,488,"78 PORTLAND PLACE, JONESBORO, GA, 30238","Match","Exact","78 PORTLAND PL, JONESBORO, GA, 30238",632430945,"L"
859489,"78 PRIDE ROCK WAY","PHIIPPSBURG","ME",4562,43.7740536690001,-69.829814223,489,"78 PRIDE ROCK WAY, PHIIPPSBURG, ME, 4562","Match","Non_Exact","78 PRIDE ROCK WAY, PHIPPSBURG, ME, 04562",641508672,"L"
859490,"78 PRIDE ROCK WAY","PHIPPSBURG","ME",4562,43.7740536690001,-69.829814223,490,"78 PRIDE ROCK WAY, PHIPPSBURG, ME, 4562","Match","Exact","78 PRIDE ROCK WAY, PHIPPSBURG, ME, 04562",641508672,"L"
859491,"78 Q STREET","SALT LAKE CITY","UT",84103,40.7711891960001,-111.859547474,491,"78 Q STREET, SALT LAKE CITY, UT, 84103","Match","Exact","78 Q ST, SALT LAKE CITY, UT, 84103",176068175,"R"
859492,"78 QUARTERMASTER","HILTON HEAD ISLAND","SC",29928,32.1657178400001,-80.783394314,492,"78 QUARTERMASTER, HILTON HEAD ISLAND, SC, 29928","Match","Exact","78 QUARTERMASTER, HILTON HEAD ISLAND, SC, 29928",612418867,"L"
859493,"78 QUINNEHTUK ROAD","LONGMEADOW","MA",1106,42.0368934210001,-72.5424676009999,493,"78 QUINNEHTUK ROAD, LONGMEADOW, MA, 1106","Match","Exact","78 QUINNEHTUK RD, LONGMEADOW, MA, 01106",4042206,"L"
859494,"78 RAINWATER LANE","DALLAS","GA",30157,33.9181445950001,-84.744603485,494,"78 RAINWATER LANE, DALLAS, GA, 30157","Match","Exact","78 RAINWATER LN, DALLAS, GA, 30157",624277964,"R"
859495,"78 RENFIELD DRIVE","PRINCETON","NJ",8540,40.3028948960001,-74.645442472,495,"78 RENFIELD DRIVE, PRINCETON, NJ, 8540","Match","Exact","78 RENFIELD DR, PRINCETON, NJ, 08540",641527533,"L"
859496,"78 REVERE ST","PAWTUCKET","RI",2861,41.89617845,-71.343279246,496,"78 REVERE ST, PAWTUCKET, RI, 2861","Match","Exact","78 REVERE ST, PAWTUCKET, RI, 02861",47469032,"L"
859497,"78 RIDDLE STREET","SOUTH SHORE","KY",41175,38.7275533690001,-82.951882511,497,"78 RIDDLE STREET, SOUTH SHORE, KY, 41175","Match","Exact","78 RIDDLE ST, SOUTH SHORE, KY, 41175",151392996,"L"
859498,"78 RIDGE AVE","NEWTON","MA",2459,42.3231516160001,-71.191824388,498,"78 RIDGE AVE, NEWTON, MA, 2459","Match","Exact","78 RIDGE AVE, NEWTON, MA, 02459",86866741,"L"
859499,"78 RIDGE ST SUITE 1D","NEW YORK","NY",10002,40.718275663,-73.983538225,499,"78 RIDGE ST SUITE 1D, NEW YORK, NY, 10002","Match","Exact","78 RIDGE ST, NEW YORK, NY, 10002",59654752,"R"
859500,"78 RIDGE STREET 1D","NEW YORK","NY",10002,40.718275663,-73.983538225,500,"78 RIDGE STREET 1D, NEW YORK, NY, 10002","Match","Exact","78 RIDGE ST, NEW YORK, NY, 10002",59654752,"R"
