"ID","Address","City","State","Zip","lat","long","id","input_address","match_indicator","match_type","matched_address","tiger_line_id","tiger_side"
161001,"137-08 31ST RD 5B","FLUSHING","NY",11354,40.769690586,-73.831341256,1,"137-08 31ST RD 5B, FLUSHING, NY, 11354","Match","Exact","137-8 31ST RD, FLUSHING, NY, 11354",59700092,"R"
161002,"137-12 130TH AVE","JAMAICA","NY",11436,40.671337126,-73.800417811,2,"137-12 130TH AVE, JAMAICA, NY, 11436","Match","Exact","137-12 130TH AVE, JAMAICA, NY, 11436",59715224,"R"
161003,"137-12 96TH PLACE","OZONE PARK","NY",11417,40.6724194380001,-73.839258946,3,"137-12 96TH PLACE, OZONE PARK, NY, 11417","Match","Exact","137-12 96TH PL, OZONE PARK, NY, 11417",59708645,"R"
161004,"137-13 173RD STREET","JAMAICA","NY",11434,40.672679992,-73.7675672839999,4,"137-13 173RD STREET, JAMAICA, NY, 11434","Match","Exact","137-13 173RD ST, JAMAICA, NY, 11434",59719613,"L"
161005,"137-14 71ST AVE","FLUSHING","NY",11367,40.7268841060001,-73.826405005,5,"137-14 71ST AVE, FLUSHING, NY, 11367","Match","Exact","137-14 71ST AVE, FLUSHING, NY, 11367",59710223,"R"
161006,"137-15 257 STREET","ROSEDALE","NY",11422,40.659752687,-73.726971878,6,"137-15 257 STREET, ROSEDALE, NY, 11422","Match","Exact","137-15 257TH ST, ROSEDALE, NY, 11422",59721972,"L"
161007,"137-19 97TH AVENUE","JAMAICA","NY",11435,40.695344827,-73.8119617099999,7,"137-19 97TH AVENUE, JAMAICA, NY, 11435","Match","Exact","137-19 97TH AVE, JAMAICA, NY, 11435",59713117,"L"
161008,"137-21 MEADE HILL RD","GLENOMA","WA",98336,46.5258060690001,-122.136675267,8,"137-21 MEADE HILL RD, GLENOMA, WA, 98336","Match","Exact","137 MEADE HILL RD, GLENOMA, WA, 98336",636510777,"R"
161009,"137-22 CANEY LANE","ROSEDALE","NY",11422,40.6632767720001,-73.7282361969999,9,"137-22 CANEY LANE, ROSEDALE, NY, 11422","Match","Exact","137-22 CANEY LN, ROSEDALE, NY, 11422",59721952,"R"
161010,"137-22 CANEY LN","ROSEDALE","NY",11422,40.6632767720001,-73.7282361969999,10,"137-22 CANEY LN, ROSEDALE, NY, 11422","Match","Exact","137-22 CANEY LN, ROSEDALE, NY, 11422",59721952,"R"
161011,"137-25 219 STREET APT 1","SPRINGFIELD","NY",11413,40.674869641,-73.752859944,11,"137-25 219 STREET APT 1, SPRINGFIELD, NY, 11413","Match","Non_Exact","137-25 219TH ST, SPRINGFIELD GARDENS, NY, 11413",59721105,"L"
161012,"137-25 BELKNAP STREET","SPRINGFIELD GARDENS","NY",11413,40.675282768,-73.7580767279999,12,"137-25 BELKNAP STREET, SPRINGFIELD GARDENS, NY, 11413","Match","Exact","137-25 BELKNAP ST, SPRINGFIELD GARDENS, NY, 11413",652212946,"L"
161013,"137-25 CANEY LANE","ROSEDALE","NY",11422,40.663268735,-73.728265313,13,"137-25 CANEY LANE, ROSEDALE, NY, 11422","Match","Exact","137-25 CANEY LN, ROSEDALE, NY, 11422",59721952,"L"
161014,"137-28 75TH ROAD","FLUSHING","NY",11367,40.722911271,-73.823596698,14,"137-28 75TH ROAD, FLUSHING, NY, 11367","Match","Exact","137-28 75TH RD, FLUSHING, NY, 11367",59730348,"R"
161015,"137-41 173RD ST","JAMAICA","NY",11434,40.6722284780001,-73.767517116,15,"137-41 173RD ST, JAMAICA, NY, 11434","Match","Exact","137-41 173RD ST, JAMAICA, NY, 11434",59719613,"L"
161016,"137-53 232ND STREET","LAURELTON","NY",11413,40.670979898,-73.7403864629999,16,"137-53 232ND STREET, LAURELTON, NY, 11413","Match","Exact","137-53 232ND ST, LAURELTON, NY, 11413",59721585,"L"
161017,"137","AMHERST","MA",1002,NA,NA,17,"137, AMHERST, MA, 1002","No_Match",NA,NA,NA,NA
161018,"137","MIAMI","FL",33177,NA,NA,18,"137, MIAMI, FL, 33177","No_Match",NA,NA,NA,NA
161019,"1370 101ST STREET","NIAGARA FALLS","NY",14304,43.0917108030001,-78.946726821,19,"1370 101ST STREET, NIAGARA FALLS, NY, 14304","Match","Exact","1370 101ST ST, NIAGARA FALLS, NY, 14304",48688259,"L"
161020,"1370 10TH STREET","WEST PALM BEACH","FL",33407,NA,NA,20,"1370 10TH STREET, WEST PALM BEACH, FL, 33407","Tie",NA,NA,NA,NA
161021,"1370 AFTON ST APT 780","HOUSTON","TX",77055,29.7941055790001,-95.473244449,21,"1370 AFTON ST APT 780, HOUSTON, TX, 77055","Match","Exact","1370 AFTON ST, HOUSTON, TX, 77055",96635813,"R"
161022,"1370 ARCADY DRIVE","LAKE FOREST","IL",60045,42.219238972,-87.881955741,22,"1370 ARCADY DRIVE, LAKE FOREST, IL, 60045","Match","Exact","1370 ARCADY DR, LAKE FOREST, IL, 60045",119644498,"R"
161023,"1370 AUBURN COURT","BOYNTON BEACH","FL",33436,26.5627352110001,-80.1014659099999,23,"1370 AUBURN COURT, BOYNTON BEACH, FL, 33436","Match","Exact","1370 AUBURN CT, BOYNTON BEACH, FL, 33436",115495422,"L"
161024,"1370 AVENUE OF THE AMERICAS 16TH FL","NEW YORK","NY",10019,40.763362768,-73.977883573,24,"1370 AVENUE OF THE AMERICAS 16TH FL, NEW YORK, NY, 10019","Match","Exact","1370 AVE OF THE AMERICAS, NEW YORK, NY, 10019",59657125,"R"
161025,"1370 BAY RIDGE PARKWAY 3RD FLOOR","BROOKLYN","NY",11228,NA,NA,25,"1370 BAY RIDGE PARKWAY 3RD FLOOR, BROOKLYN, NY, 11228","No_Match",NA,NA,NA,NA
161026,"1370 BIRCH STREET","DENVER","CO",80220,39.7377041410001,-104.93615188,26,"1370 BIRCH STREET, DENVER, CO, 80220","Match","Exact","1370 BIRCH ST, DENVER, CO, 80220",177311361,"R"
161027,"1370 BOARDWALK AVE","FLORISSANT","MO",63031,38.8281410280001,-90.3249481999999,27,"1370 BOARDWALK AVE, FLORISSANT, MO, 63031","Match","Exact","1370 BOARDWALK AVE, FLORISSANT, MO, 63031",100116336,"L"
161028,"1370 BRIARCLIFF RD","MACON","GA",31211,32.864412756,-83.624847604,28,"1370 BRIARCLIFF RD, MACON, GA, 31211","Match","Exact","1370 BRIARCLIFF RD, MACON, GA, 31211",81062276,"L"
161029,"1370 BROADWAY SUITE 525","NEW YORK","NY",10018,40.7520990240001,-73.987493559,29,"1370 BROADWAY SUITE 525, NEW YORK, NY, 10018","Match","Exact","1370 BROADWAY, NEW YORK, NY, 10018",59658608,"R"
161030,"1370 BROADWAY","NEW YORK","NY",10018,40.7520990240001,-73.987493559,30,"1370 BROADWAY, NEW YORK, NY, 10018","Match","Exact","1370 BROADWAY, NEW YORK, NY, 10018",59658608,"R"
161031,"1370 BURNING TREE","FLORISSANT","MO",63033,38.7965931840001,-90.311098315,31,"1370 BURNING TREE, FLORISSANT, MO, 63033","Match","Non_Exact","1370 BURNING TREE DR, FLORISSANT, MO, 63033",100144428,"R"
161032,"1370 BYRON DRIVE UNIT 22","SALINAS","CA",93901,36.6548691740001,-121.664991866,32,"1370 BYRON DRIVE UNIT 22, SALINAS, CA, 93901","Match","Exact","1370 BYRON DR, SALINAS, CA, 93901",196851885,"R"
161033,"1370 CALIFORNIA ST SUITE 311","SAN FRANCISCO","CA",94109,37.79105206,-122.416888031,33,"1370 CALIFORNIA ST SUITE 311, SAN FRANCISCO, CA, 94109","Match","Exact","1370 CALIFORNIA ST, SAN FRANCISCO, CA, 94109",192283844,"R"
161034,"1370 CALLE BAACK","BERNALILLO","NM",87004,35.3126091130001,-106.580532806,34,"1370 CALLE BAACK, BERNALILLO, NM, 87004","Match","Non_Exact","1370 CLL BAACK, BERNALILLO, NM, 87004",194008822,"R"
161035,"1370 CANTON AVE","MILTON","MA",2186,42.234797868,-71.108493645,35,"1370 CANTON AVE, MILTON, MA, 2186","Match","Exact","1370 CANTON AVE, MILTON, MA, 02186",87301941,"L"
161036,"1370 CARLING DRIVE 207","SAINT PAUL","MN",55108,44.9717138180001,-93.156224989,36,"1370 CARLING DRIVE 207, SAINT PAUL, MN, 55108","Match","Exact","1370 CARLING DR, SAINT PAUL, MN, 55108",97667389,"L"
161037,"1370 CARLING DRIVE APT 211","ST PAUL","MN",55108,44.9717138180001,-93.156224989,37,"1370 CARLING DRIVE APT 211, ST PAUL, MN, 55108","Match","Exact","1370 CARLING DR, SAINT PAUL, MN, 55108",97667389,"L"
161038,"1370 CHELSEA COURT","LOS ALTOS","CA",94024,37.3576020090001,-122.072927565,38,"1370 CHELSEA COURT, LOS ALTOS, CA, 94024","Match","Exact","1370 CHELSEA CT, LOS ALTOS, CA, 94024",122935316,"R"
161039,"1370 CHELSEY LANE","ALPHARETTA","GA",30004,34.0909016410001,-84.324427995,39,"1370 CHELSEY LANE, ALPHARETTA, GA, 30004","Match","Exact","1370 CHELSEY LN, ALPHARETTA, GA, 30004",17382563,"L"
161040,"1370 CHESTNUT STREET","WEST BEND","WI",53095,43.419712136,-88.19481662,40,"1370 CHESTNUT STREET, WEST BEND, WI, 53095","Match","Exact","1370 CHESTNUT ST, WEST BEND, WI, 53095",79554786,"R"
161041,"1370 COASTAL DR","ROCKWALL","TX",75087,32.945815957,-96.486964579,41,"1370 COASTAL DR, ROCKWALL, TX, 75087","Match","Exact","1370 COASTAL DR, ROCKWALL, TX, 75087",213565822,"L"
161042,"1370 COUNTY RD 36","TUSKEGEE","AL",36083,32.4543922070001,-85.759751288,42,"1370 COUNTY RD 36, TUSKEGEE, AL, 36083","Match","Exact","1370 CO RD 36, TUSKEGEE, AL, 36083",69126001,"R"
161043,"1370 CR 405","TAYLOR","TX",76574,30.5175249910001,-97.431656322,43,"1370 CR 405, TAYLOR, TX, 76574","Match","Exact","1370 CO RD 405, TAYLOR, TX, 76574",126437724,"L"
161044,"1370 CUMULUS COURT","HENDERSON","NV",89012,36.050747083,-115.0446096,44,"1370 CUMULUS COURT, HENDERSON, NV, 89012","Match","Non_Exact","1370 CUMULUS CT, HENDERSON, NV, 89014",201966199,"R"
161045,"1370 DEAGLEWAY DR APT D","FAIRBORN","OH",45324,39.7880211410001,-83.989986791,45,"1370 DEAGLEWAY DR APT D, FAIRBORN, OH, 45324","Match","Exact","1370 DEAGLEWAY DR, FAIRBORN, OH, 45324",143408076,"R"
161046,"1370 DEER MOUNTAIN CT","KETCHIKAN","AK",99901,55.340722724,-131.626505613,46,"1370 DEER MOUNTAIN CT, KETCHIKAN, AK, 99901","Match","Exact","1370 DEER MOUNTAIN CT, KETCHIKAN, AK, 99901",637354299,"L"
161047,"1370 DEERWOOD CR","STAPLETON","GA",30823,33.1610208600001,-82.439454266,47,"1370 DEERWOOD CR, STAPLETON, GA, 30823","Match","Exact","1370 DEERWOOD CIR, STAPLETON, GA, 30823",642632353,"L"
161048,"1370 DORCHESTER AVENUE UNIT 23","DORCHESTER","MA",2122,42.3039627110001,-71.059234139,48,"1370 DORCHESTER AVENUE UNIT 23, DORCHESTER, MA, 2122","Match","Exact","1370 DORCHESTER AVE, DORCHESTER, MA, 02122",85713225,"L"
161049,"1370 DRYBRANCH RD","MOREHEAD","KY",40351,38.3156866840001,-83.35648238,49,"1370 DRYBRANCH RD, MOREHEAD, KY, 40351","Match","Non_Exact","1370 DRY BRANCH RD, MOREHEAD, KY, 40351",39623106,"L"
161050,"1370 DUCHAMP RD","BROUSSARD","LA",70518,30.113980284,-91.901374419,50,"1370 DUCHAMP RD, BROUSSARD, LA, 70518","Match","Exact","1370 DUCHAMP RD, BROUSSARD, LA, 70518",85823697,"L"
161051,"1370 DUTCH HERITAGE LANE","BALDWIN","WI",54002,44.95141147,-92.381152619,51,"1370 DUTCH HERITAGE LANE, BALDWIN, WI, 54002","Match","Exact","1370 DUTCH HERITAGE LN, BALDWIN, WI, 54002",110918936,"L"
161052,"1370 ELDER DR","AURORA","IL",60506,41.783940199,-88.363808631,52,"1370 ELDER DR, AURORA, IL, 60506","Match","Exact","1370 ELDER DR, AURORA, IL, 60506",119549219,"L"
161053,"1370 ESTERLY OAKS DRIVE","HANOVER","MN",55341,45.172667415,-93.656652467,53,"1370 ESTERLY OAKS DRIVE, HANOVER, MN, 55341","Match","Exact","1370 ESTERLY OAKS DR, HANOVER, MN, 55341",44016078,"L"
161054,"1370 EVERGREEN HEIGHTS DR","WOODLAND PARK","CO",80863,39.0001228100001,-105.073614062,54,"1370 EVERGREEN HEIGHTS DR, WOODLAND PARK, CO, 80863","Match","Exact","1370 EVERGREEN HEIGHTS DR, WOODLAND PARK, CO, 80863",130956299,"R"
161055,"1370 EWING RD","HARRIET","AR",72639,35.9732434960001,-92.467722873,55,"1370 EWING RD, HARRIET, AR, 72639","Match","Exact","1370 EWING RD, HARRIET, AR, 72639",2217797,"L"
161056,"1370 FAIRVIEW DR","ELLENWOOD","GA",30294,NA,NA,56,"1370 FAIRVIEW DR, ELLENWOOD, GA, 30294","No_Match",NA,NA,NA,NA
161057,"1370 FAIRWOOD DR","HUNTINGTOWN","MD",20639,38.6033205530001,-76.586123555,57,"1370 FAIRWOOD DR, HUNTINGTOWN, MD, 20639","Match","Exact","1370 FAIRWOOD DR, HUNTINGTOWN, MD, 20639",650223085,"L"
161058,"1370 FM 116","GATESVILLE","TX",76528,31.405311969,-97.797116134,58,"1370 FM 116, GATESVILLE, TX, 76528","Match","Exact","1370 FM 116, GATESVILLE, TX, 76528",146557316,"L"
161059,"1370 GRANDVIEW AVE APT 212","COLUMBUS","OH",43212,39.9858928,-83.0446796689999,59,"1370 GRANDVIEW AVE APT 212, COLUMBUS, OH, 43212","Match","Exact","1370 GRANDVIEW AVE, COLUMBUS, OH, 43212",637674115,"R"
161060,"1370 HARSLOW PLACE","PITTSBURGH","PA",15204,NA,NA,60,"1370 HARSLOW PLACE, PITTSBURGH, PA, 15204","No_Match",NA,NA,NA,NA
161061,"1370 HAWKINS CRAWFORD ROAD","COOKEVILLE","TN",38501,36.155400469,-85.58715569,61,"1370 HAWKINS CRAWFORD ROAD, COOKEVILLE, TN, 38501","Match","Exact","1370 HAWKINS CRAWFORD RD, COOKEVILLE, TN, 38501",25141446,"R"
161062,"1370 HIGHPOINT LN","BOGART","GA",30622,33.890928767,-83.529503921,62,"1370 HIGHPOINT LN, BOGART, GA, 30622","Match","Exact","1370 HIGHPOINT LN, BOGART, GA, 30622",648568666,"R"
161063,"1370 HOONA STREET","PEARL CITY","HI",96782,21.4077488940001,-157.957447629,63,"1370 HOONA STREET, PEARL CITY, HI, 96782","Match","Exact","1370 HOONA ST, PEARL CITY, HI, 96782",203228672,"L"
161064,"1370 JONES RD","FAIRBANKS","AK",99709,64.9206551070001,-147.906026141,64,"1370 JONES RD, FAIRBANKS, AK, 99709","Match","Exact","1370 JONES RD, FAIRBANKS, AK, 99709",190918670,"R"
161065,"1370 KAOLIN ROAD","COBDEN","IL",62920,37.490989052,-89.276100609,65,"1370 KAOLIN ROAD, COBDEN, IL, 62920","Match","Exact","1370 KAOLIN RD, COBDEN, IL, 62920",639687220,"R"
161066,"1370 KING ROAD","PISGAH FOREST","NC",28768,NA,NA,66,"1370 KING ROAD, PISGAH FOREST, NC, 28768","Tie",NA,NA,NA,NA
161067,"1370 LAFAYETTE STREET","CAPE MAY","NJ",8204,38.946723262,-74.911311102,67,"1370 LAFAYETTE STREET, CAPE MAY, NJ, 8204","Match","Exact","1370 LAFAYETTE ST, CAPE MAY, NJ, 08204",635387390,"R"
161068,"1370 LEE ROAD 439 APT 10","SMITH STATION","AL",36877,NA,NA,68,"1370 LEE ROAD 439 APT 10, SMITH STATION, AL, 36877","No_Match",NA,NA,NA,NA
161069,"1370 LEHMAN ROAD","TROY","OH",45373,40.006042742,-84.054945265,69,"1370 LEHMAN ROAD, TROY, OH, 45373","Match","Exact","1370 LEHMAN RD, TROY, OH, 45373",135300241,"R"
161070,"1370 MACON LANE","JACKSON","IL",62650,39.6882620440001,-90.352605287,70,"1370 MACON LANE, JACKSON, IL, 62650","Match","Non_Exact","1370 MASON LN, JACKSONVILLE, IL, 62650",81438631,"L"
161071,"1370 MARSHALL ST","MERRITT ISLAND","FL",32953,28.3812951900001,-80.7040346589999,71,"1370 MARSHALL ST, MERRITT ISLAND, FL, 32953","Match","Exact","1370 MARSHALL ST, MERRITT ISLAND, FL, 32953",93893274,"R"
161072,"1370 MONTHEATH CIRCLE","ORLANDO","FL",34761,28.5868988500001,-81.5124121709999,72,"1370 MONTHEATH CIRCLE, ORLANDO, FL, 34761","Match","Non_Exact","1370 MONTHEATH CIR, OCOEE, FL, 34761",94418465,"L"
161073,"1370 MUTUAL COURT","PORT REPUBLIC","MD",20676,38.4856085700001,-76.550840304,73,"1370 MUTUAL COURT, PORT REPUBLIC, MD, 20676","Match","Exact","1370 MUTUAL CT, PORT REPUBLIC, MD, 20676",78188635,"R"
161074,"1370 N BREA BLVD STE 217","FULLERTON","CA",92835,NA,NA,74,"1370 N BREA BLVD STE 217, FULLERTON, CA, 92835","No_Match",NA,NA,NA,NA
161075,"1370 N LIME STREET","PORTERVILLE","CA",93257,36.090327583,-119.01772482,75,"1370 N LIME STREET, PORTERVILLE, CA, 93257","Match","Exact","1370 N LIME ST, PORTERVILLE, CA, 93257",618560087,"R"
161076,"1370 N WILSON AVE 515","BARTOW","FL",33830,27.9086790810001,-81.840830136,76,"1370 N WILSON AVE 515, BARTOW, FL, 33830","Match","Non_Exact","1370 N WILSON AVE, BARTOW, FL, 33830",647072446,"R"
161077,"1370 NATCHEZ TRACE","MARIETTA","GA",30008,33.9199739220001,-84.571072376,77,"1370 NATCHEZ TRACE, MARIETTA, GA, 30008","Match","Non_Exact","1370 NATCHEZ TRCE SW, MARIETTA, GA, 30008",17222573,"L"
161078,"1370 NE OLEARY STREET","OAK HARBOR","WA",98277,48.309481293,-122.637772303,78,"1370 NE OLEARY STREET, OAK HARBOR, WA, 98277","Match","Exact","1370 NE OLEARY ST, OAK HARBOR, WA, 98277",187579627,"R"
161079,"1370 NEW YORK AVENUE 5G","BROOKLYN","NY",11210,40.639575662,-73.9454641089999,79,"1370 NEW YORK AVENUE 5G, BROOKLYN, NY, 11210","Match","Non_Exact","1370 NEW YORK AVE, BROOKLYN, NY, 11210",59081582,"R"
161080,"1370 NEWBERRY RD","PINE APPLE","AL",36768,31.8500749340001,-87.042014244,80,"1370 NEWBERRY RD, PINE APPLE, AL, 36768","Match","Exact","1370 NEWBERRY RD, PINE APPLE, AL, 36768",10816517,"L"
161081,"1370 NORTH FAIRFIELD RD STE C","BEAVERCREEK","OH",45432,39.729608496,-84.0574359889999,81,"1370 NORTH FAIRFIELD RD STE C, BEAVERCREEK, OH, 45432","Match","Exact","1370 N FAIRFIELD RD, BEAVERCREEK, OH, 45432",143377870,"R"
161082,"1370 NW 53 STREET","MIAMI","DE",33142,NA,NA,82,"1370 NW 53 STREET, MIAMI, DE, 33142","No_Match",NA,NA,NA,NA
161083,"1370 NW 53 STREET","MIAMI","FL",33142,25.8238448170001,-80.219701728,83,"1370 NW 53 STREET, MIAMI, FL, 33142","Match","Exact","1370 NW 53RD ST, MIAMI, FL, 33142",116005084,"L"
161084,"1370 OAKWOOD AVE","DES PLAINES","IL",60016,42.0352121930001,-87.890535131,84,"1370 OAKWOOD AVE, DES PLAINES, IL, 60016","Match","Exact","1370 OAKWOOD AVE, DES PLAINES, IL, 60016",616887110,"L"
161085,"1370 OLD MIDDLEBURG RD N APT 7","JACKSONVILLE","FL",32210,NA,NA,85,"1370 OLD MIDDLEBURG RD N APT 7, JACKSONVILLE, FL, 32210","No_Match",NA,NA,NA,NA
161086,"1370 OPAL VALLEY ST","HENDERSON","NV",89052,35.972018533,-115.111118371,86,"1370 OPAL VALLEY ST, HENDERSON, NV, 89052","Match","Exact","1370 OPAL VALLEY ST, HENDERSON, NV, 89052",201991702,"R"
161087,"1370 PANTHEON WAY SUITE 110","SAN ANTONIO","TX",78232,29.596841639,-98.472968058,87,"1370 PANTHEON WAY SUITE 110, SAN ANTONIO, TX, 78232","Match","Exact","1370 PANTHEON WAY, SAN ANTONIO, TX, 78232",101710938,"R"
161088,"1370 PEABODY ST NW APT 203","WASHINGTON","DC",20011,38.963134338,-77.0327176769999,88,"1370 PEABODY ST NW APT 203, WASHINGTON, DC, 20011","Match","Exact","1370 PEABODY ST NW, WASHINGTON, DC, 20011",644042864,"R"
161089,"1370 PERTH ROAD","HAGAMAN","NY",12806,43.0146287630001,-74.075832142,89,"1370 PERTH ROAD, HAGAMAN, NY, 12806","Match","Non_Exact","1370 PERTH RD, HAGAMAN, NY, 12086",18760493,"R"
161090,"1370 PLAINFIELD","ST CRANSTON","RI",2920,41.7964713280001,-71.4814180229999,90,"1370 PLAINFIELD, ST CRANSTON, RI, 2920","Match","Non_Exact","1370 PLAINFIELD ST, CRANSTON, RI, 02920",47487439,"L"
161091,"1370 RAGSDALE RD","MORGANTON","NC",28655,35.8035543170001,-81.640796235,91,"1370 RAGSDALE RD, MORGANTON, NC, 28655","Match","Exact","1370 RAGSDALE RD, MORGANTON, NC, 28655",37157139,"L"
161092,"1370 RIDGEWOOD DRIVE STE 9","CHIC","CA",95973,39.7745287010001,-121.840563398,92,"1370 RIDGEWOOD DRIVE STE 9, CHIC, CA, 95973","Match","Non_Exact","1370 RIDGEWOOD DR, CHICO, CA, 95973",68477059,"L"
161093,"1370 RIDGEWOOD DRIVE STE 9","CHICO","CA",95973,39.7745287010001,-121.840563398,93,"1370 RIDGEWOOD DRIVE STE 9, CHICO, CA, 95973","Match","Exact","1370 RIDGEWOOD DR, CHICO, CA, 95973",68477059,"L"
161094,"1370 ROCKFORD PLACE","LENOIR","NC",28645,35.9012896020001,-81.5779835289999,94,"1370 ROCKFORD PLACE, LENOIR, NC, 28645","Match","Exact","1370 ROCKFORD PL, LENOIR, NC, 28645",628841373,"L"
161095,"1370 ROTHLEY AVENUE","ROSLYN","PA",19001,40.126962371,-75.126055682,95,"1370 ROTHLEY AVENUE, ROSLYN, PA, 19001","Match","Exact","1370 ROTHLEY AVE, ROSLYN, PA, 19001",135093035,"L"
161096,"1370 S 400 W","SALT LAKE CITY","UT",84115,40.739796777,-111.902522485,96,"1370 S 400 W, SALT LAKE CITY, UT, 84115","Match","Exact","1370 S 400 W, SALT LAKE CITY, UT, 84115",635857221,"R"
161097,"1370 S EUCLID ST","LA HABRA","CA",90631,33.9146729280001,-117.946314738,97,"1370 S EUCLID ST, LA HABRA, CA, 90631","Match","Exact","1370 S EUCLID ST, LA HABRA, CA, 90631",627824699,"L"
161098,"1370 S SANDERSON AVENUE","ANAHEIM","CA",92806,33.8144688530001,-117.874533954,98,"1370 S SANDERSON AVENUE, ANAHEIM, CA, 92806","Match","Exact","1370 S SANDERSON AVE, ANAHEIM, CA, 92806",144128045,"R"
161099,"1370 SHARON ST NW","ATLANTA","GA",30314,33.7546533870001,-84.432413088,99,"1370 SHARON ST NW, ATLANTA, GA, 30314","Match","Exact","1370 SHARON ST NW, ATLANTA, GA, 30314",17340469,"L"
161100,"1370 SIOUX ST","LOS ALAMOS","NM",87544,35.888190562,-106.267153661,100,"1370 SIOUX ST, LOS ALAMOS, NM, 87544","Match","Exact","1370 SIOUX ST, LOS ALAMOS, NM, 87544",143755201,"L"
161101,"1370 SLOAN AVENUE","LAKEWOOD","OH",44107,NA,NA,101,"1370 SLOAN AVENUE, LAKEWOOD, OH, 44107","No_Match",NA,NA,NA,NA
161102,"1370 ST NICHOLAS AVE APT 32N","NEW YORK","NY",10033,40.8478133780001,-73.934823942,102,"1370 ST NICHOLAS AVE APT 32N, NEW YORK, NY, 10033","Match","Exact","1370 ST NICHOLAS AVE, NEW YORK, NY, 10033",639546993,"R"
161103,"1370 STACY DR","CANTON","MI",48188,42.2979526560001,-83.446524782,103,"1370 STACY DR, CANTON, MI, 48188","Match","Exact","1370 STACY DR, CANTON, MI, 48188",95712159,"R"
161104,"1370 SW 5TH AVENUE","DEERFIELD BEACH","FL",33441,26.299938802,-80.109978543,104,"1370 SW 5TH AVENUE, DEERFIELD BEACH, FL, 33441","Match","Exact","1370 SW 5TH AVE, DEERFIELD BEACH, FL, 33441",114780703,"L"
161105,"1370 TOWNVIEW AVENUE UNIT 301","SANTA ROSA","CA",95405,38.4347447390001,-122.684987249,105,"1370 TOWNVIEW AVENUE UNIT 301, SANTA ROSA, CA, 95405","Match","Exact","1370 TOWNVIEW AVE, SANTA ROSA, CA, 95405",604962942,"R"
161106,"1370 TRANCAS STREET NO 403","NAPA","CA",94558,38.322608024,-122.301069593,106,"1370 TRANCAS STREET NO 403, NAPA, CA, 94558","Match","Non_Exact","1370 TRANCAS ST, NAPA, CA, 94558",67415333,"R"
161107,"1370 TUTUILLA ROAD","PENDLETON","OR",97801,NA,NA,107,"1370 TUTUILLA ROAD, PENDLETON, OR, 97801","No_Match",NA,NA,NA,NA
161108,"1370 TYLER AVE","ANNAPOLIS","MD",21403,38.9548214320001,-76.5075916609999,108,"1370 TYLER AVE, ANNAPOLIS, MD, 21403","Match","Exact","1370 TYLER AVE, ANNAPOLIS, MD, 21403",628190604,"R"
161109,"1370 ULULANI STREET APT C515","HILO","HI",96720,19.705204479,-155.078098231,109,"1370 ULULANI STREET APT C515, HILO, HI, 96720","Match","Exact","1370 ULULANI ST, HILO, HI, 96720",203023927,"R"
161110,"1370 VIRGINIA AVE 5H","BRONX","NY",10462,40.8349714620001,-73.861918069,110,"1370 VIRGINIA AVE 5H, BRONX, NY, 10462","Match","Exact","1370 VIRGINIA AVE, BRONX, NY, 10462",80304704,"R"
161111,"1370 W BRAVEHEART CT","WEST VALLEY","UT",84119,40.6961715150001,-111.931501373,111,"1370 W BRAVEHEART CT, WEST VALLEY, UT, 84119","Match","Exact","1370 BRAVEHEART CT, WEST VALLEY, UT, 84119",176144739,"L"
161112,"1370 W FAIRVIEW DR","BATON ROUGE","LA",70816,30.4438510900001,-91.0334417,112,"1370 W FAIRVIEW DR, BATON ROUGE, LA, 70816","Match","Exact","1370 W FAIRVIEW DR, BATON ROUGE, LA, 70816",92191888,"L"
161113,"1370 W INDIAN TRAIL APT 4","AURORA","IL",60506,NA,NA,113,"1370 W INDIAN TRAIL APT 4, AURORA, IL, 60506","No_Match",NA,NA,NA,NA
161114,"1370 WASHINGTON AVENUE","BRONX","NY",10456,40.8346057540001,-73.905034252,114,"1370 WASHINGTON AVENUE, BRONX, NY, 10456","Match","Exact","1370 WASHINGTON AVE, BRONX, NY, 10456",80301284,"R"
161115,"1370 Washington Pike","Bridgeville","PA",15017,40.37930046,-80.096029738,115,"1370 Washington Pike, Bridgeville, PA, 15017","Match","Exact","1370 WASHINGTON PIKE, BRIDGEVILLE, PA, 15017",51617927,"R"
161116,"1370 WASHINGTON PIKE","Bridgeville","PA",15017,40.37930046,-80.096029738,116,"1370 WASHINGTON PIKE, Bridgeville, PA, 15017","Match","Exact","1370 WASHINGTON PIKE, BRIDGEVILLE, PA, 15017",51617927,"R"
161117,"1370 WATER TOWER LOOP","BIG SANDY","TX",75755,32.5737962520001,-95.081765651,117,"1370 WATER TOWER LOOP, BIG SANDY, TX, 75755","Match","Exact","1370 WATER TOWER LOOP, BIG SANDY, TX, 75755",617730721,"L"
161118,"1370 WESTMINSTER","ST PAUL","MN",55130,44.982432014,-93.085415669,118,"1370 WESTMINSTER, ST PAUL, MN, 55130","Match","Non_Exact","1370 WESTMINISTER ST, SAINT PAUL, MN, 55130",619836277,"L"
161119,"1370 WILLIAM STREET","BUFFALO","NY",14206,42.884829763,-78.821226435,119,"1370 WILLIAM STREET, BUFFALO, NY, 14206","Match","Exact","1370 WILLIAM ST, BUFFALO, NY, 14206",48324742,"L"
161120,"1370 WILLOW ROAD","MENLO PARK","CA",94025,NA,NA,120,"1370 WILLOW ROAD, MENLO PARK, CA, 94025","No_Match",NA,NA,NA,NA
161121,"1370 WOODCOCK RD","SEQUIM","WA",98382,48.1161007810001,-123.186740143,121,"1370 WOODCOCK RD, SEQUIM, WA, 98382","Match","Exact","1370 WOODCOCK RD, SEQUIM, WA, 98382",606557086,"L"
161122,"1370 WOODPOINT WAY","LAWRENCEVILLE","GA",30043,34.0266040870001,-83.9520985839999,122,"1370 WOODPOINT WAY, LAWRENCEVILLE, GA, 30043","Match","Exact","1370 WOODPOINT WAY, LAWRENCEVILLE, GA, 30043",628062608,"R"
161123,"1370 YUKON AVENUE SUITE 337","HAWTHORNE","CA",90250,NA,NA,123,"1370 YUKON AVENUE SUITE 337, HAWTHORNE, CA, 90250","No_Match",NA,NA,NA,NA
161124,"13700 174TH AVE SE","RENTON","WA",98059,47.4801141030001,-122.110798872,124,"13700 174TH AVE SE, RENTON, WA, 98059","Match","Exact","13700 174TH AVE SE, RENTON, WA, 98059",648204306,"L"
161125,"13700 ASHBY RD","ROCKVILLE","MD",20853,39.079636722,-77.094832958,125,"13700 ASHBY RD, ROCKVILLE, MD, 20853","Match","Exact","13700 ASHBY RD, ROCKVILLE, MD, 20853",62059819,"L"
161126,"13700 ATHENS RD","CONWAY","MO",65632,37.504781069,-92.78707919,126,"13700 ATHENS RD, CONWAY, MO, 65632","Match","Exact","13700 ATHENS RD, CONWAY, MO, 65632",26115724,"R"
161127,"13700 AUDREY LN","LARGO","FL",33771,27.896632873,-82.732687902,127,"13700 AUDREY LN, LARGO, FL, 33771","Match","Exact","13700 AUDREY LN, LARGO, FL, 33771",631921595,"L"
161128,"13700 BEAUWICK COURT","SILVER SPRING","MD",20906,39.081527512,-77.0636694839999,128,"13700 BEAUWICK COURT, SILVER SPRING, MD, 20906","Match","Exact","13700 BEAUWICK CT, SILVER SPRING, MD, 20906",62060626,"L"
161129,"13700 BEAUWICK CT","SILVER SPRING","MD",20906,39.081527512,-77.0636694839999,129,"13700 BEAUWICK CT, SILVER SPRING, MD, 20906","Match","Exact","13700 BEAUWICK CT, SILVER SPRING, MD, 20906",62060626,"L"
161130,"13700 BEAUWICK CT","SILVER SPRING","NY",20906,NA,NA,130,"13700 BEAUWICK CT, SILVER SPRING, NY, 20906","No_Match",NA,NA,NA,NA
161131,"13700 CANTRELL RD","LITTLE ROCK","AR",72223,34.801208079,-92.424688862,131,"13700 CANTRELL RD, LITTLE ROCK, AR, 72223","Match","Exact","13700 CANTRELL RD, LITTLE ROCK, AR, 72223",627810576,"R"
161132,"13700 E 50TH ST","KANSAS CITY","MO",64133,39.0302536140001,-94.418653927,132,"13700 E 50TH ST, KANSAS CITY, MO, 64133","Match","Exact","13700 E 50TH ST, KANSAS CITY, MO, 64133",91494045,"L"
161133,"13700 ELBURY AVE","BAKERSFIELD","CA",93311,35.338272632,-119.15421345,133,"13700 ELBURY AVE, BAKERSFIELD, CA, 93311","Match","Exact","13700 ELBURY AVE, BAKERSFIELD, CA, 93311",648094671,"R"
161134,"13700 FM 150 WEST","DRIFTWOOD","TX",78619,30.107892113,-98.020853535,134,"13700 FM 150 WEST, DRIFTWOOD, TX, 78619","Match","Non_Exact","13700 FM 150, DRIFTWOOD, TX, 78619",63843826,"R"
161135,"13700 GOLDFINCH DRIVE","CARMEL","IN",46032,39.988180008,-86.153577152,135,"13700 GOLDFINCH DRIVE, CARMEL, IN, 46032","Match","Exact","13700 GOLDFINCH DR, CARMEL, IN, 46032",29334731,"L"
161136,"13700 HICKORY RUN LANE","FORT MYERS","FL",33912,26.5433028410001,-81.822005716,136,"13700 HICKORY RUN LANE, FORT MYERS, FL, 33912","Match","Exact","13700 HICKORY RUN LN, FORT MYERS, FL, 33912",118063143,"R"
161137,"13700 HWY 392","GREELEY","CO",80631,40.4807991420001,-104.800609158,137,"13700 HWY 392, GREELEY, CO, 80631","Match","Non_Exact","13700 STATE HWY 392, GREELEY, CO, 80631",188673710,"R"
161138,"13700 JUDSON ROAD APT 82","SAN ANTONIO","TX",78233,29.5613686950001,-98.361286347,138,"13700 JUDSON ROAD APT 82, SAN ANTONIO, TX, 78233","Match","Exact","13700 JUDSON RD, SAN ANTONIO, TX, 78233",101581233,"L"
161139,"13700 LA MIRADA","LA MIRADA","CA",90638,33.9064885080001,-118.011688304,139,"13700 LA MIRADA, LA MIRADA, CA, 90638","Match","Non_Exact","13700 LA MIRADA BLVD, LA MIRADA, CA, 90638",142851925,"L"
161140,"13700 MARINA POINTE DR","MARINA DEL REY","CA",90292,NA,NA,140,"13700 MARINA POINTE DR, MARINA DEL REY, CA, 90292","No_Match",NA,NA,NA,NA
161141,"13700 MARINA POINTE DRIVE APT 502","MARINA DEL REY","CA",90292,NA,NA,141,"13700 MARINA POINTE DRIVE APT 502, MARINA DEL REY, CA, 90292","No_Match",NA,NA,NA,NA
161142,"13700 N FOUNTAIN HILLS BLVD","FOUNTAIN HILLS","AZ",85268,33.6100010530001,-111.729549524,142,"13700 N FOUNTAIN HILLS BLVD, FOUNTAIN HILLS, AZ, 85268","Match","Exact","13700 N FOUNTAIN HILLS BLVD, FOUNTAIN HILLS, AZ, 85268",128959395,"L"
161143,"13700 N FOUNTAIN HILLS","FOUNTAIN HILLS","AZ",85268,33.6100010530001,-111.729549524,143,"13700 N FOUNTAIN HILLS, FOUNTAIN HILLS, AZ, 85268","Match","Non_Exact","13700 N FOUNTAIN HILLS BLVD, FOUNTAIN HILLS, AZ, 85268",128959395,"L"
161144,"13700 N FTN HILLS BLVD 361","FOUNTAIN HILLS","AZ",85268,NA,NA,144,"13700 N FTN HILLS BLVD 361, FOUNTAIN HILLS, AZ, 85268","No_Match",NA,NA,NA,NA
161145,"13700 NE 11TH AVE","N MIAMI","FL",33161,25.902112243,-80.176947157,145,"13700 NE 11TH AVE, N MIAMI, FL, 33161","Match","Non_Exact","13700 NE 11TH AVE, NORTH MIAMI, FL, 33161",640560453,"L"
161146,"13700 NE 3 CT","NORTH MIAMI","FL",33161,25.900928934,-80.191993085,146,"13700 NE 3 CT, NORTH MIAMI, FL, 33161","Match","Exact","13700 NE 3RD CT, NORTH MIAMI, FL, 33161",116255622,"L"
161147,"13700 ROSETREE COURT","CHANTILLY","VA",20151,38.9027336990001,-77.4217316689999,147,"13700 ROSETREE COURT, CHANTILLY, VA, 20151","Match","Exact","13700 ROSETREE CT, CHANTILLY, VA, 20151",76027174,"R"
161148,"13700 S 176TH DR","GOODYEAR","AZ",85338,33.321920972,-112.42820855,148,"13700 S 176TH DR, GOODYEAR, AZ, 85338","Match","Exact","13700 S 176TH DR, GOODYEAR, AZ, 85338",618474490,"R"
161149,"13700 S KEELER","CRESTWOOD","IL",60445,NA,NA,149,"13700 S KEELER, CRESTWOOD, IL, 60445","No_Match",NA,NA,NA,NA
161150,"13700 SE CENTER","PORTLAND","OR",97236,45.4932827760001,-122.522331517,150,"13700 SE CENTER, PORTLAND, OR, 97236","Match","Non_Exact","13700 SE CENTER ST, PORTLAND, OR, 97236",157556673,"R"
161151,"13700 SW 20TH ST","DAVIE","FL",33325,26.094925812,-80.331705862,151,"13700 SW 20TH ST, DAVIE, FL, 33325","Match","Exact","13700 SW 20TH ST, DAVIE, FL, 33325",114762242,"L"
161152,"13700 SW 62 ST APT 236","MIAMI","FL",33183,25.709704711,-80.4149821679999,152,"13700 SW 62 ST APT 236, MIAMI, FL, 33183","Match","Non_Exact","13700 SW 62ND ST, MIAMI, FL, 33183",115964302,"L"
161153,"13700 TAHITI WAY SUITE 148","MARINA DEL REY","CA",90292,33.9737092070001,-118.452284074,153,"13700 TAHITI WAY SUITE 148, MARINA DEL REY, CA, 90292","Match","Exact","13700 TAHITI WAY, MARINA DEL REY, CA, 90292",650064431,"L"
161154,"13700 US HWY 1 SUITE 202C","JUNO BEACH","FL",33408,26.875613017,-80.054973218,154,"13700 US HWY 1 SUITE 202C, JUNO BEACH, FL, 33408","Match","Non_Exact","13700 US HWY 1, JUNO BEACH, FL, 33408",653185521,"L"
161155,"13700 VALLEY VIEW RD","EDEN PRAIRIE","MN",55344,44.867318217,-93.453486964,155,"13700 VALLEY VIEW RD, EDEN PRAIRIE, MN, 55344","Match","Exact","13700 VALLEY VIEW RD, EDEN PRAIRIE, MN, 55344",43852310,"L"
161156,"13701 10TH AVENUE","BISMARCK","ND",58504,46.794231225,-100.576959242,156,"13701 10TH AVENUE, BISMARCK, ND, 58504","Match","Non_Exact","13701 10TH AVE SE, BISMARCK, ND, 58504",198867030,"R"
161157,"13701 42ND AVE NE","SEATTLE","WA",98125,47.728555623,-122.283498615,157,"13701 42ND AVE NE, SEATTLE, WA, 98125","Match","Exact","13701 42ND AVE NE, SEATTLE, WA, 98125",239761209,"L"
161158,"13701 BOND ST","OVERLAND PARK","KS",66221,38.87573651,-94.719382982,158,"13701 BOND ST, OVERLAND PARK, KS, 66221","Match","Exact","13701 BOND ST, OVERLAND PARK, KS, 66221",91313541,"L"
161159,"13701 CAMBRIDGE CT","BELLEVILLE","MI",48111,42.2035088540001,-83.4612040919999,159,"13701 CAMBRIDGE CT, BELLEVILLE, MI, 48111","Match","Exact","13701 CAMBRIDGE CT, BELLEVILLE, MI, 48111",617584711,"L"
161160,"13701 CENTRALIA RD","BROOKSVILLE","FL",34614,28.61425569,-82.501030159,160,"13701 CENTRALIA RD, BROOKSVILLE, FL, 34614","Match","Exact","13701 CENTRALIA RD, BROOKSVILLE, FL, 34614",85462825,"L"
161161,"13701 COURTHOUSE ROAD","DINWIDDIE","VA",23841,37.084330252,-77.585064001,161,"13701 COURTHOUSE ROAD, DINWIDDIE, VA, 23841","Match","Exact","13701 COURTHOUSE RD, DINWIDDIE, VA, 23841",54143406,"R"
161162,"13701 GREEN ASH COURT","EARTH CITY","MO",63045,38.7740217620001,-90.464740499,162,"13701 GREEN ASH COURT, EARTH CITY, MO, 63045","Match","Exact","13701 GREEN ASH CT, EARTH CITY, MO, 63045",604463723,"L"
161163,"13701 HAMETOWN RD","DOYLESTOWN","OH",44230,40.9660724600001,-81.666694682,163,"13701 HAMETOWN RD, DOYLESTOWN, OH, 44230","Match","Exact","13701 HAMETOWN RD, DOYLESTOWN, OH, 44230",653476411,"L"
161164,"13701 HARVEST GLEN WAY","GERMANTOWN","MD",20874,39.1759571100001,-77.280124464,164,"13701 HARVEST GLEN WAY, GERMANTOWN, MD, 20874","Match","Exact","13701 HARVEST GLEN WAY, GERMANTOWN, MD, 20874",640529223,"L"
161165,"13701 HICKORY CREEK DR","HASLET","TX",76052,32.975555458,-97.409396165,165,"13701 HICKORY CREEK DR, HASLET, TX, 76052","Match","Exact","13701 HICKORY CREEK DR, HASLET, TX, 76052",617675479,"L"
161166,"13701 LARK SONG DRIVE","GERMANTOWN","MD",20874,39.1689558310001,-77.285135445,166,"13701 LARK SONG DRIVE, GERMANTOWN, MD, 20874","Match","Exact","13701 LARK SONG DR, GERMANTOWN, MD, 20874",638005157,"R"
161167,"13701 MARINA POINTE DRIVE APT446","MARINA DEL REY","CA",90292,33.984873151,-118.444519267,167,"13701 MARINA POINTE DRIVE APT446, MARINA DEL REY, CA, 90292","Match","Exact","13701 MARINA POINTE DR, MARINA DEL REY, CA, 90292",647557268,"L"
161168,"13701 MODRAD WAY 12","SILVER SPRING","MD",20904,39.0813983730001,-76.936745322,168,"13701 MODRAD WAY 12, SILVER SPRING, MD, 20904","Match","Exact","13701 MODRAD WAY, SILVER SPRING, MD, 20904",62094109,"R"
161169,"13701 RIVER TREE CT","CHESTER","VA",28386,37.3374196890001,-77.333887541,169,"13701 RIVER TREE CT, CHESTER, VA, 28386","Match","Non_Exact","13701 RIVER TREE CT, CHESTER, VA, 23836",641597705,"R"
161170,"13701 RIVER WALK PLACE 203","CHESTER","VA",23836,37.3372991410001,-77.335639444,170,"13701 RIVER WALK PLACE 203, CHESTER, VA, 23836","Match","Exact","13701 RIVER WALK PL, CHESTER, VA, 23836",641597725,"R"
161171,"13701 RIVER WALK WAY 203","CHESTER","VA",23836,37.3372991410001,-77.335639444,171,"13701 RIVER WALK WAY 203, CHESTER, VA, 23836","Match","Non_Exact","13701 RIVER WALK PL, CHESTER, VA, 23836",641597725,"R"
161172,"13701 RIVERSIDE DRIVE SUITE 500","SHERMAN OAKS","CA",91423,34.157615707,-118.431408536,172,"13701 RIVERSIDE DRIVE SUITE 500, SHERMAN OAKS, CA, 91423","Match","Exact","13701 RIVERSIDE DR, SHERMAN OAKS, CA, 91423",141561910,"R"
161173,"13701 SE 51ST PL","BELLEVUE","WA",98006,47.556604796,-122.157019324,173,"13701 SE 51ST PL, BELLEVUE, WA, 98006","Match","Exact","13701 SE 51ST PL, BELLEVUE, WA, 98006",186615102,"L"
161174,"13701 SMITH LANE","BREMOND","TX",76629,31.1897052370001,-96.631427108,174,"13701 SMITH LANE, BREMOND, TX, 76629","Match","Exact","13701 SMITH LN, BREMOND, TX, 76629",629666091,"R"
161175,"13701 SOUTH CENTRAL PARK","ROBBINS","IL",60472,NA,NA,175,"13701 SOUTH CENTRAL PARK, ROBBINS, IL, 60472","No_Match",NA,NA,NA,NA
161176,"13701 SW 104TH","MUSTANG","OK",73064,35.362757517,-97.77532996,176,"13701 SW 104TH, MUSTANG, OK, 73064","Match","Non_Exact","13701 SW 104TH ST, MUSTANG, OK, 73064",651746444,"R"
161177,"13701 SW 12TH ST APT A103","PEMBROKE PINES","FL",33027,25.9971625900001,-80.328636699,177,"13701 SW 12TH ST APT A103, PEMBROKE PINES, FL, 33027","Match","Non_Exact","13701 SW 12TH ST, PEMBROKE PINES, FL, 33027",114792224,"R"
161178,"13701 VISTA DE LOS PINOS","JAMUL","CA",91935,32.7163505770001,-116.884026803,178,"13701 VISTA DE LOS PINOS, JAMUL, CA, 91935","Match","Exact","13701 VIS DE LOS PINOS, JAMUL, CA, 91935",195456229,"L"
161179,"13701 W JEWELL AVE STE 212","LAKEWOOD","CO",80228,39.681677533,-105.158143066,179,"13701 W JEWELL AVE STE 212, LAKEWOOD, CO, 80228","Match","Non_Exact","13701 W JEWELL AVE, LAKEWOOD, CO, 80228",177776385,"L"
161180,"13702 23RD AVE NE","SEATTLE","WA",98125,47.7285016010001,-122.304594037,180,"13702 23RD AVE NE, SEATTLE, WA, 98125","Match","Exact","13702 23RD AVE NE, SEATTLE, WA, 98125",186576453,"R"
161181,"13702 BROKEN BRIDGE","HOUSTON","TX",77085,29.628532254,-95.4871644789999,181,"13702 BROKEN BRIDGE, HOUSTON, TX, 77085","Match","Non_Exact","13702 BROKEN BRIDGE DR, HOUSTON, TX, 77085",96128706,"R"
161182,"13702 CANAAN BRIDGE DR","HOUSTON","TX",77041,29.8603174460001,-95.6177783479999,182,"13702 CANAAN BRIDGE DR, HOUSTON, TX, 77041","Match","Exact","13702 CANAAN BRIDGE DR, HOUSTON, TX, 77041",642470942,"L"
161183,"13702 GOOSE CREEK ROAD","FAYETTEVILLE","AR",72704,36.055810706,-94.297151981,183,"13702 GOOSE CREEK ROAD, FAYETTEVILLE, AR, 72704","Match","Non_Exact","13702 W GOOSE CREEK RD, FAYETTEVILLE, AR, 72704",49082364,"L"
161184,"13702 IOWA STREET","WESTMINSTER","CA",92683,33.763656376,-117.999878517,184,"13702 IOWA STREET, WESTMINSTER, CA, 92683","Match","Exact","13702 IOWA ST, WESTMINSTER, CA, 92683",144015300,"L"
161185,"13702 MILBERT RIDGE DRIVE","BALDWIN","MD",21013,39.5014759520001,-76.505440982,185,"13702 MILBERT RIDGE DRIVE, BALDWIN, MD, 21013","Match","Exact","13702 MILBERT RIDGE DR, BALDWIN, MD, 21013",635886921,"R"
161186,"13702 RICHMOND AVENUE","HOUSTON","TX",77082,29.7292751860001,-95.632863416,186,"13702 RICHMOND AVENUE, HOUSTON, TX, 77082","Match","Exact","13702 RICHMOND AVE, HOUSTON, TX, 77082",96021132,"L"
161187,"13702 STABLETON","HOUSTON","TX",77068,NA,NA,187,"13702 STABLETON, HOUSTON, TX, 77068","No_Match",NA,NA,NA,NA
161188,"13702 SW JENNA CT","TIGARD","OR",97223,45.4227078260001,-122.819084448,188,"13702 SW JENNA CT, TIGARD, OR, 97223","Match","Exact","13702 SW JENNA CT, TIGARD, OR, 97223",158217314,"R"
161189,"13702 THORNHURST","GARFIELD HEIGHTS","OH",44105,41.4389354090001,-81.586865914,189,"13702 THORNHURST, GARFIELD HEIGHTS, OH, 44105","Match","Non_Exact","13702 THORNHURST AVE, GARFIELD HEIGHTS, OH, 44105",61127591,"R"
161190,"13702 THORNHURST","GARFIELD HTS","OH",44105,41.4389354090001,-81.586865914,190,"13702 THORNHURST, GARFIELD HTS, OH, 44105","Match","Non_Exact","13702 THORNHURST AVE, GARFIELD HEIGHTS, OH, 44105",61127591,"R"
161191,"13702 TRETHORNE CIRCLE","LITTLE ROCK","AR",72117,34.74873174,-92.1124367639999,191,"13702 TRETHORNE CIRCLE, LITTLE ROCK, AR, 72117","Match","Non_Exact","13702 TRETHORNE CIR, N LITTLE ROCK, AR, 72117",636160924,"L"
161192,"13702 W 60TH ST S","SAND SPRINGS","OK",74063,36.076614508,-96.144633311,192,"13702 W 60TH ST S, SAND SPRINGS, OK, 74063","Match","Exact","13702 60TH ST S, SAND SPRINGS, OK, 74063",601489571,"R"
161193,"13702 WOODSPIRE DRIVE","HOUSTON","TX",77085,29.628886246,-95.4856559249999,193,"13702 WOODSPIRE DRIVE, HOUSTON, TX, 77085","Match","Exact","13702 WOODSPIRE DR, HOUSTON, TX, 77085",96128709,"R"
161194,"13703 BAY FRONT DRIVE","HOUSTON","TX",77077,29.747894021,-95.6306888349999,194,"13703 BAY FRONT DRIVE, HOUSTON, TX, 77077","Match","Exact","13703 BAY FRONT DR, HOUSTON, TX, 77077",633578665,"L"
161195,"13703 CROSSLYN LN","CYPRESS","TX",77429,29.9845148850001,-95.65161944,195,"13703 CROSSLYN LN, CYPRESS, TX, 77429","Match","Exact","13703 CROSSLYN LN, CYPRESS, TX, 77429",96169766,"R"
161196,"13703 EASTCLIFF CIRCLE","CENTREVILLE","VA",20120,38.849587328,-77.4208300829999,196,"13703 EASTCLIFF CIRCLE, CENTREVILLE, VA, 20120","Match","Exact","13703 EASTCLIFF CIR, CENTREVILLE, VA, 20120",75955841,"R"
161197,"13703 GEESE CT","UPPER MARLBORO","MD",20772,38.8421261450001,-76.768529931,197,"13703 GEESE CT, UPPER MARLBORO, MD, 20772","Match","Exact","13703 GEESE CT, UPPER MARLBORO, MD, 20772",76344187,"L"
161198,"13703 JJ LANE","PERRIS","CA",92570,33.8168739880001,-117.421860937,198,"13703 JJ LANE, PERRIS, CA, 92570","Match","Exact","13703 JJ LN, PERRIS, CA, 92570",627217233,"L"
161199,"13703 JUNIPER WOODS CT","CYPRESS","TX",77429,29.996629566,-95.6359126579999,199,"13703 JUNIPER WOODS CT, CYPRESS, TX, 77429","Match","Exact","13703 JUNIPER WOODS CT, CYPRESS, TX, 77429",96167095,"R"
161200,"13703 LEXHAM GARDEN AVE","BATON ROUGE","LA",70810,30.3584410660001,-91.060907436,200,"13703 LEXHAM GARDEN AVE, BATON ROUGE, LA, 70810","Match","Non_Exact","13703 LEXHAM GARDENS AVE, BATON ROUGE, LA, 70810",92208762,"R"
161201,"13703 PERTSHIRE ROAD","HOUSTON","TX",77079,29.7753771960001,-95.5825382629999,201,"13703 PERTSHIRE ROAD, HOUSTON, TX, 77079","Match","Non_Exact","13703 PERTHSHIRE RD, HOUSTON, TX, 77079",96022152,"L"
161202,"13703 RICHMOND PARK DR UNIT 1806","JACKSONVILLE","FL",32224,30.2746469730001,-81.461814622,202,"13703 RICHMOND PARK DR UNIT 1806, JACKSONVILLE, FL, 32224","Match","Non_Exact","13703 RICHMOND PARK DR N, JACKSONVILLE, FL, 32224",83943050,"L"
161203,"13703 RIVER KEG DR","HOUSTON","TX",77083,29.6823437740001,-95.628162758,203,"13703 RIVER KEG DR, HOUSTON, TX, 77083","Match","Exact","13703 RIVER KEG DR, HOUSTON, TX, 77083",96295818,"R"
161204,"13703 WILLIAM BEANES RD","UPPER MARLBORO","MD",20772,38.811176038,-76.769371682,204,"13703 WILLIAM BEANES RD, UPPER MARLBORO, MD, 20772","Match","Exact","13703 WILLIAM BEANES RD, UPPER MARLBORO, MD, 20772",644931726,"R"
161205,"137033 90TH AVENUE","JAMAICA","NY",11435,NA,NA,205,"137033 90TH AVENUE, JAMAICA, NY, 11435","No_Match",NA,NA,NA,NA
161206,"137033","JAMAICA","NY",11435,NA,NA,206,"137033, JAMAICA, NY, 11435","No_Match",NA,NA,NA,NA
161207,"13704 BANGOR AVE","GARFIELD HEIGHTS","OH",44125,41.414129673,-81.586997535,207,"13704 BANGOR AVE, GARFIELD HEIGHTS, OH, 44125","Match","Exact","13704 BANGOR AVE, GARFIELD HEIGHTS, OH, 44125",61167176,"R"
161208,"13704 BOTTS AVE","WOODBRIDGE","VA",22191,38.6567976950001,-77.2690864589999,208,"13704 BOTTS AVE, WOODBRIDGE, VA, 22191","Match","Exact","13704 BOTTS AVE, WOODBRIDGE, VA, 22191",76511003,"R"
161209,"13704 PLANTATION WAY","EDMOND","OK",73013,35.6093058370001,-97.448390866,209,"13704 PLANTATION WAY, EDMOND, OK, 73013","Match","Exact","13704 PLANTATION WAY, EDMOND, OK, 73013",626312832,"R"
161210,"13704 SE 270 TH STREET","KENT  WA","WA",98042,47.35980713,-122.159439144,210,"13704 SE 270 TH STREET, KENT  WA, WA, 98042","Match","Non_Exact","13704 SE 270TH ST, KENT, WA, 98042",186931263,"L"
161211,"13704 SE 270 TH STREET","RICHLAND","WA",98042,47.35980713,-122.159439144,211,"13704 SE 270 TH STREET, RICHLAND, WA, 98042","Match","Non_Exact","13704 SE 270TH ST, KENT, WA, 98042",186931263,"L"
161212,"13704 SUNRISE VIEW DR","CHARLOTTE","NC",28278,35.1229913650001,-80.990756598,212,"13704 SUNRISE VIEW DR, CHARLOTTE, NC, 28278","Match","Exact","13704 SUNRISE VIEW DR, CHARLOTTE, NC, 28278",618153428,"R"
161213,"13704 VAN OWEN ST","VAN NUYS","CA",91401,34.1939324640001,-118.431469156,213,"13704 VAN OWEN ST, VAN NUYS, CA, 91401","Match","Non_Exact","13704 VANOWEN ST, VAN NUYS, CA, 91405",141561280,"L"
161214,"13704 WINDING OAK CIRCLE  UNIT 307","CENTREVILLE","VA",20121,38.8371727900001,-77.421800165,214,"13704 WINDING OAK CIRCLE  UNIT 307, CENTREVILLE, VA, 20121","Match","Exact","13704 WINDING OAK CIR, CENTREVILLE, VA, 20121",618773781,"L"
161215,"13705 340TH AVE","STRATHCONA","MN",56759,48.594504956,-95.863920825,215,"13705 340TH AVE, STRATHCONA, MN, 56759","Match","Exact","13705 340TH AVE, STRATHCONA, MN, 56759",611934977,"R"
161216,"13705 56TH AVE S APT A210","TUKWILA","WA",98168,47.4798879740001,-122.266247389,216,"13705 56TH AVE S APT A210, TUKWILA, WA, 98168","Match","Exact","13705 56TH AVE S, TUKWILA, WA, 98168",186700505,"R"
161217,"13705 DANUBE LANE","ROSEMOUNT","MN",55068,44.751209913,-93.150810526,217,"13705 DANUBE LANE, ROSEMOUNT, MN, 55068","Match","Exact","13705 DANUBE LN, ROSEMOUNT, MN, 55068",37925527,"R"
161218,"13705 FRANKFORT COURT","ROCKVILLE","MD",20853,39.0814862020001,-77.0853007169999,218,"13705 FRANKFORT COURT, ROCKVILLE, MD, 20853","Match","Exact","13705 FRANKFORT CT, ROCKVILLE, MD, 20853",62059870,"R"
161219,"13705 LELAND RD","CENTREVILLE","VA",20120,38.842470932,-77.421042375,219,"13705 LELAND RD, CENTREVILLE, VA, 20120","Match","Exact","13705 LELAND RD, CENTREVILLE, VA, 20120",75955851,"L"
161220,"13705 LELAND ROAD","CENTREVILLE","VA",20120,38.842470932,-77.421042375,220,"13705 LELAND ROAD, CENTREVILLE, VA, 20120","Match","Exact","13705 LELAND RD, CENTREVILLE, VA, 20120",75955851,"L"
161221,"13705 MILES AVE","CLEVELAND","OH",44105,41.445458758,-81.5868961149999,221,"13705 MILES AVE, CLEVELAND, OH, 44105","Match","Exact","13705 MILES AVE, CLEVELAND, OH, 44105",61127543,"L"
161222,"13705 N 80TH DR","PEORIA","AZ",85381,33.609180725,-112.232161525,222,"13705 N 80TH DR, PEORIA, AZ, 85381","Match","Exact","13705 N 80TH DR, PEORIA, AZ, 85381",128393510,"L"
161223,"13705 N MAIN STREET","TRENTON","GA",30752,34.889780624,-85.49854225,223,"13705 N MAIN STREET, TRENTON, GA, 30752","Match","Exact","13705 N MAIN ST, TRENTON, GA, 30752",79400503,"L"
161224,"13705 NORTH CAVALIER DRIVE","NEW ORLEANS","LA",70129,30.0603377350001,-89.9324666859999,224,"13705 NORTH CAVALIER DRIVE, NEW ORLEANS, LA, 70129","Match","Non_Exact","13705 N CAVELIER DR, NEW ORLEANS, LA, 70129",191722178,"R"
161225,"13705 PRIMROSE CT MD","BOWIE","MD",20715,38.99296429,-76.7681743959999,225,"13705 PRIMROSE CT MD, BOWIE, MD, 20715","Match","Exact","13705 PRIMROSE CT, BOWIE, MD, 20715",76333433,"R"
161226,"13705 SPRING VALLEY ROAD","MORGAN HILL","CA",95037,37.07269303,-121.662246189,226,"13705 SPRING VALLEY ROAD, MORGAN HILL, CA, 95037","Match","Exact","13705 SPRING VALLEY RD, MORGAN HILL, CA, 95037",640664590,"L"
161227,"13705 SUN CT","TAMPA","FL",33612,28.0751930110001,-82.537999659,227,"13705 SUN CT, TAMPA, FL, 33612","Match","Non_Exact","13705 SUN CT, TAMPA, FL, 33624",104506057,"R"
161228,"13705 W RIM DR APT 1307","EULESS","TX",76040,32.821590606,-97.070172387,228,"13705 W RIM DR APT 1307, EULESS, TX, 76040","Match","Non_Exact","13705 W RIM DR, EULESS, TX, 76040",102088706,"R"
161229,"13705 WILLIAM BEANES ROAD","UPPER MARLBORO","MD",20772,38.8111710370001,-76.769341361,229,"13705 WILLIAM BEANES ROAD, UPPER MARLBORO, MD, 20772","Match","Exact","13705 WILLIAM BEANES RD, UPPER MARLBORO, MD, 20772",644931726,"R"
161230,"13706 APPLE MOSS CRT","CORONA","CA",92880,33.980101468,-117.583197316,230,"13706 APPLE MOSS CRT, CORONA, CA, 92880","Match","Exact","13706 APPLE MOSS CT, CORONA, CA, 92880",626559808,"R"
161231,"13706 COASTAL COURT","WATERFORD","CA",95386,37.6385040120001,-120.745583871,231,"13706 COASTAL COURT, WATERFORD, CA, 95386","Match","Exact","13706 COASTAL CT, WATERFORD, CA, 95386",614139746,"R"
161232,"13706 COYOTE COURT","MINNETONA","MN",55305,44.9529173510001,-93.452254841,232,"13706 COYOTE COURT, MINNETONA, MN, 55305","Match","Non_Exact","13706 COYOTE CT, MINNETONKA, MN, 55305",641228795,"L"
161233,"13706 COYOTE COURT","MINNETONKA","MN",55305,44.9529173510001,-93.452254841,233,"13706 COYOTE COURT, MINNETONKA, MN, 55305","Match","Exact","13706 COYOTE CT, MINNETONKA, MN, 55305",641228795,"L"
161234,"13706 CRYSTALFORD CT","CENTREVILLE","VA",20120,38.8472760560001,-77.422673818,234,"13706 CRYSTALFORD CT, CENTREVILLE, VA, 20120","Match","Exact","13706 CRYSTALFORD CT, CENTREVILLE, VA, 20120",76025347,"R"
161235,"13706 FISH EAGLE DR W","JACKSONVILLE","FL",32226,NA,NA,235,"13706 FISH EAGLE DR W, JACKSONVILLE, FL, 32226","No_Match",NA,NA,NA,NA
161236,"13706 LINDSEY HILL LANE","CYPRESS","TX",77429,29.998905972,-95.6444168739999,236,"13706 LINDSEY HILL LANE, CYPRESS, TX, 77429","Match","Exact","13706 LINDSEY HILL LN, CYPRESS, TX, 77429",627777389,"R"
161237,"13706 MODRAD WAY 32","SILVER SPRING","MD",20904,39.0814441110001,-76.9367652879999,237,"13706 MODRAD WAY 32, SILVER SPRING, MD, 20904","Match","Exact","13706 MODRAD WAY, SILVER SPRING, MD, 20904",62094109,"L"
161238,"13706 PENN ST","WHITTIER","CA",90602,33.97541798,-118.029154853,238,"13706 PENN ST, WHITTIER, CA, 90602","Match","Exact","13706 PENN ST, WHITTIER, CA, 90602",651559866,"R"
161239,"13706 PENWITH CT","CHANTILLY","VA",20151,38.884111924,-77.420113514,239,"13706 PENWITH CT, CHANTILLY, VA, 20151","Match","Exact","13706 PENWITH CT, CHANTILLY, VA, 20151",76012427,"R"
161240,"13706 RHODES","UNIVERSAL CITY","TX",78147,29.5716479820001,-98.312391835,240,"13706 RHODES, UNIVERSAL CITY, TX, 78147","Match","Non_Exact","13706 RHODES, UNIVERSAL CITY, TX, 78148",101578721,"R"
161241,"13706 SPRINGHAVEN DRIVE","CHANTILLY","VA",20151,38.897201797,-77.418092391,241,"13706 SPRINGHAVEN DRIVE, CHANTILLY, VA, 20151","Match","Exact","13706 SPRINGHAVEN DR, CHANTILLY, VA, 20151",76027109,"R"
161242,"13706 W FERGUSON RD","NEW BERLIN","WI",53151,43.0045543730001,-88.083510925,242,"13706 W FERGUSON RD, NEW BERLIN, WI, 53151","Match","Exact","13706 W FERGUSON RD, NEW BERLIN, WI, 53151",53866496,"R"
161243,"13706 W TEXAS ST","WICHITA","KS",67235,37.6818991850001,-97.4998108359999,243,"13706 W TEXAS ST, WICHITA, KS, 67235","Match","Exact","13706 W TEXAS ST, WICHITA, KS, 67235",627107178,"R"
161244,"13706 WRIGLEY ST","HOUSTON","TX",77045,29.6288494090001,-95.4438686399999,244,"13706 WRIGLEY ST, HOUSTON, TX, 77045","Match","Exact","13706 WRIGLEY ST, HOUSTON, TX, 77045",96040958,"R"
161245,"13706 WRIGLEY STREET","HOUSTON","TX",77045,29.6288494090001,-95.4438686399999,245,"13706 WRIGLEY STREET, HOUSTON, TX, 77045","Match","Exact","13706 WRIGLEY ST, HOUSTON, TX, 77045",96040958,"R"
161246,"13706","FONTANA","CA",92336,NA,NA,246,"13706, FONTANA, CA, 92336","No_Match",NA,NA,NA,NA
161247,"13707 ALCHESTER LANE","HOUSTON","TX",77079,29.7703517410001,-95.5831318739999,247,"13707 ALCHESTER LANE, HOUSTON, TX, 77079","Match","Exact","13707 ALCHESTER LN, HOUSTON, TX, 77079",96022390,"L"
161248,"13707 COUNTY ROAD 171","DANBURY","TX",77534,29.2468761600001,-95.3279440159999,248,"13707 COUNTY ROAD 171, DANBURY, TX, 77534","Match","Exact","13707 CO RD 171, DANBURY, TX, 77534",116579059,"R"
161249,"13707 CRENSHAW BLVD SP 12","HAWTHORNE","CA",90250,33.9074409840001,-118.326510682,249,"13707 CRENSHAW BLVD SP 12, HAWTHORNE, CA, 90250","Match","Exact","13707 CRENSHAW BLVD, HAWTHORNE, CA, 90250",241242785,"R"
161250,"13707 DAEHNE","HOUSTON","TX",77347,NA,NA,250,"13707 DAEHNE, HOUSTON, TX, 77347","No_Match",NA,NA,NA,NA
161251,"13707 MANDARIN RD","JACKSONVILLE","FL",32223,30.139889275,-81.660671309,251,"13707 MANDARIN RD, JACKSONVILLE, FL, 32223","Match","Exact","13707 MANDARIN RD, JACKSONVILLE, FL, 32223",83918249,"R"
161252,"13707 PENINSULA RD","WHITEHOUSE","TX",75791,32.2373215650001,-95.1928296519999,252,"13707 PENINSULA RD, WHITEHOUSE, TX, 75791","Match","Exact","13707 PENINSULA RD, WHITEHOUSE, TX, 75791",141276498,"R"
161253,"13707 PINE VILLA WAY","FORT MYERS","FL",33912,26.543150214,-81.860383682,253,"13707 PINE VILLA WAY, FORT MYERS, FL, 33912","Match","Non_Exact","13707 PINE VILLA LN, FORT MYERS, FL, 33912",118120980,"L"
161254,"13707 W 123RD ST","OLATHE","KS",66062,38.9063209240001,-94.744838433,254,"13707 W 123RD ST, OLATHE, KS, 66062","Match","Exact","13707 W 123RD ST, OLATHE, KS, 66062",91301598,"R"
161255,"13707 WONDERING OAK","SAN ANTONIO","TX",78247,29.5656867380001,-98.4311144229999,255,"13707 WONDERING OAK, SAN ANTONIO, TX, 78247","Match","Exact","13707 WONDERING OAK, SAN ANTONIO, TX, 78247",101581369,"R"
161256,"13707 WOODSPIRE DRIVE","HOUSTON","TX",77085,29.62882024,-95.48564204,256,"13707 WOODSPIRE DRIVE, HOUSTON, TX, 77085","Match","Exact","13707 WOODSPIRE DR, HOUSTON, TX, 77085",96128709,"L"
161257,"13708 31ST RD APT  5A","FLUSHING","NY",11368,NA,NA,257,"13708 31ST RD APT  5A, FLUSHING, NY, 11368","No_Match",NA,NA,NA,NA
161258,"13708 ACORO STREET","CERRITOS","CA",90703,33.871789305,-118.039610297,258,"13708 ACORO STREET, CERRITOS, CA, 90703","Match","Exact","13708 ACORO ST, CERRITOS, CA, 90703",141754292,"R"
161259,"13708 APACHE PLUME PL NE","ALBUQUERQUE","NM",87111,35.152422302,-106.477471778,259,"13708 APACHE PLUME PL NE, ALBUQUERQUE, NM, 87111","Match","Exact","13708 APACHE PLUME PL NE, ALBUQUERQUE, NM, 87111",206751202,"R"
161260,"13708 CEDAR CLIFF TER","CHESTER","VA",23831,37.3243600530001,-77.448229187,260,"13708 CEDAR CLIFF TER, CHESTER, VA, 23831","Match","Exact","13708 CEDAR CLIFF TER, CHESTER, VA, 23831",201564702,"R"
161261,"13708 E ASHLER HILLS DRIVE","SCOTTSDALE","AZ",85262,33.7776704130001,-111.786218967,261,"13708 E ASHLER HILLS DRIVE, SCOTTSDALE, AZ, 85262","Match","Exact","13708 E ASHLER HILLS DR, SCOTTSDALE, AZ, 85262",128608231,"L"
161262,"13708 GILBERT ROAD","WOODBRIDGE","VA",22193,38.6540073960001,-77.341240706,262,"13708 GILBERT ROAD, WOODBRIDGE, VA, 22193","Match","Exact","13708 GILBERT RD, WOODBRIDGE, VA, 22193",76508740,"R"
161263,"13708 HERITAGE VALLEY WAY","GAINESVILLE","VA",20155,38.82270372,-77.598322875,263,"13708 HERITAGE VALLEY WAY, GAINESVILLE, VA, 20155","Match","Exact","13708 HERITAGE VALLEY WAY, GAINESVILLE, VA, 20155",616846742,"R"
161264,"13708 HUNTERS MOSS","SAN ANTONIO","TX",78230,29.5643700430001,-98.541593489,264,"13708 HUNTERS MOSS, SAN ANTONIO, TX, 78230","Match","Non_Exact","13708 HUNTERS MOSS ST, SAN ANTONIO, TX, 78230",101492345,"R"
161265,"13708 NW 18 STREET","PEMBROKE PINE","FL",33028,26.023068627,-80.330215448,265,"13708 NW 18 STREET, PEMBROKE PINE, FL, 33028","Match","Non_Exact","13708 NW 18TH ST, PEMBROKE PINES, FL, 33028",114782179,"L"
161266,"13708 NW 18 STREET","PEMBROKE PINES","FL",33028,26.023068627,-80.330215448,266,"13708 NW 18 STREET, PEMBROKE PINES, FL, 33028","Match","Exact","13708 NW 18TH ST, PEMBROKE PINES, FL, 33028",114782179,"L"
161267,"13708 RED MAGHONEY","MORENO VALLEY","CA",92553,NA,NA,267,"13708 RED MAGHONEY, MORENO VALLEY, CA, 92553","No_Match",NA,NA,NA,NA
161268,"13708 WEST RIM DRIVE APT 1013","EULESS","TX",76040,32.8215218440001,-97.070170563,268,"13708 WEST RIM DRIVE APT 1013, EULESS, TX, 76040","Match","Exact","13708 W RIM DR, EULESS, TX, 76040",102088706,"L"
161269,"13708 WHITELAW STREET","OZONE PARK","NY",11417,NA,NA,269,"13708 WHITELAW STREET, OZONE PARK, NY, 11417","No_Match",NA,NA,NA,NA
161270,"13708","CHESAPEAKE","WV",25315,NA,NA,270,"13708, CHESAPEAKE, WV, 25315","No_Match",NA,NA,NA,NA
161271,"13709 210TH STREET EAST","GRAHAM","WA",98338,47.066338263,-122.247648405,271,"13709 210TH STREET EAST, GRAHAM, WA, 98338","Match","Exact","13709 210TH ST E, GRAHAM, WA, 98338",645855699,"L"
161272,"13709 AMERICAN PRAIRIE PLACE","BRADENTON","FL",34211,27.474918927,-82.405868173,272,"13709 AMERICAN PRAIRIE PLACE, BRADENTON, FL, 34211","Match","Non_Exact","13709 AMERICAN PRARIE PL, BRADENTON, FL, 34211",645944605,"L"
161273,"13709 ASTILBE CT","CENTREVILLE","VA",20120,38.8473490170001,-77.416251534,273,"13709 ASTILBE CT, CENTREVILLE, VA, 20120","Match","Exact","13709 ASTILBE CT, CENTREVILLE, VA, 20120",614144055,"L"
161274,"13709 BARROW CLIFF LANE","CYPRESS","TX",77429,NA,NA,274,"13709 BARROW CLIFF LANE, CYPRESS, TX, 77429","No_Match",NA,NA,NA,NA
161275,"13709 BISTRAM RD","GRANTSBURG","WI",54840,45.8310489630001,-92.68921542,275,"13709 BISTRAM RD, GRANTSBURG, WI, 54840","Match","Exact","13709 BISTRAM RD, GRANTSBURG, WI, 54840",167459893,"L"
161276,"13709 KERRYDALE RD","WOODBRIDGE","VA",22193,38.6560218480001,-77.345628571,276,"13709 KERRYDALE RD, WOODBRIDGE, VA, 22193","Match","Exact","13709 KERRYDALE RD, WOODBRIDGE, VA, 22193",76508724,"L"
161277,"13709 N MARTIN WAY","MEQUON","WI",53097,43.267298689,-87.936205353,277,"13709 N MARTIN WAY, MEQUON, WI, 53097","Match","Exact","13709 MARTIN WAY, MEQUON, WI, 53097",612753786,"L"
161278,"13709 N US HWY 231","ODON","IN",47562,38.855979737,-86.9226747549999,278,"13709 N US HWY 231, ODON, IN, 47562","Match","Exact","13709 US HWY 231, ODON, IN, 47562",32083307,"L"
161279,"13709 NICOLLET AVENUE","BURNSVILLE","MN",55337,44.7551437130001,-93.2777719379999,279,"13709 NICOLLET AVENUE, BURNSVILLE, MN, 55337","Match","Exact","13709 NICOLLET AVE, BURNSVILLE, MN, 55337",653435571,"L"
161280,"13709 PROVINCIAL HILL DRIVE","LAKE OSWEGO","OR",97035,45.4276194700001,-122.732526364,280,"13709 PROVINCIAL HILL DRIVE, LAKE OSWEGO, OR, 97035","Match","Exact","13709 PROVINCIAL HILL DR, LAKE OSWEGO, OR, 97035",157939938,"R"
161281,"13709 S ATLANTIC","RIVERDALE","IL",60411,NA,NA,281,"13709 S ATLANTIC, RIVERDALE, IL, 60411","No_Match",NA,NA,NA,NA
161282,"13709 S WILKIE AVE","GARDENA","CA",90249,33.9073151420001,-118.323111102,282,"13709 S WILKIE AVE, GARDENA, CA, 90249","Match","Exact","13709 WILKIE AVE, GARDENA, CA, 90249",141661005,"R"
161283,"13709 TRULL WAY","HUDSON","FL",34669,28.359252892,-82.58854579,283,"13709 TRULL WAY, HUDSON, FL, 34669","Match","Exact","13709 TRULL WAY, HUDSON, FL, 34669",634075316,"R"
161284,"13709 W MARSHALL AVE","LITCHFIELD PARK","AZ",85340,33.5158459950001,-112.354641823,284,"13709 W MARSHALL AVE, LITCHFIELD PARK, AZ, 85340","Match","Exact","13709 W MARSHALL AVE, LITCHFIELD PARK, AZ, 85340",128858884,"L"
161285,"13709 WIREGRASS WAY","AUSTIN","TX",78717,30.48407803,-97.789625587,285,"13709 WIREGRASS WAY, AUSTIN, TX, 78717","Match","Exact","13709 WIREGRASS WAY, AUSTIN, TX, 78717",651915347,"R"
161286,"13709 WOODHAVEN CIRCLE","FORT MYERS","FL",33905,26.6992929350001,-81.7314056709999,286,"13709 WOODHAVEN CIRCLE, FORT MYERS, FL, 33905","Match","Exact","13709 WOODHAVEN CIR, FORT MYERS, FL, 33905",646573408,"L"
161287,"1371 173RD LN","BOONE","IA",50036,42.1033023590001,-93.8947605,287,"1371 173RD LN, BOONE, IA, 50036","Match","Exact","1371 173RD LN, BOONE, IA, 50036",64946600,"R"
161288,"1371 AUDUBON COURT","ATLANTA","GA",30311,33.7217906830001,-84.4700708729999,288,"1371 AUDUBON COURT, ATLANTA, GA, 30311","Match","Exact","1371 AUDUBON CT, ATLANTA, GA, 30311",618350079,"L"
161289,"1371 AUDUBON CT SW","ATLANTA","GA",30311,33.7217906830001,-84.4700708729999,289,"1371 AUDUBON CT SW, ATLANTA, GA, 30311","Match","Non_Exact","1371 AUDUBON CT, ATLANTA, GA, 30311",618350079,"L"
161290,"1371 BAR K RD","OAK GROVE","LA",71263,32.866204779,-91.5056976399999,290,"1371 BAR K RD, OAK GROVE, LA, 71263","Match","Exact","1371 BAR K RD, OAK GROVE, LA, 71263",71261846,"L"
161291,"1371 BEACON STREET","BROOKLINE","MA",2446,42.341366925,-71.1235639449999,291,"1371 BEACON STREET, BROOKLINE, MA, 2446","Match","Exact","1371 BEACON ST, BROOKLINE, MA, 02446",87245177,"L"
161292,"1371 Beverly Lane","NICHOLASVILLE","KY",40356,37.778597835,-84.539389751,292,"1371 Beverly Lane, NICHOLASVILLE, KY, 40356","Match","Exact","1371 BEVERLY LN, NICHOLASVILLE, KY, 40356",635549764,"L"
161293,"1371 BEVERLY ROAD","UNION","NJ",7083,40.686656564,-74.246232748,293,"1371 BEVERLY ROAD, UNION, NJ, 7083","Match","Exact","1371 BEVERLY RD, UNION, NJ, 07083",60576523,"R"
161294,"1371 BEVERLY ROAD","UNION","NJ",7203,NA,NA,294,"1371 BEVERLY ROAD, UNION, NJ, 7203","No_Match",NA,NA,NA,NA
161295,"1371 BITTERBERRY DRIVE","ORANGE PARK","FL",32065,30.1762986800001,-81.821697848,295,"1371 BITTERBERRY DRIVE, ORANGE PARK, FL, 32065","Match","Exact","1371 BITTERBERRY DR, ORANGE PARK, FL, 32065",608249947,"L"
161296,"1371 CANDELERO DR","WALNUT CREEK","CA",94598,37.9252613150001,-122.04534288,296,"1371 CANDELERO DR, WALNUT CREEK, CA, 94598","Match","Exact","1371 CANDELERO DR, WALNUT CREEK, CA, 94598",192056109,"L"
161297,"1371 CARRIAGE HILL LANE","FREEPORT","IL",61032,42.2843539950001,-89.644896805,297,"1371 CARRIAGE HILL LANE, FREEPORT, IL, 61032","Match","Exact","1371 CARRIAGE HILL LN, FREEPORT, IL, 61032",32693740,"R"
161298,"1371 COPPELIA COURT","HENDERSON","NV",89052,35.9776257340001,-115.086975108,298,"1371 COPPELIA COURT, HENDERSON, NV, 89052","Match","Exact","1371 COPPELIA CT, HENDERSON, NV, 89052",201984229,"R"
161299,"1371 CR 3169","JOAQUIN","TX",75954,31.9303372640001,-94.0978151479999,299,"1371 CR 3169, JOAQUIN, TX, 75954","Match","Exact","1371 CO RD 3169, JOAQUIN, TX, 75954",67870769,"L"
161300,"1371 CUMMINGS LANE","MOUNT OLIVE","AL",35117,33.632690159,-86.881937454,300,"1371 CUMMINGS LANE, MOUNT OLIVE, AL, 35117","Match","Exact","1371 CUMMINGS LN, MOUNT OLIVE, AL, 35117",646684333,"R"
161301,"1371 DENNIS DRIVE","DECATUR","FL",30032,NA,NA,301,"1371 DENNIS DRIVE, DECATUR, FL, 30032","No_Match",NA,NA,NA,NA
161302,"1371 E PARK PLACE","CHICAGO","IL",60637,41.794472909,-87.592288119,302,"1371 E PARK PLACE, CHICAGO, IL, 60637","Match","Exact","1371 E PARK PL, CHICAGO, IL, 60637",605501408,"R"
161303,"1371 FILLMORE AVE","BUFFALO","NY",14211,42.9110527710001,-78.839070987,303,"1371 FILLMORE AVE, BUFFALO, NY, 14211","Match","Exact","1371 FILLMORE AVE, BUFFALO, NY, 14211",48296552,"R"
161304,"1371 FLEMING ROAD","INDIANA","PA",15701,40.6473884230001,-79.2220136719999,304,"1371 FLEMING ROAD, INDIANA, PA, 15701","Match","Exact","1371 FLEMING RD, INDIANA, PA, 15701",66286146,"L"
161305,"1371 HARTFORD AVENUE SOUTHWEST","ATLANTA","GA",30310,33.717399793,-84.4171079239999,305,"1371 HARTFORD AVENUE SOUTHWEST, ATLANTA, GA, 30310","Match","Exact","1371 HARTFORD AVE SW, ATLANTA, GA, 30310",17345222,"R"
161306,"1371 HARWICK STREET","PALM BAY","FL",32908,27.9894120910001,-80.710932129,306,"1371 HARWICK STREET, PALM BAY, FL, 32908","Match","Non_Exact","1371 HARWICK ST SW, PALM BAY, FL, 32908",93897189,"L"
161307,"1371 HIGHWAY 88 WEST","ODEN","AR",71961,NA,NA,307,"1371 HIGHWAY 88 WEST, ODEN, AR, 71961","No_Match",NA,NA,NA,NA
161308,"1371 HOLLYBURNE AVE","MENLO PARK","CA",94025,37.4782574210001,-122.156339591,308,"1371 HOLLYBURNE AVE, MENLO PARK, CA, 94025","Match","Exact","1371 HOLLYBURNE AVE, MENLO PARK, CA, 94025",192361947,"L"
161309,"1371 HOOKER HOLLAR ROAD","KEYSER","WV",26726,NA,NA,309,"1371 HOOKER HOLLAR ROAD, KEYSER, WV, 26726","No_Match",NA,NA,NA,NA
161310,"1371 HWY 468","VINCENT","AL",35178,33.467419605,-86.3826977539999,310,"1371 HWY 468, VINCENT, AL, 35178","Match","Non_Exact","1371 CO RD 468, VINCENT, AL, 35178",221525336,"L"
161311,"1371 KENTON AVENUE","NORFOLK","VA",23504,36.857416829,-76.260535179,311,"1371 KENTON AVENUE, NORFOLK, VA, 23504","Match","Exact","1371 KENTON AVE, NORFOLK, VA, 23504",640878821,"R"
161312,"1371 KIMBERLY WAY SW 3302","ATLANTA","GA",30331,33.717970715,-84.523346174,312,"1371 KIMBERLY WAY SW 3302, ATLANTA, GA, 30331","Match","Exact","1371 KIMBERLY WAY SW, ATLANTA, GA, 30331",629550720,"L"
161313,"1371 KIMIYO STREET","STOCKTON","CA",95206,37.9110748030001,-121.305392916,313,"1371 KIMIYO STREET, STOCKTON, CA, 95206","Match","Exact","1371 KIMIYO ST, STOCKTON, CA, 95206",133877338,"L"
161314,"1371 LAMBS CREEK ROAD","MANSFIELD","PA",16933,41.822833819,-77.094383729,314,"1371 LAMBS CREEK ROAD, MANSFIELD, PA, 16933","Match","Exact","1371 LAMBS CREEK RD, MANSFIELD, PA, 16933",642761612,"L"
161315,"1371 LINCOLN PIKE","PATRIOT","OH",45658,38.7813236910001,-82.284587296,315,"1371 LINCOLN PIKE, PATRIOT, OH, 45658","Match","Exact","1371 LINCOLN PIKE, PATRIOT, OH, 45658",54973885,"R"
161316,"1371 LINDEN BLVD APT 11K","BROOKLYN","NY",11212,NA,NA,316,"1371 LINDEN BLVD APT 11K, BROOKLYN, NY, 11212","No_Match",NA,NA,NA,NA
161317,"1371 LINDEN BLVD APT 14D","BROOKLYN","NY",11212,NA,NA,317,"1371 LINDEN BLVD APT 14D, BROOKLYN, NY, 11212","No_Match",NA,NA,NA,NA
161318,"1371 LONE OAK ROAD","NEW BRAUNFELS","TX",78132,29.770089484,-98.1945090839999,318,"1371 LONE OAK ROAD, NEW BRAUNFELS, TX, 78132","Match","Exact","1371 LONE OAK RD, NEW BRAUNFELS, TX, 78132",72266039,"L"
161319,"1371 MARVIEW DR","WESTLAKE","OH",44145,41.4659742800001,-81.91430403,319,"1371 MARVIEW DR, WESTLAKE, OH, 44145","Match","Exact","1371 MARVIEW DR, WESTLAKE, OH, 44145",61138992,"L"
161320,"1371 MCKENDREE PARK","LAWRENCEVILLE","GA",30043,33.979067768,-84.037639165,320,"1371 MCKENDREE PARK, LAWRENCEVILLE, GA, 30043","Match","Non_Exact","1371 MCKENDREE PARK CT, LAWRENCEVILLE, GA, 30043",88921201,"L"
161321,"1371 MELODY LN","EL CAJON","CA",92019,32.796446766,-116.932133662,321,"1371 MELODY LN, EL CAJON, CA, 92019","Match","Exact","1371 MELODY LN, EL CAJON, CA, 92019",195333441,"R"
161322,"1371 N LITTLE CREEK AVE","MERIDIAN","ID",83642,43.6171786570001,-116.440959975,322,"1371 N LITTLE CREEK AVE, MERIDIAN, ID, 83642","Match","Non_Exact","1371 N LITTLE CREEK PL, MERIDIAN, ID, 83642",117881344,"R"
161323,"1371 NE 172ND STREET","NORTH MIAMI BEACH","FL",33162,25.9338504360001,-80.172989747,323,"1371 NE 172ND STREET, NORTH MIAMI BEACH, FL, 33162","Match","Exact","1371 NE 172ND ST, N MIAMI BEACH, FL, 33162",116035465,"L"
161324,"1371 NE 27TH WAY","POMPANO BEACH","FL",33062,26.2498053620001,-80.094550887,324,"1371 NE 27TH WAY, POMPANO BEACH, FL, 33062","Match","Exact","1371 NE 27TH WAY, POMPANO BEACH, FL, 33062",114695870,"L"
161325,"1371 NW 13TH COURT","BOCA RATON","FL",33486,26.3620405390001,-80.114003747,325,"1371 NW 13TH COURT, BOCA RATON, FL, 33486","Match","Exact","1371 NW 13TH CT, BOCA RATON, FL, 33486",115302291,"R"
161326,"1371 OAK TREE RD","ISELIN","NJ",8830,40.5737358540001,-74.325519603,326,"1371 OAK TREE RD, ISELIN, NJ, 8830","Match","Exact","1371 OAK TREE RD, ISELIN, NJ, 08830",60273323,"L"
161327,"1371 OLIVE STREET","DENVER","CO",80220,39.7382432480001,-104.906952004,327,"1371 OLIVE STREET, DENVER, CO, 80220","Match","Exact","1371 OLIVE ST, DENVER, CO, 80220",177313383,"L"
161328,"1371 PEDRO ST APT 15","SAN JOSE","CA",95126,37.3128743180001,-121.912842564,328,"1371 PEDRO ST APT 15, SAN JOSE, CA, 95126","Match","Exact","1371 PEDRO ST, SAN JOSE, CA, 95126",615527711,"R"
161329,"1371 PEDRO ST APT 22","SAN JOSE","CA",95126,37.3128743180001,-121.912842564,329,"1371 PEDRO ST APT 22, SAN JOSE, CA, 95126","Match","Exact","1371 PEDRO ST, SAN JOSE, CA, 95126",615527711,"R"
161330,"1371 PEDRO ST NUMBER 2","SAN JOSE","CA",95126,37.3128743180001,-121.912842564,330,"1371 PEDRO ST NUMBER 2, SAN JOSE, CA, 95126","Match","Exact","1371 PEDRO ST, SAN JOSE, CA, 95126",615527711,"R"
161331,"1371 PEDRO STREET APT 2","SAN JOSE","CA",95126,37.3128743180001,-121.912842564,331,"1371 PEDRO STREET APT 2, SAN JOSE, CA, 95126","Match","Exact","1371 PEDRO ST, SAN JOSE, CA, 95126",615527711,"R"
161332,"1371 PIEDMONT RD","MORGANTON","NC",28655,35.78903382,-81.693558755,332,"1371 PIEDMONT RD, MORGANTON, NC, 28655","Match","Exact","1371 PIEDMONT RD, MORGANTON, NC, 28655",608503484,"L"
161333,"1371 PLUM RUN RD","MANNINGTON","WV",26582,39.559138143,-80.2832916999999,333,"1371 PLUM RUN RD, MANNINGTON, WV, 26582","Match","Exact","1371 PLUM RUN RD, MANNINGTON, WV, 26582",51424835,"L"
161334,"1371 POPLAR STREET","HUNTINGTON","IN",46750,40.8889109310001,-85.504754492,334,"1371 POPLAR STREET, HUNTINGTON, IN, 46750","Match","Exact","1371 POPLAR ST, HUNTINGTON, IN, 46750",6546004,"R"
161335,"1371 ROAD 8","POWELL","WY",82435,44.6908124890001,-108.739717132,335,"1371 ROAD 8, POWELL, WY, 82435","Match","Exact","1371 RD 8, POWELL, WY, 82435",149195280,"R"
161336,"1371 S ERNSTHAUSEN","ELMORE","OH",43416,NA,NA,336,"1371 S ERNSTHAUSEN, ELMORE, OH, 43416","No_Match",NA,NA,NA,NA
161337,"1371 S HULGAN CIRCLE STREET","DESOTO","TX",75115,NA,NA,337,"1371 S HULGAN CIRCLE STREET, DESOTO, TX, 75115","Tie",NA,NA,NA,NA
161338,"1371 SHEARWATER DR","JACKSONVILLE","FL",32218,30.45059909,-81.66775755,338,"1371 SHEARWATER DR, JACKSONVILLE, FL, 32218","Match","Exact","1371 SHEARWATER DR, JACKSONVILLE, FL, 32218",83939285,"L"
161339,"1371 SHERMAN AVE","MENLO PARK","CA",94025,37.436218249,-122.202986008,339,"1371 SHERMAN AVE, MENLO PARK, CA, 94025","Match","Exact","1371 SHERMAN AVE, MENLO PARK, CA, 94025",192364611,"L"
161340,"1371 SILVERGATE DRIVE","MABLETON","GA",30126,33.846146295,-84.5951641409999,340,"1371 SILVERGATE DRIVE, MABLETON, GA, 30126","Match","Non_Exact","1371 SILVERGATE DR SW, MABLETON, GA, 30126",634054444,"R"
161341,"1371 SOUTH 1ST ST","LOUISVILLE","KY",40208,38.2293811160001,-85.75624371,341,"1371 SOUTH 1ST ST, LOUISVILLE, KY, 40208","Match","Exact","1371 S 1ST ST, LOUISVILLE, KY, 40208",618513518,"L"
161342,"1371 SOUTH CLOVERDALE AVENUE","LOS ANGELES","CA",90019,34.0489382170001,-118.351236589,342,"1371 SOUTH CLOVERDALE AVENUE, LOS ANGELES, CA, 90019","Match","Exact","1371 S CLOVERDALE AVE, LOS ANGELES, CA, 90019",642863871,"R"
161343,"1371 SOUTH COCHRAN AVENUE","LOS ANGELES","CA",90019,34.04884172,-118.352442406,343,"1371 SOUTH COCHRAN AVENUE, LOS ANGELES, CA, 90019","Match","Exact","1371 S COCHRAN AVE, LOS ANGELES, CA, 90019",141599357,"R"
161344,"1371 SOUTHLAKE DRIVE","MT PLEASANT","SC",29464,32.8188853280001,-79.827411855,344,"1371 SOUTHLAKE DRIVE, MT PLEASANT, SC, 29464","Match","Exact","1371 SOUTHLAKE DR, MOUNT PLEASANT, SC, 29464",108854633,"L"
161345,"1371 STANFORD AVE","ST PAUL","MN",55105,44.9324092030001,-93.15856747,345,"1371 STANFORD AVE, ST PAUL, MN, 55105","Match","Exact","1371 STANFORD AVE, SAINT PAUL, MN, 55105",97645919,"R"
161346,"1371 STATE ROUTE 981","SMITHTON","PA",15479,40.1442358690001,-79.6751818819999,346,"1371 STATE ROUTE 981, SMITHTON, PA, 15479","Match","Exact","1371 STATE RTE 981, SMITHTON, PA, 15479",638531646,"L"
161347,"1371 SUMMIT RUN CIRCLE","WEST PALM BEACH","FL",33415,NA,NA,347,"1371 SUMMIT RUN CIRCLE, WEST PALM BEACH, FL, 33415","No_Match",NA,NA,NA,NA
161348,"1371 THORNAPPLE DR","MAYFIELD","KY",42066,36.735954346,-88.664547811,348,"1371 THORNAPPLE DR, MAYFIELD, KY, 42066","Match","Exact","1371 THORNAPPLE DR, MAYFIELD, KY, 42066",27876595,"L"
161349,"1371 US HIGHWAY 64","OCOEE","TN",37361,NA,NA,349,"1371 US HIGHWAY 64, OCOEE, TN, 37361","No_Match",NA,NA,NA,NA
161350,"1371 VALLEY FALLS ROAD","GRAFTON","WV",26354,39.3504918720001,-80.0726345849999,350,"1371 VALLEY FALLS ROAD, GRAFTON, WV, 26354","Match","Exact","1371 VALLEY FALLS RD, GRAFTON, WV, 26354",638610513,"L"
161351,"1371 VIRGINIA AVE APT 1C","BRONX","NY",10462,40.8352283630001,-73.86197566,351,"1371 VIRGINIA AVE APT 1C, BRONX, NY, 10462","Match","Exact","1371 VIRGINIA AVE, BRONX, NY, 10462",80304704,"L"
161352,"1371 W 67TH PL","DENVER","CO",80221,39.8192692690001,-105.003372078,352,"1371 W 67TH PL, DENVER, CO, 80221","Match","Exact","1371 W 67TH PL, DENVER, CO, 80221",650724905,"R"
161353,"1371 W CARDINAL WAY","CHANDLER","AZ",85286,33.268268752,-111.865682678,353,"1371 W CARDINAL WAY, CHANDLER, AZ, 85286","Match","Exact","1371 W CARDINAL WAY, CHANDLER, AZ, 85286",128798064,"L"
161354,"1371 W POINTE VILLAS BLVD APT 203","WINTER GARDEN","FL",34787,28.5458433260001,-81.6046340839999,354,"1371 W POINTE VILLAS BLVD APT 203, WINTER GARDEN, FL, 34787","Match","Non_Exact","1371 W POINTE VILLAS BLVD, WINTER GARDEN, FL, 34787",634114116,"R"
161355,"1371 WEST POINTE VILLAS BLVD","WINTER GARDEN","FL",34787,28.545897601,-81.604555385,355,"1371 WEST POINTE VILLAS BLVD, WINTER GARDEN, FL, 34787","Match","Exact","1371 W POINTE VILLAS BLVD, WINTER GARDEN, FL, 34787",634114116,"R"
161356,"1371 ZENITH AVE","SALT LAKE CITY","UT",84106,40.7078935070001,-111.854125592,356,"1371 ZENITH AVE, SALT LAKE CITY, UT, 84106","Match","Exact","1371 ZENITH AVE, SALT LAKE CITY, UT, 84106",176081338,"L"
161357,"13710 ALLYN DR","HUDSON","FL",34667,28.3558710570001,-82.711364083,357,"13710 ALLYN DR, HUDSON, FL, 34667","Match","Exact","13710 ALLYN DR, HUDSON, FL, 34667",639232580,"R"
161358,"13710 ARROWHEAD RD","CLEARLAKD","CA",95422,38.9694970680001,-122.655729871,358,"13710 ARROWHEAD RD, CLEARLAKD, CA, 95422","Match","Non_Exact","13710 ARROWHEAD RD, CLEARLAKE, CA, 95422",67035653,"R"
161359,"13710 BLOOMINGTON ST","MARION","IL",62959,37.794016567,-88.960994369,359,"13710 BLOOMINGTON ST, MARION, IL, 62959","Match","Exact","13710 BLOOMINGTON ST, MARION, IL, 62959",6008926,"R"
161360,"13710 BOX T DR","SAN ANTONIO","TX",78253,29.470020235,-98.766472944,360,"13710 BOX T DR, SAN ANTONIO, TX, 78253","Match","Exact","13710 BOX T DR, SAN ANTONIO, TX, 78253",619954425,"L"
161361,"13710 BOX T DRIVE","SAN ANTONIO","TX",78253,29.470020235,-98.766472944,361,"13710 BOX T DRIVE, SAN ANTONIO, TX, 78253","Match","Exact","13710 BOX T DR, SAN ANTONIO, TX, 78253",619954425,"L"
161362,"13710 CAPE BLUFF","SAN ANTONIO","TX",78216,29.565460283,-98.4936622009999,362,"13710 CAPE BLUFF, SAN ANTONIO, TX, 78216","Match","Exact","13710 CAPE BLUFF, SAN ANTONIO, TX, 78216",101542088,"L"
161363,"13710 CO RD 352","TERRELL","TX",75161,32.7503044850001,-96.147808293,363,"13710 CO RD 352, TERRELL, TX, 75161","Match","Exact","13710 CO RD 352, TERRELL, TX, 75161",213261455,"L"
161364,"13710 CORINTH","UNIVERSAL CITY","TX",78148,29.5723894660001,-98.313226888,364,"13710 CORINTH, UNIVERSAL CITY, TX, 78148","Match","Exact","13710 CORINTH, UNIVERSAL CITY, TX, 78148",101578718,"R"
161365,"13710 DEALTRY LANE","PINEVILLE","NC",28134,35.053022228,-80.88430397,365,"13710 DEALTRY LANE, PINEVILLE, NC, 28134","Match","Exact","13710 DEALTRY LN, PINEVILLE, NC, 28134",618148996,"R"
161366,"13710 HUNTERS MOSS","SAN ANTONIO","TX",78230,29.564464005,-98.54155332,366,"13710 HUNTERS MOSS, SAN ANTONIO, TX, 78230","Match","Non_Exact","13710 HUNTERS MOSS ST, SAN ANTONIO, TX, 78230",101492345,"R"
161367,"13710 IH35 FRONTAGE RD","LAREDO","TX",78045,NA,NA,367,"13710 IH35 FRONTAGE RD, LAREDO, TX, 78045","No_Match",NA,NA,NA,NA
161368,"13710 JUDSON ROAD","SAN ANTONIO","TX",78233,29.561599582,-98.3614416459999,368,"13710 JUDSON ROAD, SAN ANTONIO, TX, 78233","Match","Exact","13710 JUDSON RD, SAN ANTONIO, TX, 78233",101581233,"L"
161369,"13710 JUG ST","JOHNSTOWN","OH",43031,40.097243189,-82.7523645319999,369,"13710 JUG ST, JOHNSTOWN, OH, 43031","Match","Exact","13710 JUG ST, JOHNSTOWN, OH, 43031",636051788,"R"
161370,"13710 LINDSEY HILL LN","CYPRESS","TX",77429,29.998933584,-95.644456319,370,"13710 LINDSEY HILL LN, CYPRESS, TX, 77429","Match","Exact","13710 LINDSEY HILL LN, CYPRESS, TX, 77429",627777389,"R"
161371,"13710 LONGVIEW ST","HOUSTON","TX",77015,29.785705207,-95.182071149,371,"13710 LONGVIEW ST, HOUSTON, TX, 77015","Match","Exact","13710 LONGVIEW ST, HOUSTON, TX, 77015",96098510,"R"
161372,"13710 LONGVIEW","HOUSTON","TX",77015,29.785705207,-95.182071149,372,"13710 LONGVIEW, HOUSTON, TX, 77015","Match","Non_Exact","13710 LONGVIEW ST, HOUSTON, TX, 77015",96098510,"R"
161373,"13710 MOON RIVER TRAIL","CORPUS CHRISTI","TX",78410,27.8689361520001,-97.6294652889999,373,"13710 MOON RIVER TRAIL, CORPUS CHRISTI, TX, 78410","Match","Exact","13710 MOON RIVER TRL, CORPUS CHRISTI, TX, 78410",178545716,"R"
161374,"13710 N US HWY 441  ST 500","THE VILLAGES","FL",32159,28.9558308270001,-81.961148505,374,"13710 N US HWY 441  ST 500, THE VILLAGES, FL, 32159","Match","Non_Exact","13710 US HWY 441, THE VILLAGES, FL, 32159",636388083,"L"
161375,"13710 PARK ROW DRIVE APT 10109","HOUSTON","TX",77084,29.788095813,-95.627901491,375,"13710 PARK ROW DRIVE APT 10109, HOUSTON, TX, 77084","Match","Exact","13710 PARK ROW DR, HOUSTON, TX, 77084",648212355,"L"
161376,"13710 SLATE CREEK LANE","HOUSTON","TX",77077,29.7420265820001,-95.6305460739999,376,"13710 SLATE CREEK LANE, HOUSTON, TX, 77077","Match","Exact","13710 SLATE CREEK LN, HOUSTON, TX, 77077",640056167,"L"
161377,"13710 VISROY AVE","CERRITOS","CA",90703,33.8638172760001,-118.039584619,377,"13710 VISROY AVE, CERRITOS, CA, 90703","Match","Exact","13710 VISROY AVE, CERRITOS, CA, 90703",141754450,"R"
161378,"13710 W 60TH STREET","SAND SPRINGS","OK",74063,36.0766060220001,-96.144762289,378,"13710 W 60TH STREET, SAND SPRINGS, OK, 74063","Match","Non_Exact","13710 60TH ST S, SAND SPRINGS, OK, 74063",601489571,"R"
161379,"13711 105TH TERRACE N","LARGO","FL",33774,27.869040222,-82.8284862259999,379,"13711 105TH TERRACE N, LARGO, FL, 33774","Match","Exact","13711 105TH TER N, LARGO, FL, 33774",124672711,"R"
161380,"13711 ALLAN AVE","OAK PARK","MI",48237,42.467377868,-83.183899644,380,"13711 ALLAN AVE, OAK PARK, MI, 48237","Match","Exact","13711 ALLAN AVE, OAK PARK, MI, 48237",69741346,"L"
161381,"13711 ASTILBE CT","CENTREVILLE","VA",20120,38.847366321,-77.4162637489999,381,"13711 ASTILBE CT, CENTREVILLE, VA, 20120","Match","Exact","13711 ASTILBE CT, CENTREVILLE, VA, 20120",614144055,"L"
161382,"13711 BRIGHTON PARK DRIVE","HOUSTON","TX",77044,29.9246649510001,-95.1720932979999,382,"13711 BRIGHTON PARK DRIVE, HOUSTON, TX, 77044","Match","Exact","13711 BRIGHTON PARK DR, HOUSTON, TX, 77044",627680889,"L"
161383,"13711 CLARKS FORK DR","HOUSTON","TX",77086,29.933323348,-95.518344526,383,"13711 CLARKS FORK DR, HOUSTON, TX, 77086","Match","Exact","13711 CLARKS FORK DR, HOUSTON, TX, 77086",641886887,"L"
161384,"13711 DOTY AVENUE F","HAUTHORNE","CA",90250,33.9071737410001,-118.339491091,384,"13711 DOTY AVENUE F, HAUTHORNE, CA, 90250","Match","Non_Exact","13711 DOTY AVE, HAWTHORNE, CA, 90250",142752463,"R"
161385,"13711 E NEOSHO RD","NEVADA","MO",64772,NA,NA,385,"13711 E NEOSHO RD, NEVADA, MO, 64772","Tie",NA,NA,NA,NA
161386,"13711 EASTBOURNE DR","HOUSTON","TX",77034,29.5988101510001,-95.18587346,386,"13711 EASTBOURNE DR, HOUSTON, TX, 77034","Match","Exact","13711 EASTBOURNE DR, HOUSTON, TX, 77034",96113587,"L"
161387,"13711 HUNTERS MOSS ST","SAN ANTONIO","TX",78230,29.5644203470001,-98.5415831779999,387,"13711 HUNTERS MOSS ST, SAN ANTONIO, TX, 78230","Match","Exact","13711 HUNTERS MOSS ST, SAN ANTONIO, TX, 78230",101492345,"L"
161388,"13711 HWY 31 N","MEMPHIS","IN",47143,NA,NA,388,"13711 HWY 31 N, MEMPHIS, IN, 47143","No_Match",NA,NA,NA,NA
161389,"13711 MADISON ST","MIAMI","FL",33176,25.640995661,-80.380017137,389,"13711 MADISON ST, MIAMI, FL, 33176","Match","Exact","13711 MADISON ST, MIAMI, FL, 33176",115981492,"L"
161390,"13711 PRISTINE LAKE LANE","CYPRESS","TX",77429,30.001200569,-95.649179031,390,"13711 PRISTINE LAKE LANE, CYPRESS, TX, 77429","Match","Exact","13711 PRISTINE LAKE LN, CYPRESS, TX, 77429",627764077,"R"
161391,"13711 S BELL RD","BENSON","AZ",85602,32.0059873000001,-110.47947973,391,"13711 S BELL RD, BENSON, AZ, 85602","Match","Exact","13711 S BELL RD, BENSON, AZ, 85602",647274731,"R"
161392,"13711 S QUAIL RUN DRIVE","PLAINFIELD","IL",60544,41.6321589460001,-88.207602886,392,"13711 S QUAIL RUN DRIVE, PLAINFIELD, IL, 60544","Match","Exact","13711 QUAIL RUN DR, PLAINFIELD, IL, 60544",111617453,"L"
161393,"13711 TIERRA BONITA","POWAY","CA",92064,32.9634469740001,-117.027483197,393,"13711 TIERRA BONITA, POWAY, CA, 92064","Match","Non_Exact","13711 TIERRA BONITA RD, POWAY, CA, 92064",195324080,"R"
161394,"13711 VERONICA DR","HUDSON","FL",34667,28.355486097,-82.71343756,394,"13711 VERONICA DR, HUDSON, FL, 34667","Match","Exact","13711 VERONICA DR, HUDSON, FL, 34667",86335422,"L"
161395,"13711 WAVERLY CREST CT","CYPRESS","TX",77429,29.9733514690001,-95.669643955,395,"13711 WAVERLY CREST CT, CYPRESS, TX, 77429","Match","Exact","13711 WAVERLY CREST CT, CYPRESS, TX, 77429",627714264,"R"
161396,"13711","HAMPTON","GA",30228,NA,NA,396,"13711, HAMPTON, GA, 30228","No_Match",NA,NA,NA,NA
161397,"13712 29TH AVE SE","MILL CREEK","WA",98012,47.873455876,-122.193254549,397,"13712 29TH AVE SE, MILL CREEK, WA, 98012","Match","Exact","13712 29TH AVE SE, MILL CREEK, WA, 98012",187760370,"R"
161398,"13712 ADIOS PASS","CARMEL","IN",46032,39.986321822,-86.143536248,398,"13712 ADIOS PASS, CARMEL, IN, 46032","Match","Exact","13712 ADIOS PASS, CARMEL, IN, 46032",29294150,"R"
161399,"13712 BARNSDALE AVE","BAKERSFIELD","CA",93314,35.3738808630001,-119.154671997,399,"13712 BARNSDALE AVE, BAKERSFIELD, CA, 93314","Match","Exact","13712 BARNSDALE AVE, BAKERSFIELD, CA, 93314",109137893,"R"
161400,"13712 COVINGTON CREEK DRIVE","JACKSONVILLE","FL",32224,30.3038365150001,-81.446187343,400,"13712 COVINGTON CREEK DRIVE, JACKSONVILLE, FL, 32224","Match","Exact","13712 COVINGTON CREEK DR, JACKSONVILLE, FL, 32224",83942851,"R"
161401,"13712 EAST EVERETT AVENUE","SPOKANE VALLEY","WA",99216,47.7059958930001,-117.220646026,401,"13712 EAST EVERETT AVENUE, SPOKANE VALLEY, WA, 99216","Match","Exact","13712 E EVERETT AVE, SPOKANE VALLEY, WA, 99216",189894753,"L"
161402,"13712 GRAN DEUR DRIVE","WOODBRIDGE","VA",22193,38.6556211400001,-77.336527979,402,"13712 GRAN DEUR DRIVE, WOODBRIDGE, VA, 22193","Match","Exact","13712 GRAN DEUR DR, WOODBRIDGE, VA, 22193",76508582,"R"
161403,"13712 HIGHWAY 11","CAMPOBELLO","SC",29322,35.1182767060001,-82.210441959,403,"13712 HIGHWAY 11, CAMPOBELLO, SC, 29322","Match","Non_Exact","13712 STATE HWY 11, CAMPOBELLO, SC, 29322",19497302,"L"
161404,"13712 MILLS FARM RD","ROCKVILLE","MD",20850,39.083026671,-77.231196042,404,"13712 MILLS FARM RD, ROCKVILLE, MD, 20850","Match","Exact","13712 MILLS FARM RD, ROCKVILLE, MD, 20850",641009759,"R"
161405,"13712 OLD HALLS FERRY ROAD","FLORISSANT","MO",63033,38.8084131840001,-90.2775429819999,405,"13712 OLD HALLS FERRY ROAD, FLORISSANT, MO, 63033","Match","Exact","13712 OLD HALLS FERRY RD, FLORISSANT, MO, 63033",650040250,"R"
161406,"13712 PIMO STREET","ARMONA","CA",93202,36.3123690800001,-119.703937761,406,"13712 PIMO STREET, ARMONA, CA, 93202","Match","Exact","13712 PIMO ST, ARMONA, CA, 93202",197994599,"L"
161407,"13712 PINE VILLA LANE","FORT MYERS","FL",NA,26.543090324,-81.858440581,407,"13712 PINE VILLA LANE, FORT MYERS, FL, ","Match","Exact","13712 PINE VILLA LN, FORT MYERS, FL, 33912",118169919,"R"
161408,"13712 RAINWATER DR","PEARLAND","TX",77584,29.5733805790001,-95.432510431,408,"13712 RAINWATER DR, PEARLAND, TX, 77584","Match","Exact","13712 RAINWATER DR, PEARLAND, TX, 77584",635194166,"L"
161409,"13712 VILLAGE MILL DR","MAUGANSVILLE","MD",21767,39.6921718660001,-77.746366269,409,"13712 VILLAGE MILL DR, MAUGANSVILLE, MD, 21767","Match","Exact","13712 VILLAGE MILL DR, MAUGANSVILLE, MD, 21767",60785126,"L"
161410,"13712 WALTERS ROAD SUITE 110","HOUSTON","TX",77014,29.97821234,-95.474085713,410,"13712 WALTERS ROAD SUITE 110, HOUSTON, TX, 77014","Match","Exact","13712 WALTERS RD, HOUSTON, TX, 77014",96660988,"R"
161411,"13713 ASTILBE CT","CENTREVILLE","VA",20120,38.8473836260001,-77.416275964,411,"13713 ASTILBE CT, CENTREVILLE, VA, 20120","Match","Exact","13713 ASTILBE CT, CENTREVILLE, VA, 20120",614144055,"L"
161412,"13713 BERKELEY COURT","FONTANA","CA",92336,34.116574954,-117.501922158,412,"13713 BERKELEY COURT, FONTANA, CA, 92336","Match","Exact","13713 BERKELEY CT, FONTANA, CA, 92336",144708264,"R"
161413,"13713 FRONTIER CT","BURNSVILLE","MN",55337,44.7540285430001,-93.251227713,413,"13713 FRONTIER CT, BURNSVILLE, MN, 55337","Match","Exact","13713 FRONTIER CT, BURNSVILLE, MN, 55337",37926800,"R"
161414,"13713 LA CUARATA STREET","WHITTTIER","CA",90602,33.9681898960001,-118.028105432,414,"13713 LA CUARATA STREET, WHITTTIER, CA, 90602","Match","Non_Exact","13713 LA CUARTA ST, WHITTIER, CA, 90602",141814475,"L"
161415,"13713 LELAND RD","CENTREVILLE","VA",20120,38.842434231,-77.421208974,415,"13713 LELAND RD, CENTREVILLE, VA, 20120","Match","Exact","13713 LELAND RD, CENTREVILLE, VA, 20120",75955851,"L"
161416,"13713 LELAND ROAD","CENTREVILLE","VA",20120,38.842434231,-77.421208974,416,"13713 LELAND ROAD, CENTREVILLE, VA, 20120","Match","Exact","13713 LELAND RD, CENTREVILLE, VA, 20120",75955851,"L"
161417,"13713 PACIFIC PROMENADE UNIT 01","PLAYA VISTA","CA",90094,NA,NA,417,"13713 PACIFIC PROMENADE UNIT 01, PLAYA VISTA, CA, 90094","No_Match",NA,NA,NA,NA
161418,"13713 PACIFIC PROMENADE UNIT 101","PLAYA VISTA","CA",90094,NA,NA,418,"13713 PACIFIC PROMENADE UNIT 101, PLAYA VISTA, CA, 90094","No_Match",NA,NA,NA,NA
161419,"13713 S BLAYDE DR","HERRIMAN","UT",84096,40.502043154,-112.049975848,419,"13713 S BLAYDE DR, HERRIMAN, UT, 84096","Match","Exact","13713 S BLAYDE DR, HERRIMAN, UT, 84096",604581863,"L"
161420,"13713 SW 170TH TER","MIAMI","FL",33177,25.609384429,-80.414502624,420,"13713 SW 170TH TER, MIAMI, FL, 33177","Match","Exact","13713 SW 170TH TER, MIAMI, FL, 33177",116268732,"R"
161421,"13713 VALLEY DRIVE","ROCKVILLE","MD",20850,39.0787403740001,-77.2079363129999,421,"13713 VALLEY DRIVE, ROCKVILLE, MD, 20850","Match","Exact","13713 VALLEY DR, ROCKVILLE, MD, 20850",62144495,"R"
161422,"13713 W RIM DR APT 726","EULESS","TX",76040,32.821360315,-97.070252221,422,"13713 W RIM DR APT 726, EULESS, TX, 76040","Match","Non_Exact","13713 W RIM DR, EULESS, TX, 76040",102088706,"R"
161423,"13714 ANDERSON WOODS DR","HOUSTON","TX",77070,29.971988749,-95.586522001,423,"13714 ANDERSON WOODS DR, HOUSTON, TX, 77070","Match","Exact","13714 ANDERSON WOODS DR, HOUSTON, TX, 77070",96166782,"R"
161424,"13714 ASPEN COVE DR","HOUSTON","TX",77077,29.7638713580001,-95.629427331,424,"13714 ASPEN COVE DR, HOUSTON, TX, 77077","Match","Exact","13714 ASPEN COVE DR, HOUSTON, TX, 77077",96294676,"L"
161425,"13714 ASTROS LN","SAN ANTONIO","TX",78245,29.415328957,-98.767064432,425,"13714 ASTROS LN, SAN ANTONIO, TX, 78245","Match","Non_Exact","13714 ASTROS, SAN ANTONIO, TX, 78245",650646437,"L"
161426,"13714 BIRNEY POINT LANE","HOUSTON","TX",77044,29.9168212930001,-95.16081879,426,"13714 BIRNEY POINT LANE, HOUSTON, TX, 77044","Match","Exact","13714 BIRNEY POINT LN, HOUSTON, TX, 77044",627726959,"L"
161427,"13714 CAYO CANTILES","CORPUS CHRISTI","TX",78418,27.5945957550001,-97.239529693,427,"13714 CAYO CANTILES, CORPUS CHRISTI, TX, 78418","Match","Non_Exact","13714 CAYO CANTILES ST, CORPUS CHRISTI, TX, 78418",178524974,"L"
161428,"13714 EAST RIALTO AVENUE","SANGER","CA",93657,36.80266942,-119.543158825,428,"13714 EAST RIALTO AVENUE, SANGER, CA, 93657","Match","Exact","13714 E RIALTO AVE, SANGER, CA, 93657",197590426,"L"
161429,"13714 KINGSTON RIVER LANE","HOUSTON","TX",77044,29.9209308170001,-95.192370054,429,"13714 KINGSTON RIVER LANE, HOUSTON, TX, 77044","Match","Exact","13714 KINGSTON RIVER LN, HOUSTON, TX, 77044",627681286,"R"
161430,"13714 KORNBLUM AVE STE 8","HAWTHORNE","CA",90250,33.9064365680001,-118.337303121,430,"13714 KORNBLUM AVE STE 8, HAWTHORNE, CA, 90250","Match","Exact","13714 KORNBLUM AVE, HAWTHORNE, CA, 90250",142752717,"L"
161431,"13714 MIRAGE CT","HOLLAND","MI",49424,42.8403944550001,-86.121004915,431,"13714 MIRAGE CT, HOLLAND, MI, 49424","Match","Exact","13714 MIRAGE CT, HOLLAND, MI, 49424",71094633,"R"
161432,"13714 SAFE HARBOR COURT","ROCKVILLE","MD",20850,39.0821002280001,-77.20816446,432,"13714 SAFE HARBOR COURT, ROCKVILLE, MD, 20850","Match","Exact","13714 SAFE HARBOR CT, ROCKVILLE, MD, 20850",62095875,"L"
161433,"13714 SO AVERS","ROBBINS","IL",60427,NA,NA,433,"13714 SO AVERS, ROBBINS, IL, 60427","No_Match",NA,NA,NA,NA
161434,"13714 W DENO RD","SPOKANE","WA",99224,47.671918412,-117.600465469,434,"13714 W DENO RD, SPOKANE, WA, 99224","Match","Exact","13714 W DENO RD, SPOKANE, WA, 99224",189899879,"R"
161435,"13714-308 AVE NW","PRINCETON","MN",55371,NA,NA,435,"13714-308 AVE NW, PRINCETON, MN, 55371","No_Match",NA,NA,NA,NA
161436,"13715 310TH AVE SE","SULTAN","WA",98294,47.873558217,-121.815175432,436,"13715 310TH AVE SE, SULTAN, WA, 98294","Match","Exact","13715 310TH AVE SE, SULTAN, WA, 98294",634969668,"R"
161437,"13715 424TH AVE SE","NORTH BEND","WA",98045,NA,NA,437,"13715 424TH AVE SE, NORTH BEND, WA, 98045","No_Match",NA,NA,NA,NA
161438,"13715 79TH COURT NORTH","WEST PALM BEACH","FL",33412,26.7939223540001,-80.2561455109999,438,"13715 79TH COURT NORTH, WEST PALM BEACH, FL, 33412","Match","Exact","13715 79TH CT N, WEST PALM BEACH, FL, 33412",115548610,"L"
161439,"13715 CORDARY AVE","HAWTHORNE","CA",90250,33.906392732,-118.341666814,439,"13715 CORDARY AVE, HAWTHORNE, CA, 90250","Match","Exact","13715 CORDARY AVE, HAWTHORNE, CA, 90250",142752424,"R"
161440,"13715 E RANDALL RD","MEAD","WA",99021,47.854551374,-117.220275316,440,"13715 E RANDALL RD, MEAD, WA, 99021","Match","Exact","13715 E RANDALL RD, MEAD, WA, 99021",189853861,"R"
161441,"13715 FANCHER ROAD","WESTERVILLE","OH",43082,40.1320179140001,-82.7903348789999,441,"13715 FANCHER ROAD, WESTERVILLE, OH, 43082","Match","Exact","13715 FANCHER RD, WESTERVILLE, OH, 43082",637667114,"R"
161442,"13715 LAKE LIVINGSTON DR","HOUSTON","TX",77044,29.9641214820001,-95.161428123,442,"13715 LAKE LIVINGSTON DR, HOUSTON, TX, 77044","Match","Exact","13715 LAKE LIVINGSTON DR, HOUSTON, TX, 77044",638593183,"R"
161443,"13715 ORTEGA LANE","HOUSTON","TX",77083,29.693243554,-95.6261644859999,443,"13715 ORTEGA LANE, HOUSTON, TX, 77083","Match","Exact","13715 ORTEGA LN, HOUSTON, TX, 77083",96035052,"R"
161444,"13715 PRESTON RD 289","DALLAS","TX",75240,32.9352789640001,-96.803955216,444,"13715 PRESTON RD 289, DALLAS, TX, 75240","Match","Exact","13715 PRESTON RD, DALLAS, TX, 75240",647955887,"L"
161445,"13715 SHADY WOODS ST N","JACKSONVILLE","FL",32224,30.284665009,-81.453374964,445,"13715 SHADY WOODS ST N, JACKSONVILLE, FL, 32224","Match","Exact","13715 SHADY WOODS ST N, JACKSONVILLE, FL, 32224",83961816,"R"
161446,"13715 STATE HWY TT","MARTHASVILLE","MO",63357,38.6059304720001,-90.994174238,446,"13715 STATE HWY TT, MARTHASVILLE, MO, 63357","Match","Exact","13715 STATE HWY TT, MARTHASVILLE, MO, 63357",648867208,"L"
161447,"13715 W SAN MIGUEL AVE","LITCHFIELD PARK","AZ",85340,33.5181749920001,-112.35472868,447,"13715 W SAN MIGUEL AVE, LITCHFIELD PARK, AZ, 85340","Match","Exact","13715 W SAN MIGUEL AVE, LITCHFIELD PARK, AZ, 85340",128858877,"L"
161448,"13716 175TH CT NE","REDMOND","WA",98052,47.7229676740001,-122.106700175,448,"13716 175TH CT NE, REDMOND, WA, 98052","Match","Exact","13716 175TH CT NE, REDMOND, WA, 98052",187023306,"R"
161449,"13716 28TH AVE NE","SEATTLE","WA",98125,47.7286343040001,-122.297788883,449,"13716 28TH AVE NE, SEATTLE, WA, 98125","Match","Exact","13716 28TH AVE NE, SEATTLE, WA, 98125",645605354,"R"
161450,"13716 72ND CT N","WEST PALM BEACH","FL",33412,26.7829928200001,-80.256862811,450,"13716 72ND CT N, WEST PALM BEACH, FL, 33412","Match","Exact","13716 72ND CT N, WEST PALM BEACH, FL, 33412",115548324,"R"
161451,"13716 BARRINGTON DRIVE","DUBUQUE","IA",52003,42.460269662,-90.757868061,451,"13716 BARRINGTON DRIVE, DUBUQUE, IA, 52003","Match","Exact","13716 BARRINGTON DR, DUBUQUE, IA, 52003",16913690,"R"
161452,"13716 COUNTRY LAKE DRIVE","AUSTIN","TX",78732,30.3787856980001,-97.9090926269999,452,"13716 COUNTRY LAKE DRIVE, AUSTIN, TX, 78732","Match","Exact","13716 COUNTRY LAKE DR, AUSTIN, TX, 78732",64061223,"R"
161453,"13716 FIELD STREAM LANE","MANOR","TX",78653,30.3592671390001,-97.542750272,453,"13716 FIELD STREAM LANE, MANOR, TX, 78653","Match","Exact","13716 FIELD STREAM LN, MANOR, TX, 78653",635397651,"R"
161454,"13716 FRANKLIN ST","WHITTIER","CA",90602,33.9745236420001,-118.028947285,454,"13716 FRANKLIN ST, WHITTIER, CA, 90602","Match","Exact","13716 FRANKLIN ST, WHITTIER, CA, 90602",651559868,"R"
161455,"13716 GENTLE WOODS AVE","RIVERVIEW","FL",33569,27.845038392,-82.264794694,455,"13716 GENTLE WOODS AVE, RIVERVIEW, FL, 33569","Match","Exact","13716 GENTLE WOODS AVE, RIVERVIEW, FL, 33569",624857077,"L"
161456,"13716 GENTLE WOODS AVENUE","RIVERVIEW","FL",33569,27.845038392,-82.264794694,456,"13716 GENTLE WOODS AVENUE, RIVERVIEW, FL, 33569","Match","Exact","13716 GENTLE WOODS AVE, RIVERVIEW, FL, 33569",624857077,"L"
161457,"13716 LAKE CITY WAY NE APT NO 303","SEATTLE","WA",98125,47.728512053,-122.292247654,457,"13716 LAKE CITY WAY NE APT NO 303, SEATTLE, WA, 98125","Match","Exact","13716 LAKE CITY WAY NE, SEATTLE, WA, 98125",186576558,"R"
161458,"13716 MCGUIRE ST","TAYLOR","MI",48180,42.2056106420001,-83.288844263,458,"13716 MCGUIRE ST, TAYLOR, MI, 48180","Match","Exact","13716 MCGUIRE ST, TAYLOR, MI, 48180",95709146,"R"
161459,"13716 S AMHERST CT","PLAINFIELD","IL",60544,41.632219107,-88.203714453,459,"13716 S AMHERST CT, PLAINFIELD, IL, 60544","Match","Exact","13716 S AMHERST CT, PLAINFIELD, IL, 60544",111533487,"R"
161460,"13716 SHANON AVENUE","LAUREL","MD",20707,39.0819035870001,-76.868576563,460,"13716 SHANON AVENUE, LAUREL, MD, 20707","Match","Non_Exact","13716 SHANNON AVE, LAUREL, MD, 20707",76335344,"L"
161461,"13716 SPLIT ROCK COVE","FORT WAYNE","IN",46845,41.2103195400001,-85.124944656,461,"13716 SPLIT ROCK COVE, FORT WAYNE, IN, 46845","Match","Exact","13716 SPLIT ROCK COVE, FORT WAYNE, IN, 46845",606519563,"R"
161462,"13716 SRALLA RD","CROSBY","TX",77532,29.8846383050001,-95.0358079489999,462,"13716 SRALLA RD, CROSBY, TX, 77532","Match","Exact","13716 SRALLA RD, CROSBY, TX, 77532",644890992,"R"
161463,"13717 6 25 LN","GARDEN","MI",49835,45.624215668,-86.665598076,463,"13717 6 25 LN, GARDEN, MI, 49835","Match","Non_Exact","13717 6.25 LN, GARDEN, MI, 49835",607234244,"L"
161464,"13717 CHADRON AVE   23","HAWTHORNE","CA",90250,33.906705264,-118.328645435,464,"13717 CHADRON AVE   23, HAWTHORNE, CA, 90250","Match","Exact","13717 CHADRON AVE, HAWTHORNE, CA, 90250",241242783,"R"
161465,"13717 HAMILTON MEADOWS LANE","FORT WAYNE","IN",46814,41.078692163,-85.319338333,465,"13717 HAMILTON MEADOWS LANE, FORT WAYNE, IN, 46814","Match","Exact","13717 HAMILTON MEADOWS LN, FORT WAYNE, IN, 46814",641165085,"L"
161466,"13717 INVERNESS ROAD","MINNETONKA","MN",55305,44.9390451990001,-93.453452409,466,"13717 INVERNESS ROAD, MINNETONKA, MN, 55305","Match","Exact","13717 INVERNESS RD, MINNETONKA, MN, 55305",640661452,"L"
161467,"13717 KEY WEST ST","CALDWELL","ID",83607,43.6089106260001,-116.66673485,467,"13717 KEY WEST ST, CALDWELL, ID, 83607","Match","Exact","13717 KEY WEST ST, CALDWELL, ID, 83607",635833747,"R"
161468,"13717 MARY EDITH PLACE","BATON ROUGE","LA",70809,30.3675140300001,-91.0364200779999,468,"13717 MARY EDITH PLACE, BATON ROUGE, LA, 70809","Match","Exact","13717 MARY EDITH PL, BATON ROUGE, LA, 70809",92204038,"R"
161469,"13717 PINNACLE CIRCLE W  APT 1128","EULESS","TX",76040,32.816374023,-97.071292181,469,"13717 PINNACLE CIRCLE W  APT 1128, EULESS, TX, 76040","Match","Exact","13717 PINNACLE CIR W, EULESS, TX, 76040",102121564,"L"
161470,"13717 S ROUTE 30 SUITE117","PLAINFIELD","IL",60544,NA,NA,470,"13717 S ROUTE 30 SUITE117, PLAINFIELD, IL, 60544","No_Match",NA,NA,NA,NA
161471,"13717 WITT LN","GRASS VALLEY","CA",95945,NA,NA,471,"13717 WITT LN, GRASS VALLEY, CA, 95945","No_Match",NA,NA,NA,NA
161472,"13718 ALDENBROOK DR","HUNTERSVILLE","NC",28078,35.399258192,-80.8390485589999,472,"13718 ALDENBROOK DR, HUNTERSVILLE, NC, 28078","Match","Exact","13718 ALDENBROOK DR, HUNTERSVILLE, NC, 28078",70604401,"R"
161473,"13718 COUNTRY PLACE","BURNSVILLE","MN",55337,44.755315567,-93.2650597099999,473,"13718 COUNTRY PLACE, BURNSVILLE, MN, 55337","Match","Exact","13718 COUNTRY PL, BURNSVILLE, MN, 55337",37904288,"R"
161474,"13718 COUNTY 9","SOLWAY","MN",56678,NA,NA,474,"13718 COUNTY 9, SOLWAY, MN, 56678","No_Match",NA,NA,NA,NA
161475,"13718 DRAKE DR","ROCKVILLE","MD",20853,39.080940351,-77.104247013,475,"13718 DRAKE DR, ROCKVILLE, MD, 20853","Match","Exact","13718 DRAKE DR, ROCKVILLE, MD, 20853",62059628,"L"
161476,"13718 E 23RD PL","TULSA","OK",74134,36.129790411,-95.8226443309999,476,"13718 E 23RD PL, TULSA, OK, 74134","Match","Exact","13718 E 23RD PL, TULSA, OK, 74134",166468374,"R"
161477,"13718 EAGLESNEST BAY DR","CORPUS CHRISTI","TX",78418,27.592790592,-97.2381398919999,477,"13718 EAGLESNEST BAY DR, CORPUS CHRISTI, TX, 78418","Match","Exact","13718 EAGLESNEST BAY DR, CORPUS CHRISTI, TX, 78418",178524980,"L"
161478,"13718 MONEY TREE","SAN ANTONIO","TX",78232,29.564291375,-98.4608443609999,478,"13718 MONEY TREE, SAN ANTONIO, TX, 78232","Match","Exact","13718 MONEY TREE, SAN ANTONIO, TX, 78232",101496477,"R"
161479,"13718 N 145TH E AVENUE","COLLINSVILLE","OK",74021,36.3524827300001,-95.812215438,479,"13718 N 145TH E AVENUE, COLLINSVILLE, OK, 74021","Match","Exact","13718 N 145TH E AVE, COLLINSVILLE, OK, 74021",650260948,"L"
161480,"13718 SAN SABA CANYON LN","CYPRESS","TX",77429,29.996845067,-95.6471910659999,480,"13718 SAN SABA CANYON LN, CYPRESS, TX, 77429","Match","Exact","13718 SAN SABA CANYON LN, CYPRESS, TX, 77429",629619875,"L"
161481,"13718 SCOTTSDALE PL","SMITHVILLE","MO",64089,39.3417512600001,-94.526651672,481,"13718 SCOTTSDALE PL, SMITHVILLE, MO, 64089","Match","Exact","13718 SCOTTSDALE PL, SMITHVILLE, MO, 64089",89793473,"L"
161482,"13718 SE 90TH PL","NEWCASTLE","WA",98059,47.5213024240001,-122.157428684,482,"13718 SE 90TH PL, NEWCASTLE, WA, 98059","Match","Exact","13718 SE 90TH PL, NEWCASTLE, WA, 98059",651194466,"R"
161483,"13718 SHAVANO MIST","SAN ANTONIO","TX",78230,29.571443323,-98.56863549,483,"13718 SHAVANO MIST, SAN ANTONIO, TX, 78230","Match","Exact","13718 SHAVANO MIST, SAN ANTONIO, TX, 78230",101569541,"L"
161484,"13719 ARCOTT BEND DR","TOMBALL","TX",77377,30.027457369,-95.637145195,484,"13719 ARCOTT BEND DR, TOMBALL, TX, 77377","Match","Exact","13719 ARCOTT BEND DR, TOMBALL, TX, 77377",641742240,"R"
161485,"13719 CHESTERSALL DR","TAMPA","FL",33624,28.075394553,-82.536422396,485,"13719 CHESTERSALL DR, TAMPA, FL, 33624","Match","Exact","13719 CHESTERSALL DR, TAMPA, FL, 33624",653176790,"L"
161486,"13719 CHESTERSALL DR","TAMPA","FL",33634,28.075394553,-82.536422396,486,"13719 CHESTERSALL DR, TAMPA, FL, 33634","Match","Non_Exact","13719 CHESTERSALL DR, TAMPA, FL, 33624",653176790,"L"
161487,"13719 CURT CUNNINGHAM RD","NORTHPORT","AL",35475,33.341428653,-87.6539043829999,487,"13719 CURT CUNNINGHAM RD, NORTHPORT, AL, 35475","Match","Exact","13719 CURT CUNNINGHAM RD, NORTHPORT, AL, 35475",82201586,"R"
161488,"13719 N NEBRASKA AVE SUITE 101A","TAMPA","FL",33613,28.071174034,-82.4511566319999,488,"13719 N NEBRASKA AVE SUITE 101A, TAMPA, FL, 33613","Match","Non_Exact","13719 N NEBRASKA AVE, TAMPA, FL, 33613",636367483,"R"
161489,"13719 OXNARD STREET APT 208","VAN NUYS","CA",91401,34.1794034960001,-118.432018755,489,"13719 OXNARD STREET APT 208, VAN NUYS, CA, 91401","Match","Exact","13719 OXNARD ST, VAN NUYS, CA, 91401",141561415,"R"
161490,"13719 REVERE LANDING DR","TAMPA","FL",33613,28.0720993840001,-82.439823738,490,"13719 REVERE LANDING DR, TAMPA, FL, 33613","Match","Exact","13719 REVERE LANDING DR, TAMPA, FL, 33613",104512450,"R"
161491,"13719 STATE HWY 181","FAIEHOPE","AL",36532,30.4285159770001,-87.850808036,491,"13719 STATE HWY 181, FAIEHOPE, AL, 36532","Match","Non_Exact","13719 STATE HWY 181, FAIRHOPE, AL, 36532",636477035,"L"
161492,"13719 W MAIN ST","DALEVILLE","IN",47334,40.132203819,-85.547303314,492,"13719 W MAIN ST, DALEVILLE, IN, 47334","Match","Exact","13719 W MAIN ST, DALEVILLE, IN, 47334",30842439,"R"
161493,"1372  DUMONT AVE","BROOKLYN","NY",11208,40.67029202,-73.8670898299999,493,"1372  DUMONT AVE, BROOKLYN, NY, 11208","Match","Exact","1372 DUMONT AVE, BROOKLYN, NY, 11208",59095465,"R"
161494,"1372 1/2 SECOND AVE","NEW YORK CITY","NY",10021,40.7685184600001,-73.9585614109999,494,"1372 1/2 SECOND AVE, NEW YORK CITY, NY, 10021","Match","Exact","1372 2ND AVE, NEW YORK, NY, 10021",59657417,"R"
161495,"1372 32ND ST S","FARGO","ND",58103,46.8609840990001,-96.830142193,495,"1372 32ND ST S, FARGO, ND, 58103","Match","Exact","1372 32ND ST S, FARGO, ND, 58103",151446716,"L"
161496,"1372 ALLEY MILL RD","CLAYTON","DE",19938,39.3070737310001,-75.668900418,496,"1372 ALLEY MILL RD, CLAYTON, DE, 19938","Match","Exact","1372 ALLEY MILL RD, CLAYTON, DE, 19938",187250075,"R"
161497,"1372 AVIATORS ST","NEW ORLEANS","LA",70122,30.0198706100001,-90.080326285,497,"1372 AVIATORS ST, NEW ORLEANS, LA, 70122","Match","Exact","1372 AVIATORS ST, NEW ORLEANS, LA, 70122",191751677,"R"
161498,"1372 AVON LANE APT 211","NORTH LAUDERDALE","FL",33068,26.2105165140001,-80.2291100369999,498,"1372 AVON LANE APT 211, NORTH LAUDERDALE, FL, 33068","Match","Exact","1372 AVON LN, N LAUDERDALE, FL, 33068",114820151,"L"
161499,"1372 BALFOUR","GROSSE PTE PARK","MI",48230,42.3866192790001,-82.93777112,499,"1372 BALFOUR, GROSSE PTE PARK, MI, 48230","Match","Exact","1372 BALFOUR, GROSSE POINTE PARK, MI, 48230",95488916,"R"
161500,"1372 BAY HARBOR DR APT 302","PALM HARBOR","FL",34685,NA,NA,500,"1372 BAY HARBOR DR APT 302, PALM HARBOR, FL, 34685","No_Match",NA,NA,NA,NA
