"ID","Address","City","State","Zip","lat","long","id","input_address","match_indicator","match_type","matched_address","tiger_line_id","tiger_side"
955001,"994 HARTFORD VILLAGE BLVD","COLUMBUS","OH",43228,39.970884251,-83.1525865999999,1,"994 HARTFORD VILLAGE BLVD, COLUMBUS, OH, 43228","Match","Exact","994 HARTFORD VILLAGE BLVD, COLUMBUS, OH, 43228",635282012,"L"
955002,"994 KAINS AVE","ALBANY","CA",94706,37.887264154,-122.29705569,2,"994 KAINS AVE, ALBANY, CA, 94706","Match","Exact","994 KAINS AVE, ALBANY, CA, 94706",606295874,"R"
955003,"994 KNOB CREEK LN","TEGA CAY","SC",29708,35.04373028,-81.020893599,3,"994 KNOB CREEK LN, TEGA CAY, SC, 29708","Match","Exact","994 KNOB CREEK LN, TEGA CAY, SC, 29708",624897476,"L"
955004,"994 LINCOLN AVENUE","GIRARD","OH",44420,41.16675093,-80.695457673,4,"994 LINCOLN AVENUE, GIRARD, OH, 44420","Match","Non_Exact","994 LINCOLN AVE SE, GIRARD, OH, 44420",117410470,"L"
955005,"994 LIVINGSTON AVENUE","WEST SAINT PAUL","MN",55118,44.9163700780001,-93.0821081189999,5,"994 LIVINGSTON AVENUE, WEST SAINT PAUL, MN, 55118","Match","Exact","994 LIVINGSTON AVE, W SAINT PAUL, MN, 55118",37915870,"L"
955006,"994 MALORY ST","LAFAYETTE","CO",80026,39.9889964230001,-105.08076552,6,"994 MALORY ST, LAFAYETTE, CO, 80026","Match","Exact","994 MALORY ST, LAFAYETTE, CO, 80026",220749488,"L"
955007,"994 MILES CT","ARNOLD","MD",21012,39.054023165,-76.5054071179999,7,"994 MILES CT, ARNOLD, MD, 21012","Match","Exact","994 MILES CT, ARNOLD, MD, 21012",68204367,"L"
955008,"994 MINNEHAHA AVE W","ST PAUL","MN",55104,NA,NA,8,"994 MINNEHAHA AVE W, ST PAUL, MN, 55104","No_Match",NA,NA,NA,NA
955009,"994 MOUNTAIN HARBOR ROAD","MOUNT IDA","AR",71957,34.5720703700001,-93.438051715,9,"994 MOUNTAIN HARBOR ROAD, MOUNT IDA, AR, 71957","Match","Exact","994 MOUNTAIN HARBOR RD, MOUNT IDA, AR, 71957",24031716,"R"
955010,"994 OLD CUTLER ROAD","LAKE WALES","FL",33898,27.9066066560001,-81.537237493,10,"994 OLD CUTLER ROAD, LAKE WALES, FL, 33898","Match","Exact","994 OLD CUTLER RD, LAKE WALES, FL, 33898",104926766,"L"
955011,"994 OLD EAGLE SCHOOL ROAD STE 1018","WAYNE","PA",19087,40.076959607,-75.4110282029999,11,"994 OLD EAGLE SCHOOL ROAD STE 1018, WAYNE, PA, 19087","Match","Non_Exact","994 OLD EAGLE SCHOOL RD, WAYNE, PA, 19087",642566054,"L"
955012,"994 PARKWOOD DR","CLEVELAND","OH",44108,41.5305723870001,-81.609971705,12,"994 PARKWOOD DR, CLEVELAND, OH, 44108","Match","Exact","994 PARKWOOD DR, CLEVELAND, OH, 44108",61120362,"R"
955013,"994 PIAZZA ROAD","SPRINGDALE","AR",72762,36.163814663,-94.22806819,13,"994 PIAZZA ROAD, SPRINGDALE, AR, 72762","Match","Exact","994 PIAZZA RD, SPRINGDALE, AR, 72762",49071503,"R"
955014,"994 PINEWOOD LN","GAHANNA","OH",43230,40.0032065,-82.8473023609999,14,"994 PINEWOOD LN, GAHANNA, OH, 43230","Match","Exact","994 PINEWOOD LN, GAHANNA, OH, 43230",135761804,"R"
955015,"994 REMSEN AVE","BROOKLYN","NY",11236,40.6442022300001,-73.910392563,15,"994 REMSEN AVE, BROOKLYN, NY, 11236","Match","Exact","994 REMSEN AVE, BROOKLYN, NY, 11236",59086322,"R"
955016,"994 RIDEWAY ROAD","LUGOFF","SC",29078,NA,NA,16,"994 RIDEWAY ROAD, LUGOFF, SC, 29078","No_Match",NA,NA,NA,NA
955017,"994 RIVERWATCH DRIVE","VILLA HILLS","KY",41017,39.0708351270001,-84.578715593,17,"994 RIVERWATCH DRIVE, VILLA HILLS, KY, 41017","Match","Exact","994 RIVERWATCH DR, VILLA HILLS, KY, 41017",103874164,"R"
955018,"994 S STAGE RD","MEDFORD","OR",97501,42.2931145800001,-122.883793134,18,"994 S STAGE RD, MEDFORD, OR, 97501","Match","Exact","994 S STAGE RD, MEDFORD, OR, 97501",155558628,"R"
955019,"994 STONEWALL RD","LEXINGTON","KY",40504,38.036358691,-84.547549994,19,"994 STONEWALL RD, LEXINGTON, KY, 40504","Match","Exact","994 STONEWALL RD, LEXINGTON, KY, 40504",31919786,"L"
955020,"994 STONEWALL ST","MEMPHIS","TN",38107,35.165904874,-90.007199065,20,"994 STONEWALL ST, MEMPHIS, TN, 38107","Match","Exact","994 STONEWALL ST, MEMPHIS, TN, 38107",72911808,"R"
955021,"994 STONEWOOD LANE","MAITLAND","FL",32751,28.6407338180001,-81.3729723019999,21,"994 STONEWOOD LANE, MAITLAND, FL, 32751","Match","Exact","994 STONEWOOD LN, MAITLAND, FL, 32751",93743143,"R"
955022,"994 SUGARLANE","COLLIERVILLE","TN",38017,NA,NA,22,"994 SUGARLANE, COLLIERVILLE, TN, 38017","No_Match",NA,NA,NA,NA
955023,"994 SUTTLE RD","LANCASTER","SC",29720,34.6501821030001,-80.74783912,23,"994 SUTTLE RD, LANCASTER, SC, 29720","Match","Exact","994 SUTTLE RD, LANCASTER, SC, 29720",40705909,"R"
955024,"994 SYLVAN SHORES DRIVE","SOUTH VIENNA","OH",45369,39.939179041,-83.591099071,24,"994 SYLVAN SHORES DRIVE, SOUTH VIENNA, OH, 45369","Match","Exact","994 SYLVAN SHORES DR, SOUTH VIENNA, OH, 45369",635605350,"L"
955025,"994 TANAGER CT","ANTIOCH","IL",60002,42.4680235650001,-88.045314127,25,"994 TANAGER CT, ANTIOCH, IL, 60002","Match","Exact","994 TANAGER CT, ANTIOCH, IL, 60002",119759371,"R"
955026,"994 TURNPIKE ST","EAGLE PASS","TX",78852,28.7255750840001,-100.498698133,26,"994 TURNPIKE ST, EAGLE PASS, TX, 78852","Match","Exact","994 TURNPIKE ST, EAGLE PASS, TX, 78852",183358490,"L"
955027,"994 W DEONI TRAIL","SAN TAN VALLEY","AZ",85143,33.1976988960001,-111.577366205,27,"994 W DEONI TRAIL, SAN TAN VALLEY, AZ, 85143","Match","Exact","994 DEONI TRL, SAN TAN VALLEY, AZ, 85143",627627407,"L"
955028,"994 WALNUT CT","MASON","OH",45040,39.3517076420001,-84.286304843,28,"994 WALNUT CT, MASON, OH, 45040","Match","Exact","994 WALNUT CT, MASON, OH, 45040",159031566,"R"
955029,"994 WHITTIER ST","FAIRHOPE","AL",36532,30.5160528500001,-87.87500842,29,"994 WHITTIER ST, FAIRHOPE, AL, 36532","Match","Exact","994 WHITTIER ST, FAIRHOPE, AL, 36532",618721692,"R"
955030,"994 WILLIAMS STREET APT B2","BROOKLYN","NY",11212,NA,NA,30,"994 WILLIAMS STREET APT B2, BROOKLYN, NY, 11212","No_Match",NA,NA,NA,NA
955031,"9940 37TH AVE N","PLYMOUTH","MN",55441,45.0237227010001,-93.406358056,31,"9940 37TH AVE N, PLYMOUTH, MN, 55441","Match","Exact","9940 37TH AVE N, PLYMOUTH, MN, 55441",43823944,"R"
955032,"9940 COURTYARD DRIVE","SAN DIEGO","CA",92131,32.9040798730001,-117.093959964,32,"9940 COURTYARD DRIVE, SAN DIEGO, CA, 92131","Match","Exact","9940 COURTYARD DR, SAN DIEGO, CA, 92131",195320216,"L"
955033,"9940 EAST COSTILLA AVE","CENTENNIAL","CO",80112,39.5914226990001,-104.872986893,33,"9940 EAST COSTILLA AVE, CENTENNIAL, CO, 80112","Match","Exact","9940 E COSTILLA AVE, CENTENNIAL, CO, 80112",646511744,"R"
955034,"9940 GEORGE WASHINGTON DRIVE","MCKINNEY","TX",75071,33.1820739240001,-96.747653618,34,"9940 GEORGE WASHINGTON DRIVE, MCKINNEY, TX, 75071","Match","Non_Exact","9940 GEORGE WASHINGTON DR, MCKINNEY, TX, 75072",616487267,"R"
955035,"9940 HOUSTON OAKS DR","GERMANTOWN","TN",38139,35.090427649,-89.731335372,35,"9940 HOUSTON OAKS DR, GERMANTOWN, TN, 38139","Match","Non_Exact","9940 HOUSTON OAK DR, GERMANTOWN, TN, 38139",72962664,"L"
955036,"9940 HUNTERS RIDGE","CINCINNATI","OH",45249,39.2941201530001,-84.3269750109999,36,"9940 HUNTERS RIDGE, CINCINNATI, OH, 45249","Match","Exact","9940 HUNTERS RIDGE, CINCINNATI, OH, 45249",159036693,"R"
955037,"9940 LOS LAGOS CR N","GRANITE BAY","CA",95746,38.7824469560001,-121.14100718,37,"9940 LOS LAGOS CR N, GRANITE BAY, CA, 95746","Match","Exact","9940 LOS LAGOS CIR N, GRANITE BAY, CA, 95746",106801656,"L"
955038,"9940 MEMORIAL DRIVE","HOUSTON","TX",77024,29.77867552,-95.478360731,38,"9940 MEMORIAL DRIVE, HOUSTON, TX, 77024","Match","Exact","9940 MEMORIAL DR, HOUSTON, TX, 77024",637939132,"R"
955039,"9940 NOTTINGHAM AVE APT 103","CHICAGO RIDGE","IL",60415,41.710759657,-87.796051857,39,"9940 NOTTINGHAM AVE APT 103, CHICAGO RIDGE, IL, 60415","Match","Exact","9940 NOTTINGHAM AVE, CHICAGO RIDGE, IL, 60415",111812043,"R"
955040,"9940 S OCEAN DR","JENSEN","FL",34957,27.2841302320001,-80.211348351,40,"9940 S OCEAN DR, JENSEN, FL, 34957","Match","Non_Exact","9940 S OCEAN DR, JENSEN BEACH, FL, 34957",610751629,"R"
955041,"9940 SPRING BEAUTY","SAN ANTONIO","TX",78254,29.535831993,-98.700330492,41,"9940 SPRING BEAUTY, SAN ANTONIO, TX, 78254","Match","Exact","9940 SPRING BEAUTY, SAN ANTONIO, TX, 78254",101749456,"R"
955042,"9940 T PLAZA 1B","OMAHA","NE",68127,NA,NA,42,"9940 T PLAZA 1B, OMAHA, NE, 68127","No_Match",NA,NA,NA,NA
955043,"9940 W PICTURE ROCKS RD","TUCSON","AZ",85743,NA,NA,43,"9940 W PICTURE ROCKS RD, TUCSON, AZ, 85743","Tie",NA,NA,NA,NA
955044,"9940 WATERFORD TRAIL","CHAGRIN FALLS","OH",44023,41.3549114520001,-81.287847702,44,"9940 WATERFORD TRAIL, CHAGRIN FALLS, OH, 44023","Match","Exact","9940 WATERFORD TRL, CHAGRIN FALLS, OH, 44023",137439605,"R"
955045,"9940 WEST 86TH PLACE","ARVADA","CO",80005,39.853487715,-105.107204166,45,"9940 WEST 86TH PLACE, ARVADA, CO, 80005","Match","Exact","9940 W 86TH PL, ARVADA, CO, 80005",177282444,"L"
955046,"9941 46TH AV S","SEATTLE","WA",98118,47.5112792670001,-122.275163632,46,"9941 46TH AV S, SEATTLE, WA, 98118","Match","Exact","9941 46TH AVE S, SEATTLE, WA, 98118",633296197,"R"
955047,"9941 46TH AVE S","SEATTLE","WA",98118,47.5112792670001,-122.275163632,47,"9941 46TH AVE S, SEATTLE, WA, 98118","Match","Exact","9941 46TH AVE S, SEATTLE, WA, 98118",633296197,"R"
955048,"9941 BEAVERLAND","DETROIT","MI",48238,NA,NA,48,"9941 BEAVERLAND, DETROIT, MI, 48238","No_Match",NA,NA,NA,NA
955049,"9941 BRAWLEY LANE","CHARLOTTE","NC",28215,35.2473038460001,-80.673250692,49,"9941 BRAWLEY LANE, CHARLOTTE, NC, 28215","Match","Exact","9941 BRAWLEY LN, CHARLOTTE, NC, 28215",70555625,"L"
955050,"9941 DORTHY AVE","EL PASO","TX",79925,NA,NA,50,"9941 DORTHY AVE, EL PASO, TX, 79925","No_Match",NA,NA,NA,NA
955051,"9941 HAMPSHIRE TERR N","BROOKLYN PARK","MN",55445,45.134616178,-93.363683016,51,"9941 HAMPSHIRE TERR N, BROOKLYN PARK, MN, 55445","Match","Non_Exact","9941 HAMPSHIRE TER, BROOKLYN PARK, MN, 55445",641220413,"L"
955052,"9941 JAY ROAD","PENSACOLA","FL",32526,30.5515063610001,-87.37771402,52,"9941 JAY ROAD, PENSACOLA, FL, 32526","Match","Exact","9941 JAY RD, PENSACOLA, FL, 32526",93207848,"L"
955053,"9941 NE SKIDMORE STREET","PORTLAND","OR",97220,45.55358554,-122.560233881,53,"9941 NE SKIDMORE STREET, PORTLAND, OR, 97220","Match","Exact","9941 NE SKIDMORE ST, PORTLAND, OR, 97220",157518239,"L"
955054,"9941 NORBRIDGE LN","ST. LOUIS","MO",63137,38.74880689,-90.2380034669999,54,"9941 NORBRIDGE LN, ST. LOUIS, MO, 63137","Match","Exact","9941 NORBRIDGE LN, SAINT LOUIS, MO, 63137",100150085,"L"
955055,"9941 SW 66 STREET","MIAMI","FL",33173,25.7068866130001,-80.3552008139999,55,"9941 SW 66 STREET, MIAMI, FL, 33173","Match","Exact","9941 SW 66TH ST, MIAMI, FL, 33173",115973679,"R"
955056,"9941 SW 70 AVE","MIAMI","FL",33156,25.678525656,-80.3086449799999,56,"9941 SW 70 AVE, MIAMI, FL, 33156","Match","Exact","9941 SW 70TH AVE, MIAMI, FL, 33156",116258774,"L"
955057,"9941 WATERGUM TRAIL","SANTEE","CA",92071,32.8531865150001,-116.98028242,57,"9941 WATERGUM TRAIL, SANTEE, CA, 92071","Match","Exact","9941 WATERGUM TRL, SANTEE, CA, 92071",612879718,"R"
955058,"9941 WHITEHURST DR 2114","DALLAS","TX",75243,32.8997937730001,-96.722048635,58,"9941 WHITEHURST DR 2114, DALLAS, TX, 75243","Match","Exact","9941 WHITEHURST DR, DALLAS, TX, 75243",103278871,"L"
955059,"9941 WHITEHURST DRIVE APT 1080","DALLAS","TX",75243,32.8997937730001,-96.722048635,59,"9941 WHITEHURST DRIVE APT 1080, DALLAS, TX, 75243","Match","Exact","9941 WHITEHURST DR, DALLAS, TX, 75243",103278871,"L"
955060,"9941","ALBUQUERQUE","NM",87114,NA,NA,60,"9941, ALBUQUERQUE, NM, 87114","No_Match",NA,NA,NA,NA
955061,"9942 CULVER BLVD NO 1125","CULVER CITY","CA",90232,34.0208300670001,-118.396888092,61,"9942 CULVER BLVD NO 1125, CULVER CITY, CA, 90232","Match","Non_Exact","9942 CULVER BLVD, CULVER CITY, CA, 90232",141575334,"L"
955062,"9942 GRANT STREET","LANHAM","MD",20706,38.964834173,-76.8219397399999,62,"9942 GRANT STREET, LANHAM, MD, 20706","Match","Exact","9942 GRANT ST, LANHAM, MD, 20706",76310640,"L"
955063,"9942 LEGENDS DR","GERMANTOWN","TN",38139,35.0828591960001,-89.7326704339999,63,"9942 LEGENDS DR, GERMANTOWN, TN, 38139","Match","Exact","9942 LEGENDS DR, GERMANTOWN, TN, 38139",645530469,"R"
955064,"9942 LEVERNE","REDFORD","MI",48239,42.366104487,-83.303135416,64,"9942 LEVERNE, REDFORD, MI, 48239","Match","Exact","9942 LEVERNE, REDFORD, MI, 48239",95427867,"R"
955065,"9942 MARNICE AVE","TUJUNGA","CA",91042,34.2482853970001,-118.271261201,65,"9942 MARNICE AVE, TUJUNGA, CA, 91042","Match","Exact","9942 MARNICE AVE, TUJUNGA, CA, 91042",141588789,"R"
955066,"9942 MONTROSE BLVD","SCHILLER PARK","IL",60176,41.958333286,-87.874241629,66,"9942 MONTROSE BLVD, SCHILLER PARK, IL, 60176","Match","Non_Exact","9942 MONTROSE AVE, SCHILLER PARK, IL, 60176",111725452,"R"
955067,"9942 S WESTERN AVE","CHICAGO","IL",60643,41.7128007800001,-87.681821667,67,"9942 S WESTERN AVE, CHICAGO, IL, 60643","Match","Exact","9942 S WESTERN AVE, CHICAGO, IL, 60643",604993121,"R"
955068,"9942 SHEPARD PLACE","WELLINGTON","FL",33414,26.648675171,-80.2016786029999,68,"9942 SHEPARD PLACE, WELLINGTON, FL, 33414","Match","Exact","9942 SHEPARD PL, WELLINGTON, FL, 33414",115584032,"L"
955069,"9942 SMALLWOOD","DOWNEY","CA",90240,33.956225723,-118.131684403,69,"9942 SMALLWOOD, DOWNEY, CA, 90240","Match","Non_Exact","9942 SMALLWOOD AVE, DOWNEY, CA, 90240",141696254,"L"
955070,"9942 US HIGHWAY 42 N","PLAIN CITY","OH",43064,40.1545975160001,-83.2381098019999,70,"9942 US HIGHWAY 42 N, PLAIN CITY, OH, 43064","Match","Exact","9942 US HWY 42 N, PLAIN CITY, OH, 43064",640105400,"L"
955071,"9943 BURGUNDY OAKS DRIVE","SHREVEPORT","LA",71118,32.3783356490001,-93.79384886,71,"9943 BURGUNDY OAKS DRIVE, SHREVEPORT, LA, 71118","Match","Exact","9943 BURGUNDY OAKS DR, SHREVEPORT, LA, 71118",652007351,"R"
955072,"9943 CAMERON ST NW","ALBUQUERQUE","NM",87114,35.1932028420001,-106.668937398,72,"9943 CAMERON ST NW, ALBUQUERQUE, NM, 87114","Match","Exact","9943 CAMERON ST NW, ALBUQUERQUE, NM, 87114",206739135,"L"
955073,"9943 DARROW PARK DRIVE","TWINSBURG","OH",44087,41.3348761080001,-81.4383910829999,73,"9943 DARROW PARK DRIVE, TWINSBURG, OH, 44087","Match","Exact","9943 DARROW PARK DR, TWINSBURG, OH, 44087",61376890,"L"
955074,"9943 E SKYWARD WAY","TUCSON","AZ",85730,32.176161676,-110.779965457,74,"9943 E SKYWARD WAY, TUCSON, AZ, 85730","Match","Exact","9943 E SKYWARD WAY, TUCSON, AZ, 85730",121189177,"L"
955075,"9943 FALCON BLUFF STREET","SAN DIEGO","CA",92127,33.017598757,-117.117304457,75,"9943 FALCON BLUFF STREET, SAN DIEGO, CA, 92127","Match","Exact","9943 FALCON BLUFF ST, SAN DIEGO, CA, 92127",612890485,"R"
955076,"9943 HERON POINTE DRIVE","ORLANDO","FL",32832,28.4104486320001,-81.221064478,76,"9943 HERON POINTE DRIVE, ORLANDO, FL, 32832","Match","Exact","9943 HERON POINTE DR, ORLANDO, FL, 32832",94418850,"L"
955077,"9943 HWY 64","ARLINGTON","TN",38002,35.2058291700001,-89.73057162,77,"9943 HWY 64, ARLINGTON, TN, 38002","Match","Non_Exact","9943 US HWY 64, ARLINGTON, TN, 38002",613866796,"R"
955078,"9943 N EDISON ST","PORTLAND","OR",97203,45.596488546,-122.765687148,78,"9943 N EDISON ST, PORTLAND, OR, 97203","Match","Exact","9943 N EDISON ST, PORTLAND, OR, 97203",157492879,"R"
955079,"9943 PEBBLE VIEW CT","CONROE","TX",77304,30.376334468,-95.5466750369999,79,"9943 PEBBLE VIEW CT, CONROE, TX, 77304","Match","Exact","9943 PEBBLE VIEW CT, CONROE, TX, 77304",79340485,"R"
955080,"9943 QUIET BROOK LANE","CLINTON","MD",20735,38.7535645130001,-76.880295404,80,"9943 QUIET BROOK LANE, CLINTON, MD, 20735","Match","Exact","9943 QUIET BROOK LN, CLINTON, MD, 20735",76378001,"R"
955081,"9943 SOUTH PRINCETON AVE","CHICAGO","IL",60628,41.7132435830001,-87.6308576329999,81,"9943 SOUTH PRINCETON AVE, CHICAGO, IL, 60628","Match","Exact","9943 S PRINCETON AVE, CHICAGO, IL, 60628",111833119,"L"
955082,"9943 WAUCHULA RD","MYAKKA CITY","FL",34251,27.3610175640001,-82.156694602,82,"9943 WAUCHULA RD, MYAKKA CITY, FL, 34251","Match","Exact","9943 WAUCHULA RD, MYAKKA CITY, FL, 34251",645938449,"R"
955083,"9943 WINECREST RD","SAN DIEGO","CA",92127,32.999931971,-117.114249598,83,"9943 WINECREST RD, SAN DIEGO, CA, 92127","Match","Exact","9943 WINECREST RD, SAN DIEGO, CA, 92127",612871172,"L"
955084,"9944 KHAN GR","FOUNTAIN","CO",80817,NA,NA,84,"9944 KHAN GR, FOUNTAIN, CO, 80817","No_Match",NA,NA,NA,NA
955085,"9944 PLAINFIELD DRIVE","FORT WORTH","TX",76108,32.757104182,-97.492606484,85,"9944 PLAINFIELD DRIVE, FORT WORTH, TX, 76108","Match","Exact","9944 PLAINFIELD DR, FORT WORTH, TX, 76108",101875964,"L"
955086,"9944 SAMPSON AVE","LAKE CITY","PA",16423,42.0131460440001,-80.339922141,86,"9944 SAMPSON AVE, LAKE CITY, PA, 16423","Match","Exact","9944 SAMPSON AVE, LAKE CITY, PA, 16423",117481296,"L"
955087,"9944 WEST LOUISE DRIVE","PEORIA","AZ",85383,33.6830857530001,-112.273741599,87,"9944 WEST LOUISE DRIVE, PEORIA, AZ, 85383","Match","Exact","9944 W LOUISE DR, PEORIA, AZ, 85383",642224367,"R"
955088,"9944 WHITETAIL LN","LITTLETON","CO",80127,39.535272682,-105.137077105,88,"9944 WHITETAIL LN, LITTLETON, CO, 80127","Match","Exact","9944 WHITETAIL LN, LITTLETON, CO, 80127",177752901,"R"
955089,"9945 41ST PL NE","ST. MICHAEL","MN",55376,45.2127937820001,-93.687002233,89,"9945 41ST PL NE, ST. MICHAEL, MN, 55376","Match","Exact","9945 41ST PL NE, SAINT MICHAEL, MN, 55376",605184897,"R"
955090,"9945 BRIAR ROAD APT 101","BLOOMINGTON","MN",55437,44.825804594,-93.3533769969999,90,"9945 BRIAR ROAD APT 101, BLOOMINGTON, MN, 55437","Match","Exact","9945 BRIAR RD, BLOOMINGTON, MN, 55437",43811849,"R"
955091,"9945 CAVELL AVE S","BLOOMINGTON","MN",55438,44.8229363130001,-93.39551955,91,"9945 CAVELL AVE S, BLOOMINGTON, MN, 55438","Match","Exact","9945 CAVELL AVE S, BLOOMINGTON, MN, 55438",43810561,"L"
955092,"9945 GOOD LUCK RD APT 201","LANHAM","MD",20706,38.993688761,-76.8354945419999,92,"9945 GOOD LUCK RD APT 201, LANHAM, MD, 20706","Match","Exact","9945 GOOD LUCK RD, LANHAM, MD, 20706",641062771,"R"
955093,"9945 JONES BRIDGE RD","JOHNS CREEK","GA",30022,34.02566053,-84.2514198109999,93,"9945 JONES BRIDGE RD, JOHNS CREEK, GA, 30022","Match","Exact","9945 JONES BRIDGE RD, JOHNS CREEK, GA, 30022",17375660,"R"
955094,"9945 LA HWY 1","LETTSWORTH","LA",70753,30.954671766,-91.757615732,94,"9945 LA HWY 1, LETTSWORTH, LA, 70753","Match","Exact","9945 LA HIGHWAY 1, LETTSWORTH, LA, 70753",190100540,"L"
955095,"9945 OLD FT CAROLINE RD","JACKSONVILLE","FL",32225,30.353945922,-81.5389144329999,95,"9945 OLD FT CAROLINE RD, JACKSONVILLE, FL, 32225","Match","Exact","9945 FORT CAROLINE RD, JACKSONVILLE, FL, 32225",83904870,"L"
955096,"9945 ONTARIO LANE","DALLAS","TX",75220,32.8792193680001,-96.841584992,96,"9945 ONTARIO LANE, DALLAS, TX, 75220","Match","Exact","9945 ONTARIO LN, DALLAS, TX, 75220",652309771,"L"
955097,"9945 PRESIDENT COURT","BREESE","IL",62230,38.6243076170001,-89.5175246319999,97,"9945 PRESIDENT COURT, BREESE, IL, 62230","Match","Exact","9945 PRESIDENT CT, BREESE, IL, 62230",635573982,"R"
955098,"9945 RED FOX DR","NAMPA","ID",83686,43.51643405,-116.54246779,98,"9945 RED FOX DR, NAMPA, ID, 83686","Match","Non_Exact","9945 RED FOX LN, NAMPA, ID, 83686",649897528,"R"
955099,"9945 W IRONWOOD DR","SUN CITY","AZ",85351,33.573650995,-112.274241158,99,"9945 W IRONWOOD DR, SUN CITY, AZ, 85351","Match","Exact","9945 W IRONWOOD DR, SUN CITY, AZ, 85351",128169670,"L"
955100,"9945 WAUCHULA RD","MYAKKA CITY","FL",34251,27.3610179720001,-82.1567766489999,100,"9945 WAUCHULA RD, MYAKKA CITY, FL, 34251","Match","Exact","9945 WAUCHULA RD, MYAKKA CITY, FL, 34251",645938449,"R"
955101,"9946 BUFFER CREEK CT","COLORADO SPRINGS","CO",80924,38.9759963480001,-104.732230664,101,"9946 BUFFER CREEK CT, COLORADO SPRINGS, CO, 80924","Match","Exact","9946 BUFFER CREEK CT, COLORADO SPRINGS, CO, 80924",635472063,"L"
955102,"9946 COUNTY ROUTE 76","HAMMONDSPORT","NY",14840,42.4732328870001,-77.191978526,102,"9946 COUNTY ROUTE 76, HAMMONDSPORT, NY, 14840","Match","Exact","9946 CO RTE 76, HAMMONDSPORT, NY, 14840",636421561,"R"
955103,"9946 EAST CORONADO DRIVE","BATON ROUGE","LA",70815,30.466182861,-91.074120712,103,"9946 EAST CORONADO DRIVE, BATON ROUGE, LA, 70815","Match","Exact","9946 E CORONADO DR, BATON ROUGE, LA, 70815",92190470,"R"
955104,"9946 LINDEN HILL RD","OWINGS MILL","MD",21117,39.3937355740001,-76.820789468,104,"9946 LINDEN HILL RD, OWINGS MILL, MD, 21117","Match","Non_Exact","9946 LINDEN HILL RD, OWINGS MILLS, MD, 21117",191500811,"R"
955105,"9946 MONTEREY ROAD","INDIANAPOLIS","IN",46235,39.8308972350001,-85.992752659,105,"9946 MONTEREY ROAD, INDIANAPOLIS, IN, 46235","Match","Non_Exact","9946 MONTERY RD, INDIANAPOLIS, IN, 46235",108012381,"L"
955106,"9946 NW 19TH STREET","CORAL SPRINGS","FL",33071,26.256319778,-80.2583669269999,106,"9946 NW 19TH STREET, CORAL SPRINGS, FL, 33071","Match","Exact","9946 NW 19TH ST, CORAL SPRINGS, FL, 33071",114690710,"L"
955107,"9946 ROYAL COMMERCE PLACE","UPPER MARLBORO","MD",20774,38.8927443860001,-76.837018182,107,"9946 ROYAL COMMERCE PLACE, UPPER MARLBORO, MD, 20774","Match","Exact","9946 ROYAL COMMERCE PL, UPPER MARLBORO, MD, 20774",76351298,"R"
955108,"9946 SEQUOIA LANE","MUNSTER","IN",46321,41.5329373210001,-87.483525062,108,"9946 SEQUOIA LANE, MUNSTER, IN, 46321","Match","Exact","9946 SEQUOIA LN, MUNSTER, IN, 46321",98448573,"L"
955109,"9946 SW 98TH TERR","GAINESVILLE","FL",32608,29.5632600370001,-82.447344903,109,"9946 SW 98TH TERR, GAINESVILLE, FL, 32608","Match","Exact","9946 SW 98 TER, GAINESVILLE, FL, 32608",624614002,"L"
955110,"9947 BEVERLY LANE","STREETSBORO","OH",44241,41.261681788,-81.34737332,110,"9947 BEVERLY LANE, STREETSBORO, OH, 44241","Match","Exact","9947 BEVERLY LN, STREETSBORO, OH, 44241",617298029,"L"
955111,"9947 BLAKEFORD MILL ROAD","JACKSONVILLE","FL",32256,30.187842576,-81.539572547,111,"9947 BLAKEFORD MILL ROAD, JACKSONVILLE, FL, 32256","Match","Exact","9947 BLAKEFORD MILL RD, JACKSONVILLE, FL, 32256",83943170,"R"
955112,"9947 FM 541","MCCOY","TX",78113,28.9362563130001,-98.258698307,112,"9947 FM 541, MCCOY, TX, 78113","Match","Exact","9947 FM 541, MCCOY, TX, 78113",24471957,"L"
955113,"9947 MAIN STREET","JEFFERSONVILLE","KY",40337,37.9671987140001,-83.81944522,113,"9947 MAIN STREET, JEFFERSONVILLE, KY, 40337","Match","Exact","9947 MAIN ST, JEFFERSONVILLE, KY, 40337",627142635,"L"
955114,"9947 ORCHARD MEADOW RD","MECHANICSVILLE","VA",23116,37.6723027630001,-77.40535864,114,"9947 ORCHARD MEADOW RD, MECHANICSVILLE, VA, 23116","Match","Exact","9947 ORCHARD MEADOW RD, MECHANICSVILLE, VA, 23116",653498615,"R"
955115,"9947 PINE STREET","LAKE CITY","PA",16423,42.0106728280001,-80.3398552529999,115,"9947 PINE STREET, LAKE CITY, PA, 16423","Match","Exact","9947 PINE ST, LAKE CITY, PA, 16423",117506898,"R"
955116,"9947 S HOMAN","EVERGREEN PARK","IL",60805,NA,NA,116,"9947 S HOMAN, EVERGREEN PARK, IL, 60805","Tie",NA,NA,NA,NA
955117,"9947 VICTOR DRIVE S","OLIVE BRANCH","MS",38654,34.9383363530001,-89.815389919,117,"9947 VICTOR DRIVE S, OLIVE BRANCH, MS, 38654","Match","Exact","9947 VICTOR DR S, OLIVE BRANCH, MS, 38654",91841108,"L"
955118,"9948 ALEXANDERS RIDGE DR","OLIVE BRANCH","MS",38654,34.971611379,-89.81459433,118,"9948 ALEXANDERS RIDGE DR, OLIVE BRANCH, MS, 38654","Match","Exact","9948 ALEXANDERS RIDGE DR, OLIVE BRANCH, MS, 38654",91840816,"R"
955119,"9948 BEAVER CREEK DRIVE","SHREVEPORT","LA",71106,32.380576879,-93.722275168,119,"9948 BEAVER CREEK DRIVE, SHREVEPORT, LA, 71106","Match","Exact","9948 BEAVER CREEK DR, SHREVEPORT, LA, 71106",57468374,"R"
955120,"9948 BISON CT","FORT WORTH","TX",76244,32.919051886,-97.267367327,120,"9948 BISON CT, FORT WORTH, TX, 76244","Match","Exact","9948 BISON CT, FORT WORTH, TX, 76244",637606392,"R"
955121,"9948 OSPREY DR","FORT WORTH","TX",76108,32.7672839140001,-97.491805386,121,"9948 OSPREY DR, FORT WORTH, TX, 76108","Match","Exact","9948 OSPREY DR, FORT WORTH, TX, 76108",638654858,"R"
955122,"9948 PARKER LAKE CIRCLE","NAVARRE","FL",32566,30.420241687,-86.815797043,122,"9948 PARKER LAKE CIRCLE, NAVARRE, FL, 32566","Match","Exact","9948 PARKER LAKE CIR, NAVARRE, FL, 32566",74608116,"R"
955123,"9948 S SAINT LOUIS AVE","EVERGREEN PARK","IL",60805,41.712441659,-87.708888864,123,"9948 S SAINT LOUIS AVE, EVERGREEN PARK, IL, 60805","Match","Exact","9948 S SAINT LOUIS AVE, EVERGREEN PARK, IL, 60805",111818899,"R"
955124,"9948 S WOOD LN","PALOS HILLS","IL",60465,41.709714396,-87.8248158229999,124,"9948 S WOOD LN, PALOS HILLS, IL, 60465","Match","Exact","9948 WOOD LN, PALOS HILLS, IL, 60465",111809940,"R"
955125,"9948 WILKENS RUN RD NE","NEWARK","OH",43055,40.130542887,-82.35871495,125,"9948 WILKENS RUN RD NE, NEWARK, OH, 43055","Match","Non_Exact","9948 WILKINS RUN RD NE, NEWARK, OH, 43055",61547372,"R"
955126,"9949 164TH ROAD","HOWARD BEACH","NY",11414,NA,NA,126,"9949 164TH ROAD, HOWARD BEACH, NY, 11414","No_Match",NA,NA,NA,NA
955127,"9949 AZUAGA STREET G104","SAN DIEGO","CA",92129,32.95801937,-117.112409553,127,"9949 AZUAGA STREET G104, SAN DIEGO, CA, 92129","Match","Exact","9949 AZUAGA ST, SAN DIEGO, CA, 92129",648286644,"R"
955128,"9949 BIRCH KNOLL CT","CHARLOTTE","NC",28213,35.307661265,-80.713352358,128,"9949 BIRCH KNOLL CT, CHARLOTTE, NC, 28213","Match","Exact","9949 BIRCH KNOLL CT, CHARLOTTE, NC, 28213",70542939,"R"
955129,"9949 COBBLESTONE BLVD","INDEPENDENCE","KY",41051,38.956205444,-84.584771516,129,"9949 COBBLESTONE BLVD, INDEPENDENCE, KY, 41051","Match","Exact","9949 COBBLESTONE BLVD, INDEPENDENCE, KY, 41051",103896672,"L"
955130,"9949 E VILLA CIRCLE","VERO BEACH","FL",32966,27.617997788,-80.529928801,130,"9949 E VILLA CIRCLE, VERO BEACH, FL, 32966","Match","Exact","9949 E VILLA CIR, VERO BEACH, FL, 32966",653173689,"L"
955131,"9949 ERMA RD UNIT 103","SAN DIEGO","CA",92131,32.9193071810001,-117.112389464,131,"9949 ERMA RD UNIT 103, SAN DIEGO, CA, 92131","Match","Exact","9949 ERMA RD, SAN DIEGO, CA, 92131",645311386,"R"
955132,"9949 HIGHWAY 191","CANNEL CITY","KY",41408,37.7894085400001,-83.280803758,132,"9949 HIGHWAY 191, CANNEL CITY, KY, 41408","Match","Non_Exact","9949 STATE HWY 191, CANNEL CITY, KY, 41408",33727156,"R"
955133,"9949 HWY 72","BENTONVILLE","AR",72712,36.4190145270001,-94.1592818089999,133,"9949 HWY 72, BENTONVILLE, AR, 72712","Match","Non_Exact","9949 STATE HWY 72, BENTONVILLE, AR, 72712",640549649,"R"
955134,"9949 VARROW PARK DR NO1171","TWINSBURG","OH",44087,NA,NA,134,"9949 VARROW PARK DR NO1171, TWINSBURG, OH, 44087","No_Match",NA,NA,NA,NA
955135,"9949 W ANDREA DR","PEORIA","AZ",85383,33.726785444,-112.274277545,135,"9949 W ANDREA DR, PEORIA, AZ, 85383","Match","Exact","9949 ANDREA DR, PEORIA, AZ, 85383",642226598,"L"
955136,"9949 WOODSMALL APT 4","INDIANAPOLIS","IN",46229,39.800369819,-85.9914838239999,136,"9949 WOODSMALL APT 4, INDIANAPOLIS, IN, 46229","Match","Non_Exact","9949 WOODSMALL DR, INDIANAPOLIS, IN, 46229",108012730,"R"
955137,"9949 WOODSMALL DR APT 4","INDANAPOLIS","IN",46229,39.800369819,-85.9914838239999,137,"9949 WOODSMALL DR APT 4, INDANAPOLIS, IN, 46229","Match","Non_Exact","9949 WOODSMALL DR, INDIANAPOLIS, IN, 46229",108012730,"R"
955138,"9949 WOODSMALL DR APT 4","INDIANAPOLIS","IN",46229,39.800369819,-85.9914838239999,138,"9949 WOODSMALL DR APT 4, INDIANAPOLIS, IN, 46229","Match","Exact","9949 WOODSMALL DR, INDIANAPOLIS, IN, 46229",108012730,"R"
955139,"995 ALCALA DR","AUGUSTINE","FL",32086,29.819216441,-81.299228182,139,"995 ALCALA DR, AUGUSTINE, FL, 32086","Match","Non_Exact","995 ALCALA DR, ST AUGUSTINE, FL, 32086",92587586,"R"
955140,"995 ANSEL RD","CLEVELAND","OH",44103,41.5269975740001,-81.6296482559999,140,"995 ANSEL RD, CLEVELAND, OH, 44103","Match","Exact","995 ANSEL RD, CLEVELAND, OH, 44103",61112178,"L"
955141,"995 ARCH STREET EXT","BROCKWAY","PA",15824,NA,NA,141,"995 ARCH STREET EXT, BROCKWAY, PA, 15824","No_Match",NA,NA,NA,NA
955142,"995 ARCH THWEAT RD","STANTON","TN",38069,35.4414248790001,-89.326346239,142,"995 ARCH THWEAT RD, STANTON, TN, 38069","Match","Exact","995 ARCH THWEAT RD, STANTON, TN, 38069",63739133,"L"
955143,"995 B K PICKERING DRIVE","TEXARKANA","TX",75501,33.4114865810001,-94.180355057,143,"995 B K PICKERING DRIVE, TEXARKANA, TX, 75501","Match","Exact","995 B K PICKERING DR, TEXARKANA, TX, 75501",650900373,"L"
955144,"995 BAJADA CT","FREMONT","CA",94539,37.545782769,-121.945580719,144,"995 BAJADA CT, FREMONT, CA, 94539","Match","Exact","995 BAJADA CT, FREMONT, CA, 94539",125033465,"R"
955145,"995 BAKER HILL ROAD","COBDEN","IL",62920,37.5432818950001,-89.272710522,145,"995 BAKER HILL ROAD, COBDEN, IL, 62920","Match","Exact","995 BAKER HILL RD, COBDEN, IL, 62920",5990191,"L"
955146,"995 BARDANE ROAD","JACOB","IL",62950,37.7861097250001,-89.6007782679999,146,"995 BARDANE ROAD, JACOB, IL, 62950","Match","Exact","995 BARDANE RD, JACOB, IL, 62950",95123686,"R"
955147,"995 BILLYVILLE RD","WOODBINE","GA",31569,30.9274043340001,-81.700115876,147,"995 BILLYVILLE RD, WOODBINE, GA, 31569","Match","Exact","995 BILLYVILLE RD, WOODBINE, GA, 31569",125695979,"R"
955148,"995 BRISTOL DRIVE","AKRON","OH",44312,41.0239957200001,-81.41499492,148,"995 BRISTOL DRIVE, AKRON, OH, 44312","Match","Exact","995 BRISTOL DR, AKRON, OH, 44312",625712462,"R"
955149,"995 CANDELORA DRIVE","POTTSTOWN","PA",19464,40.261368691,-75.6803148019999,149,"995 CANDELORA DRIVE, POTTSTOWN, PA, 19464","Match","Exact","995 CANDELORA DR, POTTSTOWN, PA, 19464",635655365,"L"
955150,"995 CENTURY OAKS DRIVE","MANCHESTER","MO",63021,38.567982735,-90.4910121899999,150,"995 CENTURY OAKS DRIVE, MANCHESTER, MO, 63021","Match","Exact","995 CENTURY OAKS DR, MANCHESTER, MO, 63021",100127174,"R"
955151,"995 CHELSEA DRIVE","BOUNTIFUL","UT",84010,40.85490701,-111.865153055,151,"995 CHELSEA DRIVE, BOUNTIFUL, UT, 84010","Match","Exact","995 CHELSEA DR, BOUNTIFUL, UT, 84010",229353665,"L"
955152,"995 CLAEVEN CIRCLE","FORT WALTON BEACH","FL",32547,30.445532143,-86.64175447,152,"995 CLAEVEN CIRCLE, FORT WALTON BEACH, FL, 32547","Match","Exact","995 CLAEVEN CIR, FORT WALTON BEACH, FL, 32547",74420391,"L"
955153,"995 CLAYTON STREET","SAN FRANCSICO","CA",94117,37.763865245,-122.447230665,153,"995 CLAYTON STREET, SAN FRANCSICO, CA, 94117","Match","Non_Exact","995 CLAYTON ST, SAN FRANCISCO, CA, 94117",192282411,"R"
955154,"995 CONCORD DR","MEDINA","OH",44256,41.1251479760001,-81.8430763009999,154,"995 CONCORD DR, MEDINA, OH, 44256","Match","Exact","995 CONCORD DR, MEDINA, OH, 44256",58676553,"L"
955155,"995 CONCORD DRIVE","MEDINA","OH",44256,41.1251479760001,-81.8430763009999,155,"995 CONCORD DRIVE, MEDINA, OH, 44256","Match","Exact","995 CONCORD DR, MEDINA, OH, 44256",58676553,"L"
955156,"995 COUNTY ROAD 350","SWEETWATER","TN",37874,35.550627782,-84.51289435,156,"995 COUNTY ROAD 350, SWEETWATER, TN, 37874","Match","Exact","995 CO RD 350, SWEETWATER, TN, 37874",88541967,"L"
955157,"995 DAYTON COURT","GALESBURG","IL",61401,40.9680271600001,-90.385771314,157,"995 DAYTON COURT, GALESBURG, IL, 61401","Match","Exact","995 DAYTON CT, GALESBURG, IL, 61401",9038674,"R"
955158,"995 E CEDAR ST","ONTARIO","CA",91761,34.0375037690001,-117.637616981,158,"995 E CEDAR ST, ONTARIO, CA, 91761","Match","Exact","995 E CEDAR ST, ONTARIO, CA, 91761",144676807,"L"
955159,"995 E HWY 33 SUITE 1","CRETE","NE",68333,NA,NA,159,"995 E HWY 33 SUITE 1, CRETE, NE, 68333","No_Match",NA,NA,NA,NA
955160,"995 E MT SHIBELL","SAHUARITA","AZ",85629,31.8723304000001,-110.965225559,160,"995 E MT SHIBELL, SAHUARITA, AZ, 85629","Match","Non_Exact","995 E MOUNT SHIBELL DR, SAHUARITA, AZ, 85629",638559542,"L"
955161,"995 ELROY MERCER ROAD","CHADBOURN","NC",28431,34.249398747,-78.833657719,161,"995 ELROY MERCER ROAD, CHADBOURN, NC, 28431","Match","Exact","995 ELROY MERCER RD, CHADBOURN, NC, 28431",64146047,"R"
955162,"995 ENGLEVILLE ROAD","SHARON SPRINGS","NY",13459,42.7816817950001,-74.642492969,162,"995 ENGLEVILLE ROAD, SHARON SPRINGS, NY, 13459","Match","Exact","995 ENGLEVILLE RD, SHARON SPGS, NY, 13459",18906151,"L"
955163,"995 FIR STREET","CHICO","CA",95928,39.735084891,-121.816961536,163,"995 FIR STREET, CHICO, CA, 95928","Match","Exact","995 FIR ST, CHICO, CA, 95928",68428003,"L"
955164,"995 FLANDERS ROAD","SOUTHINGTON","CT",6489,41.6319403210001,-72.846324352,164,"995 FLANDERS ROAD, SOUTHINGTON, CT, 6489","Match","Exact","995 FLANDERS RD, SOUTHINGTON, CT, 06489",648633460,"R"
955165,"995 FOUNTAIN ST","ANN ARBOR","MI",48103,42.290629804,-83.754154215,165,"995 FOUNTAIN ST, ANN ARBOR, MI, 48103","Match","Exact","995 FOUNTAIN ST, ANN ARBOR, MI, 48103",26013231,"L"
955166,"995 FURLONG ROAD","SEBASTOPOL","CA",95472,38.3981314850001,-122.899248249,166,"995 FURLONG ROAD, SEBASTOPOL, CA, 95472","Match","Exact","995 FURLONG RD, SEBASTOPOL, CA, 95472",67453250,"R"
955167,"995 GALLAHAD DRIVE","SAGINAW","TX",76179,32.860258081,-97.383311887,167,"995 GALLAHAD DRIVE, SAGINAW, TX, 76179","Match","Exact","995 GALLAHAD DR, SAGINAW, TX, 76179",102115246,"R"
955168,"995 GOFFSTOWN ROAD","MANCHESTER","NH",3102,43.0104378790001,-71.4941910909999,168,"995 GOFFSTOWN ROAD, MANCHESTER, NH, 3102","Match","Exact","995 GOFFSTOWN RD, MANCHESTER, NH, 03102",113545649,"R"
955169,"995 GOURGE ROAD","HENAGAR","AL",35978,34.6148091270001,-85.709657426,169,"995 GOURGE ROAD, HENAGAR, AL, 35978","Match","Exact","995 GOURGE RD, HENAGAR, AL, 35978",99160422,"L"
955170,"995 HIGH STREET","ALAMEDA","CA",94501,37.752843226,-122.237936337,170,"995 HIGH STREET, ALAMEDA, CA, 94501","Match","Exact","995 HIGH ST, ALAMEDA, CA, 94501",606078549,"L"
955171,"995 HIGHWAY T","BOLIVAR","MO",65613,NA,NA,171,"995 HIGHWAY T, BOLIVAR, MO, 65613","No_Match",NA,NA,NA,NA
955172,"995 HILL ST","ATLANTA","GA",30315,33.727249649,-84.3785483409999,172,"995 HILL ST, ATLANTA, GA, 30315","Match","Non_Exact","995 HILL ST SE, ATLANTA, GA, 30315",17346616,"R"
955173,"995 HILLVIEW DRIVE","REXBURG","ID",83440,43.8060082600001,-111.781314289,173,"995 HILLVIEW DRIVE, REXBURG, ID, 83440","Match","Exact","995 HILLVIEW DR, REXBURG, ID, 83440",119096757,"L"
955174,"995 HOJAS CT","RIO RICO","AZ",85648,31.448286329,-111.015446493,174,"995 HOJAS CT, RIO RICO, AZ, 85648","Match","Exact","995 HOJAS CT, RIO RICO, AZ, 85648",120878035,"R"
955175,"995 HONDO ROAD","LANTANA","TX",76226,33.100246649,-97.119021039,175,"995 HONDO ROAD, LANTANA, TX, 76226","Match","Exact","995 HONDO RD, LANTANA, TX, 76226",625313224,"R"
955176,"995 HOPMEADOW ST - EDGE HOUSE","SIMSBURY","CT",6070,41.886526728,-72.797142956,176,"995 HOPMEADOW ST - EDGE HOUSE, SIMSBURY, CT, 6070","Match","Exact","995 HOPMEADOW ST, SIMSBURY, CT, 06070",652450494,"L"
955177,"995 HOWELL RD","DANVILLE","GA",31017,32.5913687990001,-83.2721917279999,177,"995 HOWELL RD, DANVILLE, GA, 31017","Match","Exact","995 HOWELL RD, DANVILLE, GA, 31017",651011267,"R"
955178,"995 IVA COURT","CAMBRIA","CA",93428,35.5686442150001,-121.09104549,178,"995 IVA COURT, CAMBRIA, CA, 93428","Match","Exact","995 IVA CT, CAMBRIA, CA, 93428",109898274,"L"
955179,"995 JESSICA LAUREN DRIVE","CORDOVA","TN",38018,35.15324216,-89.8290300099999,179,"995 JESSICA LAUREN DRIVE, CORDOVA, TN, 38018","Match","Exact","995 JESSICA LAUREN DR, CORDOVA, TN, 38018",72958717,"L"
955180,"995 KINGSBROOK LANE","FLORISSANT","MO",63031,38.8141335600001,-90.332608685,180,"995 KINGSBROOK LANE, FLORISSANT, MO, 63031","Match","Exact","995 KINGSBROOK LN, FLORISSANT, MO, 63031",100116272,"R"
955181,"995 LAKEVIEW","STAUNTON","IL",62088,39.0028907820001,-89.80297932,181,"995 LAKEVIEW, STAUNTON, IL, 62088","Match","Non_Exact","995 LAKEVIEW DR, STAUNTON, IL, 62088",601460739,"L"
955182,"995 LEE ROAD","BYHALIA","MS",38611,34.8460642640001,-89.777477125,182,"995 LEE ROAD, BYHALIA, MS, 38611","Match","Exact","995 LEE RD, BYHALIA, MS, 38611",649375860,"L"
955183,"995 MESQUITE DR","CORALVILLE","IA",52241,41.708770293,-91.5832658529999,183,"995 MESQUITE DR, CORALVILLE, IA, 52241","Match","Exact","995 MESQUITE DR, CORALVILLE, IA, 52241",84519532,"L"
955184,"995 MYRTLE AVE","BROOKLYN","NY",11206,40.6962806350001,-73.941401941,184,"995 MYRTLE AVE, BROOKLYN, NY, 11206","Match","Exact","995 MYRTLE AVE, BROOKLYN, NY, 11206",59079015,"L"
955185,"995 N 620 W","JASPER","IN",47546,38.3929846230001,-87.0217068809999,185,"995 N 620 W, JASPER, IN, 47546","Match","Exact","995 N 620 W, JASPER, IN, 47546",639899720,"L"
955186,"995 N SILVER MAPLE ST","PORTERVILLE","CA",93257,36.083844723,-119.068092802,186,"995 N SILVER MAPLE ST, PORTERVILLE, CA, 93257","Match","Exact","995 N SILVER MAPLE ST, PORTERVILLE, CA, 93257",624947077,"R"
955187,"995 NUGENTOWN ROAD","LITTLE EGG HARBOR TW","NJ",8087,39.626771664,-74.3884505569999,187,"995 NUGENTOWN ROAD, LITTLE EGG HARBOR TW, NJ, 8087","Match","Exact","995 NUGENTOWN RD, LITTLE EGG HARBOR TWP, NJ, 08087",636143371,"L"
955188,"995 NW 119 STREET UNIT 0027","MIAMI","FL",33168,25.8835975120001,-80.2144173089999,188,"995 NW 119 STREET UNIT 0027, MIAMI, FL, 33168","Match","Non_Exact","995 NW 119TH ST, MIAMI, FL, 33168",116033498,"R"
955189,"995 OCEAN VIEW AVE","DALY CITY","CA",94015,37.7016488,-122.4595003,189,"995 OCEAN VIEW AVE, DALY CITY, CA, 94015","Match","Non_Exact","995 OCEAN VIEW AVE, DALY CITY, CA, 94014",649701352,"R"
955190,"995 OKLAHOMA ST","OVIEDO","FL",32765,28.6854562090001,-81.17973002,190,"995 OKLAHOMA ST, OVIEDO, FL, 32765","Match","Exact","995 OKLAHOMA ST, OVIEDO, FL, 32765",637111853,"R"
955191,"995 PARK AE","BINGHAMTON","NY",13903,42.022774348,-75.9147256749999,191,"995 PARK AE, BINGHAMTON, NY, 13903","Match","Non_Exact","995 PARK AVE, BINGHAMTON, NY, 13903",46344323,"L"
955192,"995 PARKWOOD DRIVE","CLEVELAND","OH",44108,41.5306686120001,-81.6100195019999,192,"995 PARKWOOD DRIVE, CLEVELAND, OH, 44108","Match","Exact","995 PARKWOOD DR, CLEVELAND, OH, 44108",61120362,"L"
955193,"995 PATRICK CIR","FOLSOM","CA",95630,38.651571297,-121.149354883,193,"995 PATRICK CIR, FOLSOM, CA, 95630","Match","Exact","995 PATRICK CIR, FOLSOM, CA, 95630",133446940,"R"
955194,"995 PEMBERTON DR","SPRING CREEK","NV",89815,40.6966461320001,-115.528911009,194,"995 PEMBERTON DR, SPRING CREEK, NV, 89815","Match","Exact","995 PEMBERTON DR, SPRING CREEK, NV, 89815",154555771,"R"
955195,"995 PORTERO AVE BLDG 80 W84","SAN FRANCISCO","CA",94110,NA,NA,195,"995 PORTERO AVE BLDG 80 W84, SAN FRANCISCO, CA, 94110","No_Match",NA,NA,NA,NA
955196,"995 RADBOURNE RD","COLUMBUS","OH",43207,39.8828640880001,-82.972947571,196,"995 RADBOURNE RD, COLUMBUS, OH, 43207","Match","Non_Exact","995 RADBOURNE DR, COLUMBUS, OH, 43207",218642460,"L"
955197,"995 RIVERRUN DRIVE","CHARLOTTESVILLE","VA",22901,38.0587590230001,-78.4521530599999,197,"995 RIVERRUN DRIVE, CHARLOTTESVILLE, VA, 22901","Match","Exact","995 RIVERRUN DR, CHARLOTTESVILLE, VA, 22901",83386753,"L"
955198,"995 RIVERSIDE DRIVE","PALMETTO","FL",34221,27.5122759280001,-82.575398642,198,"995 RIVERSIDE DRIVE, PALMETTO, FL, 34221","Match","Exact","995 RIVERSIDE DR, PALMETTO, FL, 34221",16243629,"R"
955199,"995 RUTLAND WAY","COLUMBUS","OH",43085,40.096443763,-83.04435539,199,"995 RUTLAND WAY, COLUMBUS, OH, 43085","Match","Exact","995 RUTLAND WAY, COLUMBUS, OH, 43085",218696038,"L"
955200,"995 S OAKLAND ST","AURORA","CO",80012,39.730510893,-104.85015291,200,"995 S OAKLAND ST, AURORA, CO, 80012","Match","Non_Exact","995 OAKLAND ST, AURORA, CO, 80010",177353454,"L"
955201,"995 SALEM CT","JACKSONVILLE","AR",72076,34.8800774900001,-92.095684729,201,"995 SALEM CT, JACKSONVILLE, AR, 72076","Match","Exact","995 SALEM CT, JACKSONVILLE, AR, 72076",618980728,"R"
955202,"995 SAMAR CT SUITE 8","CORONA","CA",92878,33.8959422840001,-117.57116517,202,"995 SAMAR CT SUITE 8, CORONA, CA, 92878","Match","Exact","995 SAMAR CT, CORONA, CA, 92878",623725546,"L"
955203,"995 SAMS POINT ROAD","BEAUFORT","SC",29907,32.4857166840001,-80.604377286,203,"995 SAMS POINT ROAD, BEAUFORT, SC, 29907","Match","Exact","995 SAMS POINT RD, BEAUFORT, SC, 29907",635577399,"R"
955204,"995 SHARPSFERRY RD","NEWBERN","TN",38059,36.1335462270001,-89.262928318,204,"995 SHARPSFERRY RD, NEWBERN, TN, 38059","Match","Exact","995 SHARPSFERRY RD, NEWBERN, TN, 38059",649959513,"L"
955205,"995 SHELDON AVE","STATEN ISLAND","NY",10309,40.537850335,-74.2083986919999,205,"995 SHELDON AVE, STATEN ISLAND, NY, 10309","Match","Exact","995 SHELDON AVE, STATEN ISLAND, NY, 10309",59888627,"L"
955206,"995 SIGNATURE GLEN CIR S APT 304","COLLIERVILLE","TN",38017,35.040044347,-89.7058125,206,"995 SIGNATURE GLEN CIR S APT 304, COLLIERVILLE, TN, 38017","Match","Exact","995 SIGNATURE GLEN CIR S, COLLIERVILLE, TN, 38017",643418551,"L"
955207,"995 ST ANDREWS WAY","EAGLE POINT","OR",97524,42.462961412,-122.793682906,207,"995 ST ANDREWS WAY, EAGLE POINT, OR, 97524","Match","Exact","995 ST ANDREWS WAY, EAGLE POINT, OR, 97524",155564385,"L"
955208,"995 STACEWOOD","BEAUMONT","TX",77706,30.084080753,-94.178068926,208,"995 STACEWOOD, BEAUMONT, TX, 77706","Match","Non_Exact","995 STACEWOOD DR, BEAUMONT, TX, 77706",73870540,"L"
955209,"995 STATE ROUTE 55","ELDRED","NY",12732,41.5666138350001,-74.8724894219999,209,"995 STATE ROUTE 55, ELDRED, NY, 12732","Match","Exact","995 STATE RTE 55, ELDRED, NY, 12732",642838840,"L"
955210,"995 SUMNER AVENUE","SPRINGFIELD","MA",1118,42.0895028030001,-72.540730609,210,"995 SUMNER AVENUE, SPRINGFIELD, MA, 1118","Match","Exact","995 SUMNER AVE, SPRINGFIELD, MA, 01118",4036896,"R"
955211,"995 SUNRISE DRIVE","SCRANTON","PA",18640,41.3097468710001,-75.778823645,211,"995 SUNRISE DRIVE, SCRANTON, PA, 18640","Match","Non_Exact","995 SUNRISE DR, INKERMAN, PA, 18640",649011007,"L"
955212,"995 THIRD ST","BALATON","MN",56115,44.2317940080001,-95.886205368,212,"995 THIRD ST, BALATON, MN, 56115","Match","Exact","995 3RD ST, BALATON, MN, 56115",38521823,"R"
955213,"995 TUCKAWANNA DRIVE","ATLANTA","GA",30311,33.728584293,-84.485608159,213,"995 TUCKAWANNA DRIVE, ATLANTA, GA, 30311","Match","Non_Exact","995 TUCKAWANNA DR SW, ATLANTA, GA, 30311",17337488,"R"
955214,"995 UNIVERSITY BLVD","IDAHO FALLS","ID",83401,NA,NA,214,"995 UNIVERSITY BLVD, IDAHO FALLS, ID, 83401","No_Match",NA,NA,NA,NA
955215,"995 W LAKESHORE DR","CLERMONT","FL",34711,28.5443749890001,-81.77168808,215,"995 W LAKESHORE DR, CLERMONT, FL, 34711","Match","Exact","995 W LAKESHORE DR, CLERMONT, FL, 34711",94167182,"R"
955216,"995 W LAKESHORE DRIVE","CLERMONT","FL",34711,28.5443749890001,-81.77168808,216,"995 W LAKESHORE DRIVE, CLERMONT, FL, 34711","Match","Exact","995 W LAKESHORE DR, CLERMONT, FL, 34711",94167182,"R"
955217,"995 WALSH ROAD","KALISPELL","MT",59912,48.3562279590001,-114.240017399,217,"995 WALSH ROAD, KALISPELL, MT, 59912","Match","Non_Exact","995 WALSH RD, COLUMBIA FALLS, MT, 59912",204186950,"R"
955218,"995 WAYSIDE ROAD","FAYETTEVILLE","NC",28314,35.0500411080001,-78.985850521,218,"995 WAYSIDE ROAD, FAYETTEVILLE, NC, 28314","Match","Exact","995 WAYSIDE RD, FAYETTEVILLE, NC, 28314",64195470,"R"
955219,"995 WEST GEORGE ST","CARMICHAELS","PA",15320,39.880746624,-79.993337735,219,"995 WEST GEORGE ST, CARMICHAELS, PA, 15320","Match","Exact","995 W GEORGE ST, CARMICHAELS, PA, 15320",51394441,"L"
955220,"995 WEST HIGH STREET","STOWE","PA",19464,40.2461277250001,-75.6805456439999,220,"995 WEST HIGH STREET, STOWE, PA, 19464","Match","Exact","995 W HIGH ST, STOWE, PA, 19464",605697984,"R"
955221,"995 WESTERSHAM COURT","MARIETTA","GA",30064,33.929262205,-84.584293999,221,"995 WESTERSHAM COURT, MARIETTA, GA, 30064","Match","Exact","995 WESTERSHAM CT, MARIETTA, GA, 30064",17205749,"R"
955222,"995 WINSTON CIRCLE","MENDOTA HEIGHTS","MN",55118,44.915405025,-93.1115136,222,"995 WINSTON CIRCLE, MENDOTA HEIGHTS, MN, 55118","Match","Exact","995 WINSTON CIR, MENDOTA HEIGHTS, MN, 55118",37915478,"L"
955223,"995 WOODLAKE DRIVE","HOMERVILLE","GA",31634,31.0411140000001,-82.774049599,223,"995 WOODLAKE DRIVE, HOMERVILLE, GA, 31634","Match","Exact","995 WOODLAKE DR, HOMERVILLE, GA, 31634",627284002,"R"
955224,"9950 BARGE DR","MEMPHIS","TN",38016,35.2012686800001,-89.731822316,224,"9950 BARGE DR, MEMPHIS, TN, 38016","Match","Non_Exact","9950 BARGE DR, CORDOVA, TN, 38016",613377944,"R"
955225,"9950 BARGE DRIVE APT 201","CORDOVA","TN",38016,35.2012686800001,-89.731822316,225,"9950 BARGE DRIVE APT 201, CORDOVA, TN, 38016","Match","Exact","9950 BARGE DR, CORDOVA, TN, 38016",613377944,"R"
955226,"9950 BARNSBURY RD","DOUGLASVILLE","GA",30135,NA,NA,226,"9950 BARNSBURY RD, DOUGLASVILLE, GA, 30135","No_Match",NA,NA,NA,NA
955227,"9950 BETHEL RD","AMITY","OR",97101,45.0427569650001,-123.237091889,227,"9950 BETHEL RD, AMITY, OR, 97101","Match","Exact","9950 BETHEL RD, AMITY, OR, 97101",155768182,"R"
955228,"9950 BOULDIN RD","IRWIN","PA",15642,40.3178445660001,-79.726179643,228,"9950 BOULDIN RD, IRWIN, PA, 15642","Match","Exact","9950 BOULDIN RD, IRWIN, PA, 15642",52966509,"L"
955229,"9950 BRUCEVILLE ROAD APT 142","ELK GROVE","CA",95757,38.3959103510001,-121.417742263,229,"9950 BRUCEVILLE ROAD APT 142, ELK GROVE, CA, 95757","Match","Exact","9950 BRUCEVILLE RD, ELK GROVE, CA, 95757",642587599,"L"
955230,"9950 CHURCHILL DRIVE","BELLEVILLE","MI",48111,42.228346668,-83.459242904,230,"9950 CHURCHILL DRIVE, BELLEVILLE, MI, 48111","Match","Exact","9950 CHURCHILL DR, BELLEVILLE, MI, 48111",95709502,"L"
955231,"9950 CULPEPPER DR","CARMEL","IN",46032,NA,NA,231,"9950 CULPEPPER DR, CARMEL, IN, 46032","No_Match",NA,NA,NA,NA
955232,"9950 DURANT DRIVE UNIT 309","BEVERLY HILLS","CA",90212,34.0640691350001,-118.412160412,232,"9950 DURANT DRIVE UNIT 309, BEVERLY HILLS, CA, 90212","Match","Exact","9950 DURANT DR, BEVERLY HILLS, CA, 90212",141571508,"L"
955233,"9950 E VERONA CIR","VERO BEACH","FL",32966,27.621276305,-80.530143633,233,"9950 E VERONA CIR, VERO BEACH, FL, 32966","Match","Non_Exact","9950 W VERONA CIR, VERO BEACH, FL, 32966",631722501,"R"
955234,"9950 GRANDVILLE","DETROIT","MI",48228,42.367484941,-83.230057362,234,"9950 GRANDVILLE, DETROIT, MI, 48228","Match","Non_Exact","9950 GRANDVILLE AVE, DETROIT, MI, 48228",95438828,"R"
955235,"9950 HODGEN ROAD","COLORADO SPRINGS","CO",80908,39.071264711,-104.642026416,235,"9950 HODGEN ROAD, COLORADO SPRINGS, CO, 80908","Match","Exact","9950 HODGEN RD, COLORADO SPRINGS, CO, 80908",647965293,"L"
955236,"9950 JUANITA ST APT 159","CYPRESS","CA",90630,33.8182505120001,-118.023855318,236,"9950 JUANITA ST APT 159, CYPRESS, CA, 90630","Match","Exact","9950 JUANITA ST, CYPRESS, CA, 90630",624337733,"L"
955237,"9950 LUMLAY ROAD","RICHMOND","VA",23236,37.4338897540001,-77.577975626,237,"9950 LUMLAY ROAD, RICHMOND, VA, 23236","Match","Exact","9950 LUMLAY RD, RICHMOND, VA, 23236",201561236,"R"
955238,"9950 MADISON","KANSAS CITY","MO",64114,38.945605635,-94.6016059629999,238,"9950 MADISON, KANSAS CITY, MO, 64114","Match","Exact","9950 MADISON, KANSAS CITY, MO, 64114",91508291,"R"
955239,"9950 PINE ISLAND DR","SPARTA","MI",49345,43.1446657820001,-85.640875551,239,"9950 PINE ISLAND DR, SPARTA, MI, 49345","Match","Exact","9950 PINE ISLAND DR, SPARTA, MI, 49345",12510944,"R"
955240,"9950 S HOOVER RD","PECK","KS",67120,37.5137265280001,-97.4060819539999,240,"9950 S HOOVER RD, PECK, KS, 67120","Match","Exact","9950 S HOOVER RD, PECK, KS, 67120",115643446,"L"
955241,"9950 S OAKLEY AVE","CHICAGO","IL",60643,41.7127495030001,-87.6793979129999,241,"9950 S OAKLEY AVE, CHICAGO, IL, 60643","Match","Exact","9950 S OAKLEY AVE, CHICAGO, IL, 60643",111822813,"R"
955242,"9950 SHANNON ROAD","FRAZEYSBURG","OH",43822,40.1058420470001,-82.1070396709999,242,"9950 SHANNON ROAD, FRAZEYSBURG, OH, 43822","Match","Exact","9950 SHANNON RD, FRAZEYSBURG, OH, 43822",45607966,"R"
955243,"9950 SHERIDAN STREET APT 207","PEMBROKE PINES","FL",33024,26.03000303,-80.2782518069999,243,"9950 SHERIDAN STREET APT 207, PEMBROKE PINES, FL, 33024","Match","Exact","9950 SHERIDAN ST, PEMBROKE PINES, FL, 33024",640920381,"L"
955244,"9950 SOUTH OCEAN DRIVE","JENSON BEACH","FL",34957,27.2830383140001,-80.2108324449999,244,"9950 SOUTH OCEAN DRIVE, JENSON BEACH, FL, 34957","Match","Non_Exact","9950 S OCEAN DR, JENSEN BEACH, FL, 34957",610715739,"R"
955245,"9950 SOUTH PROSPECT","CHICAGO","IL",60643,41.7126632040001,-87.662937977,245,"9950 SOUTH PROSPECT, CHICAGO, IL, 60643","Match","Non_Exact","9950 S PROSPECT AVE, CHICAGO, IL, 60643",111823083,"R"
955246,"9950 SOUTHWIND DRIVE","INDIANAPOLIS","IN",46256,39.9225272560001,-85.992301326,246,"9950 SOUTHWIND DRIVE, INDIANAPOLIS, IN, 46256","Match","Exact","9950 SOUTHWIND DR, INDIANAPOLIS, IN, 46256",108024287,"R"
955247,"9950 SW 160TH AVE","BEAVERTON OR","OR",97211,NA,NA,247,"9950 SW 160TH AVE, BEAVERTON OR, OR, 97211","No_Match",NA,NA,NA,NA
955248,"9950 SW 54TH STREET","MIAMI","FL",33165,25.717518559,-80.3563880029999,248,"9950 SW 54TH STREET, MIAMI, FL, 33165","Match","Exact","9950 SW 54TH ST, MIAMI, FL, 33165",115973536,"L"
955249,"9950 TOPANGA CANYON BLVD UNIT 28","CHATSWORTH","CA",91311,34.2510315490001,-118.60595334,249,"9950 TOPANGA CANYON BLVD UNIT 28, CHATSWORTH, CA, 91311","Match","Exact","9950 TOPANGA CANYON BLVD, CHATSWORTH, CA, 91311",142675545,"R"
955250,"9950 W 700 S","FRANCESVILLE","IN",47946,40.95593555,-86.825337917,250,"9950 W 700 S, FRANCESVILLE, IN, 47946","Match","Exact","9950 W 700 S, FRANCESVILLE, IN, 47946",15483241,"L"
955251,"9951 271ST ST NW","STANWOOD","WA",98292,48.242442172,-122.367807487,251,"9951 271ST ST NW, STANWOOD, WA, 98292","Match","Exact","9951 271ST ST NW, STANWOOD, WA, 98292",187737340,"L"
955252,"9951 ACADEMY ROAD APT B 24","PHILADELPHIA","PA",19114,40.0778253560001,-74.999212109,252,"9951 ACADEMY ROAD APT B 24, PHILADELPHIA, PA, 19114","Match","Exact","9951 ACADEMY RD, PHILADELPHIA, PA, 19114",131433874,"R"
955253,"9951 ACADEMY ROAD APT D16","PHILADELPHIA","PA",19114,40.0778253560001,-74.999212109,253,"9951 ACADEMY ROAD APT D16, PHILADELPHIA, PA, 19114","Match","Exact","9951 ACADEMY RD, PHILADELPHIA, PA, 19114",131433874,"R"
955254,"9951 ACADEMY ROAD D11","PHILDELPHIA","PA",19114,40.0778253560001,-74.999212109,254,"9951 ACADEMY ROAD D11, PHILDELPHIA, PA, 19114","Match","Non_Exact","9951 ACADEMY RD, PHILADELPHIA, PA, 19114",131433874,"R"
955255,"9951 ATLANTIC BLVD STE 319","ORLANDO","FL",32808,NA,NA,255,"9951 ATLANTIC BLVD STE 319, ORLANDO, FL, 32808","No_Match",NA,NA,NA,NA
955256,"9951 ATLANTIC BLVD SUITE 434","JACKSONVILLE","FL",32225,30.3227354530001,-81.540069844,256,"9951 ATLANTIC BLVD SUITE 434, JACKSONVILLE, FL, 32225","Match","Exact","9951 ATLANTIC BLVD, JACKSONVILLE, FL, 32225",83905093,"L"
955257,"9951 BALFOUR ROAD","DETROIT","MI",48224,42.4128461650001,-82.950092753,257,"9951 BALFOUR ROAD, DETROIT, MI, 48224","Match","Exact","9951 BALFOUR RD, DETROIT, MI, 48224",95469880,"L"
955258,"9951 E ISLAND SUN ROAD","TUCSON","AZ",85748,32.2114113650001,-110.780137611,258,"9951 E ISLAND SUN ROAD, TUCSON, AZ, 85748","Match","Exact","9951 E ISLAND SUN RD, TUCSON, AZ, 85748",121382397,"R"
955259,"9951 PARRISH AVE NW","OTSEGO","MN",55330,45.2951240360001,-93.565555715,259,"9951 PARRISH AVE NW, OTSEGO, MN, 55330","Match","Non_Exact","9951 PARRISH AVE NE, OTSEGO, MN, 55330",43988667,"L"
955260,"9951 PONDER LANE APT 203","RALIEGH","NC",27617,35.896753889,-78.796207968,260,"9951 PONDER LANE APT 203, RALIEGH, NC, 27617","Match","Non_Exact","9951 PONDER LN, RALEIGH, NC, 27617",612813280,"L"
955261,"9951 RIVERWALK DR","SANTEE","CA",92071,32.8523522030001,-116.980309618,261,"9951 RIVERWALK DR, SANTEE, CA, 92071","Match","Exact","9951 RIVERWALK DR, SANTEE, CA, 92071",612880713,"R"
955262,"9951 SOMERSET GROVE LANE","JACKSONVILLE","FL",32222,30.2442064250001,-81.8227490199999,262,"9951 SOMERSET GROVE LANE, JACKSONVILLE, FL, 32222","Match","Exact","9951 SOMERSET GROVE LN, JACKSONVILLE, FL, 32222",83940303,"R"
955263,"9951 WILLIAM DALTON WAY","GARDEN GROVE","CA",92841,NA,NA,263,"9951 WILLIAM DALTON WAY, GARDEN GROVE, CA, 92841","No_Match",NA,NA,NA,NA
955264,"9952 66TH ROAD","REGO PARK","NY",11374,40.7287310450001,-73.85343611,264,"9952 66TH ROAD, REGO PARK, NY, 11374","Match","Non_Exact","9952 66TH AVE, REGO PARK, NY, 11374",59725124,"L"
955265,"9952 BOND CIRCLE","HUNTINGTON BEACH","CA",92646,33.6777422490001,-117.954980837,265,"9952 BOND CIRCLE, HUNTINGTON BEACH, CA, 92646","Match","Exact","9952 BOND CIR, HUNTINGTON BEACH, CA, 92646",144044510,"R"
955266,"9952 E COUNTY ROAD 415 S","CROTHERSVILLE","IN",47229,38.8191259270001,-85.851518719,266,"9952 E COUNTY ROAD 415 S, CROTHERSVILLE, IN, 47229","Match","Exact","9952 E CO RD 415 S, CROTHERSVILLE, IN, 47229",31258079,"L"
955267,"9952 EVERGREEN TERRACE DRIVE","CHARLOTTE","NC",28277,35.0257915440001,-80.8415214409999,267,"9952 EVERGREEN TERRACE DRIVE, CHARLOTTE, NC, 28277","Match","Exact","9952 EVERGREEN TERRACE DR, CHARLOTTE, NC, 28277",624659863,"R"
955268,"9952 GEORGE BUSH DR","MCKINNEY","TX",75070,33.18355129,-96.747921891,268,"9952 GEORGE BUSH DR, MCKINNEY, TX, 75070","Match","Non_Exact","9952 GEORGE BUSH DR, MCKINNEY, TX, 75072",619910826,"R"
955269,"9952 JUSTMAN ST SE","YELM","WA",98597,46.9429443750001,-122.633483924,269,"9952 JUSTMAN ST SE, YELM, WA, 98597","Match","Exact","9952 JUSTMAN ST SE, YELM, WA, 98597",627655365,"R"
955270,"9952 SAGO DR","SEMINOLE","FL",33777,NA,NA,270,"9952 SAGO DR, SEMINOLE, FL, 33777","No_Match",NA,NA,NA,NA
955271,"9952 TIMOTHY PATH","PRUNEDALE","CA",93907,36.7742242410001,-121.728533761,271,"9952 TIMOTHY PATH, PRUNEDALE, CA, 93907","Match","Exact","9952 TIMOTHY PATH, PRUNEDALE, CA, 93907",196818068,"R"
955272,"9952 TIMOTHY PATH","SALINAS","CA",93907,36.7742242410001,-121.728533761,272,"9952 TIMOTHY PATH, SALINAS, CA, 93907","Match","Exact","9952 TIMOTHY PATH, SALINAS, CA, 93907",196818068,"R"
955273,"9952 W DEMAR AVE","WASILLA","AK",99623,61.4939038000001,-149.698136215,273,"9952 W DEMAR AVE, WASILLA, AK, 99623","Match","Exact","9952 DEMAR AVE, WASILLA, AK, 99623",191043682,"L"
955274,"9953 206TH ST W","LAKEVILLE","MN",55044,44.6510728120001,-93.26745895,274,"9953 206TH ST W, LAKEVILLE, MN, 55044","Match","Exact","9953 206TH ST W, LAKEVILLE, MN, 55044",37931410,"L"
955275,"9953 E ONZA AVE","MESA","AZ",85212,33.362660658,-111.63236941,275,"9953 E ONZA AVE, MESA, AZ, 85212","Match","Exact","9953 E ONZA AVE, MESA, AZ, 85212",128816392,"R"
955276,"9953 MISSION CREEK INN STREET","LAS VEGAS","NV",89178,36.0074386380001,-115.297634506,276,"9953 MISSION CREEK INN STREET, LAS VEGAS, NV, 89178","Match","Non_Exact","9953 S MISSION CREEK INN ST, LAS VEGAS, NV, 89178",625227859,"R"
955277,"9953 NE SOUTH BEACH DRIVE","BAINBRIDGE ISLAND","WA",98110,47.574659388,-122.519095736,277,"9953 NE SOUTH BEACH DRIVE, BAINBRIDGE ISLAND, WA, 98110","Match","Exact","9953 NE SOUTH BEACH DR, BAINBRIDGE ISLAND, WA, 98110",187667349,"R"
955278,"9953 PARK PLACE DR","MONTICELLO","MN",55362,45.294976988,-93.808528611,278,"9953 PARK PLACE DR, MONTICELLO, MN, 55362","Match","Exact","9953 PARK PLACE DR, MONTICELLO, MN, 55362",44019262,"R"
955279,"99533 HAUKANU ST","AIEA","HI",96701,NA,NA,279,"99533 HAUKANU ST, AIEA, HI, 96701","No_Match",NA,NA,NA,NA
955280,"9954 COLMANARA DR","REMINDERVILLE","OH",44202,41.338191803,-81.3984857569999,280,"9954 COLMANARA DR, REMINDERVILLE, OH, 44202","Match","Exact","9954 COLMANARA DR, REMINDERVILLE, OH, 44202",648148340,"R"
955281,"9954 FUCHSIA VIEW","SAN ANTONIO","TX",78245,29.3910002850001,-98.6861988919999,281,"9954 FUCHSIA VIEW, SAN ANTONIO, TX, 78245","Match","Exact","9954 FUCHSIA VW, SAN ANTONIO, TX, 78245",619926494,"R"
955282,"9954 HERITAGE DRIVE","FLAGSTAFF","AZ",86004,35.2832912470001,-111.519951834,282,"9954 HERITAGE DRIVE, FLAGSTAFF, AZ, 86004","Match","Exact","9954 HERITAGE DR, FLAGSTAFF, AZ, 86004",188953047,"R"
955283,"9954 HWY 206 W","HARRISON","AR",72601,36.143778432,-93.168056528,283,"9954 HWY 206 W, HARRISON, AR, 72601","Match","Non_Exact","9954 STATE HWY 206 W, HARRISON, AR, 72601",19995928,"L"
955284,"9954 LOGWOOD CR","INDIANAPOLIS","IN",46280,39.939078237,-86.124035507,284,"9954 LOGWOOD CR, INDIANAPOLIS, IN, 46280","Match","Non_Exact","9954 LOGWOOD CT, INDIANAPOLIS, IN, 46280",29310331,"L"
955285,"9954 MACABEE LANE","ELK GROVE","CA",95757,38.395497117,-121.448914544,285,"9954 MACABEE LANE, ELK GROVE, CA, 95757","Match","Exact","9954 MACABEE LN, ELK GROVE, CA, 95757",629557877,"L"
955286,"9954 N 1650 TH AVE","PALESTINE","IL",62451,39.000260789,-87.640500649,286,"9954 N 1650 TH AVE, PALESTINE, IL, 62451","Match","Non_Exact","9954 N 1650TH ST, PALESTINE, IL, 62451",26971759,"L"
955287,"9954 N 1650TH AVE","PALESTINE","IL",62451,39.000260789,-87.640500649,287,"9954 N 1650TH AVE, PALESTINE, IL, 62451","Match","Non_Exact","9954 N 1650TH ST, PALESTINE, IL, 62451",26971759,"L"
955288,"9954 N 6800 W","HIGHTLAND","UT",84003,40.412505783,-111.820868157,288,"9954 N 6800 W, HIGHTLAND, UT, 84003","Match","Non_Exact","9954 N 6800 W, HIGHLAND, UT, 84003",627719792,"L"
955289,"9954 NC HWY","ELKIN","NH",28621,NA,NA,289,"9954 NC HWY, ELKIN, NH, 28621","No_Match",NA,NA,NA,NA
955290,"9954 SHERWOOD FARMROAD","OWINGS MILLS","MD",21117,NA,NA,290,"9954 SHERWOOD FARMROAD, OWINGS MILLS, MD, 21117","No_Match",NA,NA,NA,NA
955291,"9955 108TH AVE NW","NOONAN","ND",58765,48.862650977,-103.070752606,291,"9955 108TH AVE NW, NOONAN, ND, 58765","Match","Exact","9955 108TH AVE NW, NOONAN, ND, 58765",199938822,"R"
955292,"9955 65TH RD","REGO PARK","NY",11374,NA,NA,292,"9955 65TH RD, REGO PARK, NY, 11374","No_Match",NA,NA,NA,NA
955293,"9955 BAMMEL N HOUSTON 1320","HOUSTON","TX",77086,NA,NA,293,"9955 BAMMEL N HOUSTON 1320, HOUSTON, TX, 77086","No_Match",NA,NA,NA,NA
955294,"9955 BAMMEL NORTH HOUSTON RD 11","HOUSTON","TX",77086,NA,NA,294,"9955 BAMMEL NORTH HOUSTON RD 11, HOUSTON, TX, 77086","No_Match",NA,NA,NA,NA
955295,"9955 BARKER CYPRESS RD STE 250","CYPRESS","TN",77433,NA,NA,295,"9955 BARKER CYPRESS RD STE 250, CYPRESS, TN, 77433","No_Match",NA,NA,NA,NA
955296,"9955 BARKER CYPRESS RD STE 250","CYPRESS","TX",77433,29.922849569,-95.686338489,296,"9955 BARKER CYPRESS RD STE 250, CYPRESS, TX, 77433","Match","Exact","9955 BARKER CYPRESS RD, CYPRESS, TX, 77433",642107271,"L"
955297,"9955 BEL AIR RD","KINGSVILLE","MD",21087,39.422896317,-76.451882633,297,"9955 BEL AIR RD, KINGSVILLE, MD, 21087","Match","Non_Exact","9955 BELAIR RD, KINGSVILLE, MD, 21087",191496387,"R"
955298,"9955 BUFFALO SPEEDWAY","HOUSTON","TX",77054,29.675017289,-95.424646707,298,"9955 BUFFALO SPEEDWAY, HOUSTON, TX, 77054","Match","Exact","9955 BUFFALO SPEEDWAY, HOUSTON, TX, 77054",637771977,"R"
955299,"9955 CLUB CREEK DRIVE APT 82","HOUSTON","TX",77036,29.683259637,-95.551301387,299,"9955 CLUB CREEK DRIVE APT 82, HOUSTON, TX, 77036","Match","Exact","9955 CLUB CREEK DR, HOUSTON, TX, 77036",96603408,"L"
955300,"9955 E CINNABAR AVE","SCOTTSDALE","AZ",85258,33.5780334740001,-111.868572617,300,"9955 E CINNABAR AVE, SCOTTSDALE, AZ, 85258","Match","Exact","9955 E CINNABAR AVE, SCOTTSDALE, AZ, 85258",128230288,"L"
955301,"9955 EAST SHADOWLAKE COURT","CLAREMORE","OK",74017,36.3473132720001,-95.651425194,301,"9955 EAST SHADOWLAKE COURT, CLAREMORE, OK, 74017","Match","Non_Exact","9955 E SHADOWLAKE DR, CLAREMORE, OK, 74017",20704284,"L"
955302,"9955 EDGERTON RD","NORTH ROYALTON","OH",44133,41.2992148640001,-81.760718447,302,"9955 EDGERTON RD, NORTH ROYALTON, OH, 44133","Match","Non_Exact","9955 W EDGERTON RD, N ROYALTON, OH, 44133",61132769,"L"
955303,"9955 GALLATIAN DR","HAMBURG","MI",48139,NA,NA,303,"9955 GALLATIAN DR, HAMBURG, MI, 48139","No_Match",NA,NA,NA,NA
955304,"9955 HERB RD","WINDSOR","CA",95492,38.557530871,-122.833142405,304,"9955 HERB RD, WINDSOR, CA, 95492","Match","Exact","9955 HERB RD, WINDSOR, CA, 95492",604991165,"L"
955305,"9955 KEMPWOOD DR APT 708","HOUSTON","TX",77080,29.8226850610001,-95.540171997,305,"9955 KEMPWOOD DR APT 708, HOUSTON, TX, 77080","Match","Exact","9955 KEMPWOOD DR, HOUSTON, TX, 77080",96638994,"L"
955306,"9955 MIXON","DALLAS","TX",75220,32.8788017570001,-96.852487126,306,"9955 MIXON, DALLAS, TX, 75220","Match","Non_Exact","9955 MIXON DR, DALLAS, TX, 75220",102977461,"L"
955307,"9955 N SEDONA PL","TUCSON","AZ",85742,32.38716881,-111.038262291,307,"9955 N SEDONA PL, TUCSON, AZ, 85742","Match","Exact","9955 N SEDONA PL, TUCSON, AZ, 85742",121191174,"R"
955308,"9955 NORIEGA DRIVE","PENSACOLA","FL",32514,30.5379398000001,-87.1916560779999,308,"9955 NORIEGA DRIVE, PENSACOLA, FL, 32514","Match","Exact","9955 NORIEGA DR, PENSACOLA, FL, 32514",93310749,"L"
955309,"9955 WARRICK STREET","LENEXA","KS",66229,NA,NA,309,"9955 WARRICK STREET, LENEXA, KS, 66229","No_Match",NA,NA,NA,NA
955310,"9955 WELLS LANDING ROAD","INDEPENDENCE","OR",97351,44.7872212570001,-123.133247957,310,"9955 WELLS LANDING ROAD, INDEPENDENCE, OR, 97351","Match","Exact","9955 WELLS LANDING RD, INDEPENDENCE, OR, 97351",644009150,"L"
955311,"9955 WILLIAMS DR","HUNTLEY","IL",60142,42.18422817,-88.42846701,311,"9955 WILLIAMS DR, HUNTLEY, IL, 60142","Match","Exact","9955 WILLIAMS DR, HUNTLEY, IL, 60142",639636727,"R"
955312,"9956 ALTA SPRINGS WAY","ROCKVILLE","MD",20850,39.0882506390001,-77.208577146,312,"9956 ALTA SPRINGS WAY, ROCKVILLE, MD, 20850","Match","Exact","9956 ALTA SPRINGS, ROCKVILLE, MD, 20850",635444269,"L"
955313,"9956 DEBIOIS AVE","FOUNTAIN VALLEY","CA",92708,33.73089772,-117.955705737,313,"9956 DEBIOIS AVE, FOUNTAIN VALLEY, CA, 92708","Match","Exact","9956 DEBIOIS AVE, FOUNTAIN VALLEY, CA, 92708",144037490,"R"
955314,"9956 DEVOSHIRE DRIVE","OMAHA","NE",68114,41.2558731760001,-96.07190747,314,"9956 DEVOSHIRE DRIVE, OMAHA, NE, 68114","Match","Non_Exact","9956 DEVONSHIRE DR, OMAHA, NE, 68114",117014877,"R"
955315,"9956 EAST FOREST AVE","DETROIT","MI",48214,42.3798127210001,-82.9961056659999,315,"9956 EAST FOREST AVE, DETROIT, MI, 48214","Match","Exact","9956 E FOREST AVE, DETROIT, MI, 48214",95483632,"R"
955316,"9956 JOHNNYCAKE RIDGE ROAD G8","CONCORD","OH",44077,41.681455451,-81.280360989,316,"9956 JOHNNYCAKE RIDGE ROAD G8, CONCORD, OH, 44077","Match","Non_Exact","9956 JOHNNYCAKE RIDGE RD, CONCORD TWP, OH, 44077",617727536,"R"
955317,"9956 LEGACY DR","FORT WORTH","TX",76108,32.7651294620001,-97.492651439,317,"9956 LEGACY DR, FORT WORTH, TX, 76108","Match","Exact","9956 LEGACY DR, FORT WORTH, TX, 76108",102190837,"R"
955318,"9956 ONYX STREET","YUCAIPA","CA",92399,34.0733602450001,-117.03850106,318,"9956 ONYX STREET, YUCAIPA, CA, 92399","Match","Exact","9956 ONYX ST, YUCAIPA, CA, 92399",144667788,"R"
955319,"9956 SOUTH BLOSSOM DR","SANDY","UT",84092,40.5703435300001,-111.852360972,319,"9956 SOUTH BLOSSOM DR, SANDY, UT, 84092","Match","Non_Exact","9956 BLOSSOM DR, SANDY, UT, 84092",176089715,"R"
955320,"9956 VOLTAIRE AVE","OAKLAND","CA",94603,37.7461501010001,-122.157311835,320,"9956 VOLTAIRE AVE, OAKLAND, CA, 94603","Match","Exact","9956 VOLTAIRE AVE, OAKLAND, CA, 94603",125011238,"L"
955321,"9956 WEDGEFIELD CT","MOBILE","AL",36608,30.6817084470001,-88.2775815369999,321,"9956 WEDGEFIELD CT, MOBILE, AL, 36608","Match","Exact","9956 WEDGEFIELD CT, MOBILE, AL, 36608",61889552,"R"
955322,"9957 AUTRY VUE LANE","ALPHARETTA","GA",30022,34.025093429,-84.2494325929999,322,"9957 AUTRY VUE LANE, ALPHARETTA, GA, 30022","Match","Exact","9957 AUTRY VUE LN, ALPHARETTA, GA, 30022",623830891,"R"
955323,"9957 BOMARC ST","EL PASO","TX",79924,31.897527328,-106.39960746,323,"9957 BOMARC ST, EL PASO, TX, 79924","Match","Exact","9957 BOMARC ST, EL PASO, TX, 79924",189338765,"L"
955324,"9957 CERBAT CT","LAS VEGAS","NV",89193,36.0084242840001,-115.123297054,324,"9957 CERBAT CT, LAS VEGAS, NV, 89193","Match","Non_Exact","9957 CERBAT CT, LAS VEGAS, NV, 89183",201997133,"R"
955325,"9957 DARROW PARK 104B","TWINSBURG","OH",44087,41.334827719,-81.4398287669999,325,"9957 DARROW PARK 104B, TWINSBURG, OH, 44087","Match","Non_Exact","9957 DARROW PARK DR, TWINSBURG, OH, 44087",61376890,"R"
955326,"9957 ELLISON RIDGE ROAD","JUMPING BRANCH","WV",25969,37.580703081,-81.0024529899999,326,"9957 ELLISON RIDGE ROAD, JUMPING BRANCH, WV, 25969","Match","Exact","9957 ELLISON RIDGE RD, JUMPING BRANCH, WV, 25969",648287306,"L"
955327,"9957 MAIDEN LANE","GIRARD","PA",16417,41.9493810870001,-80.327875825,327,"9957 MAIDEN LANE, GIRARD, PA, 16417","Match","Exact","9957 MAIDEN LN, GIRARD, PA, 16417",117487521,"R"
955328,"9957 SLOANE SQ APT A","ST LOUIS","MO",63134,38.731967453,-90.350871008,328,"9957 SLOANE SQ APT A, ST LOUIS, MO, 63134","Match","Exact","9957 SLOANE SQ, SAINT LOUIS, MO, 63134",641540866,"R"
955329,"9957 TERRA WEST","TRAVERSE CITY","MI",49685,44.7361262370001,-85.774931275,329,"9957 TERRA WEST, TRAVERSE CITY, MI, 49685","Match","Exact","9957 TERRA W, TRAVERSE CITY, MI, 49685",145517487,"L"
955330,"9957 W TARON DRIVE","ELK GROVE","CA",95757,38.39747283,-121.476650992,330,"9957 W TARON DRIVE, ELK GROVE, CA, 95757","Match","Exact","9957 W TARON DR, ELK GROVE, CA, 95757",133407517,"L"
955331,"9957 WINGHAVEN BLVD","OFALLON","MO",63368,38.7643588830001,-90.744886531,331,"9957 WINGHAVEN BLVD, OFALLON, MO, 63368","Match","Non_Exact","9957 WINGHAVEN BLVD, O FALLON, MO, 63368",605582066,"R"
955332,"9958 ALASKA COURT SE","CALEDONIA","MI",49316,42.7838783440001,-85.477145322,332,"9958 ALASKA COURT SE, CALEDONIA, MI, 49316","Match","Non_Exact","9958 ALASKA AVE SE, CALEDONIA, MI, 49316",642599926,"R"
955333,"9958 DUKE DRIVE","ST LOUIS","MO",63136,38.749736478,-90.2456453619999,333,"9958 DUKE DRIVE, ST LOUIS, MO, 63136","Match","Exact","9958 DUKE DR, SAINT LOUIS, MO, 63136",100149439,"R"
955334,"9958 E PAKES RD","CRYSTAL","MI",48818,43.2783034380001,-84.875972774,334,"9958 E PAKES RD, CRYSTAL, MI, 48818","Match","Exact","9958 E PAKES RD, CRYSTAL, MI, 48818",642505837,"L"
955335,"9958 EAST PAKES ROAD","CRYSTAL","MI",48818,43.2783034290001,-84.875975188,335,"9958 EAST PAKES ROAD, CRYSTAL, MI, 48818","Match","Exact","9958 E PAKES RD, CRYSTAL, MI, 48818",642505837,"L"
955336,"9958 GIVERNY BOULEVARD","BLUSE AS","OH",45241,39.247094727,-84.407024868,336,"9958 GIVERNY BOULEVARD, BLUSE AS, OH, 45241","Match","Non_Exact","9958 GIVERNY BLVD, BLUE ASH, OH, 45241",636701125,"L"
955337,"9958 RILEY ST","OVERLAND PARK","KS",66212,38.9476922810001,-94.6724281039999,337,"9958 RILEY ST, OVERLAND PARK, KS, 66212","Match","Exact","9958 RILEY ST, OVERLAND PARK, KS, 66212",91277378,"R"
955338,"9958 SOUTH EDEN VIEW COURT","SOUTH JORDAN","UT",84095,40.570451597,-111.97375454,338,"9958 SOUTH EDEN VIEW COURT, SOUTH JORDAN, UT, 84095","Match","Non_Exact","9958 EDEN VIEW CT, SOUTH JORDAN, UT, 84095",176126749,"R"
955339,"9958 SW ARCTIC DR","BEAVERTON","OR",97005,45.4811109300001,-122.779445513,339,"9958 SW ARCTIC DR, BEAVERTON, OR, 97005","Match","Exact","9958 SW ARCTIC DR, BEAVERTON, OR, 97005",158230262,"R"
955340,"9958 W LILLYWOOD DRIVE","BOISE","ID",83709,NA,NA,340,"9958 W LILLYWOOD DRIVE, BOISE, ID, 83709","No_Match",NA,NA,NA,NA
955341,"9959 ADLETA BLVD UNIT 1511","DALLAS","TX",75243,32.9007007770001,-96.712030973,341,"9959 ADLETA BLVD UNIT 1511, DALLAS, TX, 75243","Match","Exact","9959 ADLETA BLVD, DALLAS, TX, 75243",103280648,"L"
955342,"9959 ADLETA BLVD","DALLAS","TX",75234,32.9007007770001,-96.712030973,342,"9959 ADLETA BLVD, DALLAS, TX, 75234","Match","Non_Exact","9959 ADLETA BLVD, DALLAS, TX, 75243",103280648,"L"
955343,"9959 BROADWAY","TEMPLE CITY","CA",91780,34.1017050140001,-118.052200326,343,"9959 BROADWAY, TEMPLE CITY, CA, 91780","Match","Exact","9959 BROADWAY, TEMPLE CITY, CA, 91780",142742181,"L"
955344,"9959 BURGUNDY OAKS DRIVE","SHREVEPORT","LA",71118,32.3776893470001,-93.794662628,344,"9959 BURGUNDY OAKS DRIVE, SHREVEPORT, LA, 71118","Match","Exact","9959 BURGUNDY OAKS DR, SHREVEPORT, LA, 71118",652007351,"R"
955345,"9959 E PEAKVIEW AVE APT J204","ENGLEWOOD","CO",80111,39.597241474,-104.873031649,345,"9959 E PEAKVIEW AVE APT J204, ENGLEWOOD, CO, 80111","Match","Non_Exact","9959 E PEAKVIEW AVE, ENGLEWOOD, CO, 80111",632523655,"L"
955346,"9959 GOOD LUCK RD","LANHAM","MD",20706,38.9942559990001,-76.8350579,346,"9959 GOOD LUCK RD, LANHAM, MD, 20706","Match","Exact","9959 GOOD LUCK RD, LANHAM, MD, 20706",641062771,"R"
955347,"9959 MUSKET RIDGE CIRCLE","JONESBORO","GA",30328,33.4842154350001,-84.388749145,347,"9959 MUSKET RIDGE CIRCLE, JONESBORO, GA, 30328","Match","Non_Exact","9959 MUSKET RIDGE CIR, JONESBORO, GA, 30238",645216436,"R"
955348,"9959 PRAIRIE VALLEY RD","LONE GROVE","OK",73443,34.2019852830001,-97.2777282609999,348,"9959 PRAIRIE VALLEY RD, LONE GROVE, OK, 73443","Match","Exact","9959 PRAIRIE VALLEY RD, LONE GROVE, OK, 73443",632983955,"R"
955349,"9959 S 3200 W","SOUTH JORDON","UT",84095,40.5703887650001,-111.967273388,349,"9959 S 3200 W, SOUTH JORDON, UT, 84095","Match","Non_Exact","9959 S 3200 W, SOUTH JORDAN, UT, 84095",176143624,"L"
955350,"9959 S THROOP","CHICAGO","IL",60643,41.7131762500001,-87.655438268,350,"9959 S THROOP, CHICAGO, IL, 60643","Match","Non_Exact","9959 S THROOP ST, CHICAGO, IL, 60643",645589617,"L"
955351,"9959 SOUTH WINSTON AVENUE","CHICAGO","IL",60643,41.712524149,-87.6570103019999,351,"9959 SOUTH WINSTON AVENUE, CHICAGO, IL, 60643","Match","Exact","9959 S WINSTON AVE, CHICAGO, IL, 60643",616793967,"L"
955352,"995A MORRISON MOORE PKWY W","DAHLONEGA","GA",30533,34.5277078350001,-83.994505427,352,"995A MORRISON MOORE PKWY W, DAHLONEGA, GA, 30533","Match","Exact","995 MORRISON MOORE PKWY W, DAHLONEGA, GA, 30533",642923832,"R"
955353,"995C AKIPOHE PLACE","KAILUA","HI",96734,21.3762845430001,-157.743476529,353,"995C AKIPOHE PLACE, KAILUA, HI, 96734","Match","Exact","995 AKIPOHE PL, KAILUA, HI, 96734",203240205,"L"
955354,"996 15TH AVENUE","MCPHERSON","KS",67460,38.318430386,-97.649037553,354,"996 15TH AVENUE, MCPHERSON, KS, 67460","Match","Exact","996 15TH AVE, MCPHERSON, KS, 67460",142881200,"R"
955355,"996 ALDUS ST APT 5 F","BRONX","NY",10459,40.8232203970001,-73.8888181739999,355,"996 ALDUS ST APT 5 F, BRONX, NY, 10459","Match","Exact","996 ALDUS ST, BRONX, NY, 10459",80302424,"R"
955356,"996 BAYWOOD AVE","WERNERSVILLE","PA",19565,40.3385587330001,-76.075777116,356,"996 BAYWOOD AVE, WERNERSVILLE, PA, 19565","Match","Exact","996 BAYWOOD AVE, WERNERSVILLE, PA, 19565",630275938,"L"
955357,"996 BLUE RIDGE RD","SILVERTHORNE","CO",80498,39.7486021760001,-106.138159576,357,"996 BLUE RIDGE RD, SILVERTHORNE, CO, 80498","Match","Exact","996 BLUE RIDGE RD, SILVERTHORNE, CO, 80498",653308161,"R"
955358,"996 BRAYTON AVE","SOMERSET","MA",2726,41.7364881350001,-71.1612238069999,358,"996 BRAYTON AVE, SOMERSET, MA, 2726","Match","Exact","996 BRAYTON AVE, SOMERSET, MA, 02726",46768481,"R"
955359,"996 BUTTER CREEK COURT","SCHAUMBURG","IL",60169,42.0453871930001,-88.08756313,359,"996 BUTTER CREEK COURT, SCHAUMBURG, IL, 60169","Match","Non_Exact","996 BUTTER CREEK CT, HOFFMAN EST, IL, 60169",111693870,"R"
955360,"996 COATBRIDGE","LAS VEGAS","NV",89145,36.1605457910001,-115.293918581,360,"996 COATBRIDGE, LAS VEGAS, NV, 89145","Match","Non_Exact","996 COATBRIDGE ST, LAS VEGAS, NV, 89145",201989966,"R"
955361,"996 CONCORD CHURCH ROAD","ROXBORO","NC",27573,NA,NA,361,"996 CONCORD CHURCH ROAD, ROXBORO, NC, 27573","No_Match",NA,NA,NA,NA
955362,"996 CORONADO COURT","GULF BREEZE","FL",32563,30.3729901830001,-87.11120154,362,"996 CORONADO COURT, GULF BREEZE, FL, 32563","Match","Exact","996 CORONADO CT, GULF BREEZE, FL, 32563",74567128,"L"
955363,"996 COTTAGE PLACE","SHOREVIEW","MN",55126,45.0452203740001,-93.143288759,363,"996 COTTAGE PLACE, SHOREVIEW, MN, 55126","Match","Exact","996 COTTAGE PL, SHOREVIEW, MN, 55126",97640361,"L"
955364,"996 CR 2515","BONHAM","TX",75418,33.6593275330001,-96.176127523,364,"996 CR 2515, BONHAM, TX, 75418","Match","Exact","996 CO RD 2515, BONHAM, TX, 75418",63286075,"R"
955365,"996 CRESTVILLE CT","GURNEE","IL",60031,42.374148473,-87.886282942,365,"996 CRESTVILLE CT, GURNEE, IL, 60031","Match","Exact","996 CRESTVILLE CT, GURNEE, IL, 60031",635518454,"L"
955366,"996 DONNER WAY","SALT LAKE CITY","UT",84108,40.7475743590001,-111.804991979,366,"996 DONNER WAY, SALT LAKE CITY, UT, 84108","Match","Exact","996 DONNER WAY, SALT LAKE CITY, UT, 84108",176093700,"R"
955367,"996 E WINDING CREEK","EAGLE","ID",83616,43.695245562,-116.341072964,367,"996 E WINDING CREEK, EAGLE, ID, 83616","Match","Non_Exact","996 E WINDING CREEK DR, EAGLE, ID, 83616",617936356,"R"
955368,"996 EAST 40TH STREET","BROOKLYN","NY",11210,40.630846671,-73.937838045,368,"996 EAST 40TH STREET, BROOKLYN, NY, 11210","Match","Exact","996 E 40TH ST, BROOKLYN, NY, 11210",59102741,"R"
955369,"996 EAST CREEKSIDE COURT","SISTERS","OR",97759,44.288681017,-121.536475214,369,"996 EAST CREEKSIDE COURT, SISTERS, OR, 97759","Match","Exact","996 E CREEKSIDE CT, SISTERS, OR, 97759",611084384,"L"
955370,"996 ESTES WAY","LOUISVILLE","CO",80027,39.977985113,-105.157010283,370,"996 ESTES WAY, LOUISVILLE, CO, 80027","Match","Exact","996 ESTES WAY, LOUISVILLE, CO, 80027",188183724,"L"
955371,"996 ETTER ROAD","MOGADORE","OH",44260,41.0332682640001,-81.358168559,371,"996 ETTER ROAD, MOGADORE, OH, 44260","Match","Exact","996 ETTER RD, MOGADORE, OH, 44260",137532393,"R"
955372,"996 GARIBALDI PLACE","WASHINGTON TWP","NJ",7676,40.992415556,-74.0713517949999,372,"996 GARIBALDI PLACE, WASHINGTON TWP, NJ, 7676","Match","Non_Exact","996 GARIBALDI PL, WASHINGTON TWPS, NJ, 07676",64377574,"L"
955373,"996 GLENCO AVENUE","PITTSBURGH","PA",15220,NA,NA,373,"996 GLENCO AVENUE, PITTSBURGH, PA, 15220","No_Match",NA,NA,NA,NA
955374,"996 GRAFTON DRIVE","BEAUFORT","SC",29906,32.3832486520001,-80.7330784119999,374,"996 GRAFTON DRIVE, BEAUFORT, SC, 29906","Match","Non_Exact","996 GRAFTON DR, BEAUFORT, SC, 29902",87650251,"R"
955375,"996 GRANT AVE","BRONX","NY",10456,40.8293406220001,-73.917455689,375,"996 GRANT AVE, BRONX, NY, 10456","Match","Exact","996 GRANT AVE, BRONX, NY, 10456",80300449,"R"
955376,"996 GREEN STREET","CONYERS","GA",30012,NA,NA,376,"996 GREEN STREET, CONYERS, GA, 30012","Tie",NA,NA,NA,NA
955377,"996 HIGH STREET","MACON","GA",31210,32.837169105,-83.636508422,377,"996 HIGH STREET, MACON, GA, 31210","Match","Non_Exact","996 HIGH ST, MACON, GA, 31201",81061871,"L"
955378,"996 MAINE AVE SW UNIT 440","WASHINGTON","DC",20024,38.8791804700001,-77.0233992129999,378,"996 MAINE AVE SW UNIT 440, WASHINGTON, DC, 20024","Match","Exact","996 MAINE AVE SW, WASHINGTON, DC, 20024",651747494,"L"
955379,"996 MARCY ROAD","HARDING","PA",18643,41.3971751350001,-75.8597726039999,379,"996 MARCY ROAD, HARDING, PA, 18643","Match","Exact","996 MARCY RD, HARDING, PA, 18643",80903993,"L"
955380,"996 MCMANIGLE RD","BROOKVILLE","PA",15825,41.2222346660001,-79.117843567,380,"996 MCMANIGLE RD, BROOKVILLE, PA, 15825","Match","Exact","996 MCMANIGLE RD, BROOKVILLE, PA, 15825",66442245,"L"
955381,"996 MISSOURI AVE STE C","SAINT ROBERT","MO",65584,37.7985204930001,-92.138707269,381,"996 MISSOURI AVE STE C, SAINT ROBERT, MO, 65584","Match","Exact","996 MISSOURI AVE, SAINT ROBERT, MO, 65584",26409701,"R"
955382,"996 MORNING GLORY LANE","SHELBYVILLE","KY",40065,38.228494185,-85.24467842,382,"996 MORNING GLORY LANE, SHELBYVILLE, KY, 40065","Match","Exact","996 MORNING GLORY LN, SHELBYVILLE, KY, 40065",614401297,"L"
955383,"996 NORTH MAIN ST","NICHOLASVILLE","KY",40356,37.897381538,-84.565756854,383,"996 NORTH MAIN ST, NICHOLASVILLE, KY, 40356","Match","Exact","996 N MAIN ST, NICHOLASVILLE, KY, 40356",38466798,"L"
955384,"996 NW SOUTHWATER DRIVE","ROSEBURG","OR",97471,43.220407487,-123.378407491,384,"996 NW SOUTHWATER DRIVE, ROSEBURG, OR, 97471","Match","Exact","996 NW SOUTHWATER DR, ROSEBURG, OR, 97471",137240036,"L"
955385,"996 OSBORNE DR","SARASOTA","FL",34234,27.37233938,-82.551435945,385,"996 OSBORNE DR, SARASOTA, FL, 34234","Match","Exact","996 OSBORNE DR, SARASOTA, FL, 34234",16377109,"R"
955386,"996 PRATT STREET","PHILADELPHIA","PA",19124,40.028440205,-75.088629678,386,"996 PRATT STREET, PHILADELPHIA, PA, 19124","Match","Exact","996 PRATT ST, PHILADELPHIA, PA, 19124",131443056,"R"
955387,"996 S SAN GABRIEL BLVD","PASADENA","CA",91107,34.1303769530001,-118.092639202,387,"996 S SAN GABRIEL BLVD, PASADENA, CA, 91107","Match","Exact","996 S SAN GABRIEL BLVD, PASADENA, CA, 91107",141634182,"L"
955388,"996 S SAN GABRIEL BLVD","PASDENA","CA",91107,34.1303938730001,-118.092646972,388,"996 S SAN GABRIEL BLVD, PASDENA, CA, 91107","Match","Non_Exact","996 S SAN GABRIEL BLVD, PASADENA, CA, 91107",141634182,"L"
955389,"996 S ZENO WAY","AURORA","CO",80017,39.7030289140001,-104.772417427,389,"996 S ZENO WAY, AURORA, CO, 80017","Match","Exact","996 S ZENO WAY, AURORA, CO, 80017",177524197,"R"
955390,"996 SANDIO","JONESBORO","AR",72401,NA,NA,390,"996 SANDIO, JONESBORO, AR, 72401","No_Match",NA,NA,NA,NA
955391,"996 SOUTH 4TH STREET","AUGUSTA","AR",72006,35.275672367,-91.364794494,391,"996 SOUTH 4TH STREET, AUGUSTA, AR, 72006","Match","Exact","996 S 4TH ST, AUGUSTA, AR, 72006",12890584,"L"
955392,"996 SOUTH BOSTON ROAD","DANVILLE","VA",24340,36.5864973060001,-79.372852374,392,"996 SOUTH BOSTON ROAD, DANVILLE, VA, 24340","Match","Non_Exact","996 S BOSTON RD, DANVILLE, VA, 24540",647186681,"R"
955393,"996 SR326","RUSSELLVILLE","AR",72802,NA,NA,393,"996 SR326, RUSSELLVILLE, AR, 72802","No_Match",NA,NA,NA,NA
955394,"996 ST JOHN PLACE","BROOKLYN","NY",11213,NA,NA,394,"996 ST JOHN PLACE, BROOKLYN, NY, 11213","No_Match",NA,NA,NA,NA
955395,"996 TIMBERLAKE DRIVE","CORDOVA","TN",38018,35.1572680730001,-89.714786901,395,"996 TIMBERLAKE DRIVE, CORDOVA, TN, 38018","Match","Exact","996 TIMBERLAKE DR, CORDOVA, TN, 38018",72945208,"L"
955396,"996 TR 553","ASHLAND","OH",44805,NA,NA,396,"996 TR 553, ASHLAND, OH, 44805","No_Match",NA,NA,NA,NA
955397,"996 WATERS EDGE CIRCLE","MOUNT JULIET","TN",37122,36.257413259,-86.5222598829999,397,"996 WATERS EDGE CIRCLE, MOUNT JULIET, TN, 37122","Match","Exact","996 WATERS EDGE CIR, MOUNT JULIET, TN, 37122",89697794,"R"
955398,"996 WESSINGTON MANOR LANE","FORT MILL","SC",29715,NA,NA,398,"996 WESSINGTON MANOR LANE, FORT MILL, SC, 29715","No_Match",NA,NA,NA,NA
955399,"996 WEST 19TH STREET","UPLAND","CA",91784,34.132371909,-117.665592711,399,"996 WEST 19TH STREET, UPLAND, CA, 91784","Match","Exact","996 W 19TH ST, UPLAND, CA, 91784",144669490,"L"
955400,"996 WEST A STREET","CRESWELL","OR",97426,43.9196556840001,-123.028766936,400,"996 WEST A STREET, CRESWELL, OR, 97426","Match","Non_Exact","996 A ST, CRESWELL, OR, 97426",178176763,"R"
955401,"996 WEST ST","ATTLEBORO","MA",2703,41.935923378,-71.326753568,401,"996 WEST ST, ATTLEBORO, MA, 2703","Match","Exact","996 WEST ST, ATTLEBORO, MA, 02703",46746121,"L"
955402,"996 WILLIAMS AVE APT 3B","BROOKLYN","NY",11207,40.651228863,-73.8926068119999,402,"996 WILLIAMS AVE APT 3B, BROOKLYN, NY, 11207","Match","Exact","996 WILLIAMS AVE, BROOKLYN, NY, 11207",652212720,"R"
955403,"996 WOLF CREEK LANE","SPRING CREEK","NV",89815,40.6950046800001,-115.563944318,403,"996 WOLF CREEK LANE, SPRING CREEK, NV, 89815","Match","Exact","996 WOLF CREEK LN, SPRING CREEK, NV, 89815",154555781,"R"
955404,"996","ROMANSVILLE","PA",19320,NA,NA,404,"996, ROMANSVILLE, PA, 19320","No_Match",NA,NA,NA,NA
955405,"9960 64TH AVENUE 3R","REGO PARK","NY",11374,NA,NA,405,"9960 64TH AVENUE 3R, REGO PARK, NY, 11374","No_Match",NA,NA,NA,NA
955406,"9960 BERKEY SOUTHERN","WATERVILLE","OH",43566,NA,NA,406,"9960 BERKEY SOUTHERN, WATERVILLE, OH, 43566","No_Match",NA,NA,NA,NA
955407,"9960 BRYNES ROAD","JACKSONVILLE","FL",32225,NA,NA,407,"9960 BRYNES ROAD, JACKSONVILLE, FL, 32225","No_Match",NA,NA,NA,NA
955408,"9960 CYPRESS LAKE DRIVE","FORT MYERS","FL",33912,26.5453759000001,-81.924089597,408,"9960 CYPRESS LAKE DRIVE, FORT MYERS, FL, 33912","Match","Non_Exact","9960 CYPRESS LAKE DR, FORT MYERS, FL, 33919",118016364,"L"
955409,"9960 ELMENDORF LAVERNIA RD","SAN ANTONIO","TX",78223,29.270841987,-98.291591061,409,"9960 ELMENDORF LAVERNIA RD, SAN ANTONIO, TX, 78223","Match","Exact","9960 ELMENDORF LAVERNIA RD, SAN ANTONIO, TX, 78223",101540043,"R"
955410,"9960 GUILFORD ROAD APT 303","JESSUP","MD",20794,39.1546615760001,-76.820162726,410,"9960 GUILFORD ROAD APT 303, JESSUP, MD, 20794","Match","Exact","9960 GUILFORD RD, JESSUP, MD, 20794",158963888,"R"
955411,"9960 LAKEWOOD LANE","CINCINNATI","OH",45242,39.24182211,-84.3341835859999,411,"9960 LAKEWOOD LANE, CINCINNATI, OH, 45242","Match","Exact","9960 LAKEWOOD LN, CINCINNATI, OH, 45242",103958418,"L"
955412,"9960 LAZY COVE LANE","BROOKSHIRE","TX",77423,29.7655030670001,-95.891010778,412,"9960 LAZY COVE LANE, BROOKSHIRE, TX, 77423","Match","Exact","9960 LAZY COVE LN, BROOKSHIRE, TX, 77423",648068673,"R"
955413,"9960 MORRISON RD","NEW ORLEANS","LA",70127,30.042181898,-89.981619557,413,"9960 MORRISON RD, NEW ORLEANS, LA, 70127","Match","Exact","9960 MORRISON RD, NEW ORLEANS, LA, 70127",191749092,"R"
955414,"9960 PINEAPPLE TREE DR","BOYNTON BEACH","FL",33436,26.528524594,-80.1187983849999,414,"9960 PINEAPPLE TREE DR, BOYNTON BEACH, FL, 33436","Match","Exact","9960 PINEAPPLE TREE DR, BOYNTON BEACH, FL, 33436",611298068,"L"
955415,"9960 RACQUET CLUB LANE","GLEN ALLEN","VA",23060,37.6479512940001,-77.566467761,415,"9960 RACQUET CLUB LANE, GLEN ALLEN, VA, 23060","Match","Exact","9960 RACQUET CLUB LN, GLEN ALLEN, VA, 23060",106661382,"L"
955416,"9960 RITTER COURT","SAN DIEGO","CA",92131,32.904479135,-117.09497371,416,"9960 RITTER COURT, SAN DIEGO, CA, 92131","Match","Exact","9960 RITTER CT, SAN DIEGO, CA, 92131",195320214,"L"
955417,"9960 ROUTE 39","SPRINGVILLE","NY",14141,42.508233503,-78.6307961059999,417,"9960 ROUTE 39, SPRINGVILLE, NY, 14141","Match","Non_Exact","9960 STATE RTE 39, SPRINGVILLE, NY, 14141",48280583,"L"
955418,"9960 ROUTE","SPRINGVILLE","NY",14141,NA,NA,418,"9960 ROUTE, SPRINGVILLE, NY, 14141","No_Match",NA,NA,NA,NA
955419,"9960 SOUTH 6TH STREET","SCHOOLCRAFT","MI",49087,42.1730476930001,-85.711244704,419,"9960 SOUTH 6TH STREET, SCHOOLCRAFT, MI, 49087","Match","Exact","9960 S 6TH ST, SCHOOLCRAFT, MI, 49087",12225755,"R"
955420,"9960 STOUT","DETROIT","MI",48228,42.3675829580001,-83.239839607,420,"9960 STOUT, DETROIT, MI, 48228","Match","Non_Exact","9960 STOUT ST, DETROIT, MI, 48228",95438642,"R"
955421,"9960 SW 152 TER","MIAMI","FL",33157,NA,NA,421,"9960 SW 152 TER, MIAMI, FL, 33157","No_Match",NA,NA,NA,NA
955422,"9961 DARROW PARK DRIVE STE 104","TWINSBURGH","OH",44087,41.335452391,-81.435468135,422,"9961 DARROW PARK DRIVE STE 104, TWINSBURGH, OH, 44087","Match","Non_Exact","9961 DARROW PARK DR, TWINSBURG, OH, 44087",61376890,"R"
955423,"9961 FOREST STREET","DYER","IN",46311,41.438342424,-87.525066806,423,"9961 FOREST STREET, DYER, IN, 46311","Match","Exact","9961 FOREST ST, DYER, IN, 46311",606298613,"L"
955424,"9961 PARKGROVE COURT","ELK GROVE","CA",95624,38.395715479,-121.367193955,424,"9961 PARKGROVE COURT, ELK GROVE, CA, 95624","Match","Exact","9961 PARKGROVE CT, ELK GROVE, CA, 95624",133355297,"L"
955425,"9961 PINPOINT AVE","SAVANNAH","GA",31406,31.9531340120001,-81.095271988,425,"9961 PINPOINT AVE, SAVANNAH, GA, 31406","Match","Non_Exact","9961 PIN POINT AVE, SAVANNAH, GA, 31406",642635400,"L"
955426,"9961 ROBSON","DETROIT","MI",48227,42.368238983,-83.191938712,426,"9961 ROBSON, DETROIT, MI, 48227","Match","Non_Exact","9961 ROBSON ST, DETROIT, MI, 48227",95441634,"L"
955427,"9961 RUE BIENVILLE CV","LAKELAND","TN",38002,35.2462449990001,-89.730672278,427,"9961 RUE BIENVILLE CV, LAKELAND, TN, 38002","Match","Exact","9961 RUE BIENVILLE COVE, LAKELAND, TN, 38002",618366872,"L"
955428,"9961 SIERRA AVE","FONTANA","CA",92335,34.0724699300001,-117.435660332,428,"9961 SIERRA AVE, FONTANA, CA, 92335","Match","Exact","9961 SIERRA AVE, FONTANA, CA, 92335",614818867,"L"
955429,"9961 WELDON NELSON ROAD","WESTOVER","MD",21871,38.155351114,-75.7657470299999,429,"9961 WELDON NELSON ROAD, WESTOVER, MD, 21871","Match","Non_Exact","9961 WELDON NELSON LN, WESTOVER, MD, 21871",104148370,"L"
955430,"9961 WESTWOOD","DETROIT","MI",48228,42.367475246,-83.2312865919999,430,"9961 WESTWOOD, DETROIT, MI, 48228","Match","Non_Exact","9961 WESTWOOD ST, DETROIT, MI, 48228",95438825,"L"
955431,"99617 HOIO STREET","AIEA","HI",96701,NA,NA,431,"99617 HOIO STREET, AIEA, HI, 96701","No_Match",NA,NA,NA,NA
955432,"9962 227TH WAY","REDMOND","WA",98053,47.6879636020001,-122.038001189,432,"9962 227TH WAY, REDMOND, WA, 98053","Match","Non_Exact","9962 227TH WAY NE, REDMOND, WA, 98053",186957905,"R"
955433,"9962 BALBOA ISLAND","SAN ANTONIO","TX",78245,29.3899596090001,-98.687582305,433,"9962 BALBOA ISLAND, SAN ANTONIO, TX, 78245","Match","Exact","9962 BALBOA ISLAND, SAN ANTONIO, TX, 78245",645141843,"L"
955434,"9962 BROOK ROAD 144","GLEN ALLEN","VA",23059,37.6705039180001,-77.46105847,434,"9962 BROOK ROAD 144, GLEN ALLEN, VA, 23059","Match","Exact","9962 BROOK RD, GLEN ALLEN, VA, 23059",106687580,"L"
955435,"9962 LASCASSAS PIKE","LASCASSAS","TN",37085,35.927465114,-86.2155582239999,435,"9962 LASCASSAS PIKE, LASCASSAS, TN, 37085","Match","Exact","9962 LASCASSAS PIKE, LASCASSAS, TN, 37085",636647137,"L"
955436,"9962 STATE HIGHWAY 77","CHAFFEE","MO",63740,37.121960008,-89.6773632539999,436,"9962 STATE HIGHWAY 77, CHAFFEE, MO, 63740","Match","Exact","9962 STATE HWY 77, CHAFFEE, MO, 63740",38959731,"R"
955437,"9963 CEDAR STREET","BELLFLOWER","CA",90706,33.871216669,-118.121736061,437,"9963 CEDAR STREET, BELLFLOWER, CA, 90706","Match","Exact","9963 CEDAR ST, BELLFLOWER, CA, 90706",142795339,"L"
955438,"9963 CUB LAKE TRL","COLORADO SPRINGS","CO",80924,NA,NA,438,"9963 CUB LAKE TRL, COLORADO SPRINGS, CO, 80924","No_Match",NA,NA,NA,NA
955439,"9963 CYPRESS WAY","LAUREL","MD",20723,39.145476973,-76.849227844,439,"9963 CYPRESS WAY, LAUREL, MD, 20723","Match","Exact","9963 CYPRESS WAY, LAUREL, MD, 20723",648276246,"L"
955440,"9963 MORRIS DRIVE","DUBLIN","OH",43017,40.1641239890001,-83.169790119,440,"9963 MORRIS DRIVE, DUBLIN, OH, 43017","Match","Exact","9963 MORRIS DR, DUBLIN, OH, 43017",212999701,"R"
955441,"9963 RAMONA ST APT 1","BELLFLOWER","CA",90706,33.8730334040001,-118.121233498,441,"9963 RAMONA ST APT 1, BELLFLOWER, CA, 90706","Match","Exact","9963 RAMONA ST, BELLFLOWER, CA, 90706",641499874,"L"
955442,"9963 RAMONA STREET APT 21","BELLFLOWER","CA",90706,33.8730334040001,-118.121233498,442,"9963 RAMONA STREET APT 21, BELLFLOWER, CA, 90706","Match","Exact","9963 RAMONA ST, BELLFLOWER, CA, 90706",641499874,"L"
955443,"9963 VERREE ROAD","PHILADELPHIA","PA",19115,40.1031218110001,-75.0370922079999,443,"9963 VERREE ROAD, PHILADELPHIA, PA, 19115","Match","Exact","9963 VERREE RD, PHILADELPHIA, PA, 19115",131430377,"R"
955444,"9963 W MONTEROSA AVE","PHOENIX","AZ",85037,33.495951152,-112.276302993,444,"9963 W MONTEROSA AVE, PHOENIX, AZ, 85037","Match","Exact","9963 W MONTEROSA AVE, PHOENIX, AZ, 85037",128373426,"R"
955445,"9964 BURL WAY","ORLANDO","FL",32817,28.575986722,-81.246031667,445,"9964 BURL WAY, ORLANDO, FL, 32817","Match","Exact","9964 BURL WAY, ORLANDO, FL, 32817",94293414,"L"
955446,"9964 DWAYNE COURT","MENTOR","OH",44060,41.6676818340001,-81.2821423409999,446,"9964 DWAYNE COURT, MENTOR, OH, 44060","Match","Exact","9964 DWAYNE CT, MENTOR, OH, 44060",137466757,"L"
955447,"9964 GRANITE CREST CT","GRANITE BAY","CA",95746,38.7171776810001,-121.191576141,447,"9964 GRANITE CREST CT, GRANITE BAY, CA, 95746","Match","Exact","9964 GRANITE CREST CT, GRANITE BAY, CA, 95746",106813346,"R"
955448,"9964 HIGHWAY 73","MANDAREE","ND",58757,NA,NA,448,"9964 HIGHWAY 73, MANDAREE, ND, 58757","No_Match",NA,NA,NA,NA
955449,"9964 HOLLY LANE APT 1N","DES PLAINES","IL",60016,42.0592238570001,-87.865187068,449,"9964 HOLLY LANE APT 1N, DES PLAINES, IL, 60016","Match","Exact","9964 HOLLY LN, DES PLAINES, IL, 60016",605003378,"L"
955450,"9964 LODESTONE DR","BRENTWOOD","TN",37027,35.974754853,-86.716575107,450,"9964 LODESTONE DR, BRENTWOOD, TN, 37027","Match","Exact","9964 LODESTONE DR, BRENTWOOD, TN, 37027",631951077,"L"
955451,"9964 S WINSTON","CHICAGO","IL",60643,41.7125037690001,-87.657013266,451,"9964 S WINSTON, CHICAGO, IL, 60643","Match","Non_Exact","9964 S WINSTON AVE, CHICAGO, IL, 60643",616793967,"R"
955452,"9964 STATE RTE 53","PRATTSBURG","NY",14873,42.4808679380001,-77.291805451,452,"9964 STATE RTE 53, PRATTSBURG, NY, 14873","Match","Non_Exact","9964 STATE RTE 53, PRATTSBURGH, NY, 14873",14726628,"R"
955453,"9964 WOOD WREN CT","FAIRFAX","VA",22032,38.7998336310001,-77.290643646,453,"9964 WOOD WREN CT, FAIRFAX, VA, 22032","Match","Exact","9964 WOOD WREN CT, FAIRFAX, VA, 22032",635445151,"L"
955454,"9965 124TH ST","LIVE OAK","FL",32060,30.224863939,-82.9555144239999,454,"9965 124TH ST, LIVE OAK, FL, 32060","Match","Exact","9965 124TH ST, LIVE OAK, FL, 32060",41111781,"R"
955455,"9965 ALHAMBRA LANE","BONITA SPRINGS","FL",34135,26.3169522850001,-81.7891805039999,455,"9965 ALHAMBRA LANE, BONITA SPRINGS, FL, 34135","Match","Exact","9965 ALHAMBRA LN, BONITA SPGS, FL, 34135",648415441,"L"
955456,"9965 DARROW PARK DR  131F","TWINSBURG","OH",44087,41.336948598,-81.4390809769999,456,"9965 DARROW PARK DR  131F, TWINSBURG, OH, 44087","Match","Exact","9965 DARROW PARK DR, TWINSBURG, OH, 44087",61376890,"R"
955457,"9965 FERRY POINT PLACE NW","RICE","MN",56367,45.712698618,-94.220434362,457,"9965 FERRY POINT PLACE NW, RICE, MN, 56367","Match","Exact","9965 FERRY POINT PL NW, RICE, MN, 56367",631943032,"L"
955458,"9965 GOLDEN FIELD LN","BROOKSHIRE","TX",77423,29.766739865,-95.887563185,458,"9965 GOLDEN FIELD LN, BROOKSHIRE, TX, 77423","Match","Exact","9965 GOLDEN FIELD LN, BROOKSHIRE, TX, 77423",648070617,"L"
955459,"9965 GUILFORD RD","JESSUP","MD",20794,39.1537717900001,-76.8195910269999,459,"9965 GUILFORD RD, JESSUP, MD, 20794","Match","Exact","9965 GUILFORD RD, JESSUP, MD, 20794",158963892,"L"
955460,"9965 HWY 11 SE","OAKES","ND",58474,NA,NA,460,"9965 HWY 11 SE, OAKES, ND, 58474","No_Match",NA,NA,NA,NA
955461,"9965 RIVERTOWN ROAD","PALMETTO","GA",30268,NA,NA,461,"9965 RIVERTOWN ROAD, PALMETTO, GA, 30268","No_Match",NA,NA,NA,NA
955462,"9965 WHITTINGTON","DEARBORN","MI",48120,42.301357125,-83.142640935,462,"9965 WHITTINGTON, DEARBORN, MI, 48120","Match","Non_Exact","9965 WHITTINGTON ST, DEARBORN, MI, 48120",95473388,"L"
955463,"9966 165TH AVENUE","HOWARD BEACH","NY",11414,NA,NA,463,"9966 165TH AVENUE, HOWARD BEACH, NY, 11414","No_Match",NA,NA,NA,NA
955464,"9966 BLEEDING HEART AVE","LAS VEGAS","NV",89178,36.0321612830001,-115.311199861,464,"9966 BLEEDING HEART AVE, LAS VEGAS, NV, 89178","Match","Exact","9966 BLEEDING HEART AVE, LAS VEGAS, NV, 89178",650642065,"L"
955465,"9966 DARTMOUTH DR","FRISCO","TX",75035,33.1875494180001,-96.795096789,465,"9966 DARTMOUTH DR, FRISCO, TX, 75035","Match","Exact","9966 DARTMOUTH DR, FRISCO, TX, 75035",615162020,"R"
955466,"9966 NORHILL HEIGHTS LN","BROOKSHIRE","TX",77423,29.7659953780001,-95.894053894,466,"9966 NORHILL HEIGHTS LN, BROOKSHIRE, TX, 77423","Match","Exact","9966 NORHILL HEIGHTS LN, BROOKSHIRE, TX, 77423",648068732,"R"
955467,"9966 PASEO MONTALBAN","SAN DIEGO","CA",92129,32.963864593,-117.114707713,467,"9966 PASEO MONTALBAN, SAN DIEGO, CA, 92129","Match","Non_Exact","9966 PSO MONTALBAN, SAN DIEGO, CA, 92129",195318495,"L"
955468,"9966 SW 153 ST","MIAMI","FL",33157,25.627239263,-80.355823179,468,"9966 SW 153 ST, MIAMI, FL, 33157","Match","Exact","9966 SW 153RD ST, MIAMI, FL, 33157",116066515,"L"
955469,"9966 SW 78TH LANE","OCALA","FL",34481,29.107836768,-82.2849351839999,469,"9966 SW 78TH LANE, OCALA, FL, 34481","Match","Exact","9966 SW 78TH LN, OCALA, FL, 34481",647043843,"R"
955470,"9966 SW 78TH LANE","OCALA",NA,NA,29.107836768,-82.2849351839999,470,"9966 SW 78TH LANE, OCALA, , ","Match","Exact","9966 SW 78TH LN, OCALA, FL, 34481",647043843,"R"
955471,"9966 VINEYARD LAKE RD E","JACKSONVILLE","FL",32256,30.1876535150001,-81.5262216629999,471,"9966 VINEYARD LAKE RD E, JACKSONVILLE, FL, 32256","Match","Exact","9966 VINEYARD LAKE RD E, JACKSONVILLE, FL, 32256",83943129,"R"
955472,"9967 CALI LANE","PENSACOLA","FL",32526,NA,NA,472,"9967 CALI LANE, PENSACOLA, FL, 32526","No_Match",NA,NA,NA,NA
955473,"9967 CHERRY HILLS AVENUE CIRCLE","BRADENTON","FL",34202,27.416458773,-82.44257458,473,"9967 CHERRY HILLS AVENUE CIRCLE, BRADENTON, FL, 34202","Match","Exact","9967 CHERRY HILLS AVENUE CIR, BRADENTON, FL, 34202",16275865,"R"
955474,"9967 GRUBBS RD","WEXFORD","PA",15090,40.5910599150001,-80.022515676,474,"9967 GRUBBS RD, WEXFORD, PA, 15090","Match","Exact","9967 GRUBBS RD, WEXFORD, PA, 15090",51705770,"R"
955475,"9967 WAGNER CREEK RD","TALENT","OR",97540,42.2085787720001,-122.791311767,475,"9967 WAGNER CREEK RD, TALENT, OR, 97540","Match","Exact","9967 WAGNER CREEK RD, TALENT, OR, 97540",155520433,"R"
955476,"9968 ADVENTURE PASS","NOBLESVILLE","IN",46060,40.0186727500001,-85.991858158,476,"9968 ADVENTURE PASS, NOBLESVILLE, IN, 46060","Match","Exact","9968 ADVENTURE PASS, NOBLESVILLE, IN, 46060",640738135,"L"
955477,"9968 FARMVIEW CT","MIAMIBURG","OH",45342,39.6027617080001,-84.213700871,477,"9968 FARMVIEW CT, MIAMIBURG, OH, 45342","Match","Non_Exact","9968 FARMVIEW CT, MIAMISBURG, OH, 45342",143603507,"L"
955478,"9968 FARMVIEW CT","MIAMISBURG","OH",45342,39.6027617080001,-84.213700871,478,"9968 FARMVIEW CT, MIAMISBURG, OH, 45342","Match","Exact","9968 FARMVIEW CT, MIAMISBURG, OH, 45342",143603507,"L"
955479,"9968 HICKORY RIDGE DR","ZIONSVILLE","IN",46077,39.9758202420001,-86.2791751889999,479,"9968 HICKORY RIDGE DR, ZIONSVILLE, IN, 46077","Match","Exact","9968 HICKORY RIDGE DR, ZIONSVILLE, IN, 46077",29261859,"L"
955480,"9968 SW 224TH ST APT 306","MIAMI","FL",33190,25.55924981,-80.353029852,480,"9968 SW 224TH ST APT 306, MIAMI, FL, 33190","Match","Non_Exact","9968 224TH ST SW, MIAMI, FL, 33190",639257811,"L"
955481,"99689 KAHILINNI PL","AIEA","HI",96701,NA,NA,481,"99689 KAHILINNI PL, AIEA, HI, 96701","No_Match",NA,NA,NA,NA
955482,"9969 BISHOP","DETROIT","MI",48224,42.4168671040001,-82.943823697,482,"9969 BISHOP, DETROIT, MI, 48224","Match","Non_Exact","9969 BISHOP AVE, DETROIT, MI, 48224",95469899,"L"
955483,"9969 BOURBON CT","SAN DIEGO","CA",92131,32.9049717950001,-117.093232894,483,"9969 BOURBON CT, SAN DIEGO, CA, 92131","Match","Exact","9969 BOURBON CT, SAN DIEGO, CA, 92131",195320219,"R"
955484,"9969 DARROW PARK DR APT 120E","TWINSBURG","OH",44087,41.3348337680001,-81.4391996369999,484,"9969 DARROW PARK DR APT 120E, TWINSBURG, OH, 44087","Match","Exact","9969 DARROW PARK DR, TWINSBURG, OH, 44087",61376890,"L"
955485,"9969 DOWDEN RD 13118","ORLANDO","FL",32832,28.4292109410001,-81.2369654079999,485,"9969 DOWDEN RD 13118, ORLANDO, FL, 32832","Match","Exact","9969 DOWDEN RD, ORLANDO, FL, 32832",647457840,"L"
955486,"9969 EAST STATE ROAD 46","BLOOMINGTON","IN",47408,NA,NA,486,"9969 EAST STATE ROAD 46, BLOOMINGTON, IN, 47408","No_Match",NA,NA,NA,NA
955487,"9969 GOODLUCK RD - SUITE 204","LANHAM","MD",20706,38.9946443440001,-76.834710167,487,"9969 GOODLUCK RD - SUITE 204, LANHAM, MD, 20706","Match","Non_Exact","9969 GOOD LUCK RD, LANHAM, MD, 20706",641062771,"R"
955488,"9969 SOMERSET DR","LOVELAND","OH",45140,39.280718069,-84.282798863,488,"9969 SOMERSET DR, LOVELAND, OH, 45140","Match","Exact","9969 SOMERSET DR, LOVELAND, OH, 45140",103960329,"R"
955489,"9969 SW 59TH CIRCLE","OCALA","FL",34476,29.078701252,-82.225029953,489,"9969 SW 59TH CIRCLE, OCALA, FL, 34476","Match","Exact","9969 SW 59TH CIR, OCALA, FL, 34476",116832916,"L"
955490,"997 118TH AVE NE","BLAINE","MN",55434,45.184918071,-93.2475022469999,490,"997 118TH AVE NE, BLAINE, MN, 55434","Match","Exact","997 118TH AVE NE, BLAINE, MN, 55434",97489079,"L"
955491,"997 BELDEN AVENUE","AKRON","OH",44310,41.1117272720001,-81.478748529,491,"997 BELDEN AVENUE, AKRON, OH, 44310","Match","Exact","997 BELDEN AVE, AKRON, OH, 44310",61350583,"L"
955492,"997 BLUEGRASS AVENUE","LOUISVILLE","KY",40215,38.179891302,-85.7801644369999,492,"997 BLUEGRASS AVENUE, LOUISVILLE, KY, 40215","Match","Exact","997 BLUEGRASS AVE, LOUISVILLE, KY, 40215",96848676,"R"
955493,"997 BROOKS DR","LINDEN","AL",36784,NA,NA,493,"997 BROOKS DR, LINDEN, AL, 36784","No_Match",NA,NA,NA,NA
955494,"997 CALVERY ESKEW RD","MART","TX",76664,31.5574013130001,-96.843888259,494,"997 CALVERY ESKEW RD, MART, TX, 76664","Match","Exact","997 CALVERY ESKEW RD, MART, TX, 76664",146774036,"L"
955495,"997 CAPITOL AVE","SAN FRANCISCO","CA",94112,37.7198521600001,-122.459203457,495,"997 CAPITOL AVE, SAN FRANCISCO, CA, 94112","Match","Exact","997 CAPITOL AVE, SAN FRANCISCO, CA, 94112",192285645,"L"
955496,"997 CLARK ST","AKRON","OH",44306,41.065824277,-81.493878469,496,"997 CLARK ST, AKRON, OH, 44306","Match","Exact","997 CLARK ST, AKRON, OH, 44306",61350411,"L"
955497,"997 COMMERCIE DR SW STE 3A","CONYERS","GA",30094,33.656123909,-84.023884025,497,"997 COMMERCIE DR SW STE 3A, CONYERS, GA, 30094","Match","Non_Exact","997 COMMERCE DR SW, CONYERS, GA, 30094",23743944,"L"
955498,"997 CRESCENT AVE","FOND DU LAC","WI",54935,43.7700949540001,-88.4130302839999,498,"997 CRESCENT AVE, FOND DU LAC, WI, 54935","Match","Exact","997 CRESCENT AVE, FOND DU LAC, WI, 54935",74855800,"R"
955499,"997 CROGHAN WAY","COPLEY","OH",44321,41.1229069070001,-81.6560809759999,499,"997 CROGHAN WAY, COPLEY, OH, 44321","Match","Exact","997 CROGHAN WAY, COPLEY, OH, 44321",635323625,"R"
955500,"997 DELAWARE AVENUE","DELMAR","NY",12054,42.604410038,-73.879550318,500,"997 DELAWARE AVENUE, DELMAR, NY, 12054","Match","Exact","997 DELAWARE AVE, DELMAR, NY, 12054",18364016,"R"
