"ID","Address","City","State","Zip","lat","long","id","input_address","match_indicator","match_type","matched_address","tiger_line_id","tiger_side"
707001,"528 GREENFIELD STREET NE","CEDAR RAPIDS","IA",52402,42.037214007,-91.640921845,1,"528 GREENFIELD STREET NE, CEDAR RAPIDS, IA, 52402","Match","Exact","528 GREENFIELD ST NE, CEDAR RAPIDS, IA, 52402",17021122,"R"
707002,"528 GREENWICH ST","PHILADELPHIA","PA",19147,39.9294031430001,-75.154035009,2,"528 GREENWICH ST, PHILADELPHIA, PA, 19147","Match","Exact","528 GREENWICH ST, PHILADELPHIA, PA, 19147",131436217,"L"
707003,"528 HARRISON AVENUE","GREENSBURG","PA",15601,40.3102543200001,-79.548739992,3,"528 HARRISON AVENUE, GREENSBURG, PA, 15601","Match","Exact","528 HARRISON AVE, GREENSBURG, PA, 15601",52975338,"R"
707004,"528 HARVARD STREET","WHITMAN","MA",2382,42.0647382270001,-70.940408733,4,"528 HARVARD STREET, WHITMAN, MA, 2382","Match","Exact","528 HARVARD ST, WHITMAN, MA, 02382",87491766,"L"
707005,"528 HAZEL AVE","SAN BRUNO","CA",94066,37.6216823300001,-122.417723092,5,"528 HAZEL AVE, SAN BRUNO, CA, 94066","Match","Exact","528 HAZEL AVE, SAN BRUNO, CA, 94066",192373947,"R"
707006,"528 HENSLEY","GRAND PRAIRIE","TX",75050,32.754212921,-96.954254529,6,"528 HENSLEY, GRAND PRAIRIE, TX, 75050","Match","Non_Exact","528 HENSLEY DR, GRAND PRAIRIE, TX, 75050",102938759,"R"
707007,"528 HIGHLAND AVE","WESTVILLE","NJ",8093,39.87529418,-75.133161349,7,"528 HIGHLAND AVE, WESTVILLE, NJ, 8093","Match","Exact","528 HIGHLAND AVE, WESTVILLE, NJ, 08093",134583630,"L"
707008,"528 HIGHLAND BLVD","BRIGHAM CITY","UT",84302,NA,NA,8,"528 HIGHLAND BLVD, BRIGHAM CITY, UT, 84302","Tie",NA,NA,NA,NA
707009,"528 HILLSIDE COURT","WESTMINSTER","MD",21157,39.5135643830001,-76.976565321,9,"528 HILLSIDE COURT, WESTMINSTER, MD, 21157","Match","Exact","528 HILLSIDE CT, WESTMINSTER, MD, 21157",61786000,"L"
707010,"528 HILLSIDE ST","RIDGEFIELD","NJ",7657,40.8344472910001,-74.007629142,10,"528 HILLSIDE ST, RIDGEFIELD, NJ, 7657","Match","Exact","528 HILLSIDE ST, RIDGEFIELD, NJ, 07657",64398594,"R"
707011,"528 HUBBARD ST APT 3","ALLEGAN","MI",49010,42.5273247150001,-85.855123576,11,"528 HUBBARD ST APT 3, ALLEGAN, MI, 49010","Match","Exact","528 HUBBARD ST, ALLEGAN, MI, 49010",11419052,"R"
707012,"528 HUNT RD","FATE","TX",75189,NA,NA,12,"528 HUNT RD, FATE, TX, 75189","No_Match",NA,NA,NA,NA
707013,"528 HWY 1394","EAST BERNSTADT","KY",40729,37.219571656,-84.068213744,13,"528 HWY 1394, EAST BERNSTADT, KY, 40729","Match","Non_Exact","528 STATE HWY 1394, E BERNSTADT, KY, 40729",98755856,"R"
707014,"528 INGRAHAM ST NW","WASHINGTON","DC",20011,38.954289735,-77.0202674079999,14,"528 INGRAHAM ST NW, WASHINGTON, DC, 20011","Match","Exact","528 INGRAHAM ST NW, WASHINGTON, DC, 20011",76223404,"L"
707015,"528 JACARANDA ST","BRENTWOOD","CA",94513,37.9287856820001,-121.685604137,15,"528 JACARANDA ST, BRENTWOOD, CA, 94513","Match","Exact","528 JACARANDA ST, BRENTWOOD, CA, 94513",647702863,"R"
707016,"528 JONAS DR","SCHERTZ","TX",78154,29.57428487,-98.279770201,16,"528 JONAS DR, SCHERTZ, TX, 78154","Match","Exact","528 JONAS DR, SCHERTZ, TX, 78154",54842524,"L"
707017,"528 KANSAS ST","WINONA","MN",55987,44.0431245130001,-91.633785325,17,"528 KANSAS ST, WINONA, MN, 55987","Match","Exact","528 KANSAS ST, WINONA, MN, 55987",611874442,"R"
707018,"528 KARR AVE","HOQUIAM","WA",98550,46.981879114,-123.89128417,18,"528 KARR AVE, HOQUIAM, WA, 98550","Match","Exact","528 KARR AVE, HOQUIAM, WA, 98550",180580276,"L"
707019,"528 KIRK ROAD","DECATUR","GA",30030,33.762194176,-84.28815191,19,"528 KIRK ROAD, DECATUR, GA, 30030","Match","Exact","528 KIRK RD, DECATUR, GA, 30030",23378978,"L"
707020,"528 KLEBER STREET","MANDEVILLE","LA",70448,30.3688101280001,-90.084211436,20,"528 KLEBER STREET, MANDEVILLE, LA, 70448","Match","Exact","528 KLEBER ST, MANDEVILLE, LA, 70448",111238309,"L"
707021,"528 LAKE KNOLL DR","LILBURN","GA",30047,33.911540261,-84.113524134,21,"528 LAKE KNOLL DR, LILBURN, GA, 30047","Match","Exact","528 LAKE KNOLL DR, LILBURN, GA, 30047",88934412,"R"
707022,"528 LAKE KNOLL DR","LILBUTN","GA",30047,33.911540261,-84.113524134,22,"528 LAKE KNOLL DR, LILBUTN, GA, 30047","Match","Non_Exact","528 LAKE KNOLL DR, LILBURN, GA, 30047",88934412,"R"
707023,"528 LEANING OAK MEWS","GAITHERSBURG","MD",20878,39.116481718,-77.231483482,23,"528 LEANING OAK MEWS, GAITHERSBURG, MD, 20878","Match","Exact","528 LEANING OAK MEWS, GAITHERSBURG, MD, 20878",62109163,"L"
707024,"528 LOCUST CT","WEBSTER GROVES","MO",63119,38.5793836030001,-90.3724602939999,24,"528 LOCUST CT, WEBSTER GROVES, MO, 63119","Match","Exact","528 LOCUST CT, WEBSTER GROVES, MO, 63119",100138410,"L"
707025,"528 LYMAN AVE","WOODBRIDGE","NJ",7095,40.5595134120001,-74.291739272,25,"528 LYMAN AVE, WOODBRIDGE, NJ, 7095","Match","Exact","528 LYMAN AVE, WOODBRIDGE, NJ, 07095",60359604,"R"
707026,"528 LYNESS ST","RYAN","IA",52330,42.346486613,-91.486510742,26,"528 LYNESS ST, RYAN, IA, 52330","Match","Exact","528 LYNESS ST, RYAN, IA, 52330",16869309,"L"
707027,"528 MAIN STREET","EVANSVILLE","IN",47708,37.9722767430001,-87.569646112,27,"528 MAIN STREET, EVANSVILLE, IN, 47708","Match","Exact","528 MAIN ST, EVANSVILLE, IN, 47708",39782549,"L"
707028,"528 MARLBORO STREET","KEENE","NH",3431,42.917695226,-72.258071372,28,"528 MARLBORO STREET, KEENE, NH, 3431","Match","Exact","528 MARLBORO ST, KEENE, NH, 03431",124078649,"R"
707029,"528 MARTHA WAY","EL PASO","TX",79907,31.7276126080001,-106.343167327,29,"528 MARTHA WAY, EL PASO, TX, 79907","Match","Exact","528 MARTHA WAY, EL PASO, TX, 79907",640807355,"R"
707030,"528 MCKOY STREET","CLINTON","NC",28328,35.0042648940001,-78.332075623,30,"528 MCKOY STREET, CLINTON, NC, 28328","Match","Exact","528 MCKOY ST, CLINTON, NC, 28328",14264080,"R"
707031,"528 MEADOWVIEW DR","LA CANADA","CA",91011,34.2114243230001,-118.180689462,31,"528 MEADOWVIEW DR, LA CANADA, CA, 91011","Match","Exact","528 MEADOWVIEW DR, LA CANADA, CA, 91011",141591156,"L"
707032,"528 MELROSE LANE","SEVENA PARK","MD",21146,39.080830228,-76.581603548,32,"528 MELROSE LANE, SEVENA PARK, MD, 21146","Match","Non_Exact","528 MELROSE LN, SEVERNA PARK, MD, 21146",68167299,"R"
707033,"528 MERRIMAC DRIVE","WESTFIELD","IN",46074,40.001157144,-86.167381001,33,"528 MERRIMAC DRIVE, WESTFIELD, IN, 46074","Match","Exact","528 MERRIMAC DR, WESTFIELD, IN, 46074",29320198,"R"
707034,"528 MIDDLE ST","NORTH BABYLON","NY",11703,40.744759066,-73.324002077,34,"528 MIDDLE ST, NORTH BABYLON, NY, 11703","Match","Exact","528 MIDDLE ST, NORTH BABYLON, NY, 11703",638210698,"L"
707035,"528 MINTURN CT","RIO RANCHO","NM",87124,35.2666703900001,-106.69507459,35,"528 MINTURN CT, RIO RANCHO, NM, 87124","Match","Non_Exact","528 MINITURN CT, RIO RANCHO, NM, 87124",611362181,"L"
707036,"528 MODEL STREET","DAYTONA  BEACH","FL",32114,29.216952898,-81.035267273,36,"528 MODEL STREET, DAYTONA  BEACH, FL, 32114","Match","Exact","528 MODEL ST, DAYTONA BEACH, FL, 32114",94524355,"L"
707037,"528 MONROE STREET   APT 3R","BROOKLYN","NY",11221,40.687069922,-73.936631644,37,"528 MONROE STREET   APT 3R, BROOKLYN, NY, 11221","Match","Exact","528 MONROE ST, BROOKLYN, NY, 11221",59079251,"R"
707038,"528 MOOSE HILL ROAD","MONROE","CT",6468,41.3241536450001,-73.20580462,38,"528 MOOSE HILL ROAD, MONROE, CT, 6468","Match","Exact","528 MOOSE HILL RD, MONROE, CT, 06468",3217740,"R"
707039,"528 MORGAN DRIVE","WILLIAMS BAY","WI",53191,42.580256537,-88.5254703259999,39,"528 MORGAN DRIVE, WILLIAMS BAY, WI, 53191","Match","Exact","528 MORGAN DR, WILLIAMS BAY, WI, 53191",53670679,"L"
707040,"528 MOUNT VERNON STREET","OSHKOSH","WI",54901,44.0205255700001,-88.535294837,40,"528 MOUNT VERNON STREET, OSHKOSH, WI, 54901","Match","Exact","528 MOUNT VERNON ST, OSHKOSH, WI, 54901",74490563,"R"
707041,"528 N 1ST STREET","RATON","NM",87740,36.9066123050001,-104.437322098,41,"528 N 1ST STREET, RATON, NM, 87740","Match","Exact","528 N 1ST ST, RATON, NM, 87740",171184172,"L"
707042,"528 N 36TH ST","HARRISBURG","PA",17109,40.2987025250001,-76.839499088,42,"528 N 36TH ST, HARRISBURG, PA, 17109","Match","Exact","528 N 36TH ST, HARRISBURG, PA, 17109",620577148,"L"
707043,"528 N DARTMOUTH WAY","ANAHEIM","CA",92801,NA,NA,43,"528 N DARTMOUTH WAY, ANAHEIM, CA, 92801","Tie",NA,NA,NA,NA
707044,"528 N HOBART BLVD APT 4","LOS ANGELES","CA",90004,34.080479159,-118.305737545,44,"528 N HOBART BLVD APT 4, LOS ANGELES, CA, 90004","Match","Non_Exact","528 N HOBART BLVD, LOS ANGELES, CA, 90004",141603330,"R"
707045,"528 N JEFFERSON ST","HUNTINGTON","IN",46750,40.882977801,-85.49600313,45,"528 N JEFFERSON ST, HUNTINGTON, IN, 46750","Match","Exact","528 N JEFFERSON ST, HUNTINGTON, IN, 46750",6553573,"R"
707046,"528 N KIRBY","LUBBOCK","TX",79416,33.60510621,-101.952940962,46,"528 N KIRBY, LUBBOCK, TX, 79416","Match","Non_Exact","528 N KIRBY AVE, LUBBOCK, TX, 79416",185274820,"L"
707047,"528 N MELENDRES ST","LAS CRUCES","NM",88005,32.3119456210001,-106.787098221,47,"528 N MELENDRES ST, LAS CRUCES, NM, 88005","Match","Exact","528 N MELENDRES ST, LAS CRUCES, NM, 88005",612722447,"R"
707048,"528 N RANDOLPH ST APT A","MACOMB","IL",61455,NA,NA,48,"528 N RANDOLPH ST APT A, MACOMB, IL, 61455","Tie",NA,NA,NA,NA
707049,"528 N RIDGELAND AVE","OAK PARK","IL",60302,41.895515306,-87.784892982,49,"528 N RIDGELAND AVE, OAK PARK, IL, 60302","Match","Exact","528 N RIDGELAND AVE, OAK PARK, IL, 60302",605116281,"R"
707050,"528 NE RUSSELL ST","PORTLAND","OR",97212,45.5412499030001,-122.660007719,50,"528 NE RUSSELL ST, PORTLAND, OR, 97212","Match","Exact","528 NE RUSSELL ST, PORTLAND, OR, 97212",157558141,"R"
707051,"528 NELSON AVE","CHARLOTTE","NC",28216,35.2633469020001,-80.872709492,51,"528 NELSON AVE, CHARLOTTE, NC, 28216","Match","Exact","528 NELSON AVE, CHARLOTTE, NC, 28216",70538742,"R"
707052,"528 NELSON AVE","CHARLOTTE","NC",28262,35.2633469020001,-80.872709492,52,"528 NELSON AVE, CHARLOTTE, NC, 28262","Match","Non_Exact","528 NELSON AVE, CHARLOTTE, NC, 28216",70538742,"R"
707053,"528 NEW ENGLAND LANE","ORANGE","CT",6477,41.2887707520001,-73.000385237,53,"528 NEW ENGLAND LANE, ORANGE, CT, 6477","Match","Exact","528 NEW ENGLAND LN, ORANGE, CT, 06477",3744479,"L"
707054,"528 NORTH ALICE COURT","WEST PALM BEACH","FL",33413,26.668978306,-80.1548134669999,54,"528 NORTH ALICE COURT, WEST PALM BEACH, FL, 33413","Match","Exact","528 N ALICE CT, WEST PALM BEACH, FL, 33413",115269673,"R"
707055,"528 NORTH CRESCENT ST","SUGAR CREEK","OH",44681,40.5095130600001,-81.639145973,55,"528 NORTH CRESCENT ST, SUGAR CREEK, OH, 44681","Match","Non_Exact","528 N CRESCENT ST, SUGARCREEK, OH, 44681",44258125,"L"
707056,"528 NORTH KEMP STREET","KUTZTOWN","PA",19530,40.525545639,-75.777965587,56,"528 NORTH KEMP STREET, KUTZTOWN, PA, 19530","Match","Exact","528 N KEMP ST, KUTZTOWN, PA, 19530",80475092,"R"
707057,"528 NORTH LINCOLN AVE APT C","MONTEREY PARK","CA",91755,34.0682097420001,-118.120836194,57,"528 NORTH LINCOLN AVE APT C, MONTEREY PARK, CA, 91755","Match","Exact","528 N LINCOLN AVE, MONTEREY PARK, CA, 91755",142737452,"R"
707058,"528 NORTH M L KING BLVD","LANSING","MI",48915,42.738987078,-84.5672006469999,58,"528 NORTH M L KING BLVD, LANSING, MI, 48915","Match","Exact","528 N MARTIN LUTHER KING JR BLVD, LANSING, MI, 48915",17498214,"R"
707059,"528 NORTH OAKLEY DR","COLUMBUS","GA",31906,32.4552268260001,-84.9326861499999,59,"528 NORTH OAKLEY DR, COLUMBUS, GA, 31906","Match","Exact","528 N OAKLEY DR, COLUMBUS, GA, 31906",639141788,"R"
707060,"528 NORTH SPRINGFIELD","CHICAGO","IL",60624,41.8906639950001,-87.72350978,60,"528 NORTH SPRINGFIELD, CHICAGO, IL, 60624","Match","Non_Exact","528 N SPRINGFIELD AVE, CHICAGO, IL, 60624",605083226,"L"
707061,"528 NORTH STATE ROAD","BRIARCLIFF MANOR","NY",10510,41.1650446140001,-73.82225966,61,"528 NORTH STATE ROAD, BRIARCLIFF MANOR, NY, 10510","Match","Exact","528 N STATE RD, BRIARCLIFF MANOR, NY, 10510",634291574,"R"
707062,"528 NORTON LANE","ARNOLD","MD",21012,39.0433374470001,-76.4896158989999,62,"528 NORTON LANE, ARNOLD, MD, 21012","Match","Exact","528 NORTON LN, ARNOLD, MD, 21012",68204397,"L"
707063,"528 NW 8TH STREET APT 305","MIAMI","FL",33136,NA,NA,63,"528 NW 8TH STREET APT 305, MIAMI, FL, 33136","No_Match",NA,NA,NA,NA
707064,"528 OKLAHOMA AVE NE","WASHINGTON","DC",20002,38.89585707,-76.971169182,64,"528 OKLAHOMA AVE NE, WASHINGTON, DC, 20002","Match","Exact","528 OKLAHOMA AVE NE, WASHINGTON, DC, 20002",641520551,"L"
707065,"528 OLD HOME ROAD","BALTIMORE","MD",21206,39.349340758,-76.524966454,65,"528 OLD HOME ROAD, BALTIMORE, MD, 21206","Match","Exact","528 OLD HOME RD, BALTIMORE, MD, 21206",191477839,"L"
707066,"528 OTIS BROWN RD","BALDWIN","GA",30511,34.4600090500001,-83.509695834,66,"528 OTIS BROWN RD, BALDWIN, GA, 30511","Match","Exact","528 OTIS BROWN RD, BALDWIN, GA, 30511",635562357,"L"
707067,"528 PALISADE AVENUE","JERSEY CITY","NJ",7307,40.746435128,-74.042742346,67,"528 PALISADE AVENUE, JERSEY CITY, NJ, 7307","Match","Exact","528 PALISADE AVE, JERSEY CITY, NJ, 07307",59605313,"R"
707068,"528 PANSY RD","BLANCHESTER","OH",45107,39.3524460020001,-83.9542732259999,68,"528 PANSY RD, BLANCHESTER, OH, 45107","Match","Exact","528 PANSY RD, BLANCHESTER, OH, 45107",146854532,"R"
707069,"528 PARADISE DR","BEAVERTON","MI",48612,43.8396922150001,-84.347149558,69,"528 PARADISE DR, BEAVERTON, MI, 48612","Match","Exact","528 PARADISE DR, BEAVERTON, MI, 48612",110424870,"L"
707070,"528 PARKER AVE","OSAWATOMIE","KS",66064,38.500093909,-94.949797625,70,"528 PARKER AVE, OSAWATOMIE, KS, 66064","Match","Exact","528 PARKER AVE, OSAWATOMIE, KS, 66064",85221273,"L"
707071,"528 PATASKALA RIDGE DRIVE","PATASKALA","OH",43062,NA,NA,71,"528 PATASKALA RIDGE DRIVE, PATASKALA, OH, 43062","No_Match",NA,NA,NA,NA
707072,"528 PAXINOSA AVE","EASTON","PA",18045,40.703934815,-75.202782912,72,"528 PAXINOSA AVE, EASTON, PA, 18045","Match","Non_Exact","528 PAXINOSA AVE, EASTON, PA, 18042",136883781,"L"
707073,"528 PENNSYLVANIA PO BOX 305","GLEN ELLYN","IL",60138,NA,NA,73,"528 PENNSYLVANIA PO BOX 305, GLEN ELLYN, IL, 60138","No_Match",NA,NA,NA,NA
707074,"528 POPLAR ST","CAMBRIDGE","MD",21613,38.5708305480001,-76.077493987,74,"528 POPLAR ST, CAMBRIDGE, MD, 21613","Match","Exact","528 POPLAR ST, CAMBRIDGE, MD, 21613",99674178,"L"
707075,"528 PRICHETT ROAD","WARRENTON","NC",27589,NA,NA,75,"528 PRICHETT ROAD, WARRENTON, NC, 27589","No_Match",NA,NA,NA,NA
707076,"528 PRINCE ST","CEDAR HILL","TX",75104,32.5649336380001,-96.950264719,76,"528 PRINCE ST, CEDAR HILL, TX, 75104","Match","Exact","528 PRINCE ST, CEDAR HILL, TX, 75104",646789177,"R"
707077,"528 RABBIT RUN","WEST LAFAYETTE","IN",47906,40.4829789140001,-86.89737904,77,"528 RABBIT RUN, WEST LAFAYETTE, IN, 47906","Match","Non_Exact","528 RABBIT RUN RD, W LAFAYETTE, IN, 47906",635610155,"L"
707078,"528 RAILGATE LOOP","LUGOFF","SC",29078,34.1793991000001,-80.7590052639999,78,"528 RAILGATE LOOP, LUGOFF, SC, 29078","Match","Exact","528 RAILGATE LOOP, LUGOFF, SC, 29078",78485936,"L"
707079,"528 REGENCY CROSSING","SOUTHLAKE","TX",76092,32.917783161,-97.1407139949999,79,"528 REGENCY CROSSING, SOUTHLAKE, TX, 76092","Match","Exact","528 REGENCY CROSSING, SOUTHLAKE, TX, 76092",102110410,"R"
707080,"528 REYNOLDS DRIVE","CHARLOTTE","NC",28209,35.185142865,-80.866136796,80,"528 REYNOLDS DRIVE, CHARLOTTE, NC, 28209","Match","Exact","528 REYNOLDS DR, CHARLOTTE, NC, 28209",70485940,"R"
707081,"528 ROCKDALE CIRCLE","DUBLIN","GA",31021,32.545878343,-82.97081704,81,"528 ROCKDALE CIRCLE, DUBLIN, GA, 31021","Match","Exact","528 ROCKDALE CIR, DUBLIN, GA, 31021",628081736,"R"
707082,"528 ROCKLAND AVE","MAMARONECK","NY",10543,40.946242704,-73.745932852,82,"528 ROCKLAND AVE, MAMARONECK, NY, 10543","Match","Exact","528 ROCKLAND AVE, MAMARONECK, NY, 10543",139809640,"L"
707083,"528 ROOSEVELT AVE","CARTERET","NJ",7008,40.5828731400001,-74.215161983,83,"528 ROOSEVELT AVE, CARTERET, NJ, 7008","Match","Exact","528 ROOSEVELT AVE, CARTERET, NJ, 07008",60289226,"R"
707084,"528 RUNDLE COURT","BATAVIA","IL",60510,41.8370736140001,-88.2972920569999,84,"528 RUNDLE COURT, BATAVIA, IL, 60510","Match","Exact","528 RUNDLE CT, BATAVIA, IL, 60510",119542450,"R"
707085,"528 S 2ND STREET APARTMENT 403","PHILADELPHIA","PA",19147,NA,NA,85,"528 S 2ND STREET APARTMENT 403, PHILADELPHIA, PA, 19147","Tie",NA,NA,NA,NA
707086,"528 S 4TH AVE","STROUD","OK",74079,35.7417746560001,-96.657765333,86,"528 S 4TH AVE, STROUD, OK, 74079","Match","Exact","528 S 4TH AVE, STROUD, OK, 74079",143031024,"L"
707087,"528 S BAXTER STREET","LIMA","OH",45805,40.734370681,-84.116586674,87,"528 S BAXTER STREET, LIMA, OH, 45805","Match","Non_Exact","528 S BAXTER ST, LIMA, OH, 45801",35566944,"R"
707088,"528 S CHAIN DR","APPLETON","WI",54915,44.23834916,-88.4188914059999,88,"528 S CHAIN DR, APPLETON, WI, 54915","Match","Exact","528 S CHAIN DR, APPLETON, WI, 54915",74495049,"R"
707089,"528 S COLLINGWOOD AVENUE","SYRACUSE","NY",13206,43.059008163,-76.1066958709999,89,"528 S COLLINGWOOD AVENUE, SYRACUSE, NY, 13206","Match","Exact","528 S COLLINGWOOD AVE, SYRACUSE, NY, 13206",46572933,"R"
707090,"528 S EDSON AVE","LOMBARD","IL",60148,NA,NA,90,"528 S EDSON AVE, LOMBARD, IL, 60148","Tie",NA,NA,NA,NA
707091,"528 S STORY STREET","BOONE","IA",50036,NA,NA,91,"528 S STORY STREET, BOONE, IA, 50036","Tie",NA,NA,NA,NA
707092,"528 SE CROSSPOINT DR","PORT SAINT LUCIE","FL",34983,27.3080417690001,-80.3357272499999,92,"528 SE CROSSPOINT DR, PORT SAINT LUCIE, FL, 34983","Match","Exact","528 SE CROSSPOINT DR, PORT ST LUCIE, FL, 34983",120152103,"R"
707093,"528 SEIGFRED HALL","ATHENS","OH",45701,NA,NA,93,"528 SEIGFRED HALL, ATHENS, OH, 45701","No_Match",NA,NA,NA,NA
707094,"528 SKYLINE DRIVE","BELLE VERNON","PA",15012,40.194197317,-79.8012145929999,94,"528 SKYLINE DRIVE, BELLE VERNON, PA, 15012","Match","Exact","528 SKYLINE DR, BELLE VERNON, PA, 15012",613046783,"R"
707095,"528 SOUTH INDIAN CREED DR","STONE MOUNTAIN","GA",30083,NA,NA,95,"528 SOUTH INDIAN CREED DR, STONE MOUNTAIN, GA, 30083","No_Match",NA,NA,NA,NA
707096,"528 SOUTH IOWA","LEAGUE CITY","TX",77573,29.5098116070001,-95.084777717,96,"528 SOUTH IOWA, LEAGUE CITY, TX, 77573","Match","Non_Exact","528 S IOWA AVE, LEAGUE CITY, TX, 77573",96682539,"L"
707097,"528 SPRING HOLLOW DRIVE","MIDDLETOWN","DE",19709,39.46709624,-75.7021170689999,97,"528 SPRING HOLLOW DRIVE, MIDDLETOWN, DE, 19709","Match","Exact","528 SPRING HOLLOW DR, MIDDLETOWN, DE, 19709",648962302,"R"
707098,"528 ST ANDREWS DRIVE","VINE GROVE","KY",40175,37.8119732820001,-86.006480954,98,"528 ST ANDREWS DRIVE, VINE GROVE, KY, 40175","Match","Exact","528 SAINT ANDREWS DR, VINE GROVE, KY, 40175",34635698,"R"
707099,"528 STATE ROUTE 1034","TEMPLETON","PA",16259,40.8740856250001,-79.443781396,99,"528 STATE ROUTE 1034, TEMPLETON, PA, 16259","Match","Exact","528 STATE RTE 1034, TEMPLETON, PA, 16259",639095916,"L"
707100,"528 STATE ROUTE 19","GALION","OH",44833,40.72309204,-82.764907692,100,"528 STATE ROUTE 19, GALION, OH, 44833","Match","Exact","528 STATE RTE 19, GALION, OH, 44833",640277390,"L"
707101,"528 STEVEN STREET","COMBINED LOCKS","WI",54113,44.264940348,-88.318342307,101,"528 STEVEN STREET, COMBINED LOCKS, WI, 54113","Match","Exact","528 STEVEN ST, COMBINED LOCKS, WI, 54113",74889064,"R"
707102,"528 STONEY BROOK DR SW","JACKSONVILLE","AL",36265,33.782603861,-85.778577529,102,"528 STONEY BROOK DR SW, JACKSONVILLE, AL, 36265","Match","Exact","528 STONEY BROOK DR SW, JACKSONVILLE, AL, 36265",66544986,"R"
707103,"528 SUNNYVALE LANE","FAIRFIELD","TX",75840,31.719775473,-96.151148512,103,"528 SUNNYVALE LANE, FAIRFIELD, TX, 75840","Match","Exact","528 SUNNYVALE LN, FAIRFIELD, TX, 75840",88976057,"R"
707104,"528 SW CROSSPOINT DRIVE","PORT ST LUCIE","FL",34963,NA,NA,104,"528 SW CROSSPOINT DRIVE, PORT ST LUCIE, FL, 34963","No_Match",NA,NA,NA,NA
707105,"528 SYCAMORE LANE","RICHLANDS","VA",24641,37.0927137730001,-81.7856712129999,105,"528 SYCAMORE LANE, RICHLANDS, VA, 24641","Match","Exact","528 SYCAMORE LN, RICHLANDS, VA, 24641",47294800,"L"
707106,"528 TAAKE LANE","TROY","IL",62294,38.7358024710001,-89.872493339,106,"528 TAAKE LANE, TROY, IL, 62294","Match","Exact","528 TAAKE LN, TROY, IL, 62294",107705558,"R"
707107,"528 THAYER AVE APT 201","SILVER SPRING","MD",20910,38.9935965170001,-77.0135722379999,107,"528 THAYER AVE APT 201, SILVER SPRING, MD, 20910","Match","Exact","528 THAYER AVE, SILVER SPRING, MD, 20910",649219361,"L"
707108,"528 THIRD AVENUE WEST SUITE 102","SEATTLE","WA",98119,47.6237034740001,-122.360626107,108,"528 THIRD AVENUE WEST SUITE 102, SEATTLE, WA, 98119","Match","Exact","528 3RD AVE W, SEATTLE, WA, 98119",186582120,"R"
707109,"528 THOMAS L BERKLEY WAY","OAKLAND","CA",94612,37.809681132,-122.270053065,109,"528 THOMAS L BERKLEY WAY, OAKLAND, CA, 94612","Match","Exact","528 THOMAS L BERKLEY WAY, OAKLAND, CA, 94612",606249098,"R"
707110,"528 THREE CHOPT ROAD","MANAKIN-SABOT","VA",23103,37.675817071,-77.722777546,110,"528 THREE CHOPT ROAD, MANAKIN-SABOT, VA, 23103","Match","Exact","528 THREE CHOPT RD, MANAKIN SABOT, VA, 23103",640199200,"R"
707111,"528 TIFFANY TRL","RICHARDSON","TX",75081,32.9294504540001,-96.7266991229999,111,"528 TIFFANY TRL, RICHARDSON, TX, 75081","Match","Exact","528 TIFFANY TRL, RICHARDSON, TX, 75081",102914085,"R"
707112,"528 TIMBERCREEK DRIVE","AKRON","OH",44333,41.1512676950001,-81.643855748,112,"528 TIMBERCREEK DRIVE, AKRON, OH, 44333","Match","Non_Exact","528 TIMBER CREEK DR, AKRON, OH, 44333",61368378,"R"
707113,"528 TIMPSON PLACE","BRONX","NY",10453,40.8111970240001,-73.903909375,113,"528 TIMPSON PLACE, BRONX, NY, 10453","Match","Non_Exact","528 TIMPSON PL, BRONX, NY, 10455",80302219,"R"
707114,"528 TREMONT ST APT 5","BOSTON","MA",2116,42.3446200600001,-71.070454984,114,"528 TREMONT ST APT 5, BOSTON, MA, 2116","Match","Exact","528 TREMONT ST, BOSTON, MA, 02116",85698274,"L"
707115,"528 TUSCANNY PARK LOOP","BRANDON","FL",33511,27.9318937140001,-82.263905006,115,"528 TUSCANNY PARK LOOP, BRANDON, FL, 33511","Match","Exact","528 TUSCANNY PARK LOOP, BRANDON, FL, 33511",104597449,"R"
707116,"528 VENTURA AVE","ORLANDO","FL",32805,28.5497540430001,-81.404616694,116,"528 VENTURA AVE, ORLANDO, FL, 32805","Match","Exact","528 VENTURA AVE, ORLANDO, FL, 32805",94280312,"L"
707117,"528 W 1160 N","OREM","UT",84057,40.318495075,-111.708753985,117,"528 W 1160 N, OREM, UT, 84057","Match","Exact","528 W 1160 N, OREM, UT, 84057",134233167,"L"
707118,"528 W 16TH PL","CHICAGO HEIGHTS","IL",60411,41.50160126,-87.665386341,118,"528 W 16TH PL, CHICAGO HEIGHTS, IL, 60411","Match","Exact","528 W 16TH PL, CHICAGO HEIGHTS, IL, 60411",111711176,"L"
707119,"528 W ARCHDALE STREET","KILL DEVIL HILLS","NC",27949,36.043321174,-75.68720309,119,"528 W ARCHDALE STREET, KILL DEVIL HILLS, NC, 27949","Match","Non_Exact","528 W ARCHDALE ST, KILL DEVIL HILLS, NC, 27948",624825291,"R"
707120,"528 W ATHENS AVE","CLOVIS","CA",93611,NA,NA,120,"528 W ATHENS AVE, CLOVIS, CA, 93611","Tie",NA,NA,NA,NA
707121,"528 W BALDWIN ROAD","PANAMA CITY","FL",32405,30.2042132730001,-85.6692773889999,121,"528 W BALDWIN ROAD, PANAMA CITY, FL, 32405","Match","Exact","528 W BALDWIN RD, PANAMA CITY, FL, 32405",7087976,"R"
707122,"528 W IOWA","CHICKASHA","OK",73018,35.0475961650001,-97.938776977,122,"528 W IOWA, CHICKASHA, OK, 73018","Match","Non_Exact","528 W IOWA AVE, CHICKASHA, OK, 73018",15213922,"R"
707123,"528 W LEMON AVE","ARCADIA","CA",91007,34.118219074,-118.050356548,123,"528 W LEMON AVE, ARCADIA, CA, 91007","Match","Exact","528 W LEMON AVE, ARCADIA, CA, 91007",142253562,"L"
707124,"528 W MONROE","JONESBORO","AR",72401,35.8391878100001,-90.709484227,124,"528 W MONROE, JONESBORO, AR, 72401","Match","Non_Exact","528 W MONROE AVE, JONESBORO, AR, 72401",46909208,"R"
707125,"528 W NORTON ROAD","SPRINGFIELD","MO",65803,37.2515983590001,-93.294577787,125,"528 W NORTON ROAD, SPRINGFIELD, MO, 65803","Match","Exact","528 W NORTON RD, SPRINGFIELD, MO, 65803",647742049,"L"
707126,"528 W PULASKI HWY","ELKTON","MD",21921,39.6076720570001,-75.866475893,126,"528 W PULASKI HWY, ELKTON, MD, 21921","Match","Exact","528 W PULASKI HWY, ELKTON, MD, 21921",187412545,"R"
707127,"528 W WASHINGTON","MOMENCE","IL",60954,41.162959159,-87.6693042909999,127,"528 W WASHINGTON, MOMENCE, IL, 60954","Match","Non_Exact","528 W WASHINGTON ST, MOMENCE, IL, 60954",98348751,"R"
707128,"528 WALCK ROAD","NORTH TONAWANDA","NY",14120,43.04545398,-78.8664420549999,128,"528 WALCK ROAD, NORTH TONAWANDA, NY, 14120","Match","Exact","528 WALCK RD, N TONAWANDA, NY, 14120",48689331,"L"
707129,"528 WALDEN LANDING DRIVE","HAMPTON","GA",30228,NA,NA,129,"528 WALDEN LANDING DRIVE, HAMPTON, GA, 30228","No_Match",NA,NA,NA,NA
707130,"528 WATER POINTE LANE","MIDLOTHIAN","VA",23112,37.405948633,-77.6814840179999,130,"528 WATER POINTE LANE, MIDLOTHIAN, VA, 23112","Match","Exact","528 WATER POINTE LN, MIDLOTHIAN, VA, 23112",223174557,"R"
707131,"528 WATER ST","FAIRMONT","MN",56031,43.6412350480001,-94.455473922,131,"528 WATER ST, FAIRMONT, MN, 56031","Match","Exact","528 WATER ST, FAIRMONT, MN, 56031",9977148,"R"
707132,"528 WATERSIDE CT","CANTON","GA",30114,34.196183918,-84.547230919,132,"528 WATERSIDE CT, CANTON, GA, 30114","Match","Exact","528 WATERSIDE CT, CANTON, GA, 30114",634105508,"L"
707133,"528 WEEPING WILLOW DR","MURPHY","TX",75094,33.0015382870001,-96.6078113409999,133,"528 WEEPING WILLOW DR, MURPHY, TX, 75094","Match","Exact","528 WEEPING WILLOW DR, MURPHY, TX, 75094",210493967,"R"
707134,"528 WEEPING WILLOW DRIVE","MURPHY","TX",75094,33.0015382870001,-96.6078113409999,134,"528 WEEPING WILLOW DRIVE, MURPHY, TX, 75094","Match","Exact","528 WEEPING WILLOW DR, MURPHY, TX, 75094",210493967,"R"
707135,"528 WELCH AVENUE","BERTHOUD","CO",80513,40.3041294290001,-105.081525431,135,"528 WELCH AVENUE, BERTHOUD, CO, 80513","Match","Exact","528 WELCH AVE, BERTHOUD, CO, 80513",188501961,"L"
707136,"528 WEST 123RD STREET APT 1B","NEW YORK","NY",10027,40.811571927,-73.958549535,136,"528 WEST 123RD STREET APT 1B, NEW YORK, NY, 10027","Match","Exact","528 W 123RD ST, NEW YORK, NY, 10027",639434119,"L"
707137,"528 WEST LAWRENCE","HELENA","MT",59601,46.590413362,-112.045546268,137,"528 WEST LAWRENCE, HELENA, MT, 59601","Match","Non_Exact","528 W LAWRENCE ST, HELENA, MT, 59601",202349651,"R"
707138,"528 WEST PROSPECT","EXETER","CA",93221,36.2875628840001,-119.145557213,138,"528 WEST PROSPECT, EXETER, CA, 93221","Match","Non_Exact","528 W PROSPECT AVE, EXETER, CA, 93221",202803447,"R"
707139,"528 WEST RUSCOM","PENSYLVANIA","PA",19120,NA,NA,139,"528 WEST RUSCOM, PENSYLVANIA, PA, 19120","No_Match",NA,NA,NA,NA
707140,"528 WEST RUSCOMB STREET","PENSYLVENIA","NY",19120,NA,NA,140,"528 WEST RUSCOMB STREET, PENSYLVENIA, NY, 19120","No_Match",NA,NA,NA,NA
707141,"528 WESTVIEW DRIVE","YUKON","OK",73099,35.4608556320001,-97.7314031,141,"528 WESTVIEW DRIVE, YUKON, OK, 73099","Match","Exact","528 WESTVIEW DR, YUKON, OK, 73099",92528889,"R"
707142,"528 WILDWOOD DRIVE","SMYRNA","TN",37176,35.9566618380001,-86.533565069,142,"528 WILDWOOD DRIVE, SMYRNA, TN, 37176","Match","Non_Exact","528 WILDWOOD DR, SMYRNA, TN, 37167",606784364,"R"
707143,"528 WILLIAM STREET","DOWNINGTOWN","PA",19335,40.003035047,-75.7177846929999,143,"528 WILLIAM STREET, DOWNINGTOWN, PA, 19335","Match","Exact","528 WILLIAM ST, DOWNINGTOWN, PA, 19335",179485773,"L"
707144,"528 WILLIAMS ST","YAZOO CITY","MS",39194,32.850489731,-90.404657798,144,"528 WILLIAMS ST, YAZOO CITY, MS, 39194","Match","Exact","528 WILLIAMS ST, YAZOO CITY, MS, 39194",152203582,"L"
707145,"528 WOODLAWN AVE","BUFFALO","NY",14208,42.9138336510001,-78.845853147,145,"528 WOODLAWN AVE, BUFFALO, NY, 14208","Match","Exact","528 WOODLAWN AVE, BUFFALO, NY, 14208",637997779,"L"
707146,"528 WOODLAWN AVENUE","BUFFALO","NY",14208,42.9138336510001,-78.845853147,146,"528 WOODLAWN AVENUE, BUFFALO, NY, 14208","Match","Exact","528 WOODLAWN AVE, BUFFALO, NY, 14208",637997779,"L"
707147,"528 WOODLAWN DR","DANVILLE","VA",24541,36.605011178,-79.457725501,147,"528 WOODLAWN DR, DANVILLE, VA, 24541","Match","Exact","528 WOODLAWN DR, DANVILLE, VA, 24541",56665292,"R"
707148,"528 YEARLING COVE LOOP","APOPKA","FL",32703,28.6848559790001,-81.540783844,148,"528 YEARLING COVE LOOP, APOPKA, FL, 32703","Match","Exact","528 YEARLING COVE LOOP, APOPKA, FL, 32703",628043133,"L"
707149,"528","FRESNO","CA",93611,NA,NA,149,"528, FRESNO, CA, 93611","No_Match",NA,NA,NA,NA
707150,"5280 206TH CT NORTH","LOXAHATCHEE","FL",33470,26.7589979470001,-80.371651432,150,"5280 206TH CT NORTH, LOXAHATCHEE, FL, 33470","Match","Non_Exact","5280 206TH TER N, LOXAHATCHEE, FL, 33470",115325331,"L"
707151,"5280 ANNAPOLIS LN APT 3330","PLYMOUTH","MN",55446,45.0500289670001,-93.45459142,151,"5280 ANNAPOLIS LN APT 3330, PLYMOUTH, MN, 55446","Match","Exact","5280 ANNAPOLIS LN, PLYMOUTH, MN, 55446",624422776,"R"
707152,"5280 ANNAPOLIS LN N APT 3330","PLYMOUTH","MN",55446,45.053827079,-93.4551687169999,152,"5280 ANNAPOLIS LN N APT 3330, PLYMOUTH, MN, 55446","Match","Exact","5280 ANNAPOLIS LN N, PLYMOUTH, MN, 55446",650884299,"L"
707153,"5280 ARGYLL LANE","DOUGLASVILLE","GA",30135,33.712449899,-84.746819992,153,"5280 ARGYLL LANE, DOUGLASVILLE, GA, 30135","Match","Exact","5280 ARGYLL LN, DOUGLASVILLE, GA, 30135",619853590,"R"
707154,"5280 BERRIEN AVE","SPRING HILL","FL",34608,28.5088535680001,-82.530874533,154,"5280 BERRIEN AVE, SPRING HILL, FL, 34608","Match","Exact","5280 BERRIEN AVE, SPRING HILL, FL, 34608",85424387,"L"
707155,"5280 CAROLINE STREET","HOUSTON","TX",77004,29.7264290530001,-95.385279437,155,"5280 CAROLINE STREET, HOUSTON, TX, 77004","Match","Exact","5280 CAROLINE ST, HOUSTON, TX, 77004",96071188,"R"
707156,"5280 DEERLAKE DRIVE","ALPHARETTA","GA",30005,34.0759504690001,-84.171795547,156,"5280 DEERLAKE DRIVE, ALPHARETTA, GA, 30005","Match","Exact","5280 DEERLAKE DR, ALPHARETTA, GA, 30005",70186708,"L"
707157,"5280 E 102ND STREET","GARFIELD HTS","OH",44125,41.4183282770001,-81.613771551,157,"5280 E 102ND STREET, GARFIELD HTS, OH, 44125","Match","Exact","5280 E 102ND ST, GARFIELD HEIGHTS, OH, 44125",61119977,"R"
707158,"5280 EAST TEXAS ROAD","MACUNGIE","PA",18062,40.5528697300001,-75.554773187,158,"5280 EAST TEXAS ROAD, MACUNGIE, PA, 18062","Match","Exact","5280 E TEXAS RD, MACUNGIE, PA, 18062",624420810,"R"
707159,"5280 FM 2992","WOODVILLE","TX",75979,30.719622352,-94.227777696,159,"5280 FM 2992, WOODVILLE, TX, 75979","Match","Exact","5280 FM 2992, WOODVILLE, TX, 75979",24417665,"L"
707160,"5280 GRANT RD","MORRISVILLE","MO",65710,37.4824784400001,-93.409962521,160,"5280 GRANT RD, MORRISVILLE, MO, 65710","Match","Exact","5280 GRANT RD, MORRISVILLE, MO, 65710",23049087,"R"
707161,"5280 HEATHER LANE","PARK CITY","UT",84098,40.7067206240001,-111.542402394,161,"5280 HEATHER LANE, PARK CITY, UT, 84098","Match","Exact","5280 HEATHER LN, PARK CITY, UT, 84098",160632382,"L"
707162,"5280 HOFFMAN LAKE RD","WARSAW","IN",46582,NA,NA,162,"5280 HOFFMAN LAKE RD, WARSAW, IN, 46582","No_Match",NA,NA,NA,NA
707163,"5280 HOLMES PL","BOULDER","CO",80303,40.0100804740001,-105.229654955,163,"5280 HOLMES PL, BOULDER, CO, 80303","Match","Exact","5280 HOLMES PL, BOULDER, CO, 80303",188163335,"L"
707164,"5280 HWY 7 WEST","SULPHUR","OK",73086,NA,NA,164,"5280 HWY 7 WEST, SULPHUR, OK, 73086","No_Match",NA,NA,NA,NA
707165,"5280 IROQUOIS DR","MISHAWAK","IN",46545,NA,NA,165,"5280 IROQUOIS DR, MISHAWAK, IN, 46545","No_Match",NA,NA,NA,NA
707166,"5280 JENARD","BEAUMONT","TX",77708,30.1294487110001,-94.137413128,166,"5280 JENARD, BEAUMONT, TX, 77708","Match","Non_Exact","5280 JENARD ST, BEAUMONT, TX, 77708",624773290,"R"
707167,"5280 LAKE VIEW STREET","GERMANSVILLE","PA",18053,40.689370652,-75.658216913,167,"5280 LAKE VIEW STREET, GERMANSVILLE, PA, 18053","Match","Exact","5280 LAKE VIEW ST, GERMANSVILLE, PA, 18053",80751846,"L"
707168,"5280 LEE BLVD","LEHIGH ACRES","FL",33971,26.6167738880001,-81.735930915,168,"5280 LEE BLVD, LEHIGH ACRES, FL, 33971","Match","Non_Exact","5280 LEE ST, LEHIGH ACRES, FL, 33971",117988515,"R"
707169,"5280 LINTON BLVD","DELRAY BEACH","FL",33484,26.439312493,-80.125969764,169,"5280 LINTON BLVD, DELRAY BEACH, FL, 33484","Match","Exact","5280 LINTON BLVD, DELRAY BEACH, FL, 33484",115519608,"L"
707170,"5280 LITTLE MOUNTAIN","SAN BERNADINO","CA",92407,34.1763268280001,-117.314868116,170,"5280 LITTLE MOUNTAIN, SAN BERNADINO, CA, 92407","Match","Non_Exact","5280 LITTLE MOUNTAIN DR, SAN BERNARDINO, CA, 92407",144734016,"L"
707171,"5280 LIVERPOOL ST","DENVER","CO",80249,39.791900614,-104.744416438,171,"5280 LIVERPOOL ST, DENVER, CO, 80249","Match","Non_Exact","5280 N LIVERPOOL ST, DENVER, CO, 80249",617525556,"R"
707172,"5280 MACK ROAD 143","SACRAMENTO","CA",95823,38.4742602760001,-121.439481018,172,"5280 MACK ROAD 143, SACRAMENTO, CA, 95823","Match","Exact","5280 MACK RD, SACRAMENTO, CA, 95823",636424131,"R"
707173,"5280 MAIN STREET","STEPHENS CITY","VA",22655,39.085642733,-78.216042712,173,"5280 MAIN STREET, STEPHENS CITY, VA, 22655","Match","Exact","5280 MAIN ST, STEPHENS CITY, VA, 22655",55603733,"R"
707174,"5280 MONTIANO CT","DUBLIN","CA",94568,37.7214348640001,-121.847260608,174,"5280 MONTIANO CT, DUBLIN, CA, 94568","Match","Non_Exact","5280 MONTIANO LN, DUBLIN, CA, 94568",640791127,"L"
707175,"5280 MOTIANO CT","DUBLIN","CA",94568,NA,NA,175,"5280 MOTIANO CT, DUBLIN, CA, 94568","No_Match",NA,NA,NA,NA
707176,"5280 N CANYON ROAD","PROVO","UT",84604,40.303193412,-111.654559506,176,"5280 N CANYON ROAD, PROVO, UT, 84604","Match","Exact","5280 N CANYON RD, PROVO, UT, 84604",638825978,"R"
707177,"5280 NE 18 AVENUE","POMPANO BEACH","FL",33064,26.296047458,-80.099605566,177,"5280 NE 18 AVENUE, POMPANO BEACH, FL, 33064","Match","Exact","5280 NE 18TH AVE, POMPANO BEACH, FL, 33064",114743171,"R"
707178,"5280 NEWT PATTERSON","MANSFIELD","TX",76063,NA,NA,178,"5280 NEWT PATTERSON, MANSFIELD, TX, 76063","No_Match",NA,NA,NA,NA
707179,"5280 NORTHUMBERLAND ST","PITTSBURGH","PA",15217,NA,NA,179,"5280 NORTHUMBERLAND ST, PITTSBURGH, PA, 15217","No_Match",NA,NA,NA,NA
707180,"5280 OAK GROVE ROAD","BRANDON","WI",53919,NA,NA,180,"5280 OAK GROVE ROAD, BRANDON, WI, 53919","No_Match",NA,NA,NA,NA
707181,"5280 OAK KNOLL","CINCINNATI","OH",45238,NA,NA,181,"5280 OAK KNOLL, CINCINNATI, OH, 45238","No_Match",NA,NA,NA,NA
707182,"5280 POTOMAC STREET","N. CHARLESTON","SC",29405,32.891821894,-79.99690551,182,"5280 POTOMAC STREET, N. CHARLESTON, SC, 29405","Match","Exact","5280 POTOMAC ST, N CHARLESTON, SC, 29405",108799293,"R"
707183,"5280 S QUARRY ROAD","BAYSIDE","CA",95524,40.82036931,-124.032746202,183,"5280 S QUARRY ROAD, BAYSIDE, CA, 95524","Match","Exact","5280 S QUARRY RD, BAYSIDE, CA, 95524",645258863,"R"
707184,"5280 SAKSTON DRIVE","ANNISTON","AL",36206,33.7155666840001,-85.843014581,184,"5280 SAKSTON DRIVE, ANNISTON, AL, 36206","Match","Exact","5280 SAKSTON DR, ANNISTON, AL, 36206",651705264,"R"
707185,"5280 SW 139 TERRACE","MIRAMAR","FL",33027,25.9584738350001,-80.331271688,185,"5280 SW 139 TERRACE, MIRAMAR, FL, 33027","Match","Exact","5280 SW 139TH TER, MIRAMAR, FL, 33027",647857765,"R"
707186,"5280 SW 251 ROAD","OSCEOLA","MO",64776,NA,NA,186,"5280 SW 251 ROAD, OSCEOLA, MO, 64776","No_Match",NA,NA,NA,NA
707187,"5280 SW 88TH TERRACE","COOPER CITY","FL",33024,26.053986535,-80.264565692,187,"5280 SW 88TH TERRACE, COOPER CITY, FL, 33024","Match","Non_Exact","5280 SW 88TH TER, COOPER CITY, FL, 33328",114711881,"L"
707188,"5280 SW ELM AVE","BEAVERTON","OR",97005,45.4817756150001,-122.777494977,188,"5280 SW ELM AVE, BEAVERTON, OR, 97005","Match","Exact","5280 SW ELM AVE, BEAVERTON, OR, 97005",158186986,"L"
707189,"5280 TWO RD 179","CARDINGTON","OH",43315,40.44249404,-82.761936546,189,"5280 TWO RD 179, CARDINGTON, OH, 43315","Match","Non_Exact","5280 TWP RD 179, CARDINGTON, OH, 43315",12753894,"R"
707190,"5280 TWP RD 179","CARDINGTON","OH",43315,40.44249404,-82.761936546,190,"5280 TWP RD 179, CARDINGTON, OH, 43315","Match","Exact","5280 TWP RD 179, CARDINGTON, OH, 43315",12753894,"R"
707191,"5280 VELMA TERRACE","SAN DIEGO","CA",92114,32.702120022,-117.080773998,191,"5280 VELMA TERRACE, SAN DIEGO, CA, 92114","Match","Exact","5280 VELMA TER, SAN DIEGO, CA, 92114",195352210,"R"
707192,"5280 W ALDER CREEK DRIVE","JASPER","IN",47546,38.4047015190001,-87.0029533969999,192,"5280 W ALDER CREEK DRIVE, JASPER, IN, 47546","Match","Exact","5280 W ALDER CREEK DR, JASPER, IN, 47546",7883741,"L"
707193,"5280 WESTBURY","CHELSEA","MI",48118,42.366450694,-84.012743443,193,"5280 WESTBURY, CHELSEA, MI, 48118","Match","Non_Exact","5280 WESTBURY DR, CHELSEA, MI, 48118",26055468,"R"
707194,"5280 WHITE PLAINS COVE","MEMPHIS","TN",38116,35.004647913,-90.012453405,194,"5280 WHITE PLAINS COVE, MEMPHIS, TN, 38116","Match","Non_Exact","5280 WHITEPLAINS COVE, MEMPHIS, TN, 38116",72922774,"L"
707195,"5280 WILD CEDAR DRIVE","BUFORD","GA",30518,34.1514352890001,-83.949606488,195,"5280 WILD CEDAR DRIVE, BUFORD, GA, 30518","Match","Exact","5280 WILD CEDAR DR, BUFORD, GA, 30518",627909762,"R"
707196,"52804 NORWOODS PLACE","HANNIBAL","MO",63401,39.68206588,-91.47437883,196,"52804 NORWOODS PLACE, HANNIBAL, MO, 63401","Match","Exact","52804 NORWOODS PL, HANNIBAL, MO, 63401",37993679,"R"
707197,"5281 BARTON PL","AMMON","ID",83406,43.4502192630001,-111.949799955,197,"5281 BARTON PL, AMMON, ID, 83406","Match","Exact","5281 BARTON PL, AMMON, ID, 83406",625590241,"R"
707198,"5281 E JAHANT RD","GALT","CA",95632,NA,NA,198,"5281 E JAHANT RD, GALT, CA, 95632","Tie",NA,NA,NA,NA
707199,"5281 E-106","STOCKBRIDGE","MI",49285,NA,NA,199,"5281 E-106, STOCKBRIDGE, MI, 49285","No_Match",NA,NA,NA,NA
707200,"5281 EAST KENSINGTON AVENUE","CASTLE ROCK","CO",80104,39.3630056440001,-104.807452392,200,"5281 EAST KENSINGTON AVENUE, CASTLE ROCK, CO, 80104","Match","Exact","5281 E KENSINGTON AVE, CASTLE ROCK, CO, 80104",130839463,"L"
707201,"5281 EATON BROOK ROAD","EATON","NY",13334,42.854581572,-75.659351315,201,"5281 EATON BROOK ROAD, EATON, NY, 13334","Match","Exact","5281 EATON BROOK RD, EATON, NY, 13334",46500430,"R"
707202,"5281 HILLTOP ROAD","GREENSBORO","NC",27407,36.0387396420001,-79.90928209,202,"5281 HILLTOP ROAD, GREENSBORO, NC, 27407","Match","Exact","5281 HILLTOP RD, GREENSBORO, NC, 27407",635539724,"L"
707203,"5281 HORN LAKE ROAD","MEMPHIS","TN",38109,35.004475902,-90.068527913,203,"5281 HORN LAKE ROAD, MEMPHIS, TN, 38109","Match","Exact","5281 HORN LAKE RD, MEMPHIS, TN, 38109",607509035,"R"
707204,"5281 NEWPORT","DETROIT","MI",48213,42.396834835,-82.962361256,204,"5281 NEWPORT, DETROIT, MI, 48213","Match","Non_Exact","5281 NEWPORT ST, DETROIT, MI, 48213",95469643,"L"
707205,"5281 S YAMPA STREET","CENTENNIAL","CO",80015,39.6205115010001,-104.77527429,205,"5281 S YAMPA STREET, CENTENNIAL, CO, 80015","Match","Exact","5281 S YAMPA ST, CENTENNIAL, CO, 80015",177359976,"R"
707206,"5281 SPRING COVE WAY","VIRGINIA BEACH","VA",23464,NA,NA,206,"5281 SPRING COVE WAY, VIRGINIA BEACH, VA, 23464","No_Match",NA,NA,NA,NA
707207,"5281 TROPHY DR","FAIRFIELD","CA",94534,38.2163888000001,-122.150002012,207,"5281 TROPHY DR, FAIRFIELD, CA, 94534","Match","Exact","5281 TROPHY DR, FAIRFIELD, CA, 94534",192556062,"R"
707208,"5281 TROPHY DR","FAIRFIELD","NV",94534,NA,NA,208,"5281 TROPHY DR, FAIRFIELD, NV, 94534","No_Match",NA,NA,NA,NA
707209,"5281 VININGS SPRINGS TRL","MABLETON","GA",30126,33.8243258110001,-84.537299934,209,"5281 VININGS SPRINGS TRL, MABLETON, GA, 30126","Match","Non_Exact","5281 VININGS SPRINGS TRL SE, MABLETON, GA, 30126",614169477,"R"
707210,"5281 W 137TH STREET","BROOKPARK","OH",44142,41.416024862,-81.7870882289999,210,"5281 W 137TH STREET, BROOKPARK, OH, 44142","Match","Exact","5281 W 137TH ST, BROOKPARK, OH, 44142",61104083,"L"
707211,"5282 CANARY COURT","CARMEL","IN",46033,39.987768331,-86.071894127,211,"5282 CANARY COURT, CARMEL, IN, 46033","Match","Exact","5282 CANARY CT, CARMEL, IN, 46033",29313555,"L"
707212,"5282 CEDARLAWN DRIVE","PLACENTIA","CA",92870,33.884996578,-117.848791261,212,"5282 CEDARLAWN DRIVE, PLACENTIA, CA, 92870","Match","Exact","5282 CEDARLAWN DR, PLACENTIA, CA, 92870",143995605,"L"
707213,"5282 CHAMPIONSHIP CUP LANE","SPRING HILL","FL",34609,28.508855985,-82.484342462,213,"5282 CHAMPIONSHIP CUP LANE, SPRING HILL, FL, 34609","Match","Exact","5282 CHAMPIONSHIP CUP LN, SPRING HILL, FL, 34609",85450966,"R"
707214,"5282 CHESTNUT LANE","EARLYSVILLE","VA",22936,38.182026298,-78.484430338,214,"5282 CHESTNUT LANE, EARLYSVILLE, VA, 22936","Match","Exact","5282 CHESTNUT LN, EARLYSVILLE, VA, 22936",83363276,"L"
707215,"5282 E THE TOLEDO APT 5","LONG BEACH","CA",90803,33.761751159,-118.131248473,215,"5282 E THE TOLEDO APT 5, LONG BEACH, CA, 90803","Match","Exact","5282 THE TOLEDO, LONG BEACH, CA, 90803",141702757,"R"
707216,"5282 GREENWOOD TERRACE","MACON","GA",31206,32.797240349,-83.7032664979999,216,"5282 GREENWOOD TERRACE, MACON, GA, 31206","Match","Exact","5282 GREENWOOD TER, MACON, GA, 31206",81059959,"R"
707217,"5282 LAKE SHORE ROAD","HAMBURG","NY",14075,42.739498079,-78.9126838939999,217,"5282 LAKE SHORE ROAD, HAMBURG, NY, 14075","Match","Exact","5282 LAKE SHORE RD, HAMBURG, NY, 14075",48343562,"R"
707218,"5282 LAKEROCK DRIVE SW","ATLANTA","GA",30331,NA,NA,218,"5282 LAKEROCK DRIVE SW, ATLANTA, GA, 30331","No_Match",NA,NA,NA,NA
707219,"5282 MABLE VALLEY RD","MABLETON","GA",30126,33.830333898,-84.569104298,219,"5282 MABLE VALLEY RD, MABLETON, GA, 30126","Match","Non_Exact","5282 MAPLE VALLEY RD SW, MABLETON, GA, 30126",17180299,"R"
707220,"5282 MCGAVOCK ROAD","BRENTWOOD","TN",37027,36.018586155,-86.810713286,220,"5282 MCGAVOCK ROAD, BRENTWOOD, TN, 37027","Match","Exact","5282 MCGAVOCK RD, BRENTWOOD, TN, 37027",645511134,"L"
707221,"5282 N CANYON WAY","TUCSON","AZ",85750,32.303132842,-110.82515789,221,"5282 N CANYON WAY, TUCSON, AZ, 85750","Match","Exact","5282 N CANYON WAY, TUCSON, AZ, 85750",121192337,"L"
707222,"5282 RIVER FOREST RD","DUBLIN","OH",43017,40.1331563190001,-83.128767465,222,"5282 RIVER FOREST RD, DUBLIN, OH, 43017","Match","Exact","5282 RIVER FOREST RD, DUBLIN, OH, 43017",218698435,"R"
707223,"5282 S 285TH ST","AUBURN","WA",98001,NA,NA,223,"5282 S 285TH ST, AUBURN, WA, 98001","No_Match",NA,NA,NA,NA
707224,"5282 SAGE RD","HOMEDALE","ID",83628,NA,NA,224,"5282 SAGE RD, HOMEDALE, ID, 83628","No_Match",NA,NA,NA,NA
707225,"5282 SNAKE HOLLOW RD","SNEEDVILLE","TN",37869,36.5357744120001,-83.325779977,225,"5282 SNAKE HOLLOW RD, SNEEDVILLE, TN, 37869","Match","Exact","5282 SNAKE HOLLOW RD, SNEEDVILLE, TN, 37869",42377964,"L"
707226,"5282 TROUPEVILLE ROAD","QUITMAN","GA",31643,30.835275188,-83.456794384,226,"5282 TROUPEVILLE ROAD, QUITMAN, GA, 31643","Match","Non_Exact","5282 TROUPEVILLE HWY, QUITMAN, GA, 31643",634536684,"R"
707227,"5282 WEST 148TH STREET","BROOKPARK","OH",44142,41.4148745840001,-81.799501166,227,"5282 WEST 148TH STREET, BROOKPARK, OH, 44142","Match","Exact","5282 W 148TH ST, BROOKPARK, OH, 44142",61103774,"R"
707228,"5282 WILLIAMS ROAD","TAMPA","FL",33610,27.994344988,-82.318779569,228,"5282 WILLIAMS ROAD, TAMPA, FL, 33610","Match","Exact","5282 WILLIAMS RD, TAMPA, FL, 33610",104540783,"R"
707229,"5282 WYNTERCREEK WAY","DUNWOODY","GA",30338,33.9549852270001,-84.331564187,229,"5282 WYNTERCREEK WAY, DUNWOODY, GA, 30338","Match","Exact","5282 WYNTERCREEK WAY, DUNWOODY, GA, 30338",23355965,"L"
707230,"5283 BELLE STAR DRIVE","COLORADO SPRINGS","CO",80922,38.908636415,-104.697994563,230,"5283 BELLE STAR DRIVE, COLORADO SPRINGS, CO, 80922","Match","Exact","5283 BELLE STAR DR, COLORADO SPRINGS, CO, 80922",105574923,"L"
707231,"5283 BELLE STAR DRIVE","EDMOND","TX",78542,NA,NA,231,"5283 BELLE STAR DRIVE, EDMOND, TX, 78542","No_Match",NA,NA,NA,NA
707232,"5283 CEDONIA AVE","BALTIMORE","MD",21206,39.328750288,-76.5334253,232,"5283 CEDONIA AVE, BALTIMORE, MD, 21206","Match","Exact","5283 CEDONIA AVE, BALTIMORE, MD, 21206",206455643,"R"
707233,"5283 GERMANTOWN AVE APT 2R","PHILADELPHIA","PA",19144,40.0321739190001,-75.168932103,233,"5283 GERMANTOWN AVE APT 2R, PHILADELPHIA, PA, 19144","Match","Exact","5283 GERMANTOWN AVE, PHILADELPHIA, PA, 19144",639164075,"R"
707234,"5283 HARTFORD CIRCLE","NORTH CHARLESTON","SC",29405,32.891983662,-79.998015144,234,"5283 HARTFORD CIRCLE, NORTH CHARLESTON, SC, 29405","Match","Exact","5283 HARTFORD CIR, N CHARLESTON, SC, 29405",108893725,"R"
707235,"5283 HOLLYWOOD ROAD","APPOMATTOX","VA",24522,37.3814785490001,-78.7066212569999,235,"5283 HOLLYWOOD ROAD, APPOMATTOX, VA, 24522","Match","Exact","5283 HOLLYWOOD RD, APPOMATTOX, VA, 24522",197939544,"L"
707236,"5283 LAKE WORTH RD UNIT 3","GREENACRES","FL",33463,26.6189747020001,-80.1262470199999,236,"5283 LAKE WORTH RD UNIT 3, GREENACRES, FL, 33463","Match","Exact","5283 LAKE WORTH RD, GREENACRES, FL, 33463",115533209,"L"
707237,"5283 MAPLE VALLEY RD","MABLETON","GA",30126,33.830331669,-84.569091375,237,"5283 MAPLE VALLEY RD, MABLETON, GA, 30126","Match","Non_Exact","5283 MAPLE VALLEY RD SW, MABLETON, GA, 30126",17180299,"L"
707238,"5283 N LYCEE","WICHITA","KS",67226,NA,NA,238,"5283 N LYCEE, WICHITA, KS, 67226","Tie",NA,NA,NA,NA
707239,"5283 OAK ORCHARD RD","ALBION","NY",14411,43.1573861800001,-78.157414881,239,"5283 OAK ORCHARD RD, ALBION, NY, 14411","Match","Exact","5283 OAK ORCHARD RD, ALBION, NY, 14411",48805205,"R"
707240,"5283 PEPPER DRIVE","HUBER HEIGHTS","OH",45424,39.830403161,-84.1280004939999,240,"5283 PEPPER DRIVE, HUBER HEIGHTS, OH, 45424","Match","Exact","5283 PEPPER DR, HUBER HEIGHTS, OH, 45424",143573770,"L"
707241,"5283 REDWOOD STREET","SAN DIEGO","CA",92105,32.7377128430001,-117.081864724,241,"5283 REDWOOD STREET, SAN DIEGO, CA, 92105","Match","Exact","5283 REDWOOD ST, SAN DIEGO, CA, 92105",195350749,"R"
707242,"5283 WINCHESTER DR","TROY","MI",48085,42.5949705670001,-83.1459019489999,242,"5283 WINCHESTER DR, TROY, MI, 48085","Match","Exact","5283 WINCHESTER DR, TROY, MI, 48085",69742481,"L"
707243,"52830 182ND ST","GARDEN CITY","MN",56034,44.0722899510001,-94.155243594,243,"52830 182ND ST, GARDEN CITY, MN, 56034","Match","Exact","52830 182 ST, GARDEN CITY, MN, 56034",647935672,"L"
707244,"52831 W BALLOU ROAD","MILTON FREEWATER","OR",97862,45.987464817,-118.409555604,244,"52831 W BALLOU ROAD, MILTON FREEWATER, OR, 97862","Match","Exact","52831 W BALLOU RD, MILTON FREEWATER, OR, 97862",170398713,"L"
707245,"52838 TURNBERRY DR","CHESTERFIELD","MI",48051,42.685048937,-82.819526234,245,"52838 TURNBERRY DR, CHESTERFIELD, MI, 48051","Match","Exact","52838 TURNBERRY DR, CHESTERFIELD, MI, 48051",110706520,"L"
707246,"5284 BLACK OAK DRIVE","STOCKTON","CA",95212,38.048223695,-121.250432464,246,"5284 BLACK OAK DRIVE, STOCKTON, CA, 95212","Match","Non_Exact","5284 E BLACK OAK DR, STOCKTON, CA, 95212",133917289,"R"
707247,"5284 BLACK ROAD","MILTON","FL",32583,30.624172324,-86.992219437,247,"5284 BLACK ROAD, MILTON, FL, 32583","Match","Exact","5284 BLACK RD, MILTON, FL, 32583",647835620,"L"
707248,"5284 BRUSH CREEK DR","COLUMBUS","IN",47201,39.129597072,-85.8609661579999,248,"5284 BRUSH CREEK DR, COLUMBUS, IN, 47201","Match","Exact","5284 BRUSH CREEK DR, COLUMBUS, IN, 47201",30984455,"L"
707249,"5284 FLOYD RD","MABLETON","GA",30126,33.826058559,-84.5758981769999,249,"5284 FLOYD RD, MABLETON, GA, 30126","Match","Non_Exact","5284 FLOYD RD SW, MABLETON, GA, 30126",17222714,"R"
707250,"5284 FLOYD ROAD PO BOX 708","MABLETON","GA",30126,33.826058559,-84.5758981769999,250,"5284 FLOYD ROAD PO BOX 708, MABLETON, GA, 30126","Match","Non_Exact","5284 FLOYD RD SW, MABLETON, GA, 30126",17222714,"R"
707251,"5284 FLOYD ROAD SW UNIT 1836","MABLETON","GA",30126,33.826058559,-84.5758981769999,251,"5284 FLOYD ROAD SW UNIT 1836, MABLETON, GA, 30126","Match","Exact","5284 FLOYD RD SW, MABLETON, GA, 30126",17222714,"R"
707252,"5284 HIPPS HOLLOW ROAD","EAU CLAIRE","MI",49111,41.979814692,-86.3305521889999,252,"5284 HIPPS HOLLOW ROAD, EAU CLAIRE, MI, 49111","Match","Exact","5284 HIPPS HOLLOW RD, EAU CLAIRE, MI, 49111",119976317,"L"
707253,"5284 KESTREL CROSSING DR","ALEXANDRIA","VA",22312,38.8061492510001,-77.154441037,253,"5284 KESTREL CROSSING DR, ALEXANDRIA, VA, 22312","Match","Exact","5284 KESTREL CROSSING DR, ALEXANDRIA, VA, 22312",619908916,"R"
707254,"5284 LONGACRE AVE","MEMPHIS","TN",38134,35.212981402,-89.887501511,254,"5284 LONGACRE AVE, MEMPHIS, TN, 38134","Match","Exact","5284 LONGACRE AVE, MEMPHIS, TN, 38134",72923663,"L"
707255,"5284 LONGACRE","MEMPHIS","TN",38134,35.212981402,-89.887501511,255,"5284 LONGACRE, MEMPHIS, TN, 38134","Match","Non_Exact","5284 LONGACRE AVE, MEMPHIS, TN, 38134",72923663,"L"
707256,"5284 PORTLAND WOODS","WHITE BEAR LAKE","MN",55110,45.1012697630001,-92.9881727,256,"5284 PORTLAND WOODS, WHITE BEAR LAKE, MN, 55110","Match","Exact","5284 PORTLAND WOODS, WHITE BEAR LAKE, MN, 55110",97657419,"L"
707257,"5284 RIVERWALK PLACE","ATLANTA","GA",30349,33.613294669,-84.439710325,257,"5284 RIVERWALK PLACE, ATLANTA, GA, 30349","Match","Non_Exact","5284 RIVER WALK PL, ATLANTA, GA, 30349",642639921,"L"
707258,"5284 SKYSTONE DRIVE","SPARKS","NV",89436,39.586938751,-119.693231337,258,"5284 SKYSTONE DRIVE, SPARKS, NV, 89436","Match","Exact","5284 SKYSTONE DR, SPARKS, NV, 89436",632648590,"R"
707259,"5284 SOUTH LISBON WAY","CENTENNIAL","CO",80015,39.620045035,-104.745303195,259,"5284 SOUTH LISBON WAY, CENTENNIAL, CO, 80015","Match","Exact","5284 S LISBON WAY, CENTENNIAL, CO, 80015",634932352,"R"
707260,"5284 VAN VLEET RD","SWARTZ CREEK","MI",48473,42.9486887400001,-83.8713855029999,260,"5284 VAN VLEET RD, SWARTZ CREEK, MI, 48473","Match","Exact","5284 VAN VLEET RD, SWARTZ CREEK, MI, 48473",69572010,"R"
707261,"52846 CR 7","ELKHART","IN",46514,41.7265200780001,-85.987292241,261,"52846 CR 7, ELKHART, IN, 46514","Match","Exact","52846 CO RD 7, ELKHART, IN, 46514",604670612,"R"
707262,"5285 101 AVE N","PINELLAS PARK","FM",33781,NA,NA,262,"5285 101 AVE N, PINELLAS PARK, FM, 33781","No_Match",NA,NA,NA,NA
707263,"5285 14TH ST SW","CANTON","OH",44710,40.7887206820001,-81.451241027,263,"5285 14TH ST SW, CANTON, OH, 44710","Match","Exact","5285 14TH ST SW, CANTON, OH, 44710",64674929,"R"
707264,"5285 86TH AVE SW","MOTT","ND",58646,46.6455931470001,-102.264545842,264,"5285 86TH AVE SW, MOTT, ND, 58646","Match","Exact","5285 86TH AVE SW, MOTT, ND, 58646",199282433,"R"
707265,"5285 ASHLEY ST","GROSSE POINTE","MI",48236,42.4149112640001,-82.915847431,265,"5285 ASHLEY ST, GROSSE POINTE, MI, 48236","Match","Exact","5285 ASHLEY ST, GROSSE POINTE, MI, 48236",95488000,"L"
707266,"5285 AUBURN RD NE","SALEM","OR",97317,44.9363019790001,-122.95277344,266,"5285 AUBURN RD NE, SALEM, OR, 97317","Match","Exact","5285 AUBURN RD NE, SALEM, OR, 97317",613683962,"L"
707267,"5285 BRIDLE POINT PARKWAY","SNELLVILLE","GA",30039,33.776760515,-84.027323799,267,"5285 BRIDLE POINT PARKWAY, SNELLVILLE, GA, 30039","Match","Non_Exact","5285 BRIDLE POINT PKWY SW, SNELLVILLE, GA, 30039",639372521,"R"
707268,"5285 CYPRESS BAY DR","KALAMAZOO","MI",49009,NA,NA,268,"5285 CYPRESS BAY DR, KALAMAZOO, MI, 49009","No_Match",NA,NA,NA,NA
707269,"5285 CYPRESS DRIVE","LAKE PARK","GA",31636,30.6650398730001,-83.2467623319999,269,"5285 CYPRESS DRIVE, LAKE PARK, GA, 31636","Match","Exact","5285 CYPRESS DR, LAKE PARK, GA, 31636",636019234,"L"
707270,"5285 DIAMOND HEIGHTS BLVD APT 213","SAN FRANCISCO","CA",94131,37.743947431,-122.438099428,270,"5285 DIAMOND HEIGHTS BLVD APT 213, SAN FRANCISCO, CA, 94131","Match","Exact","5285 DIAMOND HEIGHTS BLVD, SAN FRANCISCO, CA, 94131",192284581,"L"
707271,"5285 DISCOVERY DRIVE SE","KENTWOOD","MI",49508,42.867448408,-85.608666526,271,"5285 DISCOVERY DRIVE SE, KENTWOOD, MI, 49508","Match","Exact","5285 DISCOVERY DR SE, KENTWOOD, MI, 49508",12482859,"L"
707272,"5285 E WILLIAMS CIRCLE SUITE 4500","TUCSON","AZ",85749,32.2205160950001,-110.879836966,272,"5285 E WILLIAMS CIRCLE SUITE 4500, TUCSON, AZ, 85749","Match","Non_Exact","5285 WILLIAMS CIR, TUCSON, AZ, 85711",121180240,"L"
707273,"5285 EAST HILLTOP RD","GREENSBORO","NC",27407,36.0387890370001,-79.909508737,273,"5285 EAST HILLTOP RD, GREENSBORO, NC, 27407","Match","Non_Exact","5285 HILLTOP RD, GREENSBORO, NC, 27407",635539724,"L"
707274,"5285 FLAT SHOALS PARKWAY","DECATUR","GA",30034,33.683677038,-84.2135565739999,274,"5285 FLAT SHOALS PARKWAY, DECATUR, GA, 30034","Match","Exact","5285 FLAT SHOALS PKWY, DECATUR, GA, 30034",23382301,"R"
707275,"5285 HILLTOP ROAD APT K","GREENSBORO","NC",27407,36.0387890370001,-79.909508737,275,"5285 HILLTOP ROAD APT K, GREENSBORO, NC, 27407","Match","Exact","5285 HILLTOP RD, GREENSBORO, NC, 27407",635539724,"L"
707276,"5285 LAKE AVENUE","ORCHARD PARK","NY",14127,42.796627346,-78.788178924,276,"5285 LAKE AVENUE, ORCHARD PARK, NY, 14127","Match","Exact","5285 LAKE AVE, ORCHARD PARK, NY, 14127",48344612,"R"
707277,"5285 MANCHESTER DRIVE  APT 307","MAPLE PLAIN","MN",55359,45.0119275440001,-93.6604367589999,277,"5285 MANCHESTER DRIVE  APT 307, MAPLE PLAIN, MN, 55359","Match","Exact","5285 MANCHESTER DR, MAPLE PLAIN, MN, 55359",43838597,"L"
707278,"5285 MYERS RD","WEST SALEM","OH",44287,40.8726879800001,-82.0332913359999,278,"5285 MYERS RD, WEST SALEM, OH, 44287","Match","Exact","5285 MYERS RD, WEST SALEM, OH, 44287",647824347,"L"
707279,"5285 NATORP BLVD APT 100","MASON","OH",45040,39.3007350240001,-84.3189181179999,279,"5285 NATORP BLVD APT 100, MASON, OH, 45040","Match","Exact","5285 NATORP BLVD, MASON, OH, 45040",159035425,"L"
707280,"5285 NORTHFIELD ROAD","BEDFORD HEIGHTS","OH",44146,41.4149796410001,-81.5273433309999,280,"5285 NORTHFIELD ROAD, BEDFORD HEIGHTS, OH, 44146","Match","Exact","5285 NORTHFIELD RD, BEDFORD HEIGHTS, OH, 44146",613728928,"L"
707281,"5285 NW 6TH DRIVE","DES MOINES","IA",50313,41.6567180230001,-93.628596793,281,"5285 NW 6TH DRIVE, DES MOINES, IA, 50313","Match","Exact","5285 NW 6TH DR, DES MOINES, IA, 50313",641423397,"R"
707282,"5285 RIO LOBO DR","SAN JOSE","CA",95136,37.2593929450001,-121.823280945,282,"5285 RIO LOBO DR, SAN JOSE, CA, 95136","Match","Exact","5285 RIO LOBO DR, SAN JOSE, CA, 95136",122970189,"R"
707283,"5285 ROANOKE DRIVE","WELDON SPRINGS","MO",63304,38.7192263090001,-90.645768877,283,"5285 ROANOKE DRIVE, WELDON SPRINGS, MO, 63304","Match","Exact","5285 ROANOKE DR, WELDON SPRING, MO, 63304",100055441,"L"
707284,"5285 SWALLOW AVE","KALAMAZOO","MI",49009,42.194202896,-85.653789016,284,"5285 SWALLOW AVE, KALAMAZOO, MI, 49009","Match","Exact","5285 SWALLOW AVE, KALAMAZOO, MI, 49009",12225321,"L"
707285,"5285 SWALLOW AVENUE","KALAMAZOO","MI",49009,42.194202896,-85.653789016,285,"5285 SWALLOW AVENUE, KALAMAZOO, MI, 49009","Match","Exact","5285 SWALLOW AVE, KALAMAZOO, MI, 49009",12225321,"L"
707286,"5285 TOWNSHIP RD 19","GLENFORD","OH",43739,NA,NA,286,"5285 TOWNSHIP RD 19, GLENFORD, OH, 43739","No_Match",NA,NA,NA,NA
707287,"5285 WILLOW LN","BUNNELL","FL",32110,29.4624406360001,-81.402765594,287,"5285 WILLOW LN, BUNNELL, FL, 32110","Match","Exact","5285 WILLOW LN, BUNNELL, FL, 32110",94940775,"R"
707288,"5285-12 MAIN STREET","SHALLOTTE","NC",28470,33.9634610750001,-78.3977246329999,288,"5285-12 MAIN STREET, SHALLOTTE, NC, 28470","Match","Exact","5285 MAIN ST, SHALLOTTE, NC, 28470",638018580,"R"
707289,"5285-20 MAIN STREET","SHALLOTTE","NC",28470,33.9634610750001,-78.3977246329999,289,"5285-20 MAIN STREET, SHALLOTTE, NC, 28470","Match","Exact","5285 MAIN ST, SHALLOTTE, NC, 28470",638018580,"R"
707290,"52853 MUIRFIELD","CHESTERFIELD","MI",48051,42.685808008,-82.818444612,290,"52853 MUIRFIELD, CHESTERFIELD, MI, 48051","Match","Non_Exact","52853 MUIRFIELD DR, CHESTERFIELD, MI, 48051",110706500,"R"
707291,"52854 WEST BARREL ROAD","MARICOPA","AZ",85139,32.915480061,-112.135714923,291,"52854 WEST BARREL ROAD, MARICOPA, AZ, 85139","Match","Exact","52854 W BARREL RD, MARICOPA, AZ, 85139",648054435,"L"
707292,"5286 ADAMS PLACE","COLORADO CITY","CO",81019,NA,NA,292,"5286 ADAMS PLACE, COLORADO CITY, CO, 81019","No_Match",NA,NA,NA,NA
707293,"5286 BLISS RD","BALLSTON SPA","NY",12020,43.0207686900001,-73.9714136059999,293,"5286 BLISS RD, BALLSTON SPA, NY, 12020","Match","Exact","5286 BLISS RD, BALLSTON SPA, NY, 12020",18764217,"R"
707294,"5286 CEDAR LANE UNIT 193","COLUMBIA","MD",21044,39.2288493450001,-76.889427454,294,"5286 CEDAR LANE UNIT 193, COLUMBIA, MD, 21044","Match","Exact","5286 CEDAR LN, COLUMBIA, MD, 21044",158960320,"R"
707295,"5286 COUNTY ROAD 11","LORETTO","MN",55357,45.050993513,-93.6589770369999,295,"5286 COUNTY ROAD 11, LORETTO, MN, 55357","Match","Exact","5286 CO RD 11, LORETTO, MN, 55357",43817166,"L"
707296,"5286 CRESTLINE WAY","PLEASANTON","CA",94566,37.67546444,-121.887127459,296,"5286 CRESTLINE WAY, PLEASANTON, CA, 94566","Match","Exact","5286 CRESTLINE WAY, PLEASANTON, CA, 94566",125032088,"L"
707297,"5286 DUNEWOOD DRIVE","FLORENCE","OR",97439,44.0215930690001,-124.104526587,297,"5286 DUNEWOOD DRIVE, FLORENCE, OR, 97439","Match","Exact","5286 DUNEWOOD DR, FLORENCE, OR, 97439",605454283,"R"
707298,"5286 GEMSTONE WAY","MEMPHIS","TN",38109,35.004093604,-90.086714055,298,"5286 GEMSTONE WAY, MEMPHIS, TN, 38109","Match","Exact","5286 GEMSTONE WAY, MEMPHIS, TN, 38109",72964629,"L"
707299,"5286 JOAN OF ARC PLACE","COLLEGE PARK","GA",30349,33.609588435,-84.457258214,299,"5286 JOAN OF ARC PLACE, COLLEGE PARK, GA, 30349","Match","Exact","5286 JOAN OF ARC PL, COLLEGE PARK, GA, 30349",23311133,"L"
707300,"5286 LAKE HILLS STREET SE","LACEY","WA",98513,47.0009296280001,-122.802742647,300,"5286 LAKE HILLS STREET SE, LACEY, WA, 98513","Match","Exact","5286 LAKE HILLS ST SE, LACEY, WA, 98513",180968687,"R"
707301,"5286 MARIGOLD LAND","SANTA ROSA","CA",95403,38.5127858810001,-122.75524479,301,"5286 MARIGOLD LAND, SANTA ROSA, CA, 95403","Match","Non_Exact","5286 MARIGOLD LN, SANTA ROSA, CA, 95403",67489097,"L"
707302,"5286 W FIREOPAL WAY","TUCSON","AZ",85742,32.3733157180001,-111.077946977,302,"5286 W FIREOPAL WAY, TUCSON, AZ, 85742","Match","Exact","5286 W FIREOPAL WAY, TUCSON, AZ, 85742",606809047,"L"
707303,"5286 W LUNAMEER LN","HERRIMAN","UT",84096,40.5086935640001,-112.016740843,303,"5286 W LUNAMEER LN, HERRIMAN, UT, 84096","Match","Exact","5286 W LUNAMEER LN, HERRIMAN, UT, 84096",645876207,"L"
707304,"5286 WHITE IBIS DRIVE","NORTH PORT","FL",34287,27.063079756,-82.2162923719999,304,"5286 WHITE IBIS DRIVE, NORTH PORT, FL, 34287","Match","Exact","5286 WHITE IBIS DR, NORTH PORT, FL, 34287",16433636,"R"
707305,"5286 WOODRUN ON TILLERY","MT. GILEAD","NC",27306,NA,NA,305,"5286 WOODRUN ON TILLERY, MT. GILEAD, NC, 27306","No_Match",NA,NA,NA,NA
707306,"52867 RACHAEL CT","MIDDLEBURY","IN",46540,41.727191713,-85.713585515,306,"52867 RACHAEL CT, MIDDLEBURY, IN, 46540","Match","Exact","52867 RACHAEL CT, MIDDLEBURY, IN, 46540",604691852,"R"
707307,"52869 MARKS ST","SOUTH BEND","IN",46637,41.7256078610001,-86.2397074849999,307,"52869 MARKS ST, SOUTH BEND, IN, 46637","Match","Exact","52869 MARKS ST, SOUTH BEND, IN, 46637",8054349,"R"
707308,"5287 BLUE STONE DRIVE","MEMPHIS","TN",38125,35.0042062420001,-89.824663161,308,"5287 BLUE STONE DRIVE, MEMPHIS, TN, 38125","Match","Exact","5287 BLUE STONE DR, MEMPHIS, TN, 38125",618713166,"R"
707309,"5287 BLUECRAB LANE","WALDORF","MD",20602,38.5594995540001,-76.912221414,309,"5287 BLUECRAB LANE, WALDORF, MD, 20602","Match","Non_Exact","5287 BLUE CRAB LN, WALDORF, MD, 20602",648213617,"L"
707310,"5287 E TARTERS FERRY LN","SMITHFIELD","IL",61477,40.4564105320001,-90.3417951069999,310,"5287 E TARTERS FERRY LN, SMITHFIELD, IL, 61477","Match","Exact","5287 TARTERS FERRY LN, SMITHFIELD, IL, 61477",632400784,"L"
707311,"5287 GREYSTONE WAY","BIRMINGHAM","AL",35233,33.4321810110001,-86.652993188,311,"5287 GREYSTONE WAY, BIRMINGHAM, AL, 35233","Match","Non_Exact","5287 GREYSTONE WAY, BIRMINGHAM, AL, 35242",641201085,"L"
707312,"5287 GREYSTONE WAY","BIRMINGHAM","AL",35242,33.4321810110001,-86.652993188,312,"5287 GREYSTONE WAY, BIRMINGHAM, AL, 35242","Match","Exact","5287 GREYSTONE WAY, BIRMINGHAM, AL, 35242",641201085,"L"
707313,"5287 HILLTOP ROAD APT X","GREENSBORO","NC",27407,36.0388138330001,-79.9096220229999,313,"5287 HILLTOP ROAD APT X, GREENSBORO, NC, 27407","Match","Exact","5287 HILLTOP RD, GREENSBORO, NC, 27407",635539724,"L"
707314,"5287 HOLDEN RD","COCOA","FL",32927,28.467523299,-80.80987686,314,"5287 HOLDEN RD, COCOA, FL, 32927","Match","Exact","5287 HOLDEN RD, COCOA, FL, 32927",93961935,"R"
707315,"5287 JENNIE RUN LN","LA PLATA","MD",20646,38.566317815,-76.990229068,315,"5287 JENNIE RUN LN, LA PLATA, MD, 20646","Match","Exact","5287 JENNIE RUN LN, LA PLATA, MD, 20646",25379361,"R"
707316,"5287 THURSBY ROAD","NORTH CANTON","OH",44720,40.9202648250001,-81.47724569,316,"5287 THURSBY ROAD, NORTH CANTON, OH, 44720","Match","Exact","5287 THURSBY RD, NORTH CANTON, OH, 44720",61370549,"L"
707317,"5287 W RAMONA AVE","FRESNO","CA",93722,36.7857901780001,-119.885966802,317,"5287 W RAMONA AVE, FRESNO, CA, 93722","Match","Exact","5287 W RAMONA AVE, FRESNO, CA, 93722",197645655,"L"
707318,"52874 SAWMILL CREEK DRIVE","MACOMB TWP","MI",48042,42.6849064410001,-82.962837613,318,"52874 SAWMILL CREEK DRIVE, MACOMB TWP, MI, 48042","Match","Non_Exact","52874 SAWMILL CREEK DR, MACOMB, MI, 48042",110710923,"R"
707319,"52875 844 RD","OAKDALE","NE",68761,42.060857492,-97.93991081,319,"52875 844 RD, OAKDALE, NE, 68761","Match","Exact","52875 844TH RD, OAKDALE, NE, 68761",161687264,"L"
707320,"5288 A PARK HIGHLANDS BLVD","CONCORD","CA",94521,37.950886719,-121.963691009,320,"5288 A PARK HIGHLANDS BLVD, CONCORD, CA, 94521","Match","Exact","5288 PARK HIGHLANDS BLVD, CONCORD, CA, 94521",607795483,"R"
707321,"5288 ASPEN WAY","OLIVEHURST","CA",95961,39.1064249990001,-121.559319626,321,"5288 ASPEN WAY, OLIVEHURST, CA, 95961","Match","Exact","5288 ASPEN WAY, OLIVEHURST, CA, 95961",106941870,"L"
707322,"5288 COCO DR","HUBER HEIGHTS","OH",45424,39.831958,-84.143258267,322,"5288 COCO DR, HUBER HEIGHTS, OH, 45424","Match","Exact","5288 COCO DR, HUBER HEIGHTS, OH, 45424",143628971,"R"
707323,"5288 DARE AVENUE","MEMPHIS","TN",38134,35.2112132840001,-89.887047789,323,"5288 DARE AVENUE, MEMPHIS, TN, 38134","Match","Exact","5288 DARE AVE, MEMPHIS, TN, 38134",72923771,"L"
707324,"5288 DUCKWEED ROAD","LAKE WORTH","FL",33449,26.602786173,-80.236387416,324,"5288 DUCKWEED ROAD, LAKE WORTH, FL, 33449","Match","Exact","5288 DUCKWEED RD, LAKE WORTH, FL, 33449",115334783,"L"
707325,"5288 E COLLINS RD","PORT ORCHARD","WA",98366,47.5483652980001,-122.582974214,325,"5288 E COLLINS RD, PORT ORCHARD, WA, 98366","Match","Exact","5288 E COLLINS RD, PORT ORCHARD, WA, 98366",187664546,"R"
707326,"5288 KNIFLEY RD","ELK HORN","KY",42733,37.275286285,-85.2347857729999,326,"5288 KNIFLEY RD, ELK HORN, KY, 42733","Match","Exact","5288 KNIFLEY RD, ELK HORN, KY, 42733",35251298,"R"
707327,"5288 MOHICAN WAY","ANTIOCH","CA",94531,37.956543282,-121.773947838,327,"5288 MOHICAN WAY, ANTIOCH, CA, 94531","Match","Exact","5288 MOHICAN WAY, ANTIOCH, CA, 94531",192114627,"R"
707328,"5288 NW 186TH STREET","MIAMI","FL",33055,25.9423492240001,-80.28701632,328,"5288 NW 186TH STREET, MIAMI, FL, 33055","Match","Non_Exact","5288 NW 186TH ST, MIAMI GARDENS, FL, 33055",116064037,"L"
707329,"5288 PHEASANT DRIVE","ORIENT","OH",43146,39.8286125500001,-83.149333525,329,"5288 PHEASANT DRIVE, ORIENT, OH, 43146","Match","Exact","5288 PHEASANT DR, ORIENT, OH, 43146",218637958,"L"
707330,"5288 SAN FRANCESCA DR","CAMARILLO","CA",93012,34.227025467,-118.998290535,330,"5288 SAN FRANCESCA DR, CAMARILLO, CA, 93012","Match","Exact","5288 SAN FRANCESCA DR, CAMARILLO, CA, 93012",110018916,"L"
707331,"5288 SUMMERLIN COMMONS WAY 901","FORT MYERS","FL",33907,26.5789453880001,-81.8783104619999,331,"5288 SUMMERLIN COMMONS WAY 901, FORT MYERS, FL, 33907","Match","Non_Exact","5288 SUMMERLIN COMMONS WAY, FORT MYERS, FL, 33919",118128403,"L"
707332,"5288 SW 69 PL","MIAMI","FL",33155,25.724685972,-80.3073545459999,332,"5288 SW 69 PL, MIAMI, FL, 33155","Match","Exact","5288 SW 69TH PL, MIAMI, FL, 33155",116045049,"R"
707333,"5288 VILLAGE DRIVE","OCEANSIDE","CA",92057,33.2759649490001,-117.291192106,333,"5288 VILLAGE DRIVE, OCEANSIDE, CA, 92057","Match","Exact","5288 VILLAGE DR, OCEANSIDE, CA, 92057",612853829,"L"
707334,"5288 WOLF RUN DRIVE","GAHANNA","OH",43230,40.062844925,-82.880428835,334,"5288 WOLF RUN DRIVE, GAHANNA, OH, 43230","Match","Exact","5288 WOLF RUN DR, GAHANNA, OH, 43230",218637182,"L"
707335,"52885 SHELLBARK","SOUTH BEND","IN",46628,41.7247418530001,-86.2796723179999,335,"52885 SHELLBARK, SOUTH BEND, IN, 46628","Match","Non_Exact","52885 SHELLBARK AVE, SOUTH BEND, IN, 46628",8099153,"R"
707336,"5289 ABBIE WOODS COVE","MEMPHIS","TN",38120,35.144093207,-89.884644602,336,"5289 ABBIE WOODS COVE, MEMPHIS, TN, 38120","Match","Exact","5289 ABBIE WOODS COVE, MEMPHIS, TN, 38120",607424221,"R"
707337,"5289 AETNA AVE","MONTROSE","MN",55363,45.0755573180001,-93.879221545,337,"5289 AETNA AVE, MONTROSE, MN, 55363","Match","Non_Exact","5289 AETNA AVE SE, MONTROSE, MN, 55363",43991339,"L"
707338,"5289 ALAMOSA PARK DRIVE","ESCONDIDO","CA",92057,33.2428434510001,-117.278976439,338,"5289 ALAMOSA PARK DRIVE, ESCONDIDO, CA, 92057","Match","Non_Exact","5289 ALAMOSA PARK DR, OCEANSIDE, CA, 92057",195750633,"L"
707339,"5289 CANTERBURY DR","SAN DIEGO","CA",92116,32.7734206420001,-117.107513113,339,"5289 CANTERBURY DR, SAN DIEGO, CA, 92116","Match","Exact","5289 CANTERBURY DR, SAN DIEGO, CA, 92116",195322179,"R"
707340,"5289 EISENHOWER RD","COLUMBUS","OH",43229,40.074068847,-82.990802816,340,"5289 EISENHOWER RD, COLUMBUS, OH, 43229","Match","Exact","5289 EISENHOWER RD, COLUMBUS, OH, 43229",218686189,"L"
707341,"5289 FENN ROAD","SMITHDALE","MS",39664,NA,NA,341,"5289 FENN ROAD, SMITHDALE, MS, 39664","No_Match",NA,NA,NA,NA
707342,"5289 LAKESIDE DRIVE","MASON","OH",45040,39.3507378910001,-84.310093019,342,"5289 LAKESIDE DRIVE, MASON, OH, 45040","Match","Exact","5289 LAKESIDE DR, MASON, OH, 45040",159046365,"L"
707343,"5289 LONGSHADOW DR","WESTERVILLE","OH",43081,40.0815882800001,-82.879849456,343,"5289 LONGSHADOW DR, WESTERVILLE, OH, 43081","Match","Exact","5289 LONGSHADOW DR, WESTERVILLE, OH, 43081",135750643,"R"
707344,"5289 OAKLAND SANG RUN ROAD","OAKLAND","MD",21550,39.4985570590001,-79.398273033,344,"5289 OAKLAND SANG RUN ROAD, OAKLAND, MD, 21550","Match","Exact","5289 OAKLAND SANG RUN RD, OAKLAND, MD, 21550",646639979,"L"
707345,"5289 RINGER ROAD","ST LOUIS","MO",63129,38.4836282040001,-90.3409406769999,345,"5289 RINGER ROAD, ST LOUIS, MO, 63129","Match","Exact","5289 RINGER RD, SAINT LOUIS, MO, 63129",604546141,"R"
707346,"5289 ROSEWOOD PLACE","FAIRBURN","GA",30213,33.607795217,-84.59430714,346,"5289 ROSEWOOD PLACE, FAIRBURN, GA, 30213","Match","Exact","5289 ROSEWOOD PL, FAIRBURN, GA, 30213",644645671,"L"
707347,"5289 STALLION RIDGE DRIVE","HELENA","MT",59602,46.6745713620001,-112.159903793,347,"5289 STALLION RIDGE DRIVE, HELENA, MT, 59602","Match","Exact","5289 STALLION RIDGE DR, HELENA, MT, 59602",617979758,"R"
707348,"5289 STEUBEN DRIVE","MEMPHIS","TN",38134,35.2192284500001,-89.887066842,348,"5289 STEUBEN DRIVE, MEMPHIS, TN, 38134","Match","Exact","5289 STEUBEN DR, MEMPHIS, TN, 38134",72923597,"R"
707349,"5289 STONEBUSH TERRACE SUITE A","STONE MOUNTAIN","GA",30083,33.7918194910001,-84.171874722,349,"5289 STONEBUSH TERRACE SUITE A, STONE MOUNTAIN, GA, 30083","Match","Exact","5289 STONEBUSH TER, STONE MOUNTAIN, GA, 30083",23379487,"L"
707350,"5289 SW 116TH PL","OCALA","FL",34476,29.053499704,-82.206586746,350,"5289 SW 116TH PL, OCALA, FL, 34476","Match","Exact","5289 SW 116TH PL, OCALA, FL, 34476",608598685,"L"
707351,"5289 W ASHCROFT AVE","FRESNO","CA",93722,36.798228012,-119.886048377,351,"5289 W ASHCROFT AVE, FRESNO, CA, 93722","Match","Exact","5289 W ASHCROFT AVE, FRESNO, CA, 93722",197616223,"R"
707352,"52895 NW 7TH STREET","SCAPPOOSE","OR",97056,45.7634563620001,-122.884974693,352,"52895 NW 7TH STREET, SCAPPOOSE, OR, 97056","Match","Exact","52895 NW 7TH ST, SCAPPOOSE, OR, 97056",158082122,"R"
707353,"529  RIVER STREET","NEWPORT","TN",37821,35.966704022,-83.1757618939999,353,"529  RIVER STREET, NEWPORT, TN, 37821","Match","Exact","529 RIVER ST, NEWPORT, TN, 37821",132784102,"L"
707354,"529 1/2 W 90TH ST","LOS ANGELES","CA",90044,33.9550957920001,-118.283714625,354,"529 1/2 W 90TH ST, LOS ANGELES, CA, 90044","Match","Exact","529 W 90TH ST, LOS ANGELES, CA, 90044",142661763,"R"
707355,"529 35TH ST","SPRINGFIELD","OR",97477,44.0497504630001,-122.976302419,355,"529 35TH ST, SPRINGFIELD, OR, 97477","Match","Non_Exact","529 35TH ST, SPRINGFIELD, OR, 97478",605384974,"R"
707356,"529 3RD STREET SE","MINOT","ND",58701,48.231176878,-101.28843666,356,"529 3RD STREET SE, MINOT, ND, 58701","Match","Exact","529 3RD ST SE, MINOT, ND, 58701",200489893,"R"
707357,"529 4TH ST","PAWNEE CITY","NE",68420,40.106413651,-96.15528498,357,"529 4TH ST, PAWNEE CITY, NE, 68420","Match","Exact","529 4TH ST, PAWNEE CITY, NE, 68420",34452036,"L"
707358,"529 54TH AVENUE","MERIDIAN","MS",39307,32.3603167380001,-88.732755008,358,"529 54TH AVENUE, MERIDIAN, MS, 39307","Match","Exact","529 54TH AVE, MERIDIAN, MS, 39307",195829,"L"
707359,"529 5TH STREET 1R","BROOKLYN","NY",11215,40.668616211,-73.978109723,359,"529 5TH STREET 1R, BROOKLYN, NY, 11215","Match","Exact","529 5TH ST, BROOKLYN, NY, 11215",59078155,"L"
707360,"529 9TH ST NW","CHISHOLM","MN",55719,47.497814804,-92.8867734899999,360,"529 9TH ST NW, CHISHOLM, MN, 55719","Match","Exact","529 9TH ST NW, CHISHOLM, MN, 55719",163229185,"R"
707361,"529 ANNADALE DRIVE","BERWYN","PA",19312,40.023549206,-75.460861958,361,"529 ANNADALE DRIVE, BERWYN, PA, 19312","Match","Exact","529 ANNADALE DR, BERWYN, PA, 19312",179518100,"R"
707362,"529 APPIAN WAY","MATTESON","IL",60443,41.5160138570001,-87.731419735,362,"529 APPIAN WAY, MATTESON, IL, 60443","Match","Exact","529 APPIAN WAY, MATTESON, IL, 60443",112387428,"R"
707363,"529 ASHBY DR","CHARLESTON","IL",61920,39.479938164,-88.1874785909999,363,"529 ASHBY DR, CHARLESTON, IL, 61920","Match","Exact","529 ASHBY DR, CHARLESTON, IL, 61920",5452720,"R"
707364,"529 AZTEC TR","FRANKFORT","KY",40601,38.217306766,-84.837000652,364,"529 AZTEC TR, FRANKFORT, KY, 40601","Match","Exact","529 AZTEC TRL, FRANKFORT, KY, 40601",97046528,"R"
707365,"529 BARKER COLDINE RD 16303","HOUSTON","TX",77094,29.7793161390001,-95.6855181019999,365,"529 BARKER COLDINE RD 16303, HOUSTON, TX, 77094","Match","Non_Exact","529 BARKER-CLODINE RD, HOUSTON, TX, 77094",644874733,"R"
707366,"529 BASHFORD ROAD","VALATIE","NY",12184,42.464055107,-73.612780211,366,"529 BASHFORD ROAD, VALATIE, NY, 12184","Match","Exact","529 BASHFORD RD, VALATIE, NY, 12184",625498703,"L"
707367,"529 BATTELL AVE","MISHAWAKA","IN",46545,NA,NA,367,"529 BATTELL AVE, MISHAWAKA, IN, 46545","No_Match",NA,NA,NA,NA
707368,"529 BEACON ST APT 14","BOSTON","MA",2215,42.350421028,-71.091053543,368,"529 BEACON ST APT 14, BOSTON, MA, 2215","Match","Exact","529 BEACON ST, BOSTON, MA, 02215",638524656,"L"
707369,"529 BEAVER CREEK COVE","DYERSBURG","TN",38024,36.059677483,-89.43115482,369,"529 BEAVER CREEK COVE, DYERSBURG, TN, 38024","Match","Exact","529 BEAVER CREEK COVE, DYERSBURG, TN, 38024",40652838,"R"
707370,"529 BEAVER CREEK ROAD","FLOYD","VA",24091,36.9594409000001,-80.3871070769999,370,"529 BEAVER CREEK ROAD, FLOYD, VA, 24091","Match","Non_Exact","529 BEAVER CREEK RD NW, FLOYD, VA, 24091",79788577,"L"
707371,"529 BEDFORD CT","MECHANICSBURG","PA",17050,40.232778372,-76.9637299,371,"529 BEDFORD CT, MECHANICSBURG, PA, 17050","Match","Exact","529 BEDFORD CT, MECHANICSBURG, PA, 17050",60954333,"L"
707372,"529 BELL RD","LULA","GA",30554,34.327052263,-83.6376985059999,372,"529 BELL RD, LULA, GA, 30554","Match","Exact","529 BELL RD, LULA, GA, 30554",39032098,"R"
707373,"529 BENLO ST","BUCKLEY","WA",98321,NA,NA,373,"529 BENLO ST, BUCKLEY, WA, 98321","No_Match",NA,NA,NA,NA
707374,"529 BENNET WAY","SUMMERSVILLE","WV",26651,NA,NA,374,"529 BENNET WAY, SUMMERSVILLE, WV, 26651","No_Match",NA,NA,NA,NA
707375,"529 BLANCHE CT","HENDERSON","NV",89052,36.0074982690001,-115.09413426,375,"529 BLANCHE CT, HENDERSON, NV, 89052","Match","Exact","529 BLANCHE CT, HENDERSON, NV, 89052",632555215,"R"
707376,"529 BOB WHITE","DESOTO","TX",75115,NA,NA,376,"529 BOB WHITE, DESOTO, TX, 75115","Tie",NA,NA,NA,NA
707377,"529 BOHLAND","BELLWOOD","IL",60104,41.882796392,-87.877166538,377,"529 BOHLAND, BELLWOOD, IL, 60104","Match","Non_Exact","529 BOHLAND AVE, BELLWOOD, IL, 60104",605140365,"L"
707378,"529 BOONE ST","PIQUA","OH",45356,40.1527747750001,-84.2461958929999,378,"529 BOONE ST, PIQUA, OH, 45356","Match","Exact","529 BOONE ST, PIQUA, OH, 45356",135294674,"R"
707379,"529 BOOTH ST","ROXBORO","NC",27573,36.387625787,-78.988455212,379,"529 BOOTH ST, ROXBORO, NC, 27573","Match","Exact","529 BOOTH ST, ROXBORO, NC, 27573",77203210,"L"
707380,"529 BOSLER DRIVE","CARLISE","PA",17013,40.1820752890001,-77.205464094,380,"529 BOSLER DRIVE, CARLISE, PA, 17013","Match","Non_Exact","529 BOSLER DR, CARLISLE, PA, 17013",221283327,"R"
707381,"529 BRANTON BAY","FOXWORTH","MS",39483,31.173407426,-89.9948754659999,381,"529 BRANTON BAY, FOXWORTH, MS, 39483","Match","Non_Exact","529 BRANTON BAY RD, FOXWORTH, MS, 39483",203485402,"L"
707382,"529 C ST SW","AUBURN","WA",98001,47.302154011,-122.232424933,382,"529 C ST SW, AUBURN, WA, 98001","Match","Exact","529 C ST SW, AUBURN, WA, 98001",239775521,"L"
707383,"529 CALLEN AVENUE","MORGANTOWN","WV",26501,39.6184336160001,-79.9666746199999,383,"529 CALLEN AVENUE, MORGANTOWN, WV, 26501","Match","Exact","529 CALLEN AVE, MORGANTOWN, WV, 26501",636679141,"R"
707384,"529 CANTERBURRY RD","VIRGINIA BEACH","VA",23452,36.8508364520001,-76.07925298,384,"529 CANTERBURRY RD, VIRGINIA BEACH, VA, 23452","Match","Non_Exact","529 CANTERBURY RD, VA BCH, VA, 23452",122293173,"L"
707385,"529 CANTON PASS","MADISON","TN",37115,36.2479578420001,-86.672387181,385,"529 CANTON PASS, MADISON, TN, 37115","Match","Exact","529 CANTON PASS, MADISON, TN, 37115",97195490,"L"
707386,"529 CANYON DRIVE","BONITA","CA",91902,32.6528920280001,-117.004584387,386,"529 CANYON DRIVE, BONITA, CA, 91902","Match","Exact","529 CANYON DR, BONITA, CA, 91902",195404042,"R"
707387,"529 CARLO DRIVE","GOLETA","CA",93117,34.4478017260001,-119.838436613,387,"529 CARLO DRIVE, GOLETA, CA, 93117","Match","Exact","529 CARLO DR, GOLETA, CA, 93117",108601016,"L"
707388,"529 CENTRAL","LIBBY","MT",59923,NA,NA,388,"529 CENTRAL, LIBBY, MT, 59923","No_Match",NA,NA,NA,NA
707389,"529 CHANTELS WAY","HARTSELLE","AL",35640,34.422076056,-86.934817298,389,"529 CHANTELS WAY, HARTSELLE, AL, 35640","Match","Non_Exact","529 CHANTELS WAY SW, HARTSELLE, AL, 35640",97128816,"R"
707390,"529 CHATTERTON RD","LUTHERVILLE","MD",21093,39.4488110390001,-76.650900787,390,"529 CHATTERTON RD, LUTHERVILLE, MD, 21093","Match","Exact","529 CHATTERTON RD, LUTHERVILLE, MD, 21093",191494950,"R"
707391,"529 CHESAPEAKE AVENUE","STEVENSVILLE","MD",21660,38.913373264,-76.3625916569999,391,"529 CHESAPEAKE AVENUE, STEVENSVILLE, MD, 21660","Match","Non_Exact","529 CHESAPEAKE AVE, STEVENSVILLE, MD, 21666",68043364,"R"
707392,"529 CHURCH STREET","RIDGEWAY","VA",24148,36.5735238450001,-79.867372195,392,"529 CHURCH STREET, RIDGEWAY, VA, 24148","Match","Exact","529 CHURCH ST, RIDGEWAY, VA, 24148",55533503,"R"
707393,"529 CLAIRMONT AVE","MONROEVILLE","AL",36460,31.5010670720001,-87.343295734,393,"529 CLAIRMONT AVE, MONROEVILLE, AL, 36460","Match","Exact","529 CLAIRMONT AVE, MONROEVILLE, AL, 36460",636670301,"R"
707394,"529 CLOVER LANE","HARDINSBURG","KY",40143,37.743402976,-86.515919733,394,"529 CLOVER LANE, HARDINSBURG, KY, 40143","Match","Non_Exact","529 CLOVER RD, HARDINSBURG, KY, 40143",8018269,"L"
707395,"529 COBB ST","GROTON","NY",13073,42.5808665970001,-76.444113156,395,"529 COBB ST, GROTON, NY, 13073","Match","Exact","529 COBB ST, GROTON, NY, 13073",18852769,"R"
707396,"529 COLLEGE STREET","LAKE MILLS","WI",53551,43.082870513,-88.918538287,396,"529 COLLEGE STREET, LAKE MILLS, WI, 53551","Match","Exact","529 COLLEGE ST, LAKE MILLS, WI, 53551",53211775,"R"
707397,"529 COUNTY ROAD 3501","HALEYVILLE","AL",35565,34.092977148,-87.5817931299999,397,"529 COUNTY ROAD 3501, HALEYVILLE, AL, 35565","Match","Exact","529 CO RD 3501, HALEYVILLE, AL, 35565",651086317,"L"
707398,"529 COUNTY ROUTE 49","COXSACKIE","NY",12051,42.308526311,-73.8651723629999,398,"529 COUNTY ROUTE 49, COXSACKIE, NY, 12051","Match","Non_Exact","529 CO RD 49, COXSACKIE, NY, 12051",636704869,"L"
707399,"529 D STREET","GALT","CA",95632,38.2517291140001,-121.303084804,399,"529 D STREET, GALT, CA, 95632","Match","Exact","529 D ST, GALT, CA, 95632",133367879,"L"
707400,"529 DAMIEN AVENUE","LA VERNE","CA",91750,34.1105158230001,-117.786715478,400,"529 DAMIEN AVENUE, LA VERNE, CA, 91750","Match","Exact","529 DAMIEN AVE, LA VERNE, CA, 91750",141726658,"L"
707401,"529 DAVIS AVENUE","KEARNY","NJ",7032,40.770123131,-74.1379828409999,401,"529 DAVIS AVENUE, KEARNY, NJ, 7032","Match","Exact","529 DAVIS AVE, KEARNY, NJ, 07032",59600764,"L"
707402,"529 DOUGLAS AVE APT 13","HOLLAND","MI",49424,42.797520498,-86.132528243,402,"529 DOUGLAS AVE APT 13, HOLLAND, MI, 49424","Match","Exact","529 DOUGLAS AVE, HOLLAND, MI, 49424",637306409,"L"
707403,"529 DOVER ROAD","LEXINGTON","KY",40505,38.0740890880001,-84.4688462089999,403,"529 DOVER ROAD, LEXINGTON, KY, 40505","Match","Exact","529 DOVER RD, LEXINGTON, KY, 40505",31956269,"R"
707404,"529 DUDLEY DRIVE","SHREVEPORT","LA",71104,32.4714319600001,-93.740199882,404,"529 DUDLEY DRIVE, SHREVEPORT, LA, 71104","Match","Exact","529 DUDLEY DR, SHREVEPORT, LA, 71104",57438238,"L"
707405,"529 DUNLAP LANE","GREENFIELD","OH",45123,39.3540318020001,-83.396024827,405,"529 DUNLAP LANE, GREENFIELD, OH, 45123","Match","Exact","529 DUNLAP LN, GREENFIELD, OH, 45123",101068824,"R"
707406,"529 E 13TH ST","CINCINNATI","OH",45202,39.110747001,-84.5056376059999,406,"529 E 13TH ST, CINCINNATI, OH, 45202","Match","Exact","529 E 13TH ST, CINCINNATI, OH, 45202",103936825,"R"
707407,"529 E 21ST AVE","GARY","IN",46407,41.5803116210001,-87.330642063,407,"529 E 21ST AVE, GARY, IN, 46407","Match","Exact","529 E 21ST AVE, GARY, IN, 46407",606329846,"R"
707408,"529 E 6TH STREET","TONGANOXIE","KS",66086,39.107434799,-95.08724596,408,"529 E 6TH STREET, TONGANOXIE, KS, 66086","Match","Exact","529 E 6TH ST, TONGANOXIE, KS, 66086",640449110,"L"
707409,"529 E 81ST ST APT3B","NEW YORK","NY",10028,40.772301059,-73.948491098,409,"529 E 81ST ST APT3B, NEW YORK, NY, 10028","Match","Non_Exact","529 E 81ST ST, NEW YORK, NY, 10028",650086912,"L"
707410,"529 E JACKSON","RIALTO","CA",92376,34.119922694,-117.361088704,410,"529 E JACKSON, RIALTO, CA, 92376","Match","Non_Exact","529 E JACKSON ST, RIALTO, CA, 92376",144644798,"R"
707411,"529 E JULEP CIR","MURRAY","UT",84107,40.67331718,-111.876442526,411,"529 E JULEP CIR, MURRAY, UT, 84107","Match","Exact","529 E JULEP CIR, MURRAY, UT, 84107",176080160,"L"
707412,"529 E LINCOLN HIGHWAY","COATESVILLE","PA",19320,39.9843503970001,-75.815101097,412,"529 E LINCOLN HIGHWAY, COATESVILLE, PA, 19320","Match","Exact","529 E LINCOLN HWY, COATESVILLE, PA, 19320",179481123,"L"
707413,"529 E MAIN STREET","BOZEMAN","MT",59715,45.6793364150001,-111.029702334,413,"529 E MAIN STREET, BOZEMAN, MT, 59715","Match","Exact","529 E MAIN ST, BOZEMAN, MT, 59715",163498037,"R"
707414,"529 E PERSHING AVE","WHEATON","IL",60189,41.8570843960001,-88.098147403,414,"529 E PERSHING AVE, WHEATON, IL, 60189","Match","Exact","529 PERSHING AVE, WHEATON, IL, 60189",112529497,"L"
707415,"529 E TRIPP RD","SUNNYVALE","TX",75182,32.7924944150001,-96.5430153679999,415,"529 E TRIPP RD, SUNNYVALE, TX, 75182","Match","Exact","529 E TRIPP RD, SUNNYVALE, TX, 75182",103175212,"L"
707416,"529 E UNION ST","TAMAQUA","PA",18252,40.8034799710001,-75.961437603,416,"529 E UNION ST, TAMAQUA, PA, 18252","Match","Exact","529 E UNION ST, TAMAQUA, PA, 18252",70955972,"L"
707417,"529 EAST 22ND ST 6F","BROOKLYN","NY",11226,40.639412029,-73.956972402,417,"529 EAST 22ND ST 6F, BROOKLYN, NY, 11226","Match","Exact","529 E 22ND ST, BROOKLYN, NY, 11226",59081430,"L"
707418,"529 EAST 38TH ST 301","CHICAGO","IL",60653,41.825699865,-87.6136747039999,418,"529 EAST 38TH ST 301, CHICAGO, IL, 60653","Match","Exact","529 E 38TH ST, CHICAGO, IL, 60653",111770707,"R"
707419,"529 EAST CREIGHTON ST","FORT WAYNE","IN",46803,41.0643891610001,-85.130223482,419,"529 EAST CREIGHTON ST, FORT WAYNE, IN, 46803","Match","Non_Exact","529 E CREIGHTON AVE, FORT WAYNE, IN, 46803",6379862,"L"
707420,"529 EAST ESCALON AVENUE","FRESNO","CA",93710,36.826606536,-119.778489132,420,"529 EAST ESCALON AVENUE, FRESNO, CA, 93710","Match","Exact","529 E ESCALON AVE, FRESNO, CA, 93710",197573367,"R"
707421,"529 EAST LINUS","MILWAUKEE","WI",53207,43.0017950800001,-87.9028179049999,421,"529 EAST LINUS, MILWAUKEE, WI, 53207","Match","Non_Exact","529 E LINUS ST, MILWAUKEE, WI, 53207",77753370,"R"
707422,"529 EAST VANDERBILT DRIVE","MARS","PA",16046,40.6986004680001,-80.037237736,422,"529 EAST VANDERBILT DRIVE, MARS, PA, 16046","Match","Exact","529 E VANDERBILT DR, MARS, PA, 16046",607358408,"L"
707423,"529 EAST WASHINGTON STREET","CHAGRIN FALLS","OH",44022,41.425535638,-81.370753727,423,"529 EAST WASHINGTON STREET, CHAGRIN FALLS, OH, 44022","Match","Non_Exact","529 WASHINGTON ST, CHAGRIN FALLS, OH, 44022",137439495,"R"
707424,"529 EASTERN AVE","FALL RIVER","MA",2723,41.6899192860001,-71.130539085,424,"529 EASTERN AVE, FALL RIVER, MA, 2723","Match","Exact","529 EASTERN AVE, FALL RIVER, MA, 02723",46821769,"L"
707425,"529 ED BENNET ROAD","NICHOLSON","GA",30565,34.0732863490001,-83.407540189,425,"529 ED BENNET ROAD, NICHOLSON, GA, 30565","Match","Non_Exact","529 ED BENNETT RD, NICHOLSON, GA, 30565",635503949,"R"
707426,"529 ELENI LANE","MANTECA","CA",95330,37.805132735,-121.224846931,426,"529 ELENI LANE, MANTECA, CA, 95330","Match","Non_Exact","529 ELENI LN, MANTECA, CA, 95336",133889976,"L"
707427,"529 ELM AVENUE","UPPER DARBY","PA",19082,39.9601499340001,-75.2679354749999,427,"529 ELM AVENUE, UPPER DARBY, PA, 19082","Match","Exact","529 ELM AVE, UPPER DARBY, PA, 19082",134877654,"R"
707428,"529 EQUINOX DRIVE","BEAR","DE",19701,39.6134673670001,-75.68114908,428,"529 EQUINOX DRIVE, BEAR, DE, 19701","Match","Exact","529 EQUINOX DR, BEAR, DE, 19701",605781204,"L"
707429,"529 EVERGREEN STREET","CALVERT CITY","KY",42029,37.023450628,-88.340668947,429,"529 EVERGREEN STREET, CALVERT CITY, KY, 42029","Match","Exact","529 EVERGREEN ST, CALVERT CITY, KY, 42029",99500661,"R"
707430,"529 EVERLING DR","MORGANTOWN","IN",46160,39.3767295540001,-86.2556533429999,430,"529 EVERLING DR, MORGANTOWN, IN, 46160","Match","Exact","529 EVERLING DR, MORGANTOWN, IN, 46160",43548004,"L"
707431,"529 FELIX ST","JENNINGS","LA",70546,30.2194175820001,-92.6510890119999,431,"529 FELIX ST, JENNINGS, LA, 70546","Match","Exact","529 FELIX ST, JENNINGS, LA, 70546",88215163,"L"
707432,"529 FENMORE ST","LITHIA SPRINGS","GA",30122,NA,NA,432,"529 FENMORE ST, LITHIA SPRINGS, GA, 30122","No_Match",NA,NA,NA,NA
707433,"529 FENMORE STREET","LITHIA SPRINGS","GA",30122,NA,NA,433,"529 FENMORE STREET, LITHIA SPRINGS, GA, 30122","No_Match",NA,NA,NA,NA
707434,"529 FINNEGAN ROAD","POTSDAM","NY",13676,44.6444162110001,-75.120154794,434,"529 FINNEGAN ROAD, POTSDAM, NY, 13676","Match","Non_Exact","529 FINNIGAN RD, POTSDAM, NY, 13676",155229748,"L"
707435,"529 FOREST PARK DRIVE","WENTZVILLE","MO",63385,38.8208771820001,-90.915195196,435,"529 FOREST PARK DRIVE, WENTZVILLE, MO, 63385","Match","Exact","529 FOREST PARK DR, WENTZVILLE, MO, 63385",617669131,"L"
707436,"529 FORESTERIA DR","WEST PALM BEACH","FL",33403,26.797553302,-80.063216891,436,"529 FORESTERIA DR, WEST PALM BEACH, FL, 33403","Match","Exact","529 FORESTERIA DR, WEST PALM BEACH, FL, 33403",115275826,"R"
707437,"529 FULLAM HILL RD","FITZWILLIAM","NH",3447,42.731903878,-72.088145447,437,"529 FULLAM HILL RD, FITZWILLIAM, NH, 3447","Match","Exact","529 FULLAM HILL RD, FITZWILLIAM, NH, 03447",124089759,"R"
707438,"529 FUTURE ISLANDS WAY","WENDELL","NC",27591,35.7612981090001,-78.427696629,438,"529 FUTURE ISLANDS WAY, WENDELL, NC, 27591","Match","Exact","529 FUTURE ISLANDS WAY, WENDELL, NC, 27591",651030697,"L"
707439,"529 GATLINBURG DR","CHATHAM","IL",62629,39.681373465,-89.717966202,439,"529 GATLINBURG DR, CHATHAM, IL, 62629","Match","Exact","529 GATLINBURG DR, CHATHAM, IL, 62629",97348726,"R"
707440,"529 GIPPER WAY E","AVON","IN",46123,39.755728183,-86.333767441,440,"529 GIPPER WAY E, AVON, IN, 46123","Match","Exact","529 GIPPER WAY E, AVON, IN, 46123",645505185,"R"
707441,"529 GLEN OAK RD","VENICE","FL",34293,27.078323826,-82.406796296,441,"529 GLEN OAK RD, VENICE, FL, 34293","Match","Exact","529 GLEN OAK RD, VENICE, FL, 34293",16362585,"L"
707442,"529 GOODWIN DR","RICHARDSON","TX",75081,32.926867057,-96.727339821,442,"529 GOODWIN DR, RICHARDSON, TX, 75081","Match","Exact","529 GOODWIN DR, RICHARDSON, TX, 75081",102914096,"L"
707443,"529 GRANADA DRIVE","GARLAND","TX",75043,32.8522700140001,-96.628154261,443,"529 GRANADA DRIVE, GARLAND, TX, 75043","Match","Exact","529 GRANADA DR, GARLAND, TX, 75043",102930870,"R"
707444,"529 GREENE RIDGE RD","HENRICO","VA",23229,37.5868561460001,-77.561842215,444,"529 GREENE RIDGE RD, HENRICO, VA, 23229","Match","Exact","529 GREENE RIDGE RD, HENRICO, VA, 23229",106655900,"L"
707445,"529 HARMONYVIEW COURT","LOGANVILLE","GA",30052,33.8652748050001,-83.940000542,445,"529 HARMONYVIEW COURT, LOGANVILLE, GA, 30052","Match","Exact","529 HARMONYVIEW CT, LOGANVILLE, GA, 30052",645869141,"L"
707446,"529 HARRISON AVE","NORTH MANKATO","MN",56003,44.1763924840001,-94.014452825,446,"529 HARRISON AVE, NORTH MANKATO, MN, 56003","Match","Exact","529 HARRISON AVE, NORTH MANKATO, MN, 56003",28688381,"R"
707447,"529 HAWKINS CIRCLE","APOPKA","FL",32703,28.687175331,-81.543247944,447,"529 HAWKINS CIRCLE, APOPKA, FL, 32703","Match","Exact","529 HAWKINS CIR, APOPKA, FL, 32703",94261207,"R"
707448,"529 HIGH ST","FALL RIVER","MA",2720,41.708634983,-71.150302041,448,"529 HIGH ST, FALL RIVER, MA, 2720","Match","Exact","529 HIGH ST, FALL RIVER, MA, 02720",46769822,"R"
707449,"529 HIGHWAY 27","CHANCELLOR","AL",36316,31.200111389,-85.865245304,449,"529 HIGHWAY 27, CHANCELLOR, AL, 36316","Match","Non_Exact","529 STATE RTE 27, CHANCELLOR, AL, 36316",99551351,"L"
707450,"529 HOGESTOWN ROAD","MECHANICSBURG","PA",17050,40.2317123620001,-77.0327995059999,450,"529 HOGESTOWN ROAD, MECHANICSBURG, PA, 17050","Match","Exact","529 HOGESTOWN RD, MECHANICSBURG, PA, 17050",635734673,"R"
707451,"529 HORN DRIVE","CROWLEY","LA",70526,30.190776574,-92.336510292,451,"529 HORN DRIVE, CROWLEY, LA, 70526","Match","Exact","529 HORN DR, CROWLEY, LA, 70526",88310054,"L"
707452,"529 HUNTON LANE","ROBINSON","TX",76705,31.4867635050001,-97.132208556,452,"529 HUNTON LANE, ROBINSON, TX, 76705","Match","Non_Exact","529 HUNTON LN, ROBINSON, TX, 76706",652129580,"R"
707453,"529 JACOB KNOTTS ROAD","CASTOR","LA",71016,32.199212909,-93.1400185319999,453,"529 JACOB KNOTTS ROAD, CASTOR, LA, 71016","Match","Exact","529 JACOB KNOTTS RD, CASTOR, LA, 71016",114409124,"R"
707454,"529 JAMIESON ROAD","DANVILLE","VT",5828,44.438856495,-72.09070114,454,"529 JAMIESON ROAD, DANVILLE, VT, 5828","Match","Exact","529 JAMIESON RD, DANVILLE, VT, 05828",181076915,"L"
707455,"529 JM PENNINGER RD","LEXINGTON","NC",27292,35.7239719230001,-80.292173063,455,"529 JM PENNINGER RD, LEXINGTON, NC, 27292","Match","Non_Exact","529 J M PENNINGER RD, LEXINGTON, NC, 27292",618460055,"R"
707456,"529 JOHNSTON COVE RD","WHITWELL","TN",37397,35.265601798,-85.4175058009999,456,"529 JOHNSTON COVE RD, WHITWELL, TN, 37397","Match","Exact","529 JOHNSTON COVE RD, WHITWELL, TN, 37397",633725578,"L"
707457,"529 JUNIPER DRIVE","SANTA FE","NM",87501,35.695389903,-105.945690668,457,"529 JUNIPER DRIVE, SANTA FE, NM, 87501","Match","Exact","529 JUNIPER DR, SANTA FE, NM, 87501",639069958,"R"
707458,"529 KELALOA","MAKAWAO","HI",96768,NA,NA,458,"529 KELALOA, MAKAWAO, HI, 96768","No_Match",NA,NA,NA,NA
707459,"529 KEONAONA ST","HILO","HI",96720,19.691302598,-155.056716717,459,"529 KEONAONA ST, HILO, HI, 96720","Match","Exact","529 KEONAONA ST, HILO, HI, 96720",203022833,"L"
707460,"529 KINGSBOROUGH 5TH WALK AVE","BROOKLYN","NY",11233,40.6752222330001,-73.923615073,460,"529 KINGSBOROUGH 5TH WALK AVE, BROOKLYN, NY, 11233","Match","Exact","529 KINGSBOROUGH 5TH WALK, BROOKLYN, NY, 11233",59083370,"L"
707461,"529 LAFAYETTE ST","DENVER","CO",80218,39.7243378220001,-104.970601298,461,"529 LAFAYETTE ST, DENVER, CO, 80218","Match","Exact","529 LAFAYETTE ST, DENVER, CO, 80218",177331798,"L"
707462,"529 LAKE AVE","WORTHINGTON","MN",56187,43.6208758080001,-95.60612179,462,"529 LAKE AVE, WORTHINGTON, MN, 56187","Match","Exact","529 LAKE AVE, WORTHINGTON, MN, 56187",29729430,"R"
707463,"529 LAKE OF THE WOODS DR","VENICE","FL",34293,27.064938781,-82.370852917,463,"529 LAKE OF THE WOODS DR, VENICE, FL, 34293","Match","Exact","529 LAKE OF THE WOODS DR, VENICE, FL, 34293",16382989,"R"
707464,"529 LANGHAM RD","WILMINGTON","DE",19809,39.7701807500001,-75.505358104,464,"529 LANGHAM RD, WILMINGTON, DE, 19809","Match","Exact","529 LANGHAM RD, WILMINGTON, DE, 19809",187261492,"L"
707465,"529 LAUREN PARKS DRIVE","BURNS","TN",37029,36.0552183230001,-87.287224142,465,"529 LAUREN PARKS DRIVE, BURNS, TN, 37029","Match","Exact","529 LAUREN PARK, BURNS, TN, 37029",72765073,"L"
707466,"529 LINDSEY AVENUE","ASHEBORO","NC",27203,35.6911767760001,-79.8077649859999,466,"529 LINDSEY AVENUE, ASHEBORO, NC, 27203","Match","Exact","529 LINDSEY AVE, ASHEBORO, NC, 27203",20407710,"L"
707467,"529 LURAY","HENDERSON","TN",38340,35.4477560600001,-88.630463492,467,"529 LURAY, HENDERSON, TN, 38340","Match","Non_Exact","529 LURAY AVE, HENDERSON, TN, 38340",21079725,"L"
707468,"529 LYTLE ST","MINERSILLVE","PA",17954,40.6852909080001,-76.262588884,468,"529 LYTLE ST, MINERSILLVE, PA, 17954","Match","Non_Exact","529 LYTLE ST, MINERSVILLE, PA, 17954",70942870,"R"
707469,"529 MAGNOLIA PARKWAY","BENBROOK","TX",76126,32.677121696,-97.473570297,469,"529 MAGNOLIA PARKWAY, BENBROOK, TX, 76126","Match","Exact","529 MAGNOLIA PKWY, BENBROOK, TX, 76126",616466104,"L"
707470,"529 MAGNOLIA TRAIL","DESOTO","TX",75115,32.5815099110001,-96.888740146,470,"529 MAGNOLIA TRAIL, DESOTO, TX, 75115","Match","Exact","529 MAGNOLIA TRL, DESOTO, TX, 75115",103277808,"R"
707471,"529 MAIN ST SUITE P200 AND P300","CHARLESTOWN","MA",2129,42.3835055540001,-71.071840848,471,"529 MAIN ST SUITE P200 AND P300, CHARLESTOWN, MA, 2129","Match","Exact","529 MAIN ST, CHARLESTOWN, MA, 02129",85727871,"R"
707472,"529 MAIN STREET","PARKESBURG","PA",19365,39.959933818,-75.923300673,472,"529 MAIN STREET, PARKESBURG, PA, 19365","Match","Exact","529 MAIN ST, PARKESBURG, PA, 19365",636455771,"L"
707473,"529 MAPLE ROW","ELKHART","IN",46514,41.691657514,-85.98254344,473,"529 MAPLE ROW, ELKHART, IN, 46514","Match","Exact","529 MAPLE ROW, ELKHART, IN, 46514",7750022,"L"
707474,"529 MAPLE STREET","GRAFTON","WI",53024,43.312764201,-87.9588486379999,474,"529 MAPLE STREET, GRAFTON, WI, 53024","Match","Exact","529 MAPLE ST, GRAFTON, WI, 53024",95902573,"L"
707475,"529 MCELHENNY LANE","NICHOLSON","PA",18446,NA,NA,475,"529 MCELHENNY LANE, NICHOLSON, PA, 18446","No_Match",NA,NA,NA,NA
707476,"529 MEEK RD","LOWELL","VT",5847,44.7657773870001,-72.4508011949999,476,"529 MEEK RD, LOWELL, VT, 5847","Match","Exact","529 MEEK RD, LOWELL, VT, 05847",196761294,"L"
707477,"529 MENGUS MILL ROAD","LITTLESTOWN","PA",17340,39.7296958000001,-77.0938372429999,477,"529 MENGUS MILL ROAD, LITTLESTOWN, PA, 17340","Match","Exact","529 MENGUS MILL RD, LITTLESTOWN, PA, 17340",624865684,"R"
707478,"529 MERRIAM AVE","LEOMINSTER","MA",1453,42.540850119,-71.775631031,478,"529 MERRIAM AVE, LEOMINSTER, MA, 1453","Match","Exact","529 MERRIAM AVE, LEOMINSTER, MA, 01453",40029860,"R"
707479,"529 MITCHELL STREET","BURLINGTON","NC",27217,36.112489791,-79.449732707,479,"529 MITCHELL STREET, BURLINGTON, NC, 27217","Match","Exact","529 MITCHELL ST, BURLINGTON, NC, 27217",71662387,"R"
707480,"529 MONROE ST","TRAVERSE CITY","MI",49684,44.7695876650001,-85.64112632,480,"529 MONROE ST, TRAVERSE CITY, MI, 49684","Match","Non_Exact","529 N MONROE ST, TRAVERSE CITY, MI, 49684",145514123,"L"
707481,"529 MOORE DRIVE","BROWNSBURG","IN",46112,39.8341905400001,-86.3810799999999,481,"529 MOORE DRIVE, BROWNSBURG, IN, 46112","Match","Exact","529 MOORE DR, BROWNSBURG, IN, 46112",89197520,"R"
707482,"529 MORNING PLACE WAY","SUWANEE","GA",30024,34.073039083,-84.0408211009999,482,"529 MORNING PLACE WAY, SUWANEE, GA, 30024","Match","Exact","529 MORNING PLACE WAY, SUWANEE, GA, 30024",88962287,"R"
707483,"529 MOUNT VERNON","CORAOPOLIS","PA",15108,40.520429232,-80.1756545699999,483,"529 MOUNT VERNON, CORAOPOLIS, PA, 15108","Match","Non_Exact","529 MOUNT VERNON AVE, CORAOPOLIS, PA, 15108",51612413,"L"
707484,"529 N 14TH","MUSKOGEE","OK",74401,35.7588245360001,-95.382520714,484,"529 N 14TH, MUSKOGEE, OK, 74401","Match","Non_Exact","529 N 14TH ST, MUSKOGEE, OK, 74401",636180057,"L"
707485,"529 N 30TH ST","LAFAYETTE","IN",47904,40.4218337250001,-86.862912727,485,"529 N 30TH ST, LAFAYETTE, IN, 47904","Match","Exact","529 N 30TH ST, LAFAYETTE, IN, 47904",27308065,"R"
707486,"529 N COLUMBUS ST","ALEXANDRIA","VA",22314,38.810123747,-77.047053283,486,"529 N COLUMBUS ST, ALEXANDRIA, VA, 22314","Match","Exact","529 N COLUMBUS ST, ALEXANDRIA, VA, 22314",75988491,"R"
707487,"529 N COLUMBUS STREET","ALEXANDRIA","VA",22314,38.810123747,-77.047053283,487,"529 N COLUMBUS STREET, ALEXANDRIA, VA, 22314","Match","Exact","529 N COLUMBUS ST, ALEXANDRIA, VA, 22314",75988491,"R"
707488,"529 N FOURTH ST","BALDWYN","MS",38824,34.5154554640001,-88.633474292,488,"529 N FOURTH ST, BALDWYN, MS, 38824","Match","Exact","529 N 4TH ST, BALDWYN, MS, 38824",619451213,"L"
707489,"529 N FRANKLIN STREET","POTTSTOWN","PA",19518,40.2530634760001,-75.6404584159999,489,"529 N FRANKLIN STREET, POTTSTOWN, PA, 19518","Match","Non_Exact","529 N FRANKLIN ST, POTTSTOWN, PA, 19464",135062057,"L"
707490,"529 N FRESNO STREET NO 106","FRESNO","CA",93701,NA,NA,490,"529 N FRESNO STREET NO 106, FRESNO, CA, 93701","No_Match",NA,NA,NA,NA
707491,"529 N LAKE STREET","MADISON","WI",53703,43.075191934,-89.397349718,491,"529 N LAKE STREET, MADISON, WI, 53703","Match","Exact","529 N LAKE ST, MADISON, WI, 53703",49469407,"R"
707492,"529 N MAIN STREET SUITE 7","FREMONT","NE",68025,NA,NA,492,"529 N MAIN STREET SUITE 7, FREMONT, NE, 68025","Tie",NA,NA,NA,NA
707493,"529 N WESTLINK","WICHITA","KS",67212,37.6911246720001,-97.448244815,493,"529 N WESTLINK, WICHITA, KS, 67212","Match","Non_Exact","529 N WESTLINK AVE, WICHITA, KS, 67212",115629345,"L"
707494,"529 NASHUA ST  59","MILFORD","NH",3055,42.823876726,-71.6275191249999,494,"529 NASHUA ST  59, MILFORD, NH, 3055","Match","Exact","529 NASHUA ST, MILFORD, NH, 03055",113571838,"R"
707495,"529 NEBRASKA STREET","GOODING","ID",83330,42.9398978740001,-114.705397212,495,"529 NEBRASKA STREET, GOODING, ID, 83330","Match","Exact","529 NEBRASKA ST, GOODING, ID, 83330",118501426,"L"
707496,"529 NORTH AVE","VERONA","PA",15147,40.5085716140001,-79.83801999,496,"529 NORTH AVE, VERONA, PA, 15147","Match","Exact","529 NORTH AVE, VERONA, PA, 15147",51666042,"L"
707497,"529 NORTH CHARLES ST 101","BALTIMORE","MD",21201,39.295770233,-76.615571444,497,"529 NORTH CHARLES ST 101, BALTIMORE, MD, 21201","Match","Exact","529 N CHARLES ST, BALTIMORE, MD, 21201",206419405,"R"
707498,"529 NORTH JACKSON STREET","WILMINTON","DE",19805,39.7455819050001,-75.559913868,498,"529 NORTH JACKSON STREET, WILMINTON, DE, 19805","Match","Non_Exact","529 N JACKSON ST, WILMINGTON, DE, 19805",187257183,"L"
707499,"529 NW 39TH ST","OKLAHOMA CITY","OK",73118,35.511623813,-97.52169875,499,"529 NW 39TH ST, OKLAHOMA CITY, OK, 73118","Match","Exact","529 NW 39TH ST, OKLAHOMA CITY, OK, 73118",100399931,"R"
707500,"529 NW 60TH ST","GAINESVILLE","FL",32607,29.6576933860001,-82.406415892,500,"529 NW 60TH ST, GAINESVILLE, FL, 32607","Match","Exact","529 NW 60TH ST, GAINESVILLE, FL, 32607",637952235,"L"
