"ID","Address","City","State","Zip","lat","long","id","input_address","match_indicator","match_type","matched_address","tiger_line_id","tiger_side"
987501,"PO BOX 432","WOLCOTTVILLE","IN",46795,NA,NA,1,"PO BOX 432, WOLCOTTVILLE, IN, 46795","No_Match",NA,NA,NA,NA
987502,"PO BOX 432","WURTSBORO","NY",12790,NA,NA,2,"PO BOX 432, WURTSBORO, NY, 12790","No_Match",NA,NA,NA,NA
987503,"PO BOX 4321","ALPHARETTA","GA",30023,NA,NA,3,"PO BOX 4321, ALPHARETTA, GA, 30023","No_Match",NA,NA,NA,NA
987504,"PO BOX 4323","ORMOND BEACH","FL",32175,NA,NA,4,"PO BOX 4323, ORMOND BEACH, FL, 32175","No_Match",NA,NA,NA,NA
987505,"PO BOX 4324","WALNUT CREEK","CA",94596,NA,NA,5,"PO BOX 4324, WALNUT CREEK, CA, 94596","No_Match",NA,NA,NA,NA
987506,"PO BOX 433","BUENA VISTA","CO",81211,NA,NA,6,"PO BOX 433, BUENA VISTA, CO, 81211","No_Match",NA,NA,NA,NA
987507,"PO BOX 433","GILROY","CA",95020,NA,NA,7,"PO BOX 433, GILROY, CA, 95020","No_Match",NA,NA,NA,NA
987508,"PO BOX 433","GOLD BAR","WA",98251,NA,NA,8,"PO BOX 433, GOLD BAR, WA, 98251","No_Match",NA,NA,NA,NA
987509,"PO BOX 433","GOWRIE","IA",50543,NA,NA,9,"PO BOX 433, GOWRIE, IA, 50543","No_Match",NA,NA,NA,NA
987510,"PO BOX 433","GRANDVILLE","MD",49468,NA,NA,10,"PO BOX 433, GRANDVILLE, MD, 49468","No_Match",NA,NA,NA,NA
987511,"PO BOX 433","GRANDVILLE","MI",49468,NA,NA,11,"PO BOX 433, GRANDVILLE, MI, 49468","No_Match",NA,NA,NA,NA
987512,"PO BOX 433","HAZELTON","ND",58544,NA,NA,12,"PO BOX 433, HAZELTON, ND, 58544","No_Match",NA,NA,NA,NA
987513,"PO BOX 433","HINTON","OK",73047,NA,NA,13,"PO BOX 433, HINTON, OK, 73047","No_Match",NA,NA,NA,NA
987514,"PO BOX 433","HUNTINGTON STATION","NY",11746,NA,NA,14,"PO BOX 433, HUNTINGTON STATION, NY, 11746","No_Match",NA,NA,NA,NA
987515,"PO BOX 433","HURLEY","NY",12443,NA,NA,15,"PO BOX 433, HURLEY, NY, 12443","No_Match",NA,NA,NA,NA
987516,"PO BOX 433","IIRON RIVER","MI",49935,NA,NA,16,"PO BOX 433, IIRON RIVER, MI, 49935","No_Match",NA,NA,NA,NA
987517,"PO BOX 433","IRON RIVER","MI",49935,NA,NA,17,"PO BOX 433, IRON RIVER, MI, 49935","No_Match",NA,NA,NA,NA
987518,"PO BOX 433","LANCASTER","TX",75146,NA,NA,18,"PO BOX 433, LANCASTER, TX, 75146","No_Match",NA,NA,NA,NA
987519,"PO BOX 433","MARENGO","OH",43334,NA,NA,19,"PO BOX 433, MARENGO, OH, 43334","No_Match",NA,NA,NA,NA
987520,"PO BOX 433","MURCHISON","TX",75778,NA,NA,20,"PO BOX 433, MURCHISON, TX, 75778","No_Match",NA,NA,NA,NA
987521,"PO BOX 433","NANUET","NY",10954,NA,NA,21,"PO BOX 433, NANUET, NY, 10954","No_Match",NA,NA,NA,NA
987522,"PO BOX 433","NIXON","TX",78140,NA,NA,22,"PO BOX 433, NIXON, TX, 78140","No_Match",NA,NA,NA,NA
987523,"PO BOX 433","SHAW ISLAND","WA",98286,NA,NA,23,"PO BOX 433, SHAW ISLAND, WA, 98286","No_Match",NA,NA,NA,NA
987524,"PO BOX 433","SLEDGE","MS",38670,NA,NA,24,"PO BOX 433, SLEDGE, MS, 38670","No_Match",NA,NA,NA,NA
987525,"PO BOX 433","TONASKET","WA",98885,NA,NA,25,"PO BOX 433, TONASKET, WA, 98885","No_Match",NA,NA,NA,NA
987526,"PO BOX 433","WAXHAW","NC",28173,NA,NA,26,"PO BOX 433, WAXHAW, NC, 28173","No_Match",NA,NA,NA,NA
987527,"PO BOX 4331","TOPEKA","KS",66604,NA,NA,27,"PO BOX 4331, TOPEKA, KS, 66604","No_Match",NA,NA,NA,NA
987528,"PO BOX 4335","MARYVILLE","TN",37802,NA,NA,28,"PO BOX 4335, MARYVILLE, TN, 37802","No_Match",NA,NA,NA,NA
987529,"PO BOX 4336","LYNCHBURG","VA",24502,NA,NA,29,"PO BOX 4336, LYNCHBURG, VA, 24502","No_Match",NA,NA,NA,NA
987530,"PO BOX 4337","WILLISTON","ND",58801,NA,NA,30,"PO BOX 4337, WILLISTON, ND, 58801","No_Match",NA,NA,NA,NA
987531,"PO BOX 4337","WILLISTON","ND",58802,NA,NA,31,"PO BOX 4337, WILLISTON, ND, 58802","No_Match",NA,NA,NA,NA
987532,"PO BOX 4338","ANDERSON","SC",29622,NA,NA,32,"PO BOX 4338, ANDERSON, SC, 29622","No_Match",NA,NA,NA,NA
987533,"PO BOX 434","ASHLAND","MT",59003,NA,NA,33,"PO BOX 434, ASHLAND, MT, 59003","No_Match",NA,NA,NA,NA
987534,"PO BOX 434","BATSON","TX",77519,NA,NA,34,"PO BOX 434, BATSON, TX, 77519","No_Match",NA,NA,NA,NA
987535,"PO BOX 434","BOWLING GREEN","VA",22427,NA,NA,35,"PO BOX 434, BOWLING GREEN, VA, 22427","No_Match",NA,NA,NA,NA
987536,"PO BOX 434","CASTLEWOOD","VA",24224,NA,NA,36,"PO BOX 434, CASTLEWOOD, VA, 24224","No_Match",NA,NA,NA,NA
987537,"PO BOX 434","ESCALON","CA",95320,NA,NA,37,"PO BOX 434, ESCALON, CA, 95320","No_Match",NA,NA,NA,NA
987538,"PO BOX 434","FORT MADISON","IA",52627,NA,NA,38,"PO BOX 434, FORT MADISON, IA, 52627","No_Match",NA,NA,NA,NA
987539,"PO BOX 434","GREEN RIVER","UT",84525,NA,NA,39,"PO BOX 434, GREEN RIVER, UT, 84525","No_Match",NA,NA,NA,NA
987540,"PO BOX 434","GUNTERSVILLE","AL",35976,NA,NA,40,"PO BOX 434, GUNTERSVILLE, AL, 35976","No_Match",NA,NA,NA,NA
987541,"PO BOX 434","HARTFORD","CT",6141,NA,NA,41,"PO BOX 434, HARTFORD, CT, 6141","No_Match",NA,NA,NA,NA
987542,"PO BOX 434","LA CONNER","WA",98257,NA,NA,42,"PO BOX 434, LA CONNER, WA, 98257","No_Match",NA,NA,NA,NA
987543,"PO BOX 434","LAWSON","MO",64062,NA,NA,43,"PO BOX 434, LAWSON, MO, 64062","No_Match",NA,NA,NA,NA
987544,"PO BOX 434","MALVERN","IA",51551,NA,NA,44,"PO BOX 434, MALVERN, IA, 51551","No_Match",NA,NA,NA,NA
987545,"PO BOX 434","MEDICAL LAKE","WA",99022,NA,NA,45,"PO BOX 434, MEDICAL LAKE, WA, 99022","No_Match",NA,NA,NA,NA
987546,"PO BOX 434","MONTICELLO","GA",31064,NA,NA,46,"PO BOX 434, MONTICELLO, GA, 31064","No_Match",NA,NA,NA,NA
987547,"PO BOX 434","NEWPORT","NY",13416,NA,NA,47,"PO BOX 434, NEWPORT, NY, 13416","No_Match",NA,NA,NA,NA
987548,"PO BOX 434","PITTSBURG","KY",40755,NA,NA,48,"PO BOX 434, PITTSBURG, KY, 40755","No_Match",NA,NA,NA,NA
987549,"PO BOX 434","PRAIRIE VIEW","TX",77446,NA,NA,49,"PO BOX 434, PRAIRIE VIEW, TX, 77446","No_Match",NA,NA,NA,NA
987550,"PO BOX 434","SENECA FALLS","NY",13148,NA,NA,50,"PO BOX 434, SENECA FALLS, NY, 13148","No_Match",NA,NA,NA,NA
987551,"PO BOX 434","STANTON","CA",90680,NA,NA,51,"PO BOX 434, STANTON, CA, 90680","No_Match",NA,NA,NA,NA
987552,"PO BOX 434","TAOS","NM",87571,NA,NA,52,"PO BOX 434, TAOS, NM, 87571","No_Match",NA,NA,NA,NA
987553,"PO BOX 434","VERONA","MS",38879,NA,NA,53,"PO BOX 434, VERONA, MS, 38879","No_Match",NA,NA,NA,NA
987554,"PO BOX 434062","SAINT LOUIS","MO",63143,NA,NA,54,"PO BOX 434062, SAINT LOUIS, MO, 63143","No_Match",NA,NA,NA,NA
987555,"PO BOX 4341","COSTA MESA","CA",92628,NA,NA,55,"PO BOX 4341, COSTA MESA, CA, 92628","No_Match",NA,NA,NA,NA
987556,"PO BOX 4341","MORGANTOWN","WV",26504,NA,NA,56,"PO BOX 4341, MORGANTOWN, WV, 26504","No_Match",NA,NA,NA,NA
987557,"PO BOX 43411","BROOKLYN PARK","MN",55443,NA,NA,57,"PO BOX 43411, BROOKLYN PARK, MN, 55443","No_Match",NA,NA,NA,NA
987558,"PO BOX 43418","LOS ANGELES","CA",90043,NA,NA,58,"PO BOX 43418, LOS ANGELES, CA, 90043","No_Match",NA,NA,NA,NA
987559,"PO BOX 4342","APOPKA","FL",32704,NA,NA,59,"PO BOX 4342, APOPKA, FL, 32704","No_Match",NA,NA,NA,NA
987560,"PO BOX 4344","TORRANCE","CA",90510,NA,NA,60,"PO BOX 4344, TORRANCE, CA, 90510","No_Match",NA,NA,NA,NA
987561,"PO BOX 43444","UPPER MONTCLAIR","NJ",7043,NA,NA,61,"PO BOX 43444, UPPER MONTCLAIR, NJ, 7043","No_Match",NA,NA,NA,NA
987562,"PO BOX 4345","DUNELLEN","NJ",8812,NA,NA,62,"PO BOX 4345, DUNELLEN, NJ, 8812","No_Match",NA,NA,NA,NA
987563,"PO BOX 43450","LAFAYETTE","LA",70504,NA,NA,63,"PO BOX 43450, LAFAYETTE, LA, 70504","No_Match",NA,NA,NA,NA
987564,"PO BOX 4346","PAGO PAGO","AS",96799,NA,NA,64,"PO BOX 4346, PAGO PAGO, AS, 96799","No_Match",NA,NA,NA,NA
987565,"PO BOX 4346","POCATELLO","ID",83206,NA,NA,65,"PO BOX 4346, POCATELLO, ID, 83206","No_Match",NA,NA,NA,NA
987566,"PO BOX 434607 SAN YSIDRO BLVD","SAN YSIDRO","CA",92143,NA,NA,66,"PO BOX 434607 SAN YSIDRO BLVD, SAN YSIDRO, CA, 92143","No_Match",NA,NA,NA,NA
987567,"PO BOX 435","ANN ARBOR","MI",48106,NA,NA,67,"PO BOX 435, ANN ARBOR, MI, 48106","No_Match",NA,NA,NA,NA
987568,"PO BOX 435","AVON PARK","FL",33826,NA,NA,68,"PO BOX 435, AVON PARK, FL, 33826","No_Match",NA,NA,NA,NA
987569,"PO BOX 435","CORYDON","IA",50060,NA,NA,69,"PO BOX 435, CORYDON, IA, 50060","No_Match",NA,NA,NA,NA
987570,"PO BOX 435","COWAN","TN",37318,NA,NA,70,"PO BOX 435, COWAN, TN, 37318","No_Match",NA,NA,NA,NA
987571,"PO BOX 435","EASTON","WA",98925,NA,NA,71,"PO BOX 435, EASTON, WA, 98925","No_Match",NA,NA,NA,NA
987572,"PO BOX 435","GOSHEN","IN",46527,NA,NA,72,"PO BOX 435, GOSHEN, IN, 46527","No_Match",NA,NA,NA,NA
987573,"PO BOX 435","GUSTINE","CA",95322,NA,NA,73,"PO BOX 435, GUSTINE, CA, 95322","No_Match",NA,NA,NA,NA
987574,"PO BOX 435","HOWELLS","NE",68641,NA,NA,74,"PO BOX 435, HOWELLS, NE, 68641","No_Match",NA,NA,NA,NA
987575,"PO BOX 435","LAKEVIEW","MI",48850,NA,NA,75,"PO BOX 435, LAKEVIEW, MI, 48850","No_Match",NA,NA,NA,NA
987576,"PO BOX 435","MCDERMITT","NV",89421,NA,NA,76,"PO BOX 435, MCDERMITT, NV, 89421","No_Match",NA,NA,NA,NA
987577,"PO BOX 435","MONTGOMERY CENTER","VT",5471,NA,NA,77,"PO BOX 435, MONTGOMERY CENTER, VT, 5471","No_Match",NA,NA,NA,NA
987578,"PO BOX 435","MOUNDS","OK",74047,NA,NA,78,"PO BOX 435, MOUNDS, OK, 74047","No_Match",NA,NA,NA,NA
987579,"PO BOX 435","PAAUILO","HI",96776,NA,NA,79,"PO BOX 435, PAAUILO, HI, 96776","No_Match",NA,NA,NA,NA
987580,"PO BOX 435","POWERS LAKE","ND",58773,NA,NA,80,"PO BOX 435, POWERS LAKE, ND, 58773","No_Match",NA,NA,NA,NA
987581,"PO BOX 435","WARRIOR","AL",35180,NA,NA,81,"PO BOX 435, WARRIOR, AL, 35180","No_Match",NA,NA,NA,NA
987582,"PO BOX 4352","BISBEE","AZ",85603,NA,NA,82,"PO BOX 4352, BISBEE, AZ, 85603","No_Match",NA,NA,NA,NA
987583,"PO BOX 4352","TUMWATER","WA",98501,NA,NA,83,"PO BOX 4352, TUMWATER, WA, 98501","No_Match",NA,NA,NA,NA
987584,"PO BOX 4353","MIDLOTHIAN","VA",23112,NA,NA,84,"PO BOX 4353, MIDLOTHIAN, VA, 23112","No_Match",NA,NA,NA,NA
987585,"PO BOX 4353","MILOTHIAN","VA",23112,NA,NA,85,"PO BOX 4353, MILOTHIAN, VA, 23112","No_Match",NA,NA,NA,NA
987586,"PO BOX 43538","JACKSONVILLE","FL",32203,NA,NA,86,"PO BOX 43538, JACKSONVILLE, FL, 32203","No_Match",NA,NA,NA,NA
987587,"PO BOX 43544","SCOTTSDALE","AZ",85080,NA,NA,87,"PO BOX 43544, SCOTTSDALE, AZ, 85080","No_Match",NA,NA,NA,NA
987588,"PO BOX 436","BOULDER","MT",59632,NA,NA,88,"PO BOX 436, BOULDER, MT, 59632","No_Match",NA,NA,NA,NA
987589,"PO BOX 436","BRIGHTWOOD","OR",97011,NA,NA,89,"PO BOX 436, BRIGHTWOOD, OR, 97011","No_Match",NA,NA,NA,NA
987590,"PO BOX 436","ESCALANTE","UT",84726,NA,NA,90,"PO BOX 436, ESCALANTE, UT, 84726","No_Match",NA,NA,NA,NA
987591,"PO BOX 436","FOX ISLAND","WA",98333,NA,NA,91,"PO BOX 436, FOX ISLAND, WA, 98333","No_Match",NA,NA,NA,NA
987592,"PO BOX 436","HINESBURG","VT",5403,NA,NA,92,"PO BOX 436, HINESBURG, VT, 5403","No_Match",NA,NA,NA,NA
987593,"PO BOX 436","METALINE FALLS","WA",99153,NA,NA,93,"PO BOX 436, METALINE FALLS, WA, 99153","No_Match",NA,NA,NA,NA
987594,"PO BOX 436","MOUNT TABOR","NJ",7878,NA,NA,94,"PO BOX 436, MOUNT TABOR, NJ, 7878","No_Match",NA,NA,NA,NA
987595,"PO BOX 436","NORWICH","WA",5055,NA,NA,95,"PO BOX 436, NORWICH, WA, 5055","No_Match",NA,NA,NA,NA
987596,"PO BOX 436","PALMER","AK",99645,NA,NA,96,"PO BOX 436, PALMER, AK, 99645","No_Match",NA,NA,NA,NA
987597,"PO BOX 436","PEA RIDGE","AR",72751,NA,NA,97,"PO BOX 436, PEA RIDGE, AR, 72751","No_Match",NA,NA,NA,NA
987598,"PO BOX 436","RIDGELEY","WV",26753,NA,NA,98,"PO BOX 436, RIDGELEY, WV, 26753","No_Match",NA,NA,NA,NA
987599,"PO BOX 436","ROANOKE","IN",46783,NA,NA,99,"PO BOX 436, ROANOKE, IN, 46783","No_Match",NA,NA,NA,NA
987600,"PO BOX 436","SUAMICO","WI",54173,NA,NA,100,"PO BOX 436, SUAMICO, WI, 54173","No_Match",NA,NA,NA,NA
987601,"PO BOX 4361","OCALA","FL",34478,NA,NA,101,"PO BOX 4361, OCALA, FL, 34478","No_Match",NA,NA,NA,NA
987602,"PO BOX 4364","SAN CLEMENTE","CA",92674,NA,NA,102,"PO BOX 4364, SAN CLEMENTE, CA, 92674","No_Match",NA,NA,NA,NA
987603,"PO BOX 43641","JACKSONVILLE","FL",32203,NA,NA,103,"PO BOX 43641, JACKSONVILLE, FL, 32203","No_Match",NA,NA,NA,NA
987604,"PO BOX 4365","ATLANTA","GA",30302,NA,NA,104,"PO BOX 4365, ATLANTA, GA, 30302","No_Match",NA,NA,NA,NA
987605,"PO BOX 43655","LOS ANGELES","CA",90043,NA,NA,105,"PO BOX 43655, LOS ANGELES, CA, 90043","No_Match",NA,NA,NA,NA
987606,"PO BOX 43656","CHARLOTTE","NC",28215,NA,NA,106,"PO BOX 43656, CHARLOTTE, NC, 28215","No_Match",NA,NA,NA,NA
987607,"PO BOX 436789","MIDDLETOWN","KY",40253,NA,NA,107,"PO BOX 436789, MIDDLETOWN, KY, 40253","No_Match",NA,NA,NA,NA
987608,"PO BOX 4368","BIG BEAR LAKE","CA",92315,NA,NA,108,"PO BOX 4368, BIG BEAR LAKE, CA, 92315","No_Match",NA,NA,NA,NA
987609,"PO BOX 436885  IL 60643","CHICAGO","IL",60643,NA,NA,109,"PO BOX 436885  IL 60643, CHICAGO, IL, 60643","No_Match",NA,NA,NA,NA
987610,"PO BOX 437","DAVIS","WV",26260,NA,NA,110,"PO BOX 437, DAVIS, WV, 26260","No_Match",NA,NA,NA,NA
987611,"PO BOX 437","EASTPOINTE","MI",48021,NA,NA,111,"PO BOX 437, EASTPOINTE, MI, 48021","No_Match",NA,NA,NA,NA
987612,"PO BOX 437","GEORGETOWN","SC",29442,NA,NA,112,"PO BOX 437, GEORGETOWN, SC, 29442","No_Match",NA,NA,NA,NA
987613,"PO BOX 437","IDER","AL",35981,NA,NA,113,"PO BOX 437, IDER, AL, 35981","No_Match",NA,NA,NA,NA
987614,"PO BOX 437","LARNED","KS",67550,NA,NA,114,"PO BOX 437, LARNED, KS, 67550","No_Match",NA,NA,NA,NA
987615,"PO BOX 437","MESILLA","NM",88046,NA,NA,115,"PO BOX 437, MESILLA, NM, 88046","No_Match",NA,NA,NA,NA
987616,"PO BOX 437","MONROE","WA",98272,NA,NA,116,"PO BOX 437, MONROE, WA, 98272","No_Match",NA,NA,NA,NA
987617,"PO BOX 437","PANGUITCH","UT",84759,NA,NA,117,"PO BOX 437, PANGUITCH, UT, 84759","No_Match",NA,NA,NA,NA
987618,"PO BOX 437","ROOSEVELT","NY",11575,NA,NA,118,"PO BOX 437, ROOSEVELT, NY, 11575","No_Match",NA,NA,NA,NA
987619,"PO BOX 437","SOUTH BEND","WA",98586,NA,NA,119,"PO BOX 437, SOUTH BEND, WA, 98586","No_Match",NA,NA,NA,NA
987620,"PO BOX 437","WAYNE","NJ",7474,NA,NA,120,"PO BOX 437, WAYNE, NJ, 7474","No_Match",NA,NA,NA,NA
987621,"PO BOX 4370","TUMWATER","WA",98501,NA,NA,121,"PO BOX 4370, TUMWATER, WA, 98501","No_Match",NA,NA,NA,NA
987622,"PO BOX 4370","TUWMATER","WA",98501,NA,NA,122,"PO BOX 4370, TUWMATER, WA, 98501","No_Match",NA,NA,NA,NA
987623,"PO BOX 437053","CHICAGO","IL",60643,NA,NA,123,"PO BOX 437053, CHICAGO, IL, 60643","No_Match",NA,NA,NA,NA
987624,"PO BOX 4371","LITTLE ROCK","AR",72214,NA,NA,124,"PO BOX 4371, LITTLE ROCK, AR, 72214","No_Match",NA,NA,NA,NA
987625,"PO BOX 437150","CHICAGO","IL",60643,NA,NA,125,"PO BOX 437150, CHICAGO, IL, 60643","No_Match",NA,NA,NA,NA
987626,"PO BOX 437169","KAMUELA","HI",96743,NA,NA,126,"PO BOX 437169, KAMUELA, HI, 96743","No_Match",NA,NA,NA,NA
987627,"PO BOX 437173","KAMUELA","HI",96743,NA,NA,127,"PO BOX 437173, KAMUELA, HI, 96743","No_Match",NA,NA,NA,NA
987628,"PO BOX 4373","MANASSASS","VA",20118,NA,NA,128,"PO BOX 4373, MANASSASS, VA, 20118","No_Match",NA,NA,NA,NA
987629,"PO BOX 43732","BROADVIEW HEIGHTS","OH",44147,NA,NA,129,"PO BOX 43732, BROADVIEW HEIGHTS, OH, 44147","No_Match",NA,NA,NA,NA
987630,"PO BOX 437388","CHICAGO","IL",60643,NA,NA,130,"PO BOX 437388, CHICAGO, IL, 60643","No_Match",NA,NA,NA,NA
987631,"PO BOX 4374","HUNTSVILLE","AL",35815,NA,NA,131,"PO BOX 4374, HUNTSVILLE, AL, 35815","No_Match",NA,NA,NA,NA
987632,"PO BOX 437438","KAMUELA","HI",96743,NA,NA,132,"PO BOX 437438, KAMUELA, HI, 96743","No_Match",NA,NA,NA,NA
987633,"PO BOX 43753","LOUISVILLE","KY",40253,NA,NA,133,"PO BOX 43753, LOUISVILLE, KY, 40253","No_Match",NA,NA,NA,NA
987634,"PO BOX 43755","BROOKLYN PARK","MN",55443,NA,NA,134,"PO BOX 43755, BROOKLYN PARK, MN, 55443","No_Match",NA,NA,NA,NA
987635,"PO BOX 4376","FONTANA","CA",92334,NA,NA,135,"PO BOX 4376, FONTANA, CA, 92334","No_Match",NA,NA,NA,NA
987636,"PO BOX 4376","KAILUA KONA","HI",96745,NA,NA,136,"PO BOX 4376, KAILUA KONA, HI, 96745","No_Match",NA,NA,NA,NA
987637,"PO BOX 43777","CHARLOTTE","NC",28215,NA,NA,137,"PO BOX 43777, CHARLOTTE, NC, 28215","No_Match",NA,NA,NA,NA
987638,"PO BOX 43783","WASHINGTON","DC",20010,NA,NA,138,"PO BOX 43783, WASHINGTON, DC, 20010","No_Match",NA,NA,NA,NA
987639,"PO BOX 438","BARROW","AK",99723,NA,NA,139,"PO BOX 438, BARROW, AK, 99723","No_Match",NA,NA,NA,NA
987640,"PO BOX 438","BYRON CENTER","MI",49315,NA,NA,140,"PO BOX 438, BYRON CENTER, MI, 49315","No_Match",NA,NA,NA,NA
987641,"PO BOX 438","CHAPITCO","MD",20621,NA,NA,141,"PO BOX 438, CHAPITCO, MD, 20621","No_Match",NA,NA,NA,NA
987642,"PO BOX 438","DETROIT","OR",97342,NA,NA,142,"PO BOX 438, DETROIT, OR, 97342","No_Match",NA,NA,NA,NA
987643,"PO BOX 438","GARDINER","MT",59030,NA,NA,143,"PO BOX 438, GARDINER, MT, 59030","No_Match",NA,NA,NA,NA
987644,"PO BOX 438","LAFAYETTE","GA",30728,NA,NA,144,"PO BOX 438, LAFAYETTE, GA, 30728","No_Match",NA,NA,NA,NA
987645,"PO BOX 438","LECANTO","FL",34460,NA,NA,145,"PO BOX 438, LECANTO, FL, 34460","No_Match",NA,NA,NA,NA
987646,"PO BOX 438","MOAB","UT",84532,NA,NA,146,"PO BOX 438, MOAB, UT, 84532","No_Match",NA,NA,NA,NA
987647,"PO BOX 438","MULBERRY","FL",33860,NA,NA,147,"PO BOX 438, MULBERRY, FL, 33860","No_Match",NA,NA,NA,NA
987648,"PO BOX 438","RANCHESTER","WY",82830,NA,NA,148,"PO BOX 438, RANCHESTER, WY, 82830","No_Match",NA,NA,NA,NA
987649,"PO BOX 4381","Houston","TX",77210,NA,NA,149,"PO BOX 4381, Houston, TX, 77210","No_Match",NA,NA,NA,NA
987650,"PO BOX 438152","CHICAGO","IL",60643,NA,NA,150,"PO BOX 438152, CHICAGO, IL, 60643","No_Match",NA,NA,NA,NA
987651,"PO BOX 43819","CLEVELAND","OH",44143,NA,NA,151,"PO BOX 43819, CLEVELAND, OH, 44143","No_Match",NA,NA,NA,NA
987652,"PO BOX 4382","PAGO PAGO","AS",96799,NA,NA,152,"PO BOX 4382, PAGO PAGO, AS, 96799","No_Match",NA,NA,NA,NA
987653,"PO BOX 43824","LOUISVILLE","KY",40253,NA,NA,153,"PO BOX 43824, LOUISVILLE, KY, 40253","No_Match",NA,NA,NA,NA
987654,"PO BOX 4383","BEDFORD","WY",83112,NA,NA,154,"PO BOX 4383, BEDFORD, WY, 83112","No_Match",NA,NA,NA,NA
987655,"PO BOX 4383","DAVENPORT","IA",52802,NA,NA,155,"PO BOX 4383, DAVENPORT, IA, 52802","No_Match",NA,NA,NA,NA
987656,"PO BOX 438305","CHICAGO","IL",60643,NA,NA,156,"PO BOX 438305, CHICAGO, IL, 60643","No_Match",NA,NA,NA,NA
987657,"PO BOX 4385","JACKSON","MS",39296,NA,NA,157,"PO BOX 4385, JACKSON, MS, 39296","No_Match",NA,NA,NA,NA
987658,"PO BOX 4385","RIVERSIDE","CA",92514,NA,NA,158,"PO BOX 4385, RIVERSIDE, CA, 92514","No_Match",NA,NA,NA,NA
987659,"PO BOX 43862","ATLANTA","GA",30036,NA,NA,159,"PO BOX 43862, ATLANTA, GA, 30036","No_Match",NA,NA,NA,NA
987660,"PO BOX 438825","CHICAGO","IL",60643,NA,NA,160,"PO BOX 438825, CHICAGO, IL, 60643","No_Match",NA,NA,NA,NA
987661,"PO BOX 439","EHRHARDT","SC",29081,NA,NA,161,"PO BOX 439, EHRHARDT, SC, 29081","No_Match",NA,NA,NA,NA
987662,"PO BOX 439","GREENWOOD LAKE","NY",10925,NA,NA,162,"PO BOX 439, GREENWOOD LAKE, NY, 10925","No_Match",NA,NA,NA,NA
987663,"PO BOX 439","KINGS PARK","NY",11754,NA,NA,163,"PO BOX 439, KINGS PARK, NY, 11754","No_Match",NA,NA,NA,NA
987664,"PO BOX 439","MOHAWAK","MI",49450,NA,NA,164,"PO BOX 439, MOHAWAK, MI, 49450","No_Match",NA,NA,NA,NA
987665,"PO BOX 439030   PMB 153","SAN YSIDRO","CA",92143,NA,NA,165,"PO BOX 439030   PMB 153, SAN YSIDRO, CA, 92143","No_Match",NA,NA,NA,NA
987666,"PO BOX 439030  PMB 153","SAN YSIDRO","CA",92143,NA,NA,166,"PO BOX 439030  PMB 153, SAN YSIDRO, CA, 92143","No_Match",NA,NA,NA,NA
987667,"PO BOX 439030 PMB 168","SAN YSIDRO","CA",92143,NA,NA,167,"PO BOX 439030 PMB 168, SAN YSIDRO, CA, 92143","No_Match",NA,NA,NA,NA
987668,"PO BOX 439030 PMB168","SAN YSIDRO","CA",92143,NA,NA,168,"PO BOX 439030 PMB168, SAN YSIDRO, CA, 92143","No_Match",NA,NA,NA,NA
987669,"PO BOX 439060  PMB 421","SAN DIEGO","CA",92143,NA,NA,169,"PO BOX 439060  PMB 421, SAN DIEGO, CA, 92143","No_Match",NA,NA,NA,NA
987670,"PO BOX 439060 PMB 351","SAN YSIDRO","CA",92143,NA,NA,170,"PO BOX 439060 PMB 351, SAN YSIDRO, CA, 92143","No_Match",NA,NA,NA,NA
987671,"PO BOX 4391","GARDEN GROVE","CA",92842,NA,NA,171,"PO BOX 4391, GARDEN GROVE, CA, 92842","No_Match",NA,NA,NA,NA
987672,"PO BOX 4391","LYNCHBURG","VA",24502,NA,NA,172,"PO BOX 4391, LYNCHBURG, VA, 24502","No_Match",NA,NA,NA,NA
987673,"PO BOX 4392","AUBURN","CA",95604,NA,NA,173,"PO BOX 4392, AUBURN, CA, 95604","No_Match",NA,NA,NA,NA
987674,"PO BOX 4392","BUTTE","MT",59702,NA,NA,174,"PO BOX 4392, BUTTE, MT, 59702","No_Match",NA,NA,NA,NA
987675,"PO BOX 4393","BEEVILLE","TX",78102,NA,NA,175,"PO BOX 4393, BEEVILLE, TX, 78102","No_Match",NA,NA,NA,NA
987676,"PO BOX 4397","VESTAVIA","AL",35243,NA,NA,176,"PO BOX 4397, VESTAVIA, AL, 35243","No_Match",NA,NA,NA,NA
987677,"PO BOX 44","ATKINSON","NE",68713,NA,NA,177,"PO BOX 44, ATKINSON, NE, 68713","No_Match",NA,NA,NA,NA
987678,"PO BOX 44","BLOCK ISLAND","RI",2807,NA,NA,178,"PO BOX 44, BLOCK ISLAND, RI, 2807","No_Match",NA,NA,NA,NA
987679,"PO BOX 44","BURLINGTON","CO",80807,NA,NA,179,"PO BOX 44, BURLINGTON, CO, 80807","No_Match",NA,NA,NA,NA
987680,"PO BOX 44","CAMP SHERMAN","OR",97730,NA,NA,180,"PO BOX 44, CAMP SHERMAN, OR, 97730","No_Match",NA,NA,NA,NA
987681,"PO BOX 44","CASCADE LOCKS","OR",97014,NA,NA,181,"PO BOX 44, CASCADE LOCKS, OR, 97014","No_Match",NA,NA,NA,NA
987682,"PO BOX 44","CENTERTON","AR",72719,NA,NA,182,"PO BOX 44, CENTERTON, AR, 72719","No_Match",NA,NA,NA,NA
987683,"PO BOX 44","CLARK","PA",16113,NA,NA,183,"PO BOX 44, CLARK, PA, 16113","No_Match",NA,NA,NA,NA
987684,"PO BOX 44","CLEVELAND","NM",87715,NA,NA,184,"PO BOX 44, CLEVELAND, NM, 87715","No_Match",NA,NA,NA,NA
987685,"PO BOX 44","CULLODEN","WV",25510,NA,NA,185,"PO BOX 44, CULLODEN, WV, 25510","No_Match",NA,NA,NA,NA
987686,"PO BOX 44","DASSEL","MN",55325,NA,NA,186,"PO BOX 44, DASSEL, MN, 55325","No_Match",NA,NA,NA,NA
987687,"PO BOX 44","GRANITE FALLS","WA",98252,NA,NA,187,"PO BOX 44, GRANITE FALLS, WA, 98252","No_Match",NA,NA,NA,NA
987688,"PO BOX 44","GREENVILLE","MO",63944,NA,NA,188,"PO BOX 44, GREENVILLE, MO, 63944","No_Match",NA,NA,NA,NA
987689,"PO BOX 44","HENDERSONVILLE","TN",37077,NA,NA,189,"PO BOX 44, HENDERSONVILLE, TN, 37077","No_Match",NA,NA,NA,NA
987690,"PO BOX 44","HOMER","GA",30547,NA,NA,190,"PO BOX 44, HOMER, GA, 30547","No_Match",NA,NA,NA,NA
987691,"PO BOX 44","HOWE","IN",46746,NA,NA,191,"PO BOX 44, HOWE, IN, 46746","No_Match",NA,NA,NA,NA
987692,"PO BOX 44","KETCHUM","ID",83340,NA,NA,192,"PO BOX 44, KETCHUM, ID, 83340","No_Match",NA,NA,NA,NA
987693,"PO BOX 44","LACLEDE","ID",83841,NA,NA,193,"PO BOX 44, LACLEDE, ID, 83841","No_Match",NA,NA,NA,NA
987694,"PO BOX 44","LAKE CHARLES","LA",70602,NA,NA,194,"PO BOX 44, LAKE CHARLES, LA, 70602","No_Match",NA,NA,NA,NA
987695,"PO BOX 44","LEBANON","OH",45036,NA,NA,195,"PO BOX 44, LEBANON, OH, 45036","No_Match",NA,NA,NA,NA
987696,"PO BOX 44","LINDEN","IA",50146,NA,NA,196,"PO BOX 44, LINDEN, IA, 50146","No_Match",NA,NA,NA,NA
987697,"PO BOX 44","LONG POINT","IL",61333,NA,NA,197,"PO BOX 44, LONG POINT, IL, 61333","No_Match",NA,NA,NA,NA
987698,"PO BOX 44","LONGLEAF","LA",71448,NA,NA,198,"PO BOX 44, LONGLEAF, LA, 71448","No_Match",NA,NA,NA,NA
987699,"PO BOX 44","LONGLEAF","LA",71488,NA,NA,199,"PO BOX 44, LONGLEAF, LA, 71488","No_Match",NA,NA,NA,NA
987700,"PO BOX 44","MARLBOROUGH","CT",6447,NA,NA,200,"PO BOX 44, MARLBOROUGH, CT, 6447","No_Match",NA,NA,NA,NA
987701,"PO BOX 44","MARSTONS MILLS","MA",2648,NA,NA,201,"PO BOX 44, MARSTONS MILLS, MA, 2648","No_Match",NA,NA,NA,NA
987702,"PO BOX 44","METCALFE","MS",38760,NA,NA,202,"PO BOX 44, METCALFE, MS, 38760","No_Match",NA,NA,NA,NA
987703,"PO BOX 44","MILBANK","SD",57252,NA,NA,203,"PO BOX 44, MILBANK, SD, 57252","No_Match",NA,NA,NA,NA
987704,"PO BOX 44","MONGO","IN",46771,NA,NA,204,"PO BOX 44, MONGO, IN, 46771","No_Match",NA,NA,NA,NA
987705,"PO BOX 44","NAPOLEON","ND",58561,NA,NA,205,"PO BOX 44, NAPOLEON, ND, 58561","No_Match",NA,NA,NA,NA
987706,"PO BOX 44","RAMAH","NM",87321,NA,NA,206,"PO BOX 44, RAMAH, NM, 87321","No_Match",NA,NA,NA,NA
987707,"PO BOX 44","SANDWICH","IL",60548,NA,NA,207,"PO BOX 44, SANDWICH, IL, 60548","No_Match",NA,NA,NA,NA
987708,"PO BOX 44","SCIOTO FURNACE","OH",45677,NA,NA,208,"PO BOX 44, SCIOTO FURNACE, OH, 45677","No_Match",NA,NA,NA,NA
987709,"PO BOX 44","SHARON","VT",6065,NA,NA,209,"PO BOX 44, SHARON, VT, 6065","No_Match",NA,NA,NA,NA
987710,"PO BOX 44","SIERRA BLANCA","TX",79851,NA,NA,210,"PO BOX 44, SIERRA BLANCA, TX, 79851","No_Match",NA,NA,NA,NA
987711,"PO BOX 44","TEMECULA","CA",92593,NA,NA,211,"PO BOX 44, TEMECULA, CA, 92593","No_Match",NA,NA,NA,NA
987712,"PO BOX 44","WASHINGTON","VT",5675,NA,NA,212,"PO BOX 44, WASHINGTON, VT, 5675","No_Match",NA,NA,NA,NA
987713,"PO BOX 44","WAYNE","IL",60184,NA,NA,213,"PO BOX 44, WAYNE, IL, 60184","No_Match",NA,NA,NA,NA
987714,"PO BOX 44","WEST BOXFORD","MA",1885,NA,NA,214,"PO BOX 44, WEST BOXFORD, MA, 1885","No_Match",NA,NA,NA,NA
987715,"PO BOX 44","WINSTONVILLE","MS",39174,NA,NA,215,"PO BOX 44, WINSTONVILLE, MS, 39174","No_Match",NA,NA,NA,NA
987716,"PO BOX 44","YOUNTVILLE","AA",94599,NA,NA,216,"PO BOX 44, YOUNTVILLE, AA, 94599","No_Match",NA,NA,NA,NA
987717,"PO BOX 44","YOUNTVILLE","CA",94599,NA,NA,217,"PO BOX 44, YOUNTVILLE, CA, 94599","No_Match",NA,NA,NA,NA
987718,"PO BOX 440","HOT SPRINGS","MT",59845,NA,NA,218,"PO BOX 440, HOT SPRINGS, MT, 59845","No_Match",NA,NA,NA,NA
987719,"PO BOX 440","JACKSONVILLE","TX",75766,NA,NA,219,"PO BOX 440, JACKSONVILLE, TX, 75766","No_Match",NA,NA,NA,NA
987720,"PO BOX 440","LEGGETT","TX",77350,NA,NA,220,"PO BOX 440, LEGGETT, TX, 77350","No_Match",NA,NA,NA,NA
987721,"PO BOX 440","PELHAM","NH",3076,NA,NA,221,"PO BOX 440, PELHAM, NH, 3076","No_Match",NA,NA,NA,NA
987722,"PO BOX 440","WINCHESTER","ID",83555,NA,NA,222,"PO BOX 440, WINCHESTER, ID, 83555","No_Match",NA,NA,NA,NA
987723,"PO BOX 4401","PENSACOLA","FL",32507,NA,NA,223,"PO BOX 4401, PENSACOLA, FL, 32507","No_Match",NA,NA,NA,NA
987724,"PO BOX 4402","OMAHA","NE",68104,NA,NA,224,"PO BOX 4402, OMAHA, NE, 68104","No_Match",NA,NA,NA,NA
987725,"PO BOX 440232","AURORA","CO",80044,NA,NA,225,"PO BOX 440232, AURORA, CO, 80044","No_Match",NA,NA,NA,NA
987726,"PO BOX 4403","HAGATNA","GU",96932,NA,NA,226,"PO BOX 4403, HAGATNA, GU, 96932","No_Match",NA,NA,NA,NA
987727,"PO BOX 440321","HOUSTON","TX",77244,NA,NA,227,"PO BOX 440321, HOUSTON, TX, 77244","No_Match",NA,NA,NA,NA
987728,"PO BOX 440356","CHICAGO","IL",60644,NA,NA,228,"PO BOX 440356, CHICAGO, IL, 60644","No_Match",NA,NA,NA,NA
987729,"PO BOX 440392","KENNESAW","GA",30160,NA,NA,229,"PO BOX 440392, KENNESAW, GA, 30160","No_Match",NA,NA,NA,NA
987730,"PO BOX 440402","KENNESAW","GA",30160,NA,NA,230,"PO BOX 440402, KENNESAW, GA, 30160","No_Match",NA,NA,NA,NA
987731,"PO BOX 440532","AURORA","CO",80044,NA,NA,231,"PO BOX 440532, AURORA, CO, 80044","No_Match",NA,NA,NA,NA
987732,"PO BOX 440642","KENNESAW","GA",30160,NA,NA,232,"PO BOX 440642, KENNESAW, GA, 30160","No_Match",NA,NA,NA,NA
987733,"PO BOX 440712","AURORA","CO",80044,NA,NA,233,"PO BOX 440712, AURORA, CO, 80044","No_Match",NA,NA,NA,NA
987734,"PO BOX 4408","SAN LUIS OBISPO","CA",93403,NA,NA,234,"PO BOX 4408, SAN LUIS OBISPO, CA, 93403","No_Match",NA,NA,NA,NA
987735,"PO BOX 440866","JACKSONVILLE","FL",32222,NA,NA,235,"PO BOX 440866, JACKSONVILLE, FL, 32222","No_Match",NA,NA,NA,NA
987736,"PO BOX 440973","KENNESAW","GA",30160,NA,NA,236,"PO BOX 440973, KENNESAW, GA, 30160","No_Match",NA,NA,NA,NA
987737,"PO BOX 441","CHANDLER","TX",75758,NA,NA,237,"PO BOX 441, CHANDLER, TX, 75758","No_Match",NA,NA,NA,NA
987738,"PO BOX 441","COLUMBIA","TN",38402,NA,NA,238,"PO BOX 441, COLUMBIA, TN, 38402","No_Match",NA,NA,NA,NA
987739,"PO BOX 441","COULEE CITY","WA",99115,NA,NA,239,"PO BOX 441, COULEE CITY, WA, 99115","No_Match",NA,NA,NA,NA
987740,"PO BOX 441","ELIZABETH","CO",80107,NA,NA,240,"PO BOX 441, ELIZABETH, CO, 80107","No_Match",NA,NA,NA,NA
987741,"PO BOX 441","ELLSINORE","MO",63937,NA,NA,241,"PO BOX 441, ELLSINORE, MO, 63937","No_Match",NA,NA,NA,NA
987742,"PO BOX 441","FRIENDSHIP","WI",53934,NA,NA,242,"PO BOX 441, FRIENDSHIP, WI, 53934","No_Match",NA,NA,NA,NA
987743,"PO BOX 441","FRIENDSHIP","WI",NA,NA,NA,243,"PO BOX 441, FRIENDSHIP, WI, ","No_Match",NA,NA,NA,NA
987744,"PO BOX 441","HARRAH","WA",98933,NA,NA,244,"PO BOX 441, HARRAH, WA, 98933","No_Match",NA,NA,NA,NA
987745,"PO BOX 441","HAWI","HI",96719,NA,NA,245,"PO BOX 441, HAWI, HI, 96719","No_Match",NA,NA,NA,NA
987746,"PO BOX 441","KIMBERLY","ID",83341,NA,NA,246,"PO BOX 441, KIMBERLY, ID, 83341","No_Match",NA,NA,NA,NA
987747,"PO BOX 441","LEAKEY","TX",78873,NA,NA,247,"PO BOX 441, LEAKEY, TX, 78873","No_Match",NA,NA,NA,NA
987748,"PO BOX 441","NOME","AK",99762,NA,NA,248,"PO BOX 441, NOME, AK, 99762","No_Match",NA,NA,NA,NA
987749,"PO BOX 441","ORANGEBURG","SC",29116,NA,NA,249,"PO BOX 441, ORANGEBURG, SC, 29116","No_Match",NA,NA,NA,NA
987750,"PO BOX 441","ORISKANY","NY",13424,NA,NA,250,"PO BOX 441, ORISKANY, NY, 13424","No_Match",NA,NA,NA,NA
987751,"PO BOX 441","PENNVILLE","IN",47369,NA,NA,251,"PO BOX 441, PENNVILLE, IN, 47369","No_Match",NA,NA,NA,NA
987752,"PO BOX 441","THEODORE","AL",36590,NA,NA,252,"PO BOX 441, THEODORE, AL, 36590","No_Match",NA,NA,NA,NA
987753,"PO BOX 441013","FORT WASHINGTON","MD",20749,NA,NA,253,"PO BOX 441013, FORT WASHINGTON, MD, 20749","No_Match",NA,NA,NA,NA
987754,"PO BOX 44103","DETROIT","MI",48226,NA,NA,254,"PO BOX 44103, DETROIT, MI, 48226","No_Match",NA,NA,NA,NA
987755,"PO BOX 441034","KENNESAW","GA",30160,NA,NA,255,"PO BOX 441034, KENNESAW, GA, 30160","No_Match",NA,NA,NA,NA
987756,"PO BOX 441038","DETROIT","MI",48224,NA,NA,256,"PO BOX 441038, DETROIT, MI, 48224","No_Match",NA,NA,NA,NA
987757,"PO BOX 4411","JOPLIN","MO",64803,NA,NA,257,"PO BOX 4411, JOPLIN, MO, 64803","No_Match",NA,NA,NA,NA
987758,"PO BOX 441271","INDIANAPOLIS","IN",46244,NA,NA,258,"PO BOX 441271, INDIANAPOLIS, IN, 46244","No_Match",NA,NA,NA,NA
987759,"PO BOX 441278","PITTSBURGH","PA",15205,NA,NA,259,"PO BOX 441278, PITTSBURGH, PA, 15205","No_Match",NA,NA,NA,NA
987760,"PO BOX 4413","COLUMBUS","GA",31914,NA,NA,260,"PO BOX 4413, COLUMBUS, GA, 31914","No_Match",NA,NA,NA,NA
987761,"PO BOX 44146","DENVER","CO",80201,NA,NA,261,"PO BOX 44146, DENVER, CO, 80201","No_Match",NA,NA,NA,NA
987762,"PO BOX 441491","AURORA","CO",80044,NA,NA,262,"PO BOX 441491, AURORA, CO, 80044","No_Match",NA,NA,NA,NA
987763,"PO BOX 441522","JACKSONVILLE","FL",32222,NA,NA,263,"PO BOX 441522, JACKSONVILLE, FL, 32222","No_Match",NA,NA,NA,NA
987764,"PO BOX 441672","AURORA","CO",80044,NA,NA,264,"PO BOX 441672, AURORA, CO, 80044","No_Match",NA,NA,NA,NA
987765,"PO BOX 4417","DOWLING PARK","FL",32064,NA,NA,265,"PO BOX 4417, DOWLING PARK, FL, 32064","No_Match",NA,NA,NA,NA
987766,"PO BOX 4417","FAIRVIEW","NM",87533,NA,NA,266,"PO BOX 4417, FAIRVIEW, NM, 87533","No_Match",NA,NA,NA,NA
987767,"PO BOX 44174","FORT WASHINGTON","MD",20749,NA,NA,267,"PO BOX 44174, FORT WASHINGTON, MD, 20749","No_Match",NA,NA,NA,NA
987768,"PO BOX 44174","FT WASHINGTON","MD",20749,NA,NA,268,"PO BOX 44174, FT WASHINGTON, MD, 20749","No_Match",NA,NA,NA,NA
987769,"PO BOX 44178","PITTSBURGH","PA",15205,NA,NA,269,"PO BOX 44178, PITTSBURGH, PA, 15205","No_Match",NA,NA,NA,NA
987770,"PO BOX 44192","ATLANTA","GA",30336,NA,NA,270,"PO BOX 44192, ATLANTA, GA, 30336","No_Match",NA,NA,NA,NA
987771,"PO BOX 442","BRANFORD","CT",4605,NA,NA,271,"PO BOX 442, BRANFORD, CT, 4605","No_Match",NA,NA,NA,NA
987772,"PO BOX 442","BRANFORD","CT",6405,NA,NA,272,"PO BOX 442, BRANFORD, CT, 6405","No_Match",NA,NA,NA,NA
987773,"PO BOX 442","CARTHAGE","NY",13619,NA,NA,273,"PO BOX 442, CARTHAGE, NY, 13619","No_Match",NA,NA,NA,NA
987774,"PO BOX 442","DUPLESSIS","LA",70728,NA,NA,274,"PO BOX 442, DUPLESSIS, LA, 70728","No_Match",NA,NA,NA,NA
987775,"PO BOX 442","FRANCONIA","NH",3580,NA,NA,275,"PO BOX 442, FRANCONIA, NH, 3580","No_Match",NA,NA,NA,NA
987776,"PO BOX 442","HEATHSVILLE","VA",22473,NA,NA,276,"PO BOX 442, HEATHSVILLE, VA, 22473","No_Match",NA,NA,NA,NA
987777,"PO BOX 442","LAKE CRYSTAL","MN",56055,NA,NA,277,"PO BOX 442, LAKE CRYSTAL, MN, 56055","No_Match",NA,NA,NA,NA
987778,"PO BOX 442","LUCKEY","OH",43443,NA,NA,278,"PO BOX 442, LUCKEY, OH, 43443","No_Match",NA,NA,NA,NA
987779,"PO BOX 442","MATHEWS","VA",23109,NA,NA,279,"PO BOX 442, MATHEWS, VA, 23109","No_Match",NA,NA,NA,NA
987780,"PO BOX 442","MEDFORD","MA",2155,NA,NA,280,"PO BOX 442, MEDFORD, MA, 2155","No_Match",NA,NA,NA,NA
987781,"PO BOX 442","MEDICINE PARK","OK",73557,NA,NA,281,"PO BOX 442, MEDICINE PARK, OK, 73557","No_Match",NA,NA,NA,NA
987782,"PO BOX 442","MIDDLEBURG","VA",20118,NA,NA,282,"PO BOX 442, MIDDLEBURG, VA, 20118","No_Match",NA,NA,NA,NA
987783,"PO BOX 442","MONTPELIER","VT",5601,NA,NA,283,"PO BOX 442, MONTPELIER, VT, 5601","No_Match",NA,NA,NA,NA
987784,"PO BOX 442","MULLICA HILL","NJ",8062,NA,NA,284,"PO BOX 442, MULLICA HILL, NJ, 8062","No_Match",NA,NA,NA,NA
987785,"PO BOX 442","POMEROY","WA",99347,NA,NA,285,"PO BOX 442, POMEROY, WA, 99347","No_Match",NA,NA,NA,NA
987786,"PO BOX 442","SHERWOOD","OH",43556,NA,NA,286,"PO BOX 442, SHERWOOD, OH, 43556","No_Match",NA,NA,NA,NA
987787,"PO BOX 442","STRATFORD","NJ",8084,NA,NA,287,"PO BOX 442, STRATFORD, NJ, 8084","No_Match",NA,NA,NA,NA
987788,"PO BOX 442","SUMMIT","AR",72677,NA,NA,288,"PO BOX 442, SUMMIT, AR, 72677","No_Match",NA,NA,NA,NA
987789,"PO BOX 44201","FT WASHINGTON","MA",20749,NA,NA,289,"PO BOX 44201, FT WASHINGTON, MA, 20749","No_Match",NA,NA,NA,NA
987790,"PO BOX 4421","TYLER","TX",75712,NA,NA,290,"PO BOX 4421, TYLER, TX, 75712","No_Match",NA,NA,NA,NA
987791,"PO BOX 442164","LAWRENCE","KS",66044,NA,NA,291,"PO BOX 442164, LAWRENCE, KS, 66044","No_Match",NA,NA,NA,NA
987792,"PO BOX 442164","LAWRENCE","SC",66044,NA,NA,292,"PO BOX 442164, LAWRENCE, SC, 66044","No_Match",NA,NA,NA,NA
987793,"PO BOX 4422","EDWARDS","CO",81632,NA,NA,293,"PO BOX 4422, EDWARDS, CO, 81632","No_Match",NA,NA,NA,NA
987794,"PO BOX 44221","ATLANTA","GA",30336,NA,NA,294,"PO BOX 44221, ATLANTA, GA, 30336","No_Match",NA,NA,NA,NA
987795,"PO BOX 44246","MADISON","WI",53719,NA,NA,295,"PO BOX 44246, MADISON, WI, 53719","No_Match",NA,NA,NA,NA
987796,"PO BOX 4425","BRANDON","MS",39047,NA,NA,296,"PO BOX 4425, BRANDON, MS, 39047","No_Match",NA,NA,NA,NA
987797,"PO BOX 442632","LAWRENCE","KS",66044,NA,NA,297,"PO BOX 442632, LAWRENCE, KS, 66044","No_Match",NA,NA,NA,NA
987798,"PO BOX 4427","SEVIERVILLE","TN",37864,NA,NA,298,"PO BOX 4427, SEVIERVILLE, TN, 37864","No_Match",NA,NA,NA,NA
987799,"PO BOX 4429","BOULDER","CO",80306,NA,NA,299,"PO BOX 4429, BOULDER, CO, 80306","No_Match",NA,NA,NA,NA
987800,"PO BOX 44293","WASHINGTON","DC",20026,NA,NA,300,"PO BOX 44293, WASHINGTON, DC, 20026","No_Match",NA,NA,NA,NA
987801,"PO BOX 443","BELT","MT",59412,NA,NA,301,"PO BOX 443, BELT, MT, 59412","No_Match",NA,NA,NA,NA
987802,"PO BOX 443","BUNN","NC",27508,NA,NA,302,"PO BOX 443, BUNN, NC, 27508","No_Match",NA,NA,NA,NA
987803,"PO BOX 443","DAMASCUS","VA",24236,NA,NA,303,"PO BOX 443, DAMASCUS, VA, 24236","No_Match",NA,NA,NA,NA
987804,"PO BOX 443","DUNN LORING","VA",22027,NA,NA,304,"PO BOX 443, DUNN LORING, VA, 22027","No_Match",NA,NA,NA,NA
987805,"PO BOX 443","ELYRIA","OH",44036,NA,NA,305,"PO BOX 443, ELYRIA, OH, 44036","No_Match",NA,NA,NA,NA
987806,"PO BOX 443","ENNIS","MT",59729,NA,NA,306,"PO BOX 443, ENNIS, MT, 59729","No_Match",NA,NA,NA,NA
987807,"PO BOX 443","FAIRFAX","VT",5454,NA,NA,307,"PO BOX 443, FAIRFAX, VT, 5454","No_Match",NA,NA,NA,NA
987808,"PO BOX 443","FINDLAY","OH",45839,NA,NA,308,"PO BOX 443, FINDLAY, OH, 45839","No_Match",NA,NA,NA,NA
987809,"PO BOX 443","FOX LAKE","WI",53933,NA,NA,309,"PO BOX 443, FOX LAKE, WI, 53933","No_Match",NA,NA,NA,NA
987810,"PO BOX 443","FRISCO","CO",80443,NA,NA,310,"PO BOX 443, FRISCO, CO, 80443","No_Match",NA,NA,NA,NA
987811,"PO BOX 443","GEORGETOWN","KY",40324,NA,NA,311,"PO BOX 443, GEORGETOWN, KY, 40324","No_Match",NA,NA,NA,NA
987812,"PO BOX 443","HERALD","CA",95638,NA,NA,312,"PO BOX 443, HERALD, CA, 95638","No_Match",NA,NA,NA,NA
987813,"PO BOX 443","HOWARD","PA",16841,NA,NA,313,"PO BOX 443, HOWARD, PA, 16841","No_Match",NA,NA,NA,NA
987814,"PO BOX 443","HUNTINGTON STATION","NY",11746,NA,NA,314,"PO BOX 443, HUNTINGTON STATION, NY, 11746","No_Match",NA,NA,NA,NA
987815,"PO BOX 443","INTERVALE","NH",3845,NA,NA,315,"PO BOX 443, INTERVALE, NH, 3845","No_Match",NA,NA,NA,NA
987816,"PO BOX 443","MCDONALD","OH",44437,NA,NA,316,"PO BOX 443, MCDONALD, OH, 44437","No_Match",NA,NA,NA,NA
987817,"PO BOX 443","MONETTE","AR",72447,NA,NA,317,"PO BOX 443, MONETTE, AR, 72447","No_Match",NA,NA,NA,NA
987818,"PO BOX 443","MORELAND","GA",30259,NA,NA,318,"PO BOX 443, MORELAND, GA, 30259","No_Match",NA,NA,NA,NA
987819,"PO BOX 443","OSCEOLA","AR",72370,NA,NA,319,"PO BOX 443, OSCEOLA, AR, 72370","No_Match",NA,NA,NA,NA
987820,"PO BOX 443","ROAN MOUNTAIN","TN",37687,NA,NA,320,"PO BOX 443, ROAN MOUNTAIN, TN, 37687","No_Match",NA,NA,NA,NA
987821,"PO BOX 443","SAN AUGUSTINE","TX",75972,NA,NA,321,"PO BOX 443, SAN AUGUSTINE, TX, 75972","No_Match",NA,NA,NA,NA
987822,"PO BOX 443","SENECA","MO",64865,NA,NA,322,"PO BOX 443, SENECA, MO, 64865","No_Match",NA,NA,NA,NA
987823,"PO BOX 443","SHADY COVE","OR",97539,NA,NA,323,"PO BOX 443, SHADY COVE, OR, 97539","No_Match",NA,NA,NA,NA
987824,"PO BOX 443","SMITHVILLE","TX",78957,NA,NA,324,"PO BOX 443, SMITHVILLE, TX, 78957","No_Match",NA,NA,NA,NA
987825,"PO BOX 443","STAFFORD","TX",77497,NA,NA,325,"PO BOX 443, STAFFORD, TX, 77497","No_Match",NA,NA,NA,NA
987826,"PO BOX 443","TOWNSEND","MA",1469,NA,NA,326,"PO BOX 443, TOWNSEND, MA, 1469","No_Match",NA,NA,NA,NA
987827,"PO BOX 443","WASHINGTON CROSSING","PA",18977,NA,NA,327,"PO BOX 443, WASHINGTON CROSSING, PA, 18977","No_Match",NA,NA,NA,NA
987828,"PO BOX 4430","SONORA","CA",95370,NA,NA,328,"PO BOX 4430, SONORA, CA, 95370","No_Match",NA,NA,NA,NA
987829,"PO BOX 443178","MOSCOW","ID",83843,NA,NA,329,"PO BOX 443178, MOSCOW, ID, 83843","No_Match",NA,NA,NA,NA
987830,"PO BOX 4432","ALBUQUERQUE","NM",87196,NA,NA,330,"PO BOX 4432, ALBUQUERQUE, NM, 87196","No_Match",NA,NA,NA,NA
987831,"PO BOX 44321","MADISON","WI",53744,NA,NA,331,"PO BOX 44321, MADISON, WI, 53744","No_Match",NA,NA,NA,NA
987832,"PO BOX 4434","KILLEEN","TX",76540,NA,NA,332,"PO BOX 4434, KILLEEN, TX, 76540","No_Match",NA,NA,NA,NA
987833,"PO BOX 44369","PHILADELPHIA","PA",19144,NA,NA,333,"PO BOX 44369, PHILADELPHIA, PA, 19144","No_Match",NA,NA,NA,NA
987834,"PO BOX 4437","ANDERSON","SC",29622,NA,NA,334,"PO BOX 4437, ANDERSON, SC, 29622","No_Match",NA,NA,NA,NA
987835,"PO BOX 4438","OLATHE","KS",66063,NA,NA,335,"PO BOX 4438, OLATHE, KS, 66063","No_Match",NA,NA,NA,NA
987836,"PO BOX 444","ALBANY","OR",97322,NA,NA,336,"PO BOX 444, ALBANY, OR, 97322","No_Match",NA,NA,NA,NA
987837,"PO BOX 444","ARTEMUS","KY",40900,NA,NA,337,"PO BOX 444, ARTEMUS, KY, 40900","No_Match",NA,NA,NA,NA
987838,"PO BOX 444","ASTORIA","IL",61501,NA,NA,338,"PO BOX 444, ASTORIA, IL, 61501","No_Match",NA,NA,NA,NA
987839,"PO BOX 444","BIGLER","PA",16825,NA,NA,339,"PO BOX 444, BIGLER, PA, 16825","No_Match",NA,NA,NA,NA
987840,"PO BOX 444","BOICEVILE","NY",12412,NA,NA,340,"PO BOX 444, BOICEVILE, NY, 12412","No_Match",NA,NA,NA,NA
987841,"PO BOX 444","BURLINGTON","NJ",8016,NA,NA,341,"PO BOX 444, BURLINGTON, NJ, 8016","No_Match",NA,NA,NA,NA
987842,"PO BOX 444","CAYUCOS","CA",93430,NA,NA,342,"PO BOX 444, CAYUCOS, CA, 93430","No_Match",NA,NA,NA,NA
987843,"PO BOX 444","CEDARBURG","WI",53012,NA,NA,343,"PO BOX 444, CEDARBURG, WI, 53012","No_Match",NA,NA,NA,NA
987844,"PO BOX 444","CHARDON","OH",44024,NA,NA,344,"PO BOX 444, CHARDON, OH, 44024","No_Match",NA,NA,NA,NA
987845,"PO BOX 444","CRAIGSVILLE","WV",26205,NA,NA,345,"PO BOX 444, CRAIGSVILLE, WV, 26205","No_Match",NA,NA,NA,NA
987846,"PO BOX 444","DAYTON","OH",45409,NA,NA,346,"PO BOX 444, DAYTON, OH, 45409","No_Match",NA,NA,NA,NA
987847,"PO BOX 444","HIGHLAND","NY",12528,NA,NA,347,"PO BOX 444, HIGHLAND, NY, 12528","No_Match",NA,NA,NA,NA
987848,"PO BOX 444","HOOLEHUA","HI",96729,NA,NA,348,"PO BOX 444, HOOLEHUA, HI, 96729","No_Match",NA,NA,NA,NA
987849,"PO BOX 444","HORN LAKE","MS",38637,NA,NA,349,"PO BOX 444, HORN LAKE, MS, 38637","No_Match",NA,NA,NA,NA
987850,"PO BOX 444","KILMARNOCK","VA",22482,NA,NA,350,"PO BOX 444, KILMARNOCK, VA, 22482","No_Match",NA,NA,NA,NA
987851,"PO BOX 444","KINGSLEY","MI",49649,NA,NA,351,"PO BOX 444, KINGSLEY, MI, 49649","No_Match",NA,NA,NA,NA
987852,"PO BOX 444","LAUPAHOEHOE","HI",96764,NA,NA,352,"PO BOX 444, LAUPAHOEHOE, HI, 96764","No_Match",NA,NA,NA,NA
987853,"PO BOX 444","MONTGOMERY","AL",36101,NA,NA,353,"PO BOX 444, MONTGOMERY, AL, 36101","No_Match",NA,NA,NA,NA
987854,"PO BOX 444","MORO","OR",97039,NA,NA,354,"PO BOX 444, MORO, OR, 97039","No_Match",NA,NA,NA,NA
987855,"PO BOX 444","PERIDOT","AZ",85542,NA,NA,355,"PO BOX 444, PERIDOT, AZ, 85542","No_Match",NA,NA,NA,NA
987856,"PO BOX 444","SENATOBIA","MS",38668,NA,NA,356,"PO BOX 444, SENATOBIA, MS, 38668","No_Match",NA,NA,NA,NA
987857,"PO BOX 444","SPICER","MN",56288,NA,NA,357,"PO BOX 444, SPICER, MN, 56288","No_Match",NA,NA,NA,NA
987858,"PO BOX 444","STONE HARBOR","NJ",8247,NA,NA,358,"PO BOX 444, STONE HARBOR, NJ, 8247","No_Match",NA,NA,NA,NA
987859,"PO BOX 444","THREE FORKS","MT",59752,NA,NA,359,"PO BOX 444, THREE FORKS, MT, 59752","No_Match",NA,NA,NA,NA
987860,"PO BOX 444","TUOLUMNE","CA",95379,NA,NA,360,"PO BOX 444, TUOLUMNE, CA, 95379","No_Match",NA,NA,NA,NA
987861,"PO BOX 444","VANDERBILT","TX",77991,NA,NA,361,"PO BOX 444, VANDERBILT, TX, 77991","No_Match",NA,NA,NA,NA
987862,"PO BOX 4440","BOZEMAN","MT",59772,NA,NA,362,"PO BOX 4440, BOZEMAN, MT, 59772","No_Match",NA,NA,NA,NA
987863,"PO BOX 4442","BRYAN","TX",77805,NA,NA,363,"PO BOX 4442, BRYAN, TX, 77805","No_Match",NA,NA,NA,NA
987864,"PO BOX 4442","PALMER","AK",99645,NA,NA,364,"PO BOX 4442, PALMER, AK, 99645","No_Match",NA,NA,NA,NA
987865,"PO BOX 4445","FOSTER CITY","CA",94404,NA,NA,365,"PO BOX 4445, FOSTER CITY, CA, 94404","No_Match",NA,NA,NA,NA
987866,"PO BOX 4445","KNOXVILLE","TN",37921,NA,NA,366,"PO BOX 4445, KNOXVILLE, TN, 37921","No_Match",NA,NA,NA,NA
987867,"PO BOX 4445","OAK RIDGE","TN",37830,NA,NA,367,"PO BOX 4445, OAK RIDGE, TN, 37830","No_Match",NA,NA,NA,NA
987868,"PO BOX 4446","APOPKA","FL",32704,NA,NA,368,"PO BOX 4446, APOPKA, FL, 32704","No_Match",NA,NA,NA,NA
987869,"PO BOX 44474","DETROIT","MI",48244,NA,NA,369,"PO BOX 44474, DETROIT, MI, 48244","No_Match",NA,NA,NA,NA
987870,"PO BOX 4448","FONTANA","CA",92334,NA,NA,370,"PO BOX 4448, FONTANA, CA, 92334","No_Match",NA,NA,NA,NA
987871,"PO BOX 445","ALDERSON","WV",24910,NA,NA,371,"PO BOX 445, ALDERSON, WV, 24910","No_Match",NA,NA,NA,NA
987872,"PO BOX 445","AXTELL","TX",76624,NA,NA,372,"PO BOX 445, AXTELL, TX, 76624","No_Match",NA,NA,NA,NA
987873,"PO BOX 445","BIMBLE","KY",40915,NA,NA,373,"PO BOX 445, BIMBLE, KY, 40915","No_Match",NA,NA,NA,NA
987874,"PO BOX 445","BRONX","NY",10475,NA,NA,374,"PO BOX 445, BRONX, NY, 10475","No_Match",NA,NA,NA,NA
987875,"PO BOX 445","EAST STROUDSBURG","PA",18301,NA,NA,375,"PO BOX 445, EAST STROUDSBURG, PA, 18301","No_Match",NA,NA,NA,NA
987876,"PO BOX 445","EDGERTON","WI",53534,NA,NA,376,"PO BOX 445, EDGERTON, WI, 53534","No_Match",NA,NA,NA,NA
987877,"PO BOX 445","FONDA","IA",50540,NA,NA,377,"PO BOX 445, FONDA, IA, 50540","No_Match",NA,NA,NA,NA
987878,"PO BOX 445","MULLICA HILL","NJ",8062,NA,NA,378,"PO BOX 445, MULLICA HILL, NJ, 8062","No_Match",NA,NA,NA,NA
987879,"PO BOX 445","NEDERLAND","CO",80466,NA,NA,379,"PO BOX 445, NEDERLAND, CO, 80466","No_Match",NA,NA,NA,NA
987880,"PO BOX 445","NEW CASTLE","CO",81647,NA,NA,380,"PO BOX 445, NEW CASTLE, CO, 81647","No_Match",NA,NA,NA,NA
987881,"PO BOX 445","PEORIA","AZ",85380,NA,NA,381,"PO BOX 445, PEORIA, AZ, 85380","No_Match",NA,NA,NA,NA
987882,"PO BOX 445","STIGLER","OK",74462,NA,NA,382,"PO BOX 445, STIGLER, OK, 74462","No_Match",NA,NA,NA,NA
987883,"PO BOX 445","STURGIS","SD",57785,NA,NA,383,"PO BOX 445, STURGIS, SD, 57785","No_Match",NA,NA,NA,NA
987884,"PO BOX 445","SUNAPEE","NH",3782,NA,NA,384,"PO BOX 445, SUNAPEE, NH, 3782","No_Match",NA,NA,NA,NA
987885,"PO BOX 445","TREGO","MT",59934,NA,NA,385,"PO BOX 445, TREGO, MT, 59934","No_Match",NA,NA,NA,NA
987886,"PO BOX 445","WEST COLUMBIA","TX",77486,NA,NA,386,"PO BOX 445, WEST COLUMBIA, TX, 77486","No_Match",NA,NA,NA,NA
987887,"PO BOX 445","WIMBERLEY","TX",78676,NA,NA,387,"PO BOX 445, WIMBERLEY, TX, 78676","No_Match",NA,NA,NA,NA
987888,"PO BOX 44504","ATLANTA","GA",30336,NA,NA,388,"PO BOX 44504, ATLANTA, GA, 30336","No_Match",NA,NA,NA,NA
987889,"PO BOX 4451","CARMEL","IN",46082,NA,NA,389,"PO BOX 4451, CARMEL, IN, 46082","No_Match",NA,NA,NA,NA
987890,"PO BOX 4453","IRVINE","CA",92697,NA,NA,390,"PO BOX 4453, IRVINE, CA, 92697","No_Match",NA,NA,NA,NA
987891,"PO BOX 44532","LOS ANGELES","CA",90044,NA,NA,391,"PO BOX 44532, LOS ANGELES, CA, 90044","No_Match",NA,NA,NA,NA
987892,"PO BOX 4454","CITRUS HEIGHTS","CA",95611,NA,NA,392,"PO BOX 4454, CITRUS HEIGHTS, CA, 95611","No_Match",NA,NA,NA,NA
987893,"PO BOX 44541","ATLANTA","GA",30336,NA,NA,393,"PO BOX 44541, ATLANTA, GA, 30336","No_Match",NA,NA,NA,NA
987894,"PO BOX 4455","LONG BEACH","CA",90804,NA,NA,394,"PO BOX 4455, LONG BEACH, CA, 90804","No_Match",NA,NA,NA,NA
987895,"PO BOX 44568","FT WASHINGTON","MD",20749,NA,NA,395,"PO BOX 44568, FT WASHINGTON, MD, 20749","No_Match",NA,NA,NA,NA
987896,"PO BOX 4457","FORT LAUDERDALE","FL",33338,NA,NA,396,"PO BOX 4457, FORT LAUDERDALE, FL, 33338","No_Match",NA,NA,NA,NA
987897,"PO BOX 4457","LEESBURG","VA",20177,NA,NA,397,"PO BOX 4457, LEESBURG, VA, 20177","No_Match",NA,NA,NA,NA
987898,"PO BOX 44582","ATLANTA","GA",30336,NA,NA,398,"PO BOX 44582, ATLANTA, GA, 30336","No_Match",NA,NA,NA,NA
987899,"PO BOX 44583","PHOENIX","AZ",85064,NA,NA,399,"PO BOX 44583, PHOENIX, AZ, 85064","No_Match",NA,NA,NA,NA
987900,"PO BOX 44591","KAMUELA","HI",96743,NA,NA,400,"PO BOX 44591, KAMUELA, HI, 96743","No_Match",NA,NA,NA,NA
987901,"PO BOX 446 - 119 PITT STREET","HUSTONTOWN","PA",17229,40.0485063030001,-78.0274562339999,401,"PO BOX 446 - 119 PITT STREET, HUSTONTOWN, PA, 17229","Match","Exact","446 PITT ST, HUSTONTOWN, PA, 17229",639285638,"R"
987902,"PO BOX 446","ENDICOTT","NY",13761,NA,NA,402,"PO BOX 446, ENDICOTT, NY, 13761","No_Match",NA,NA,NA,NA
987903,"PO BOX 446","GREAT BEND","KS",67530,NA,NA,403,"PO BOX 446, GREAT BEND, KS, 67530","No_Match",NA,NA,NA,NA
987904,"PO BOX 446","HANALEI","HI",96714,NA,NA,404,"PO BOX 446, HANALEI, HI, 96714","No_Match",NA,NA,NA,NA
987905,"PO BOX 446","HARLEM","GA",30814,NA,NA,405,"PO BOX 446, HARLEM, GA, 30814","No_Match",NA,NA,NA,NA
987906,"PO BOX 446","HARRISON","OH",45030,NA,NA,406,"PO BOX 446, HARRISON, OH, 45030","No_Match",NA,NA,NA,NA
987907,"PO BOX 446","HENDERSON","NE",68371,NA,NA,407,"PO BOX 446, HENDERSON, NE, 68371","No_Match",NA,NA,NA,NA
987908,"PO BOX 446","HUSTONTOWN","PA",17229,NA,NA,408,"PO BOX 446, HUSTONTOWN, PA, 17229","No_Match",NA,NA,NA,NA
987909,"PO BOX 446","KANEOHE","HI",96744,NA,NA,409,"PO BOX 446, KANEOHE, HI, 96744","No_Match",NA,NA,NA,NA
987910,"PO BOX 446","LANCASTER","TX",75146,NA,NA,410,"PO BOX 446, LANCASTER, TX, 75146","No_Match",NA,NA,NA,NA
987911,"PO BOX 446","LITTLE ROCK","AR",72201,NA,NA,411,"PO BOX 446, LITTLE ROCK, AR, 72201","No_Match",NA,NA,NA,NA
987912,"PO BOX 446","MARION","NC",28752,NA,NA,412,"PO BOX 446, MARION, NC, 28752","No_Match",NA,NA,NA,NA
987913,"PO BOX 446","MONTEAGLE","TN",37356,NA,NA,413,"PO BOX 446, MONTEAGLE, TN, 37356","No_Match",NA,NA,NA,NA
987914,"PO BOX 446","MT. HOPE","WV",25880,NA,NA,414,"PO BOX 446, MT. HOPE, WV, 25880","No_Match",NA,NA,NA,NA
987915,"PO BOX 446","NEAH BAY","WA",98357,NA,NA,415,"PO BOX 446, NEAH BAY, WA, 98357","No_Match",NA,NA,NA,NA
987916,"PO BOX 446","OJAI","CA",93024,NA,NA,416,"PO BOX 446, OJAI, CA, 93024","No_Match",NA,NA,NA,NA
987917,"PO BOX 446","OKMULGEE","OK",74447,NA,NA,417,"PO BOX 446, OKMULGEE, OK, 74447","No_Match",NA,NA,NA,NA
987918,"PO BOX 446","ONA","FL",33865,NA,NA,418,"PO BOX 446, ONA, FL, 33865","No_Match",NA,NA,NA,NA
987919,"PO BOX 446","OXFORD","IA",52322,NA,NA,419,"PO BOX 446, OXFORD, IA, 52322","No_Match",NA,NA,NA,NA
987920,"PO BOX 446","SAXTONS RIVER","VT",5154,NA,NA,420,"PO BOX 446, SAXTONS RIVER, VT, 5154","No_Match",NA,NA,NA,NA
987921,"PO BOX 446","SOUTH SUTTON","NH",3273,NA,NA,421,"PO BOX 446, SOUTH SUTTON, NH, 3273","No_Match",NA,NA,NA,NA
987922,"PO BOX 446","SOUTHEASTERN","PA",19399,NA,NA,422,"PO BOX 446, SOUTHEASTERN, PA, 19399","No_Match",NA,NA,NA,NA
987923,"PO BOX 446","SPRINGFIELD","SD",57062,NA,NA,423,"PO BOX 446, SPRINGFIELD, SD, 57062","No_Match",NA,NA,NA,NA
987924,"PO BOX 446","STATESBORO","GA",30459,NA,NA,424,"PO BOX 446, STATESBORO, GA, 30459","No_Match",NA,NA,NA,NA
987925,"PO BOX 446","STRAFFORD","NH",3884,NA,NA,425,"PO BOX 446, STRAFFORD, NH, 3884","No_Match",NA,NA,NA,NA
987926,"PO BOX 4461","MONROE","LA",71211,NA,NA,426,"PO BOX 4461, MONROE, LA, 71211","No_Match",NA,NA,NA,NA
987927,"PO BOX 4462","BRANDON","MS",39047,NA,NA,427,"PO BOX 4462, BRANDON, MS, 39047","No_Match",NA,NA,NA,NA
987928,"PO BOX 4462","NEW YORK","NY",10017,NA,NA,428,"PO BOX 4462, NEW YORK, NY, 10017","No_Match",NA,NA,NA,NA
987929,"PO BOX 4463","KAILUA KONA","HI",96745,NA,NA,429,"PO BOX 4463, KAILUA KONA, HI, 96745","No_Match",NA,NA,NA,NA
987930,"PO BOX 44638","KAMUELA","HI",96743,NA,NA,430,"PO BOX 44638, KAMUELA, HI, 96743","No_Match",NA,NA,NA,NA
987931,"PO BOX 4464","SANTA FE","NM",87502,NA,NA,431,"PO BOX 4464, SANTA FE, NM, 87502","No_Match",NA,NA,NA,NA
987932,"PO BOX 4465","PAGO PAGO","AS",96799,NA,NA,432,"PO BOX 4465, PAGO PAGO, AS, 96799","No_Match",NA,NA,NA,NA
987933,"PO BOX 4466","DIAMOND BAR","CA",91765,NA,NA,433,"PO BOX 4466, DIAMOND BAR, CA, 91765","No_Match",NA,NA,NA,NA
987934,"PO BOX 44671","KAMUELA","HI",96743,NA,NA,434,"PO BOX 44671, KAMUELA, HI, 96743","No_Match",NA,NA,NA,NA
987935,"PO BOX 447","ACCORD","NY",12404,NA,NA,435,"PO BOX 447, ACCORD, NY, 12404","No_Match",NA,NA,NA,NA
987936,"PO BOX 447","ASHLAND","NY",12407,NA,NA,436,"PO BOX 447, ASHLAND, NY, 12407","No_Match",NA,NA,NA,NA
987937,"PO BOX 447","ASHTABULA","OH",44004,NA,NA,437,"PO BOX 447, ASHTABULA, OH, 44004","No_Match",NA,NA,NA,NA
987938,"PO BOX 447","CANVAS","WV",26662,NA,NA,438,"PO BOX 447, CANVAS, WV, 26662","No_Match",NA,NA,NA,NA
987939,"PO BOX 447","EAGLE BUTTE","SD",57625,NA,NA,439,"PO BOX 447, EAGLE BUTTE, SD, 57625","No_Match",NA,NA,NA,NA
987940,"PO BOX 447","EL RITO","NM",87530,NA,NA,440,"PO BOX 447, EL RITO, NM, 87530","No_Match",NA,NA,NA,NA
987941,"PO BOX 447","FLORAL PARK","NY",11002,NA,NA,441,"PO BOX 447, FLORAL PARK, NY, 11002","No_Match",NA,NA,NA,NA
987942,"PO BOX 447","FOSSIL","OR",97830,NA,NA,442,"PO BOX 447, FOSSIL, OR, 97830","No_Match",NA,NA,NA,NA
987943,"PO BOX 447","GLASGOW","MT",59230,NA,NA,443,"PO BOX 447, GLASGOW, MT, 59230","No_Match",NA,NA,NA,NA
987944,"PO BOX 447","HIRAM","OH",44234,NA,NA,444,"PO BOX 447, HIRAM, OH, 44234","No_Match",NA,NA,NA,NA
987945,"PO BOX 447","INDIANOLA","MS",38751,NA,NA,445,"PO BOX 447, INDIANOLA, MS, 38751","No_Match",NA,NA,NA,NA
987946,"PO BOX 447","JASPER","AR",72641,NA,NA,446,"PO BOX 447, JASPER, AR, 72641","No_Match",NA,NA,NA,NA
987947,"PO BOX 447","LOUISIANA","MO",63353,NA,NA,447,"PO BOX 447, LOUISIANA, MO, 63353","No_Match",NA,NA,NA,NA
987948,"PO BOX 447","MAHOPAC","NY",10542,NA,NA,448,"PO BOX 447, MAHOPAC, NY, 10542","No_Match",NA,NA,NA,NA
987949,"PO BOX 447","MONONA","IA",52159,NA,NA,449,"PO BOX 447, MONONA, IA, 52159","No_Match",NA,NA,NA,NA
987950,"PO BOX 447","MT NEBO","WV",26679,NA,NA,450,"PO BOX 447, MT NEBO, WV, 26679","No_Match",NA,NA,NA,NA
987951,"PO BOX 447","NEWPORT","NY",13416,NA,NA,451,"PO BOX 447, NEWPORT, NY, 13416","No_Match",NA,NA,NA,NA
987952,"PO BOX 447","NORWOOD","CO",81423,NA,NA,452,"PO BOX 447, NORWOOD, CO, 81423","No_Match",NA,NA,NA,NA
987953,"PO BOX 447","ROCK CREEK","OH",44084,NA,NA,453,"PO BOX 447, ROCK CREEK, OH, 44084","No_Match",NA,NA,NA,NA
987954,"PO BOX 447","SEWELL","NJ",8080,NA,NA,454,"PO BOX 447, SEWELL, NJ, 8080","No_Match",NA,NA,NA,NA
987955,"PO BOX 447","SIX MILE","SC",29682,NA,NA,455,"PO BOX 447, SIX MILE, SC, 29682","No_Match",NA,NA,NA,NA
987956,"PO BOX 447","SPRINGTOWN","TX",76082,NA,NA,456,"PO BOX 447, SPRINGTOWN, TX, 76082","No_Match",NA,NA,NA,NA
987957,"PO BOX 447","THOMPSON FALLS","MT",59873,NA,NA,457,"PO BOX 447, THOMPSON FALLS, MT, 59873","No_Match",NA,NA,NA,NA
987958,"PO BOX 447","WARDEN","WA",98857,NA,NA,458,"PO BOX 447, WARDEN, WA, 98857","No_Match",NA,NA,NA,NA
987959,"PO BOX 4472","COMPTON","CA",90224,NA,NA,459,"PO BOX 4472, COMPTON, CA, 90224","No_Match",NA,NA,NA,NA
987960,"PO BOX 4472","WASHINGTON","DC",20017,NA,NA,460,"PO BOX 4472, WASHINGTON, DC, 20017","No_Match",NA,NA,NA,NA
987961,"PO BOX 4473","MOORESVILLE","NC",28117,NA,NA,461,"PO BOX 4473, MOORESVILLE, NC, 28117","No_Match",NA,NA,NA,NA
987962,"PO BOX 44742","PHOENIX","AZ",85064,NA,NA,462,"PO BOX 44742, PHOENIX, AZ, 85064","No_Match",NA,NA,NA,NA
987963,"PO BOX 448","DELTA JUNCTION","AK",99737,NA,NA,463,"PO BOX 448, DELTA JUNCTION, AK, 99737","No_Match",NA,NA,NA,NA
987964,"PO BOX 448","LINDEN","TN",37096,NA,NA,464,"PO BOX 448, LINDEN, TN, 37096","No_Match",NA,NA,NA,NA
987965,"PO BOX 448","MOOREFIELD","WV",26836,NA,NA,465,"PO BOX 448, MOOREFIELD, WV, 26836","No_Match",NA,NA,NA,NA
987966,"PO BOX 448","NAALEHU","HI",96772,NA,NA,466,"PO BOX 448, NAALEHU, HI, 96772","No_Match",NA,NA,NA,NA
987967,"PO BOX 448","OROFINO","ID",83544,NA,NA,467,"PO BOX 448, OROFINO, ID, 83544","No_Match",NA,NA,NA,NA
987968,"PO BOX 448","SPOUT SPRING","VA",24593,NA,NA,468,"PO BOX 448, SPOUT SPRING, VA, 24593","No_Match",NA,NA,NA,NA
987969,"PO BOX 448","TERLINGUA","TX",79852,NA,NA,469,"PO BOX 448, TERLINGUA, TX, 79852","No_Match",NA,NA,NA,NA
987970,"PO BOX 448","WELCHES","OR",97067,NA,NA,470,"PO BOX 448, WELCHES, OR, 97067","No_Match",NA,NA,NA,NA
987971,"PO BOX 44801","INDIANAPOLIS","IN",46244,NA,NA,471,"PO BOX 44801, INDIANAPOLIS, IN, 46244","No_Match",NA,NA,NA,NA
987972,"PO BOX 44802","MADISON","WI",53744,NA,NA,472,"PO BOX 44802, MADISON, WI, 53744","No_Match",NA,NA,NA,NA
987973,"PO BOX 4481","PITTSBURGH","PA",15205,NA,NA,473,"PO BOX 4481, PITTSBURGH, PA, 15205","No_Match",NA,NA,NA,NA
987974,"PO BOX 4483","GREENSBORO","NC",27404,NA,NA,474,"PO BOX 4483, GREENSBORO, NC, 27404","No_Match",NA,NA,NA,NA
987975,"PO BOX 44832","BALTIMORE","MD",21236,NA,NA,475,"PO BOX 44832, BALTIMORE, MD, 21236","No_Match",NA,NA,NA,NA
987976,"PO BOX 4484","KAILUA KONA","HI",96745,NA,NA,476,"PO BOX 4484, KAILUA KONA, HI, 96745","No_Match",NA,NA,NA,NA
987977,"PO BOX 4485","CHATTANOOGA","TN",37405,NA,NA,477,"PO BOX 4485, CHATTANOOGA, TN, 37405","No_Match",NA,NA,NA,NA
987978,"PO BOX 4486","CRESTLINE","CA",92325,NA,NA,478,"PO BOX 4486, CRESTLINE, CA, 92325","No_Match",NA,NA,NA,NA
987979,"PO BOX 4486","PALESTINE","TX",75802,NA,NA,479,"PO BOX 4486, PALESTINE, TX, 75802","No_Match",NA,NA,NA,NA
987980,"PO BOX 4487","SPANAWAY","WA",98387,NA,NA,480,"PO BOX 4487, SPANAWAY, WA, 98387","No_Match",NA,NA,NA,NA
987981,"PO BOX 44875","EDEN PRAIRIE","MN",55344,NA,NA,481,"PO BOX 44875, EDEN PRAIRIE, MN, 55344","No_Match",NA,NA,NA,NA
987982,"PO BOX 449","HARTSEL","CO",80449,NA,NA,482,"PO BOX 449, HARTSEL, CO, 80449","No_Match",NA,NA,NA,NA
987983,"PO BOX 449","LITHIA SPRINGS","NC",30122,NA,NA,483,"PO BOX 449, LITHIA SPRINGS, NC, 30122","No_Match",NA,NA,NA,NA
987984,"PO BOX 449","MCKENNA","WA",98558,NA,NA,484,"PO BOX 449, MCKENNA, WA, 98558","No_Match",NA,NA,NA,NA
987985,"PO BOX 449","MT. AIRY","NC",27030,NA,NA,485,"PO BOX 449, MT. AIRY, NC, 27030","No_Match",NA,NA,NA,NA
987986,"PO BOX 449","THREE RIVERS","CA",93271,NA,NA,486,"PO BOX 449, THREE RIVERS, CA, 93271","No_Match",NA,NA,NA,NA
987987,"PO BOX 449","WEST POINT","VA",23181,NA,NA,487,"PO BOX 449, WEST POINT, VA, 23181","No_Match",NA,NA,NA,NA
987988,"PO BOX 449","WINNSBORO","SC",29180,NA,NA,488,"PO BOX 449, WINNSBORO, SC, 29180","No_Match",NA,NA,NA,NA
987989,"PO BOX 4491","KETCHUM","ID",83340,NA,NA,489,"PO BOX 4491, KETCHUM, ID, 83340","No_Match",NA,NA,NA,NA
987990,"PO BOX 44944","KAMUELA","HI",96743,NA,NA,490,"PO BOX 44944, KAMUELA, HI, 96743","No_Match",NA,NA,NA,NA
987991,"PO BOX 4497","SAINT AUGUSTINE","FL",32085,NA,NA,491,"PO BOX 4497, SAINT AUGUSTINE, FL, 32085","No_Match",NA,NA,NA,NA
987992,"PO BOX 45","AARONSBURG","PA",16820,NA,NA,492,"PO BOX 45, AARONSBURG, PA, 16820","No_Match",NA,NA,NA,NA
987993,"PO BOX 45","BANGOR","WI",54614,NA,NA,493,"PO BOX 45, BANGOR, WI, 54614","No_Match",NA,NA,NA,NA
987994,"PO BOX 45","BUFFALO LAKE","MN",55314,NA,NA,494,"PO BOX 45, BUFFALO LAKE, MN, 55314","No_Match",NA,NA,NA,NA
987995,"PO BOX 45","BURLINGTON","PA",18814,NA,NA,495,"PO BOX 45, BURLINGTON, PA, 18814","No_Match",NA,NA,NA,NA
987996,"PO BOX 45","CHANDLER","AZ",85244,NA,NA,496,"PO BOX 45, CHANDLER, AZ, 85244","No_Match",NA,NA,NA,NA
987997,"PO BOX 45","CHANDLR","AZ",85244,NA,NA,497,"PO BOX 45, CHANDLR, AZ, 85244","No_Match",NA,NA,NA,NA
987998,"PO BOX 45","CLIFTON PARK","NY",12065,NA,NA,498,"PO BOX 45, CLIFTON PARK, NY, 12065","No_Match",NA,NA,NA,NA
987999,"PO BOX 45","COLDIRON","KY",40819,NA,NA,499,"PO BOX 45, COLDIRON, KY, 40819","No_Match",NA,NA,NA,NA
988000,"PO BOX 45","COLLEYVILLE","TX",76034,NA,NA,500,"PO BOX 45, COLLEYVILLE, TX, 76034","No_Match",NA,NA,NA,NA
