"ID","Address","City","State","Zip","lat","long","id","input_address","match_indicator","match_type","matched_address","tiger_line_id","tiger_side"
233001,"16300 NORTH PARK DR STE 1119","SOUTHFIELD","MI",48075,42.4560229000001,-83.2092549829999,1,"16300 NORTH PARK DR STE 1119, SOUTHFIELD, MI, 48075","Match","Exact","16300 N PARK DR, SOUTHFIELD, MI, 48075",630369739,"R"
233002,"16300 NORTH PARK DRIVE APT 201","SOUTHFIELD","MI",48075,42.4560229000001,-83.2092549829999,2,"16300 NORTH PARK DRIVE APT 201, SOUTHFIELD, MI, 48075","Match","Exact","16300 N PARK DR, SOUTHFIELD, MI, 48075",630369739,"R"
233003,"16300 NW 12TH STREET","PEMBROKE PINES","FL",33028,26.017962438,-80.3606029699999,3,"16300 NW 12TH STREET, PEMBROKE PINES, FL, 33028","Match","Non_Exact","16300 NW 12TH ST, PEMBROKE PINES, FL, 33028",648542831,"R"
233004,"16300 OLD EMMITSBURG ROAD STE 2","EMMITSBURG","MD",21727,39.683593224,-77.348805189,4,"16300 OLD EMMITSBURG ROAD STE 2, EMMITSBURG, MD, 21727","Match","Non_Exact","16300 OLD EMMITSBURG RD, EMMITSBURG, MD, 21727",637308190,"L"
233005,"16300 OLD EMMITSBURG ROAD","EMMITSBURG","MD",21727,39.683593224,-77.348805189,5,"16300 OLD EMMITSBURG ROAD, EMMITSBURG, MD, 21727","Match","Exact","16300 OLD EMMITSBURG RD, EMMITSBURG, MD, 21727",637308190,"L"
233006,"16300 SAN CANYON AVENUE STE 911","IRVINE","CA",92618,NA,NA,6,"16300 SAN CANYON AVENUE STE 911, IRVINE, CA, 92618","No_Match",NA,NA,NA,NA
233007,"16300 SAND CANYON AVENUE STE 911","IRVINE","CA",92618,33.6612173620001,-117.774418384,7,"16300 SAND CANYON AVENUE STE 911, IRVINE, CA, 92618","Match","Exact","16300 SAND CANYON AVE, IRVINE, CA, 92618",612206695,"L"
233008,"16300 SHOEMAKER AVE","CERRITOS","CA",90703,33.883855135,-118.055315861,8,"16300 SHOEMAKER AVE, CERRITOS, CA, 90703","Match","Exact","16300 SHOEMAKER AVE, CERRITOS, CA, 90703",141753266,"L"
233009,"16300 STATE RD 64 E","BRADENTON","FL",34212,NA,NA,9,"16300 STATE RD 64 E, BRADENTON, FL, 34212","No_Match",NA,NA,NA,NA
233010,"16300 SW 137TH AVE UNIT 113","MIAMI","FL",33157,NA,NA,10,"16300 SW 137TH AVE UNIT 113, MIAMI, FL, 33157","No_Match",NA,NA,NA,NA
233011,"16300 SW FAMEL AVE","INDIANTOWN","FL",34956,27.0168867580001,-80.466848267,11,"16300 SW FAMEL AVE, INDIANTOWN, FL, 34956","Match","Exact","16300 SW FAMEL AVE, INDIANTOWN, FL, 34956",636393964,"L"
233012,"16300 SW FAMEL AVENUE","INDIANTOWN","FL",34956,27.0168867580001,-80.466848267,12,"16300 SW FAMEL AVENUE, INDIANTOWN, FL, 34956","Match","Exact","16300 SW FAMEL AVE, INDIANTOWN, FL, 34956",636393964,"L"
233013,"16300 WEINGARTEN ROAD","STE GENEVIEVE","MO",63670,37.8873826670001,-90.2139478999999,13,"16300 WEINGARTEN ROAD, STE GENEVIEVE, MO, 63670","Match","Exact","16300 WEINGARTEN RD, STE GENEVIEVE, MO, 63670",635782341,"R"
233014,"16300 WISDOM DRIVE","CARY","NC",27519,NA,NA,14,"16300 WISDOM DRIVE, CARY, NC, 27519","No_Match",NA,NA,NA,NA
233015,"16301 BALASSI RD","HACIENDA HEIGHTS","CA",91745,33.987670774,-117.957079851,15,"16301 BALASSI RD, HACIENDA HEIGHTS, CA, 91745","Match","Exact","16301 BALASSI RD, HACIENDA HTS, CA, 91745",142800795,"L"
233016,"16301 BLACK RUN ROAD","ORANGE","VA",22960,38.244660615,-78.089816846,16,"16301 BLACK RUN ROAD, ORANGE, VA, 22960","Match","Exact","16301 BLACK RUN RD, ORANGE, VA, 22960",29887291,"L"
233017,"16301 DECKER LAKE RD","MANOR","TX",78653,30.2606557290001,-97.562699333,17,"16301 DECKER LAKE RD, MANOR, TX, 78653","Match","Exact","16301 DECKER LAKE RD, MANOR, TX, 78653",63952984,"R"
233018,"16301 EAGLE FLIGHT CIR","WOODBRIDGE","VA",22191,38.599286567,-77.3027362509999,18,"16301 EAGLE FLIGHT CIR, WOODBRIDGE, VA, 22191","Match","Exact","16301 EAGLE FLIGHT CIR, WOODBRIDGE, VA, 22191",610226712,"R"
233019,"16301 HARRISON","ROMULUS","MI",48174,42.184266246,-83.3168842759999,19,"16301 HARRISON, ROMULUS, MI, 48174","Match","Non_Exact","16301 HARRISON AVE, ROMULUS, MI, 48174",633636401,"L"
233020,"16301 LEDGEMEONT LANE APT 157","ADDISON","TX",75001,32.972539204,-96.827747247,20,"16301 LEDGEMEONT LANE APT 157, ADDISON, TX, 75001","Match","Non_Exact","16301 LEDGEMONT LN, ADDISON, TX, 75001",102970899,"L"
233021,"16301 LINDEN RD","ARGOS","IN",46501,41.24029699,-86.26957564,21,"16301 LINDEN RD, ARGOS, IN, 46501","Match","Exact","16301 LINDEN RD, ARGOS, IN, 46501",7645431,"L"
233022,"16301 MEADOWHOUSE AVE UNIT 1236","CHINO","CA",91708,33.956619356,-117.641264801,22,"16301 MEADOWHOUSE AVE UNIT 1236, CHINO, CA, 91708","Match","Non_Exact","16301 MEADOWHOUSE AVE, CHINO, CA, 91710",650711716,"R"
233023,"16301 MEADOWHOUSE AVE UNIT 238","CHINO","CA",91708,33.956619356,-117.641264801,23,"16301 MEADOWHOUSE AVE UNIT 238, CHINO, CA, 91708","Match","Non_Exact","16301 MEADOWHOUSE AVE, CHINO, CA, 91710",650711716,"R"
233024,"16301 NW RED SHOT LN","CARLTON","OR",97111,45.2947509890001,-123.28259809,24,"16301 NW RED SHOT LN, CARLTON, OR, 97111","Match","Exact","16301 NW RED SHOT LN, CARLTON, OR, 97111",605597724,"L"
233025,"16301 PETALUMA PLACE","EDMOND","OK",73013,35.6362499200001,-97.541012208,25,"16301 PETALUMA PLACE, EDMOND, OK, 73013","Match","Exact","16301 PETALUMA PL, EDMOND, OK, 73013",624062398,"L"
233026,"16301 S CHESTER ST","OLATHE","KS",66062,38.834329978,-94.793035528,26,"16301 S CHESTER ST, OLATHE, KS, 66062","Match","Exact","16301 S CHESTER ST, OLATHE, KS, 66062",91328748,"R"
233027,"16301 SHAKER BLVD","SHAKER HEIGHTS","OH",44120,41.481183668,-81.566785506,27,"16301 SHAKER BLVD, SHAKER HEIGHTS, OH, 44120","Match","Exact","16301 SHAKER BLVD, SHAKER HEIGHTS, OH, 44120",642634280,"L"
233028,"16301 SOUTH TATANKA","SAHAURITA","AZ",85629,31.9588064550001,-110.830673843,28,"16301 SOUTH TATANKA, SAHAURITA, AZ, 85629","Match","Non_Exact","16301 S TATANKA LN, SAHUARITA, AZ, 85629",121389021,"L"
233029,"16301 SW 62 STREET","SW RANCHES","FL",33331,26.0417967980001,-80.366452363,29,"16301 SW 62 STREET, SW RANCHES, FL, 33331","Match","Exact","16301 SW 62ND ST, SOUTHWEST RANCHES, FL, 33331",114761317,"R"
233030,"16301 SW 80TH AVE","PALMETTO BAY","FL",33157,25.6191586840001,-80.322800281,30,"16301 SW 80TH AVE, PALMETTO BAY, FL, 33157","Match","Exact","16301 SW 80TH AVE, PALMETTO BAY, FL, 33157",115986901,"L"
233031,"16301 SW 80TH AVENUE","PALMETTO BAY","FL",33157,25.6191586840001,-80.322800281,31,"16301 SW 80TH AVENUE, PALMETTO BAY, FL, 33157","Match","Exact","16301 SW 80TH AVE, PALMETTO BAY, FL, 33157",115986901,"L"
233032,"16301 W 141ST ST","OLATHE","KS",66062,38.8724944360001,-94.7742746819999,32,"16301 W 141ST ST, OLATHE, KS, 66062","Match","Exact","16301 W 141ST ST, OLATHE, KS, 66062",91284191,"R"
233033,"16301","MANOR","TX",78653,NA,NA,33,"16301, MANOR, TX, 78653","No_Match",NA,NA,NA,NA
233034,"16302 ARCHERY RANGE RD","SHAWNEE","OK",74801,NA,NA,34,"16302 ARCHERY RANGE RD, SHAWNEE, OK, 74801","No_Match",NA,NA,NA,NA
233035,"16302 COFFEE LAKE DRIVE","ROSHARON","TX",77583,29.353866281,-95.533709124,35,"16302 COFFEE LAKE DRIVE, ROSHARON, TX, 77583","Match","Exact","16302 COFFEE LAKE DR, ROSHARON, TX, 77583",641818997,"R"
233036,"16302 CYPRESS MULCH CIR  UNIT 2704","TAMPA","FL",33624,28.103793378,-82.508885581,36,"16302 CYPRESS MULCH CIR  UNIT 2704, TAMPA, FL, 33624","Match","Exact","16302 CYPRESS MULCH CIR, TAMPA, FL, 33624",104567182,"R"
233037,"16302 EL CAMINO REAL 2802","HOUSTON","TX",77062,NA,NA,37,"16302 EL CAMINO REAL 2802, HOUSTON, TX, 77062","No_Match",NA,NA,NA,NA
233038,"16302 FIR ROAD","SANT FE","TX",77517,29.3880483180001,-95.149041559,38,"16302 FIR ROAD, SANT FE, TX, 77517","Match","Non_Exact","16302 FIR RD, SANTA FE, TX, 77517",96683751,"L"
233039,"16302 FIR ROAD","SANTA FE","TX",77517,29.3880483180001,-95.149041559,39,"16302 FIR ROAD, SANTA FE, TX, 77517","Match","Exact","16302 FIR RD, SANTA FE, TX, 77517",96683751,"L"
233040,"16302 IDLEWOOD COURT","WILDWOOD","MO",63005,38.608221133,-90.599017266,40,"16302 IDLEWOOD COURT, WILDWOOD, MO, 63005","Match","Exact","16302 IDLEWOOD CT, WILDWOOD, MO, 63005",100110018,"L"
233041,"16302 LYNN CREST CT","HOUSTON","TX",77083,29.680143168,-95.67181228,41,"16302 LYNN CREST CT, HOUSTON, TX, 77083","Match","Exact","16302 LYNN CREST CT, HOUSTON, TX, 77083",78334602,"R"
233042,"16302 MELLOW OAKS LANE","SUGAR LAND","TX",77498,29.6478242910001,-95.6688920239999,42,"16302 MELLOW OAKS LANE, SUGAR LAND, TX, 77498","Match","Exact","16302 MELLOW OAKS LN, SUGAR LAND, TX, 77498",78334106,"L"
233043,"16302 NE 105TH ST","VANCOUVER","WA",98682,NA,NA,43,"16302 NE 105TH ST, VANCOUVER, WA, 98682","No_Match",NA,NA,NA,NA
233044,"16302 PEWTER LANE","BOWIE","MD",20716,38.903569223,-76.722590301,44,"16302 PEWTER LANE, BOWIE, MD, 20716","Match","Exact","16302 PEWTER LN, BOWIE, MD, 20716",76349420,"R"
233045,"16302 SHEFFIELD POINT CIRCLE","BALLWIN","MO",63021,38.5588922310001,-90.581911724,45,"16302 SHEFFIELD POINT CIRCLE, BALLWIN, MO, 63021","Match","Non_Exact","16302 SHEFFIELD POINT CT, BALLWIN, MO, 63021",100197931,"L"
233046,"16302 STATE ROAD 148","AURORA","IN",47001,39.107247305,-84.932089073,46,"16302 STATE ROAD 148, AURORA, IN, 47001","Match","Exact","16302 STATE RD 148, AURORA, IN, 47001",76871541,"L"
233047,"16303 BEDFORD FALLS LN","FIRSCO","TX",75068,33.2137905750001,-96.890045641,47,"16303 BEDFORD FALLS LN, FIRSCO, TX, 75068","Match","Non_Exact","16303 BEDFORD FALLS LN, OAK POINT, TX, 75068",648141169,"R"
233048,"16303 BEDFORD FALLS LN","FRISCO","TX",75068,33.2137905750001,-96.890045641,48,"16303 BEDFORD FALLS LN, FRISCO, TX, 75068","Match","Non_Exact","16303 BEDFORD FALLS LN, OAK POINT, TX, 75068",648141169,"R"
233049,"16303 CHELSEA PLACE 839","SELMA","TX",78154,29.5875313440001,-98.2959700489999,49,"16303 CHELSEA PLACE 839, SELMA, TX, 78154","Match","Exact","16303 CHELSEA PL, SELMA, TX, 78154",642831712,"L"
233050,"16303 CHELSEA PLACE APT 1036","SELMA","TX",78154,29.5875313440001,-98.2959700489999,50,"16303 CHELSEA PLACE APT 1036, SELMA, TX, 78154","Match","Exact","16303 CHELSEA PL, SELMA, TX, 78154",642831712,"L"
233051,"16303 CUTTEN RD","HOUSTON","TX",77070,30.00636676,-95.571161457,51,"16303 CUTTEN RD, HOUSTON, TX, 77070","Match","Exact","16303 CUTTEN RD, HOUSTON, TX, 77070",96003258,"L"
233052,"16303 DIXON ROAD","PETERSBURG","MI",49270,41.919397685,-83.676462198,52,"16303 DIXON ROAD, PETERSBURG, MI, 49270","Match","Exact","16303 DIXON RD, PETERSBURG, MI, 49270",40475698,"R"
233053,"16303 DOUBLEGROVE ST","LA PUENTE","CA",91744,34.048097565,-117.927730592,53,"16303 DOUBLEGROVE ST, LA PUENTE, CA, 91744","Match","Exact","16303 DOUBLEGROVE ST, LA PUENTE, CA, 91744",142781822,"L"
233054,"16303 DOUBLEGROVE ST","VALINDA","CA",91744,34.048097565,-117.927730592,54,"16303 DOUBLEGROVE ST, VALINDA, CA, 91744","Match","Non_Exact","16303 DOUBLEGROVE ST, LA PUENTE, CA, 91744",142781822,"L"
233055,"16303 FM 1227 RD","NAVASOTA","TX",77868,30.298214832,-96.05165565,55,"16303 FM 1227 RD, NAVASOTA, TX, 77868","Match","Non_Exact","16303 FM 1227, NAVASOTA, TX, 77868",21895687,"L"
233056,"16303 IMPERIAL VALLEY DR APT 1310","HOUSTON","TX",77060,29.936714749,-95.397934752,56,"16303 IMPERIAL VALLEY DR APT 1310, HOUSTON, TX, 77060","Match","Exact","16303 IMPERIAL VALLEY DR, HOUSTON, TX, 77060",96656524,"L"
233057,"16303 LAUDER LN","DALLAS, TX","TX",75248,32.976822305,-96.7706959879999,57,"16303 LAUDER LN, DALLAS, TX, TX, 75248","Match","Non_Exact","16303 LAUDER LN, DALLAS, TX, 75248",102988788,"L"
233058,"16303 MCGREGOR DRIVE","HAGERSTOWN","MD",21740,39.644638317,-77.8051871489999,58,"16303 MCGREGOR DRIVE, HAGERSTOWN, MD, 21740","Match","Exact","16303 MCGREGOR DR, HAGERSTOWN, MD, 21740",60799759,"L"
233059,"16303 NEW PROVIDENCE LANE","CHARLOTTE","NC",28277,35.026366114,-80.856307385,59,"16303 NEW PROVIDENCE LANE, CHARLOTTE, NC, 28277","Match","Exact","16303 NEW PROVIDENCE LN, CHARLOTTE, NC, 28277",70561062,"R"
233060,"16303 NW 14TH ST","PEMBROKE PINES","FL",33082,26.020028321,-80.361263015,60,"16303 NW 14TH ST, PEMBROKE PINES, FL, 33082","Match","Non_Exact","16303 NW 14TH ST, PEMBROKE PNES, FL, 33028",114781727,"R"
233061,"16304 87TH AVE E","PUYALLUP","WA",98375,47.1073742040001,-122.313191384,61,"16304 87TH AVE E, PUYALLUP, WA, 98375","Match","Exact","16304 87TH AVE E, PUYALLUP, WA, 98375",184662703,"L"
233062,"16304 BANDERA","EDMOND","OK",73013,35.636113003,-97.515196562,62,"16304 BANDERA, EDMOND, OK, 73013","Match","Exact","16304 BANDERA, EDMOND, OK, 73013",100434710,"L"
233063,"16304 COUNTRY ROAD 3581","ADA","OK",74820,34.7482258850001,-96.6333398899999,63,"16304 COUNTRY ROAD 3581, ADA, OK, 74820","Match","Non_Exact","16304 CO RD 3581, ADA, OK, 74820",58510444,"L"
233064,"16304 CR 3581","ADA","OK",74820,34.7482258850001,-96.6333398899999,64,"16304 CR 3581, ADA, OK, 74820","Match","Exact","16304 CO RD 3581, ADA, OK, 74820",58510444,"L"
233065,"16304 E PACIFIC AVE","INDEPENDENCE","MO",64050,39.085333834,-94.383908352,65,"16304 E PACIFIC AVE, INDEPENDENCE, MO, 64050","Match","Exact","16304 E PACIFIC AVE, INDEPENDENCE, MO, 64050",91469886,"L"
233066,"16304 LAVERNE AVE","CLEVELAND","OH",44135,41.4369498880001,-81.8120755309999,66,"16304 LAVERNE AVE, CLEVELAND, OH, 44135","Match","Exact","16304 LAVERNE AVE, CLEVELAND, OH, 44135",61102373,"R"
233067,"16304 NEW PROVIDENCE LANE","CHARLOTTE","NC",28277,35.0263150370001,-80.8563162359999,67,"16304 NEW PROVIDENCE LANE, CHARLOTTE, NC, 28277","Match","Exact","16304 NEW PROVIDENCE LN, CHARLOTTE, NC, 28277",70561062,"L"
233068,"16304 S FALLS ST","HUTCHINSON","KS",67501,NA,NA,68,"16304 S FALLS ST, HUTCHINSON, KS, 67501","No_Match",NA,NA,NA,NA
233069,"16304 SARATOGA ST","OMAHA","NE",68116,41.3041434950001,-96.1703573949999,69,"16304 SARATOGA ST, OMAHA, NE, 68116","Match","Exact","16304 SARATOGA ST, OMAHA, NE, 68116",629561699,"R"
233070,"16305 22ND DR SE","MILL CREEK","WA",98012,47.850478996,-122.202900635,70,"16305 22ND DR SE, MILL CREEK, WA, 98012","Match","Exact","16305 22ND DR SE, MILL CREEK, WA, 98012",187799090,"L"
233071,"16305 COLWOOD DRIVE","ODESSA","FL",33556,28.1049823050001,-82.643633559,71,"16305 COLWOOD DRIVE, ODESSA, FL, 33556","Match","Exact","16305 COLWOOD DR, ODESSA, FL, 33556",104567204,"R"
233072,"16305 COUNTRY RD","CANYON","TX",79015,35.0427035050001,-101.945583707,72,"16305 COUNTRY RD, CANYON, TX, 79015","Match","Exact","16305 COUNTRY RD, CANYON, TX, 79015",182661464,"R"
233073,"16305 COUNTY ROAD JJ","SEIBERT","CO",80834,NA,NA,73,"16305 COUNTY ROAD JJ, SEIBERT, CO, 80834","No_Match",NA,NA,NA,NA
233074,"16305 KOLLIN AVENUE","CLEVELAND","OH",44128,41.4259755240001,-81.566739565,74,"16305 KOLLIN AVENUE, CLEVELAND, OH, 44128","Match","Exact","16305 KOLLIN AVE, CLEVELAND, OH, 44128",61127897,"L"
233075,"16305 MARLBORO PIKE","UPPER MARLBORO","MD",20772,38.8161395220001,-76.7224369369999,75,"16305 MARLBORO PIKE, UPPER MARLBORO, MD, 20772","Match","Exact","16305 MARLBORO PIKE, UPPER MARLBORO, MD, 20772",639242994,"R"
233076,"16305 NW 41ST AVE","RIDGEFIELD","WA",98642,45.7386782450001,-122.712977391,76,"16305 NW 41ST AVE, RIDGEFIELD, WA, 98642","Match","Exact","16305 NW 41ST AVE, RIDGEFIELD, WA, 98642",158370623,"L"
233077,"16305 S ST","CAMP PENDLETON","CA",92055,NA,NA,77,"16305 S ST, CAMP PENDLETON, CA, 92055","No_Match",NA,NA,NA,NA
233078,"16305 SUMMIT CREST DR","RIVERSIDE","CA",92506,NA,NA,78,"16305 SUMMIT CREST DR, RIVERSIDE, CA, 92506","No_Match",NA,NA,NA,NA
233079,"16305 SUNCATCHER LN","PIONEER","CA",95666,38.4443542990001,-120.51850246,79,"16305 SUNCATCHER LN, PIONEER, CA, 95666","Match","Exact","16305 SUNCATCHER LN, PIONEER, CA, 95666",132731131,"R"
233080,"16305 W 125TH TERRACE","OLATHE","KS",66062,38.90028922,-94.775875534,80,"16305 W 125TH TERRACE, OLATHE, KS, 66062","Match","Exact","16305 W 125TH TER, OLATHE, KS, 66062",91283686,"L"
233081,"16305 WESLEY PROVIDENCE","LITHONIA","GA",30038,NA,NA,81,"16305 WESLEY PROVIDENCE, LITHONIA, GA, 30038","No_Match",NA,NA,NA,NA
233082,"16306 BANBURY LN","BOWIE","MD",20715,38.967882268,-76.7224833339999,82,"16306 BANBURY LN, BOWIE, MD, 20715","Match","Exact","16306 BANBURY LN, BOWIE, MD, 20715",76399565,"R"
233083,"16306 CHERRY FALL LN","CERRITOS","CA",90703,33.8830890580001,-118.069634188,83,"16306 CHERRY FALL LN, CERRITOS, CA, 90703","Match","Exact","16306 CHERRY FALL LN, CERRITOS, CA, 90703",141744073,"L"
233084,"16306 EPSILON COURT","BOWIE","MD",20716,38.9352867900001,-76.7244380929999,84,"16306 EPSILON COURT, BOWIE, MD, 20716","Match","Exact","16306 EPSILON CT, BOWIE, MD, 20716",76352751,"R"
233085,"16306 GREAT FOREST","HUMBLE","TX",77346,29.966349184,-95.209683271,85,"16306 GREAT FOREST, HUMBLE, TX, 77346","Match","Exact","16306 GREAT FOREST, HUMBLE, TX, 77346",96426838,"L"
233086,"16306 HIGHT AVE","BELTON","MO",64012,38.82767569,-94.503587291,86,"16306 HIGHT AVE, BELTON, MO, 64012","Match","Exact","16306 HIGHT AVE, BELTON, MO, 64012",100928167,"R"
233087,"16306 HILLSIDE GARDEN LN","HOUSTON","TX",77084,29.87333203,-95.655422571,87,"16306 HILLSIDE GARDEN LN, HOUSTON, TX, 77084","Match","Exact","16306 HILLSIDE GARDEN LN, HOUSTON, TX, 77084",646671300,"R"
233088,"16306 PEBBLE CREST COURT","HOUSTON","TX",77083,29.6780608330001,-95.672117591,88,"16306 PEBBLE CREST COURT, HOUSTON, TX, 77083","Match","Exact","16306 PEBBLE CREST CT, HOUSTON, TX, 77083",78334642,"L"
233089,"16306 QUAIL HUNT DRIVE","MISSOURI CITY","TX",77489,29.5909129510001,-95.512761674,89,"16306 QUAIL HUNT DRIVE, MISSOURI CITY, TX, 77489","Match","Exact","16306 QUAIL HUNT DR, MISSOURI CITY, TX, 77489",78271352,"L"
233090,"16306 SW 103RD STREET","MIAMI","FL",33196,25.6703157850001,-80.460279768,90,"16306 SW 103RD STREET, MIAMI, FL, 33196","Match","Exact","16306 SW 103RD ST, MIAMI, FL, 33196",116281235,"L"
233091,"16306 THORNRIDGE DR","GRAND BLANC","MI",48439,NA,NA,91,"16306 THORNRIDGE DR, GRAND BLANC, MI, 48439","No_Match",NA,NA,NA,NA
233092,"16306 WIMBLEDON FOREST DR","SPRING","TX",77379,30.0193962820001,-95.508424088,92,"16306 WIMBLEDON FOREST DR, SPRING, TX, 77379","Match","Exact","16306 WIMBLEDON FOREST DR, SPRING, TX, 77379",96162260,"L"
233093,"16307 - 115TH AVE SW","VASHON","WA",98070,NA,NA,93,"16307 - 115TH AVE SW, VASHON, WA, 98070","No_Match",NA,NA,NA,NA
233094,"16307 ANCIENT FOREST DR","HUMBLE","TX",77346,29.966747189,-95.20724688,94,"16307 ANCIENT FOREST DR, HUMBLE, TX, 77346","Match","Exact","16307 ANCIENT FOREST DR, HUMBLE, TX, 77346",628012193,"R"
233095,"16307 AVENPLACE ROAD","TOMBALL","TX",77377,30.0082397640001,-95.6108382849999,95,"16307 AVENPLACE ROAD, TOMBALL, TX, 77377","Match","Exact","16307 AVENPLACE RD, TOMBALL, TX, 77377",96002775,"R"
233096,"16307 BIRKDALE DRIVE","ODESSA","FL",33556,28.104694034,-82.644049298,96,"16307 BIRKDALE DRIVE, ODESSA, FL, 33556","Match","Exact","16307 BIRKDALE DR, ODESSA, FL, 33556",104567202,"L"
233097,"16307 BOARDWALK TERRACE","ORLAND HILLS","IL",60487,41.5937153900001,-87.843304984,97,"16307 BOARDWALK TERRACE, ORLAND HILLS, IL, 60487","Match","Exact","16307 BOARDWALK TER, ORLAND HILLS, IL, 60487",629316874,"R"
233098,"16307 CORDARY AVE - 213","HAWTHORNE","CA",90250,NA,NA,98,"16307 CORDARY AVE - 213, HAWTHORNE, CA, 90250","No_Match",NA,NA,NA,NA
233099,"16307 MAIN ST","LA PUENTE","CA",91744,34.019345802,-117.943323418,99,"16307 MAIN ST, LA PUENTE, CA, 91744","Match","Exact","16307 MAIN ST, LA PUENTE, CA, 91744",142781683,"L"
233100,"16307 RESERVE DR SE","NORTH BEND","WA",98045,47.453356523,-121.781914864,100,"16307 RESERVE DR SE, NORTH BEND, WA, 98045","Match","Exact","16307 RESERVE DR SE, NORTH BEND, WA, 98045",625199443,"R"
233101,"16307 VILLAGE DRIVE WEST","UPPER MARLBORO","MD",20772,38.8402714900001,-76.719116527,101,"16307 VILLAGE DRIVE WEST, UPPER MARLBORO, MD, 20772","Match","Exact","16307 VILLAGE DR W, UPPER MARLBORO, MD, 20772",76329025,"L"
233102,"16308 177TH PL NE","WOODINVILLE","WA",98070,47.7458093210001,-122.103169779,102,"16308 177TH PL NE, WOODINVILLE, WA, 98070","Match","Non_Exact","16308 177TH PL NE, WOODINVILLE, WA, 98072",186601262,"L"
233103,"16308 BRIDGEGLADE LANE","LITHIA","FL",33547,27.8351052420001,-82.213048653,103,"16308 BRIDGEGLADE LANE, LITHIA, FL, 33547","Match","Exact","16308 BRIDGEGLADE LN, LITHIA, FL, 33547",625727464,"R"
233104,"16308 GALEHOUSE ROAD","DOYLESTOWN","OH",44230,40.94364884,-81.693467072,104,"16308 GALEHOUSE ROAD, DOYLESTOWN, OH, 44230","Match","Exact","16308 GALEHOUSE RD, DOYLESTOWN, OH, 44230",58744254,"R"
233105,"16308 HIGHVIEW DR","CLEVELAND","OH",44128,41.427615233,-81.566417416,105,"16308 HIGHVIEW DR, CLEVELAND, OH, 44128","Match","Exact","16308 HIGHVIEW DR, CLEVELAND, OH, 44128",61127883,"R"
233106,"16308 LANDMARK DR","WHITTIER","CA",90604,33.919310932,-117.982991671,106,"16308 LANDMARK DR, WHITTIER, CA, 90604","Match","Exact","16308 LANDMARK DR, WHITTIER, CA, 90604",141753039,"R"
233107,"16308 SMITH STREET","JERSEY VILLAGE","TX",77040,29.892946565,-95.5685908469999,107,"16308 SMITH STREET, JERSEY VILLAGE, TX, 77040","Match","Exact","16308 SMITH ST, JERSEY VILLAGE, TX, 77040",96018808,"L"
233108,"16308 SOUTHLAND AVE","CLEVELAND","OH",44111,41.460649167,-81.8117540539999,108,"16308 SOUTHLAND AVE, CLEVELAND, OH, 44111","Match","Exact","16308 SOUTHLAND AVE, CLEVELAND, OH, 44111",61101952,"R"
233109,"16308 THROCKLEY AVENUE","CLEVELAND","OH",44128,41.4558492940001,-81.5666332229999,109,"16308 THROCKLEY AVENUE, CLEVELAND, OH, 44128","Match","Exact","16308 THROCKLEY AVE, CLEVELAND, OH, 44128",61127498,"R"
233110,"16308 W 123RD ST","OLATHE","KS",66062,38.904431629,-94.774804997,110,"16308 W 123RD ST, OLATHE, KS, 66062","Match","Exact","16308 W 123RD ST, OLATHE, KS, 66062",91283678,"L"
233111,"16309 CULLEN PARK WAY","PROSPER","TX",75078,NA,NA,111,"16309 CULLEN PARK WAY, PROSPER, TX, 75078","No_Match",NA,NA,NA,NA
233112,"16309 E BREWSTER RD APT J368","COVINGTON","LA",70433,30.4398790560001,-90.122775233,112,"16309 E BREWSTER RD APT J368, COVINGTON, LA, 70433","Match","Exact","16309 BREWSTER RD, COVINGTON, LA, 70433",651186245,"L"
233113,"16309 E BREWSTER ROAD  APT J170","COVINGTON","LA",70433,30.4398790560001,-90.122775233,113,"16309 E BREWSTER ROAD  APT J170, COVINGTON, LA, 70433","Match","Exact","16309 BREWSTER RD, COVINGTON, LA, 70433",651186245,"L"
233114,"16309 ELSIEANNA AVENUE","CLEVELAND","OH",44135,41.4379875240001,-81.812036301,114,"16309 ELSIEANNA AVENUE, CLEVELAND, OH, 44135","Match","Non_Exact","16309 ELSIENNA AVE, CLEVELAND, OH, 44135",61102371,"L"
233115,"16309 INTERLAKE AVE N","SHORELINE","WA",98133,47.747184803,-122.34129475,115,"16309 INTERLAKE AVE N, SHORELINE, WA, 98133","Match","Exact","16309 INTERLAKE AVE N, SHORELINE, WA, 98133",239771417,"L"
233116,"16309 INYO ST","LA PUENTE","CA",91744,34.016075992,-117.94484785,116,"16309 INYO ST, LA PUENTE, CA, 91744","Match","Exact","16309 INYO ST, LA PUENTE, CA, 91744",141713970,"L"
233117,"16309 MOUNTAIN GLORY DRIVE","MONUMENT","CO",80132,NA,NA,117,"16309 MOUNTAIN GLORY DRIVE, MONUMENT, CO, 80132","No_Match",NA,NA,NA,NA
233118,"16309 OAK VALLEY ROAD","RALPH","AL",35480,33.1352491700001,-87.744802577,118,"16309 OAK VALLEY ROAD, RALPH, AL, 35480","Match","Non_Exact","16309 OAK VALLEY DR, RALPH, AL, 35480",627199590,"L"
233119,"1630A 30TH ST 106","BOULDER","CO",80301,40.0153933290001,-105.253594421,119,"1630A 30TH ST 106, BOULDER, CO, 80301","Match","Exact","1630 30TH ST, BOULDER, CO, 80301",632347785,"R"
233120,"1630A 30TH STREET PMB143","BOULDER","CO",80301,40.0153933290001,-105.253594421,120,"1630A 30TH STREET PMB143, BOULDER, CO, 80301","Match","Exact","1630 30TH ST, BOULDER, CO, 80301",632347785,"R"
233121,"1631  55TH STREET","BROOKLYN","NY",11219,40.627183405,-73.988175435,121,"1631  55TH STREET, BROOKLYN, NY, 11219","Match","Non_Exact","1631 55TH ST, BROOKLYN, NY, 11204",59080332,"L"
233122,"1631  WEST EL CAMINO AVE","SACRAMENTO","CA",95833,38.6127442540001,-121.498501576,122,"1631  WEST EL CAMINO AVE, SACRAMENTO, CA, 95833","Match","Exact","1631 W EL CAMINO AVE, SACRAMENTO, CA, 95833",133320299,"R"
233123,"1631 1 2 W 80TH ST","LOS ANGELES","CA",90047,NA,NA,123,"1631 1 2 W 80TH ST, LOS ANGELES, CA, 90047","No_Match",NA,NA,NA,NA
233124,"1631 12TH AVE","CORALVILLE","IA",52241,41.696587311,-91.583366675,124,"1631 12TH AVE, CORALVILLE, IA, 52241","Match","Exact","1631 12TH AVE, CORALVILLE, IA, 52241",84519440,"R"
233125,"1631 15TH AVE W","SEATTLE","WA",98119,47.6338806690001,-122.376177878,125,"1631 15TH AVE W, SEATTLE, WA, 98119","Match","Exact","1631 15TH AVE W, SEATTLE, WA, 98119",239780369,"L"
233126,"1631 16TH AVE UNIT 102","SEATTLE","WA",98122,47.615642934,-122.311465575,126,"1631 16TH AVE UNIT 102, SEATTLE, WA, 98122","Match","Exact","1631 16TH AVE, SEATTLE, WA, 98122",186587674,"L"
233127,"1631 16TH AVE UNIT 406","SEATTLE","WA",98122,47.615642934,-122.311465575,127,"1631 16TH AVE UNIT 406, SEATTLE, WA, 98122","Match","Exact","1631 16TH AVE, SEATTLE, WA, 98122",186587674,"L"
233128,"1631 16TH ST NE","NAPLES","FL",34120,26.2598085830001,-81.5746148859999,128,"1631 16TH ST NE, NAPLES, FL, 34120","Match","Exact","1631 16TH ST NE, NAPLES, FL, 34120",115128952,"L"
233129,"1631 1ST STREET","RENSSELAER","NY",12144,42.656959364,-73.733172334,129,"1631 1ST STREET, RENSSELAER, NY, 12144","Match","Exact","1631 1ST ST, RENSSELAER, NY, 12144",35727512,"L"
233130,"1631 27TH ST NE","EMERADO","ND",58228,47.9068247160001,-97.408142477,130,"1631 27TH ST NE, EMERADO, ND, 58228","Match","Exact","1631 27TH ST NE, EMERADO, ND, 58228",171297916,"L"
233131,"1631 44TH ST","WEST PALM BEACH","FL",33407,26.752426606,-80.076139381,131,"1631 44TH ST, WEST PALM BEACH, FL, 33407","Match","Exact","1631 44TH ST, WEST PALM BEACH, FL, 33407",115580047,"R"
233132,"1631 50TH STREET","BROOKLYN","NY",11204,40.6299839070001,-73.9852569889999,132,"1631 50TH STREET, BROOKLYN, NY, 11204","Match","Exact","1631 50TH ST, BROOKLYN, NY, 11204",59080350,"L"
233133,"1631 5TH ST","ENGLEWOOD","FL",34223,27.013620168,-82.399586477,133,"1631 5TH ST, ENGLEWOOD, FL, 34223","Match","Exact","1631 5TH ST, ENGLEWOOD, FL, 34223",16380625,"R"
233134,"1631 8TH AVE","COUNCIL BLUFFS","IA",51501,41.2543688390001,-95.868116471,134,"1631 8TH AVE, COUNCIL BLUFFS, IA, 51501","Match","Exact","1631 8TH AVE, COUNCIL BLUFFS, IA, 51501",43900844,"L"
233135,"1631 AQUARENA SPRINGS DR APT 223","SANMARCOS","TX",78666,29.8929233150001,-97.915803625,135,"1631 AQUARENA SPRINGS DR APT 223, SANMARCOS, TX, 78666","Match","Non_Exact","1631 AQUARENA SPRINGS DR, SAN MARCOS, TX, 78666",635383575,"L"
233136,"1631 ARBOR AVENUE","HIGHLAND PARK","IL",60035,42.182031872,-87.82581418,136,"1631 ARBOR AVENUE, HIGHLAND PARK, IL, 60035","Match","Exact","1631 ARBOR AVE, HIGHLAND PARK, IL, 60035",119651103,"R"
233137,"1631 BELMONT AVE UNIT 301","SEATTLE","WA",98122,47.6155996840001,-122.324484727,137,"1631 BELMONT AVE UNIT 301, SEATTLE, WA, 98122","Match","Exact","1631 BELMONT AVE, SEATTLE, WA, 98122",186584266,"L"
233138,"1631 BITTER CREEK LN","BATAVIA","OH",45103,39.1550541830001,-84.162602152,138,"1631 BITTER CREEK LN, BATAVIA, OH, 45103","Match","Exact","1631 BITTER CREEK LN, BATAVIA, OH, 45103",118449037,"L"
233139,"1631 BLEDSOE RD","PULASKI","TN",38478,35.2288138440001,-87.018859667,139,"1631 BLEDSOE RD, PULASKI, TN, 38478","Match","Exact","1631 BLEDSOE RD, PULASKI, TN, 38478",45325012,"R"
233140,"1631 BOB O LINK COURT","WISCONSIN RAPIDS","WI",54494,44.352716243,-89.805117133,140,"1631 BOB O LINK COURT, WISCONSIN RAPIDS, WI, 54494","Match","Exact","1631 BOB O LINK CT, WISCONSIN RAPIDS, WI, 54494",51289879,"L"
233141,"1631 BOBALEW TRAIL","ALLENTOWN","PA",18103,40.5891805250001,-75.415911788,141,"1631 BOBALEW TRAIL, ALLENTOWN, PA, 18103","Match","Exact","1631 BOBALEW TRL, ALLENTOWN, PA, 18103",80776273,"L"
233142,"1631 BOULDER RIDGE DR","BOLINGBROOK","IL",60490,41.6992378580001,-88.141337236,142,"1631 BOULDER RIDGE DR, BOLINGBROOK, IL, 60490","Match","Exact","1631 BOULDER RIDGE DR, BOLINGBROOK, IL, 60490",111631299,"R"
233143,"1631 BOULDER RIDGE DR","BOLLINGBROOK","IL",60490,41.6992378580001,-88.141337236,143,"1631 BOULDER RIDGE DR, BOLLINGBROOK, IL, 60490","Match","Non_Exact","1631 BOULDER RIDGE DR, BOLINGBROOK, IL, 60490",111631299,"R"
233144,"1631 BRIDGE MILL DRIVE APT C","MARIETTA","GA",30067,33.9145993560001,-84.476398703,144,"1631 BRIDGE MILL DRIVE APT C, MARIETTA, GA, 30067","Match","Exact","1631 BRIDGE MILL DR, MARIETTA, GA, 30067",17253822,"L"
233145,"1631 BROCKWAY STREET","SAGINAW","MI",48602,NA,NA,145,"1631 BROCKWAY STREET, SAGINAW, MI, 48602","Tie",NA,NA,NA,NA
233146,"1631 CABLE CANYON ROAD","SAN BERNARDINO","CA",92407,34.219361819,-117.395828235,146,"1631 CABLE CANYON ROAD, SAN BERNARDINO, CA, 92407","Match","Exact","1631 CABLE CANYON RD, SAN BERNARDINO, CA, 92407",627907349,"L"
233147,"1631 CAMULOS AVENUE","GLENDALE","CA",91208,34.179549739,-118.229335196,147,"1631 CAMULOS AVENUE, GLENDALE, CA, 91208","Match","Exact","1631 CAMULOS AVE, GLENDALE, CA, 91208",141609183,"L"
233148,"1631 CAPE RAY AVE NE","SAINT PETERSBURG","FL",33702,27.8315004340001,-82.6136316389999,148,"1631 CAPE RAY AVE NE, SAINT PETERSBURG, FL, 33702","Match","Exact","1631 CAPE RAY AVE NE, SAINT PETERSBURG, FL, 33702",124712185,"L"
233149,"1631 CAROLINA ST","GARY","IN",46407,41.586120555,-87.3284863219999,149,"1631 CAROLINA ST, GARY, IN, 46407","Match","Exact","1631 CAROLINA ST, GARY, IN, 46407",98427108,"L"
233150,"1631 CARROLLTON AVE","INDIANAPOLIS","IN",46202,39.7891015340001,-86.143518894,150,"1631 CARROLLTON AVE, INDIANAPOLIS, IN, 46202","Match","Exact","1631 CARROLLTON AVE, INDIANAPOLIS, IN, 46202",107990600,"R"
233151,"1631 CELLENY COURT","KISSIMMEE","FL",34744,28.30731295,-81.3417214529999,151,"1631 CELLENY COURT, KISSIMMEE, FL, 34744","Match","Exact","1631 CELLENY CT, KISSIMMEE, FL, 34744",176679080,"L"
233152,"1631 COMMERCE AVE N","ST PETERSBURG","FL",33716,27.8591070740001,-82.655753218,152,"1631 COMMERCE AVE N, ST PETERSBURG, FL, 33716","Match","Exact","1631 COMMERCE AVE N, SAINT PETERSBURG, FL, 33716",645831987,"L"
233153,"1631 COOK AVENUE","BILLINGS","MT",59101,45.77211815,-108.557185842,153,"1631 COOK AVENUE, BILLINGS, MT, 59101","Match","Non_Exact","1631 COOK AVE, BILLINGS, MT, 59102",181475890,"R"
233154,"1631 COOLIDGE AVE","WILLOW GROVE","PA",19090,40.1390977360001,-75.132127738,154,"1631 COOLIDGE AVE, WILLOW GROVE, PA, 19090","Match","Exact","1631 COOLIDGE AVE, WILLOW GROVE, PA, 19090",135092828,"R"
233155,"1631 COOPER LAKE ROAD","SMYRNA","GA",30080,NA,NA,155,"1631 COOPER LAKE ROAD, SMYRNA, GA, 30080","Tie",NA,NA,NA,NA
233156,"1631 COWPER STREET","PALO ALTO","CA",94301,37.4394008580001,-122.145067717,156,"1631 COWPER STREET, PALO ALTO, CA, 94301","Match","Exact","1631 COWPER ST, PALO ALTO, CA, 94301",122950823,"L"
233157,"1631 DANNY WAY","EL CAJON","CA",92021,32.8220057340001,-116.956931064,157,"1631 DANNY WAY, EL CAJON, CA, 92021","Match","Exact","1631 DANNY WAY, EL CAJON, CA, 92021",195327950,"R"
233158,"1631 DERBY ST","BERKELEY","CA",94703,37.8591053060001,-122.277268847,158,"1631 DERBY ST, BERKELEY, CA, 94703","Match","Exact","1631 DERBY ST, BERKELEY, CA, 94703",124994588,"L"
233159,"1631 DINWOODIE STREET","PETERSBURG","VA",23803,NA,NA,159,"1631 DINWOODIE STREET, PETERSBURG, VA, 23803","No_Match",NA,NA,NA,NA
233160,"1631 DOMINION DR","STOCKTON","CA",95206,37.8993348920001,-121.31014747,160,"1631 DOMINION DR, STOCKTON, CA, 95206","Match","Exact","1631 DOMINION DR, STOCKTON, CA, 95206",133887910,"R"
233161,"1631 DREW ST","HOUSTON","TX",77004,29.7408325910001,-95.369636317,161,"1631 DREW ST, HOUSTON, TX, 77004","Match","Exact","1631 DREW ST, HOUSTON, TX, 77004",96071472,"L"
233162,"1631 E 4TH ST NUMBER 6","DULUTH","MN",55812,46.805181168,-92.082214372,162,"1631 E 4TH ST NUMBER 6, DULUTH, MN, 55812","Match","Non_Exact","1631 E 4TH ST, DULUTH, MN, 55812",163212444,"L"
233163,"1631 E DUVAL ST","PHILADELPHIA","PA",19138,40.0627197750001,-75.163596731,163,"1631 E DUVAL ST, PHILADELPHIA, PA, 19138","Match","Exact","1631 E DUVAL ST, PHILADELPHIA, PA, 19138",131395665,"L"
233164,"1631 E ENGLISH AVE","INDIANAPOLIS","IN",46201,39.759693305,-86.131818795,164,"1631 E ENGLISH AVE, INDIANAPOLIS, IN, 46201","Match","Exact","1631 ENGLISH AVE, INDIANAPOLIS, IN, 46201",107993671,"R"
233165,"1631 E JESSAMINE","FORT WORTH","TX",76104,32.7181877560001,-97.303760526,165,"1631 E JESSAMINE, FORT WORTH, TX, 76104","Match","Non_Exact","1631 E JESSAMINE ST, FORT WORTH, TX, 76104",101891482,"L"
233166,"1631 E PINE","FRESNO","CA",93728,36.76239609,-119.791333494,166,"1631 E PINE, FRESNO, CA, 93728","Match","Non_Exact","1631 E PINE AVE, FRESNO, CA, 93728",652199613,"L"
233167,"1631 E RIDGE ROAD","BELOIT","WI",53511,42.5196651270001,-89.002101005,167,"1631 E RIDGE ROAD, BELOIT, WI, 53511","Match","Exact","1631 E RIDGE RD, BELOIT, WI, 53511",49900455,"R"
233168,"1631 E STATE HWY 71","WEST POINT","TX",78963,29.9417222650001,-97.0134233539999,168,"1631 E STATE HWY 71, WEST POINT, TX, 78963","Match","Exact","1631 STATE HWY 71, WEST POINT, TX, 78963",42022347,"R"
233169,"1631 EAST 87TH STREET","CHICAGO","IL",60617,41.736930327,-87.584190066,169,"1631 EAST 87TH STREET, CHICAGO, IL, 60617","Match","Exact","1631 E 87TH ST, CHICAGO, IL, 60617",605550006,"R"
233170,"1631 EAST GARFIELD AVENUE","SALT LAKE CITY","UT",84105,40.7299144500001,-111.844157044,170,"1631 EAST GARFIELD AVENUE, SALT LAKE CITY, UT, 84105","Match","Non_Exact","1631 GARFIELD AVE, SALT LAKE CITY, UT, 84105",176081593,"L"
233171,"1631 EAST GOWEN AVE","PHILADELPHIA","PA",19150,40.082070528,-75.1734542419999,171,"1631 EAST GOWEN AVE, PHILADELPHIA, PA, 19150","Match","Exact","1631 E GOWEN AVE, PHILADELPHIA, PA, 19150",131394887,"L"
233172,"1631 EDGEMONT ST","SAN DIEGO","CA",92102,32.722747955,-117.126540864,172,"1631 EDGEMONT ST, SAN DIEGO, CA, 92102","Match","Exact","1631 EDGEMONT ST, SAN DIEGO, CA, 92102",195346372,"R"
233173,"1631 ERRINGER ROAD","SIMI VALLEY","CA",93065,34.267420499,-118.761366237,173,"1631 ERRINGER ROAD, SIMI VALLEY, CA, 93065","Match","Exact","1631 ERRINGER RD, SIMI VALLEY, CA, 93065",109970757,"L"
233174,"1631 FAIRMONT AVE APT 1","PHILADELPHIA","PA",19130,39.9671409160001,-75.1642816569999,174,"1631 FAIRMONT AVE APT 1, PHILADELPHIA, PA, 19130","Match","Non_Exact","1631 FAIRMOUNT AVE, PHILADELPHIA, PA, 19130",131406338,"R"
233175,"1631 FERRIS RD","COLUMBUS","OH",43224,40.0506156530001,-82.9733070789999,175,"1631 FERRIS RD, COLUMBUS, OH, 43224","Match","Exact","1631 FERRIS RD, COLUMBUS, OH, 43224",218659158,"R"
233176,"1631 FIELDGREEN OVERLOOK","STONE MOUNTAIN","GA",30088,33.753372137,-84.1844466969999,176,"1631 FIELDGREEN OVERLOOK, STONE MOUNTAIN, GA, 30088","Match","Exact","1631 FIELDGREEN OVERLOOK, STONE MOUNTAIN, GA, 30088",645523840,"L"
233177,"1631 FRANCISCO ST","BERKELEY","CA",94703,37.8743536900001,-122.279442192,177,"1631 FRANCISCO ST, BERKELEY, CA, 94703","Match","Exact","1631 FRANCISCO ST, BERKELEY, CA, 94703",124993907,"L"
233178,"1631 FRANCISCO STREET","SF","CA",94703,37.8743536900001,-122.279442192,178,"1631 FRANCISCO STREET, SF, CA, 94703","Match","Non_Exact","1631 FRANCISCO ST, BERKELEY, CA, 94703",124993907,"L"
233179,"1631 FROSTWOOD","TYLER","TX",75703,32.241480268,-95.336939935,179,"1631 FROSTWOOD, TYLER, TX, 75703","Match","Non_Exact","1631 FROSTWOOD DR, TYLER, TX, 75703",645470023,"R"
233180,"1631 GILLETTE CT","LONGMONT","CO",80501,40.138875612,-105.117898603,180,"1631 GILLETTE CT, LONGMONT, CO, 80501","Match","Exact","1631 GILLETTE CT, LONGMONT, CO, 80501",188165159,"R"
233181,"1631 GLENDALE ST","WICHITA","KS",67208,37.712494835,-97.279561867,181,"1631 GLENDALE ST, WICHITA, KS, 67208","Match","Non_Exact","1631 N GLENDALE ST, WICHITA, KS, 67208",115639168,"L"
233182,"1631 GRUNDY ROAD","CEDAR FALLS","IA",50613,42.489290001,-92.534094452,182,"1631 GRUNDY ROAD, CEDAR FALLS, IA, 50613","Match","Exact","1631 GRUNDY RD, CEDAR FALLS, IA, 50613",641380771,"R"
233183,"1631 HILLBILLY DRIVE","OZARK","AR",72949,35.5011685200001,-93.85883317,183,"1631 HILLBILLY DRIVE, OZARK, AR, 72949","Match","Exact","1631 HILLBILLY DR, OZARK, AR, 72949",55895717,"R"
233184,"1631 HWY 126","PRINCETON","KY",42445,37.02492734,-87.8499608119999,184,"1631 HWY 126, PRINCETON, KY, 42445","Match","Non_Exact","1631 STATE HWY 126, PRINCETON, KY, 42445",10648109,"R"
233185,"1631 IDLEWOOD AVE","AKRON","OH",44313,41.104884057,-81.5734981909999,185,"1631 IDLEWOOD AVE, AKRON, OH, 44313","Match","Exact","1631 IDLEWOOD AVE, AKRON, OH, 44313",61338040,"R"
233186,"1631 INDEPENDENCE AVE SE","WASHINGTON","DC",20003,38.887585093,-76.981182936,186,"1631 INDEPENDENCE AVE SE, WASHINGTON, DC, 20003","Match","Exact","1631 INDEPENDENCE AVE SE, WASHINGTON, DC, 20003",76230524,"R"
233187,"1631 JEFFERSON AVE","COLUMBUS","OH",43211,39.9983642060001,-82.982866159,187,"1631 JEFFERSON AVE, COLUMBUS, OH, 43211","Match","Exact","1631 JEFFERSON AVE, COLUMBUS, OH, 43211",218681991,"L"
233188,"1631 JOHN LEE LANE","MURFREESBORO","TN",37129,35.870085444,-86.490591643,188,"1631 JOHN LEE LANE, MURFREESBORO, TN, 37129","Match","Exact","1631 JOHN LEE LN, MURFREESBORO, TN, 37129",632950684,"L"
233189,"1631 KESSLER BLVD WEST DR","INDIANAPOLIS","IN",46228,NA,NA,189,"1631 KESSLER BLVD WEST DR, INDIANAPOLIS, IN, 46228","No_Match",NA,NA,NA,NA
233190,"1631 LAKE DRIVE APARTMENT 54","HASLETT","MI",48840,42.7498317180001,-84.410359974,190,"1631 LAKE DRIVE APARTMENT 54, HASLETT, MI, 48840","Match","Exact","1631 LAKE DR, HASLETT, MI, 48840",17522503,"R"
233191,"1631 LAKEVIEW DR","PLEASANT HILL","IA",50327,41.6078188340001,-93.5078842199999,191,"1631 LAKEVIEW DR, PLEASANT HILL, IA, 50327","Match","Exact","1631 LAKEVIEW DR, PLEASANT HILL, IA, 50327",619595362,"L"
233192,"1631 LAUREL LANE","MACUNGIE","PA",18062,40.540194581,-75.5938588499999,192,"1631 LAUREL LANE, MACUNGIE, PA, 18062","Match","Exact","1631 LAUREL LN, MACUNGIE, PA, 18062",80765664,"R"
233193,"1631 LILIHA ST 2B","HONOLULU","HI",96817,21.322165335,-157.859219926,193,"1631 LILIHA ST 2B, HONOLULU, HI, 96817","Match","Exact","1631 LILIHA ST, HONOLULU, HI, 96817",616636233,"R"
233194,"1631 LORRAINE STREET UNIT 7","COLORADO SPRINGS","CO",80905,38.807993433,-104.83399462,194,"1631 LORRAINE STREET UNIT 7, COLORADO SPRINGS, CO, 80905","Match","Exact","1631 LORRAINE ST, COLORADO SPRINGS, CO, 80905",105518370,"L"
233195,"1631 LOVELAND DR","ARLINGTON","TX",76018,32.6455787990001,-97.081177133,195,"1631 LOVELAND DR, ARLINGTON, TX, 76018","Match","Exact","1631 LOVELAND DR, ARLINGTON, TX, 76018",102122284,"L"
233196,"1631 MAIN STREET APT A","CROSSETT","AR",71635,33.115656164,-91.958772527,196,"1631 MAIN STREET APT A, CROSSETT, AR, 71635","Match","Exact","1631 MAIN ST, CROSSETT, AR, 71635",636199680,"R"
233197,"1631 MALAN ST SPC 38","BRAWLEY","CA",92227,32.970865464,-115.516305843,197,"1631 MALAN ST SPC 38, BRAWLEY, CA, 92227","Match","Exact","1631 MALAN ST, BRAWLEY, CA, 92227",194541197,"R"
233198,"1631 MERCOAL DRIVE","SPRING","TX",77386,30.1265032580001,-95.414036755,198,"1631 MERCOAL DRIVE, SPRING, TX, 77386","Match","Exact","1631 MERCOAL DR, SPRING, TX, 77386",79303013,"R"
233199,"1631 MIDTOWN PLACE","RALEIGH","NC",27609,35.8306595940001,-78.61163335,199,"1631 MIDTOWN PLACE, RALEIGH, NC, 27609","Match","Exact","1631 MIDTOWN PL, RALEIGH, NC, 27609",72595617,"L"
233200,"1631 MILLERSVILLE RD","MILLERSVILLE","MD",21108,39.0565346490001,-76.642638716,200,"1631 MILLERSVILLE RD, MILLERSVILLE, MD, 21108","Match","Exact","1631 MILLERSVILLE RD, MILLERSVILLE, MD, 21108",68213021,"L"
233201,"1631 MOCKINGBIRD LN","SOUTHLAKE","TX",76092,32.969807502,-97.1722007389999,201,"1631 MOCKINGBIRD LN, SOUTHLAKE, TX, 76092","Match","Exact","1631 MOCKINGBIRD LN, SOUTHLAKE, TX, 76092",102128464,"L"
233202,"1631 MORGAN STREET","VALLEY STREAM","NY",11580,40.6865959450001,-73.703513089,202,"1631 MORGAN STREET, VALLEY STREAM, NY, 11580","Match","Exact","1631 MORGAN ST, VALLEY STREAM, NY, 11580",147668143,"L"
233203,"1631 MORTON AVE","LOS ANGELES","CA",90028,34.081772249,-118.253497694,203,"1631 MORTON AVE, LOS ANGELES, CA, 90028","Match","Non_Exact","1631 MORTON AVE, LOS ANGELES, CA, 90026",650542820,"L"
233204,"1631 MUNCY ROAD","GUNTER","TX",75058,33.4042154520001,-96.668704457,204,"1631 MUNCY ROAD, GUNTER, TX, 75058","Match","Exact","1631 MUNCY RD, GUNTER, TX, 75058",63343274,"L"
233205,"1631 N ALBANY AVE","CHICAGO","IL",60647,41.9109711,-87.704532463,205,"1631 N ALBANY AVE, CHICAGO, IL, 60647","Match","Exact","1631 N ALBANY AVE, CHICAGO, IL, 60647",605045422,"R"
233206,"1631 N ALBANY","CHICAGO","IL",60647,41.9109711,-87.704532463,206,"1631 N ALBANY, CHICAGO, IL, 60647","Match","Non_Exact","1631 N ALBANY AVE, CHICAGO, IL, 60647",605045422,"R"
233207,"1631 NANSUE LANE","MINDEN","NV",89423,39.018855188,-119.711798632,207,"1631 NANSUE LANE, MINDEN, NV, 89423","Match","Exact","1631 NANSUE LN, MINDEN, NV, 89423",173757869,"L"
233208,"1631 NE 39TH AVE APT A","OCALA","FL",34470,NA,NA,208,"1631 NE 39TH AVE APT A, OCALA, FL, 34470","No_Match",NA,NA,NA,NA
233209,"1631 NE BROADWAY BOX 237","PORTLAND","OR",97232,NA,NA,209,"1631 NE BROADWAY BOX 237, PORTLAND, OR, 97232","No_Match",NA,NA,NA,NA
233210,"1631 NE BROADWAY NUMBER 457","PORTLAND","OR",97232,NA,NA,210,"1631 NE BROADWAY NUMBER 457, PORTLAND, OR, 97232","No_Match",NA,NA,NA,NA
233211,"1631 NE BROADWAY ST / APT 153","PORTLAND","OR",97232,45.5350372,-122.649130762,211,"1631 NE BROADWAY ST / APT 153, PORTLAND, OR, 97232","Match","Non_Exact","1631 NE BROADWAY ST, PORTLAND, OR, 97232",157506623,"L"
233212,"1631 NE BROADWAY STREET","PORTLAND","OR",97232,45.5350372,-122.649130762,212,"1631 NE BROADWAY STREET, PORTLAND, OR, 97232","Match","Exact","1631 NE BROADWAY ST, PORTLAND, OR, 97232",157506623,"L"
233213,"1631 NEVADA ST","PITTSBURGH","PA",15218,40.4222888990001,-79.898173539,213,"1631 NEVADA ST, PITTSBURGH, PA, 15218","Match","Exact","1631 NEVADA ST, PITTSBURGH, PA, 15218",51652762,"L"
233214,"1631 NORTH FIRST STREET SUITE 200","SAN JOSE","CA",95112,37.3648817230001,-121.911981946,214,"1631 NORTH FIRST STREET SUITE 200, SAN JOSE, CA, 95112","Match","Exact","1631 N 1ST ST, SAN JOSE, CA, 95112",122903126,"L"
233215,"1631 NORTHBROOK DR","LIMA","OH",45802,40.774446878,-84.13518019,215,"1631 NORTHBROOK DR, LIMA, OH, 45802","Match","Non_Exact","1631 NORTHBROOK DR, LIMA, OH, 45805",35563727,"L"
233216,"1631 NW 13TH COURT","FORT LAUDERDALE","FL",33311,26.1424642050001,-80.1648071019999,216,"1631 NW 13TH COURT, FORT LAUDERDALE, FL, 33311","Match","Exact","1631 NW 13TH CT, FORT LAUDERDALE, FL, 33311",114720322,"R"
233217,"1631 NW 18TH AVE APT 103","DELRAY BEACH","FL",33445,26.4814247470001,-80.0909767649999,217,"1631 NW 18TH AVE APT 103, DELRAY BEACH, FL, 33445","Match","Non_Exact","1631 NW 18TH AVE, DELRAY BEACH, FL, 33445",653188306,"L"
233218,"1631 NW 26 AVENUE","MIAMI","FL",33125,25.7891629910001,-80.2385096099999,218,"1631 NW 26 AVENUE, MIAMI, FL, 33125","Match","Exact","1631 NW 26TH AVE, MIAMI, FL, 33125",116011394,"R"
233219,"1631 NW EVERETT APT 107","PORTLAND","OR",97209,NA,NA,219,"1631 NW EVERETT APT 107, PORTLAND, OR, 97209","No_Match",NA,NA,NA,NA
233220,"1631 OAKTON PLACE","CHICAGO","IL",60018,42.0232193350001,-87.897915283,220,"1631 OAKTON PLACE, CHICAGO, IL, 60018","Match","Non_Exact","1631 OAKTON PL, DES PLAINES, IL, 60018",645579106,"R"
233221,"1631 ORETHA CASTLE HALEY BLVD","NEW ORLEANS","LA",70113,29.94022619,-90.0799409589999,221,"1631 ORETHA CASTLE HALEY BLVD, NEW ORLEANS, LA, 70113","Match","Exact","1631 ORETHA CASTLE HALEY BLVD, NEW ORLEANS, LA, 70113",191713824,"R"
233222,"1631 ORIOLE DR","GALESBURG","IL",61401,40.9672970990001,-90.343809226,222,"1631 ORIOLE DR, GALESBURG, IL, 61401","Match","Exact","1631 ORIOLE DR, GALESBURG, IL, 61401",9041463,"R"
233223,"1631 OSPREY POINTE DR","TALLAHASSEE","FL",32308,30.4716403460001,-84.221807869,223,"1631 OSPREY POINTE DR, TALLAHASSEE, FL, 32308","Match","Exact","1631 OSPREY POINTE DR, TALLAHASSEE, FL, 32308",634069426,"R"
233224,"1631 PALISADES DR","CARROLLTON","TX",75007,32.9953919020001,-96.8990353299999,224,"1631 PALISADES DR, CARROLLTON, TX, 75007","Match","Exact","1631 PALISADES DR, CARROLLTON, TX, 75007",103407495,"L"
233225,"1631 PALMETTO LANE","PEMBROKE PINES","FL",33026,26.0216295930001,-80.28410122,225,"1631 PALMETTO LANE, PEMBROKE PINES, FL, 33026","Match","Exact","1631 PALMETTO LN, PEMBROKE PINES, FL, 33026",114783127,"R"
233226,"1631 PAM DR","YUBA CITY","CA",95993,39.155522052,-121.645970758,226,"1631 PAM DR, YUBA CITY, CA, 95993","Match","Exact","1631 PAM DR, YUBA CITY, CA, 95993",68567674,"R"
233227,"1631 POINT BREEZE APT 2F","PHILADELPHIA","PA",19145,39.9316603830001,-75.18220116,227,"1631 POINT BREEZE APT 2F, PHILADELPHIA, PA, 19145","Match","Non_Exact","1631 POINT BREEZE AVE, PHILADELPHIA, PA, 19145",131410852,"L"
233228,"1631 PRINCE ST","ALEXANDRIA","VA",22314,38.8052975470001,-77.057843933,228,"1631 PRINCE ST, ALEXANDRIA, VA, 22314","Match","Exact","1631 PRINCE ST, ALEXANDRIA, VA, 22314",75989565,"R"
233229,"1631 ROCK SPRINGS ROAD 315","APOPKA","FL",32712,28.7149593350001,-81.50905728,229,"1631 ROCK SPRINGS ROAD 315, APOPKA, FL, 32712","Match","Exact","1631 ROCK SPRINGS RD, APOPKA, FL, 32712",94414461,"R"
233230,"1631 ROCK SPRINGS ROAD APT 226","APOPKA","FL",32712,28.7149593350001,-81.50905728,230,"1631 ROCK SPRINGS ROAD APT 226, APOPKA, FL, 32712","Match","Exact","1631 ROCK SPRINGS RD, APOPKA, FL, 32712",94414461,"R"
233231,"1631 ROCK SPRINGS ROAD","APOPKA","FL",32712,28.7149593350001,-81.50905728,231,"1631 ROCK SPRINGS ROAD, APOPKA, FL, 32712","Match","Exact","1631 ROCK SPRINGS RD, APOPKA, FL, 32712",94414461,"R"
233232,"1631 ROSEMAN BRIDGE ROAD","WINTERSET","IA",NA,41.3134315520001,-94.120746452,232,"1631 ROSEMAN BRIDGE ROAD, WINTERSET, IA, ","Match","Exact","1631 ROSEMAN BRIDGE RD, WINTERSET, IA, 50273",635884645,"L"
233233,"1631 S CRANBROOK CT","WICHITA","KS",67207,NA,NA,233,"1631 S CRANBROOK CT, WICHITA, KS, 67207","Tie",NA,NA,NA,NA
233234,"1631 S ELWOOD AVE","TULSA","OK",74119,36.1391165640001,-95.993399752,234,"1631 S ELWOOD AVE, TULSA, OK, 74119","Match","Exact","1631 S ELWOOD AVE, TULSA, OK, 74119",166441789,"L"
233235,"1631 S MICHIGAN AVE APT 409","CHICAGO","IL",60616,41.8597948230001,-87.623968496,235,"1631 S MICHIGAN AVE APT 409, CHICAGO, IL, 60616","Match","Non_Exact","1631 S MICHIGAN AVE, CHICAGO, IL, 60616",610528307,"L"
233236,"1631 S RIDGE","TRAVERSE CITY","MI",49686,NA,NA,236,"1631 S RIDGE, TRAVERSE CITY, MI, 49686","No_Match",NA,NA,NA,NA
233237,"1631 S STREET NW APT 502","WASHINGTON","DC",20009,38.914099175,-77.0371728109999,237,"1631 S STREET NW APT 502, WASHINGTON, DC, 20009","Match","Exact","1631 S ST NW, WASHINGTON, DC, 20009",76223109,"R"
233238,"1631 S WHITE RD","SAN JOSE","CA",95127,37.347028413,-121.81084205,238,"1631 S WHITE RD, SAN JOSE, CA, 95127","Match","Exact","1631 S WHITE RD, SAN JOSE, CA, 95127",122913956,"R"
233239,"1631 SANTA CLARA AVE","ALAMEDA","CA",94501,37.7720657730001,-122.257279769,239,"1631 SANTA CLARA AVE, ALAMEDA, CA, 94501","Match","Exact","1631 SANTA CLARA AVE, ALAMEDA, CA, 94501",606210785,"L"
233240,"1631 SATURNO HEIGHTS DR","RENO","NV",89523,39.527484697,-119.901182154,240,"1631 SATURNO HEIGHTS DR, RENO, NV, 89523","Match","Exact","1631 SATURNO HEIGHTS DR, RENO, NV, 89523",647870575,"L"
233241,"1631 SATURNO HEIGHTS DRIVE","RENO","NV",89523,39.527484697,-119.901182154,241,"1631 SATURNO HEIGHTS DRIVE, RENO, NV, 89523","Match","Exact","1631 SATURNO HEIGHTS DR, RENO, NV, 89523",647870575,"L"
233242,"1631 SE FIR GROVE LOOP","HILLSBORO","OR",97123,45.506609912,-122.966970871,242,"1631 SE FIR GROVE LOOP, HILLSBORO, OR, 97123","Match","Exact","1631 SE FIR GROVE LOOP, HILLSBORO, OR, 97123",158179557,"R"
233243,"1631 SERE ST","NEW ORLEANS","LA",70122,29.994098733,-90.072403756,243,"1631 SERE ST, NEW ORLEANS, LA, 70122","Match","Exact","1631 SERE ST, NEW ORLEANS, LA, 70122",191735324,"L"
233244,"1631 SHAFTER AVE","SAN FRANCISCO","CA",94124,37.731241224,-122.391092684,244,"1631 SHAFTER AVE, SAN FRANCISCO, CA, 94124","Match","Exact","1631 SHAFTER AVE, SAN FRANCISCO, CA, 94124",640912122,"L"
233245,"1631 SIMON DRIVE","TURLOCK","CA",95382,37.5092238890001,-120.82843225,245,"1631 SIMON DRIVE, TURLOCK, CA, 95382","Match","Exact","1631 SIMON DR, TURLOCK, CA, 95382",102646362,"L"
233246,"1631 SOUTH PAXTON ST","SIOUX CITY","IA",51106,42.473691552,-96.365352932,246,"1631 SOUTH PAXTON ST, SIOUX CITY, IA, 51106","Match","Exact","1631 S PAXTON ST, SIOUX CITY, IA, 51106",93441538,"R"
233247,"1631 SPRUCE ST APT 1R","PHILADELPHIA","PA",19103,39.94750809,-75.1689375019999,247,"1631 SPRUCE ST APT 1R, PHILADELPHIA, PA, 19103","Match","Exact","1631 SPRUCE ST, PHILADELPHIA, PA, 19103",131407812,"R"
233248,"1631 STANTON RD SW","ATLANTA","GA",30311,33.710589127,-84.4437106569999,248,"1631 STANTON RD SW, ATLANTA, GA, 30311","Match","Exact","1631 STANTON RD SW, ATLANTA, GA, 30311",17341458,"R"
233249,"1631 STAUB ST","PHILADELPHIA","PA",19140,40.0178547190001,-75.153123024,249,"1631 STAUB ST, PHILADELPHIA, PA, 19140","Match","Exact","1631 STAUB ST, PHILADELPHIA, PA, 19140",131417094,"R"
233250,"1631 STONE ST EXT B","MEBANE","NC",27302,NA,NA,250,"1631 STONE ST EXT B, MEBANE, NC, 27302","No_Match",NA,NA,NA,NA
233251,"1631 STONE ST EXT","MEBANE","NC",27302,NA,NA,251,"1631 STONE ST EXT, MEBANE, NC, 27302","No_Match",NA,NA,NA,NA
233252,"1631 STONE STREET EXT UNIT A","MEBANE","NC",27302,NA,NA,252,"1631 STONE STREET EXT UNIT A, MEBANE, NC, 27302","No_Match",NA,NA,NA,NA
233253,"1631 SUMMER BREEZE WAY","SARASOTA","FL",34232,27.3190209160001,-82.452503125,253,"1631 SUMMER BREEZE WAY, SARASOTA, FL, 34232","Match","Exact","1631 SUMMER BREEZE WAY, SARASOTA, FL, 34232",16387695,"R"
233254,"1631 SW 76 AVE","PORTLAND","OR",97215,45.5112755660001,-122.585269188,254,"1631 SW 76 AVE, PORTLAND, OR, 97215","Match","Non_Exact","1631 SE 76TH AVE, PORTLAND, OR, 97215",157516466,"R"
233255,"1631 SWEETWATER LANE","PROSPER","TX",75078,33.231928155,-96.779828653,255,"1631 SWEETWATER LANE, PROSPER, TX, 75078","Match","Exact","1631 SWEETWATER LN, PROSPER, TX, 75078",650915508,"L"
233256,"1631 TALL OAKS DRIVE","PLAINFIELD","IL",60586,41.5520527420001,-88.213084247,256,"1631 TALL OAKS DRIVE, PLAINFIELD, IL, 60586","Match","Exact","1631 TALL OAKS DR, PLAINFIELD, IL, 60586",111610680,"R"
233257,"1631 TAYLORCREST DR","DALLAS","TX",75253,32.6814003220001,-96.600672285,257,"1631 TAYLORCREST DR, DALLAS, TX, 75253","Match","Exact","1631 TAYLORCREST DR, DALLAS, TX, 75253",103167311,"L"
233258,"1631 TOLLGATE COURT","LEBANON","OH",45036,39.4641244810001,-84.212532193,258,"1631 TOLLGATE COURT, LEBANON, OH, 45036","Match","Exact","1631 TOLLGATE CT, LEBANON, OH, 45036",159031284,"L"
233259,"1631 TRINITY ST","PITTSBURGH","PA",15206,40.4863227860001,-79.9318874799999,259,"1631 TRINITY ST, PITTSBURGH, PA, 15206","Match","Exact","1631 TRINITY ST, PITTSBURGH, PA, 15206",639084084,"L"
233260,"1631 TRINITY STREET","PITTSBURGH","PA",15206,40.4863227860001,-79.9318874799999,260,"1631 TRINITY STREET, PITTSBURGH, PA, 15206","Match","Exact","1631 TRINITY ST, PITTSBURGH, PA, 15206",639084084,"L"
233261,"1631 UNION AVE","BOLINGBROOK","IL",60490,41.6688379180001,-88.144451755,261,"1631 UNION AVE, BOLINGBROOK, IL, 60490","Match","Exact","1631 UNION AVE, BOLINGBROOK, IL, 60490",111624284,"R"
233262,"1631 VALLEY AVE APT B","HOMEWOOD","AL",35209,33.4837510080001,-86.800111653,262,"1631 VALLEY AVE APT B, HOMEWOOD, AL, 35209","Match","Exact","1631 VALLEY AVE, HOMEWOOD, AL, 35209",81576660,"R"
233263,"1631 W CHASE AVE","CHICAGO","IL",60626,42.013821647,-87.6709782519999,263,"1631 W CHASE AVE, CHICAGO, IL, 60626","Match","Exact","1631 W CHASE AVE, CHICAGO, IL, 60626",111745231,"L"
233264,"1631 W ELKTON RD","HAMILTON","OH",45013,NA,NA,264,"1631 W ELKTON RD, HAMILTON, OH, 45013","No_Match",NA,NA,NA,NA
233265,"1631 W NORTH STREET","KOKOMO","IN",46901,40.4985047540001,-86.14920864,265,"1631 W NORTH STREET, KOKOMO, IN, 46901","Match","Exact","1631 W NORTH ST, KOKOMO, IN, 46901",27262866,"L"
233266,"1631 W SUMMERDALE AVE APT 1","CHICAGO","IL",60640,41.978893058,-87.670737684,266,"1631 W SUMMERDALE AVE APT 1, CHICAGO, IL, 60640","Match","Non_Exact","1631 W SUMMERDALE AVE, CHICAGO, IL, 60640",605185624,"L"
233267,"1631 W WARREN BLVD","CHICAGO","IL",60612,41.8823567110001,-87.668146255,267,"1631 W WARREN BLVD, CHICAGO, IL, 60612","Match","Exact","1631 W WARREN BLVD, CHICAGO, IL, 60612",605091609,"L"
233268,"1631 W WATERCRESS AVE","POST FALLS","WA",83854,NA,NA,268,"1631 W WATERCRESS AVE, POST FALLS, WA, 83854","No_Match",NA,NA,NA,NA
233269,"1631 W WILSON","CHICAGO","IL",60640,41.965216072,-87.670300503,269,"1631 W WILSON, CHICAGO, IL, 60640","Match","Non_Exact","1631 W WILSON AVE, CHICAGO, IL, 60640",605188793,"L"
233270,"1631 WENDLE WAY","PALM HARBOR","FL",34685,28.100088812,-82.698456055,270,"1631 WENDLE WAY, PALM HARBOR, FL, 34685","Match","Exact","1631 WENDLE WAY, PALM HARBOR, FL, 34685",124680321,"L"
233271,"1631 WEST KIOWA STREET","COLORADO SPRINGS","CO",80904,38.8415705420001,-104.848591038,271,"1631 WEST KIOWA STREET, COLORADO SPRINGS, CO, 80904","Match","Exact","1631 W KIOWA ST, COLORADO SPRINGS, CO, 80904",105513309,"L"
233272,"1631 WHETSTONE STE 411","BALTIMORE","MD",21230,39.2691254540001,-76.599798995,272,"1631 WHETSTONE STE 411, BALTIMORE, MD, 21230","Match","Non_Exact","1631 WHETSTONE WAY, BALTIMORE, MD, 21230",648466400,"L"
233273,"1631 WHETSTONE WAY APT 524","BALTIMORE","MD",21230,39.2691254540001,-76.599798995,273,"1631 WHETSTONE WAY APT 524, BALTIMORE, MD, 21230","Match","Exact","1631 WHETSTONE WAY, BALTIMORE, MD, 21230",648466400,"L"
233274,"1631 WHITE CIR NW APT 6330","MARIETTA","GA",30066,NA,NA,274,"1631 WHITE CIR NW APT 6330, MARIETTA, GA, 30066","No_Match",NA,NA,NA,NA
233275,"1631 WINTERS LANE","GLENWOOD SPRINGS","CO",81601,39.507407975,-107.312916728,275,"1631 WINTERS LANE, GLENWOOD SPRINGS, CO, 81601","Match","Exact","1631 WINTERS LN, GLENWOOD SPGS, CO, 81601",635801606,"L"
233276,"1631 WORRELL ST","PHILADELPHIA","PA",19124,40.0076601380001,-75.095758319,276,"1631 WORRELL ST, PHILADELPHIA, PA, 19124","Match","Exact","1631 WORRELL ST, PHILADELPHIA, PA, 19124",131427667,"L"
233277,"1631 ZIMMERMAN TRAIL SUITE 1","BILLINGS","MT",59102,NA,NA,277,"1631 ZIMMERMAN TRAIL SUITE 1, BILLINGS, MT, 59102","No_Match",NA,NA,NA,NA
233278,"16310 55TH ST SE","KINDRED","ND",58051,46.615319377,-97.007540046,278,"16310 55TH ST SE, KINDRED, ND, 58051","Match","Exact","16310 55TH ST SE, KINDRED, ND, 58051",181254283,"R"
233279,"16310 CANYON MILLS CT","HOUSTON","TX",77095,29.944609631,-95.6647583439999,279,"16310 CANYON MILLS CT, HOUSTON, TX, 77095","Match","Exact","16310 CANYON MILLS CT, HOUSTON, TX, 77095",96569440,"L"
233280,"16310 CARDROSS LANE","HUNTERSVILLE","NC",28078,35.428730891,-80.87986,280,"16310 CARDROSS LANE, HUNTERSVILLE, NC, 28078","Match","Exact","16310 CARDROSS LN, HUNTERSVILLE, NC, 28078",70560006,"R"
233281,"16310 CLARK AVE","BELLFLOWER","CA",90706,33.886200962,-118.133925628,281,"16310 CLARK AVE, BELLFLOWER, CA, 90706","Match","Exact","16310 CLARK AVE, BELLFLOWER, CA, 90706",141699343,"L"
233282,"16310 CONSTABLE RD","RIVERSIDE","CA",92504,33.882984428,-117.398748003,282,"16310 CONSTABLE RD, RIVERSIDE, CA, 92504","Match","Exact","16310 CONSTABLE RD, RIVERSIDE, CA, 92504",194859588,"L"
233283,"16310 HIDDEN GATE CT","SUGAR LAND","TX",77498,29.6499169210001,-95.671733323,283,"16310 HIDDEN GATE CT, SUGAR LAND, TX, 77498","Match","Exact","16310 HIDDEN GATE CT, SUGAR LAND, TX, 77498",78285047,"L"
233284,"16310 HWY A","BENTON CITY","MO",65264,NA,NA,284,"16310 HWY A, BENTON CITY, MO, 65264","No_Match",NA,NA,NA,NA
233285,"16310 JACKSON HOLLOW RD","HAYMARKET","VA",20169,38.8642484870001,-77.673218627,285,"16310 JACKSON HOLLOW RD, HAYMARKET, VA, 20169","Match","Exact","16310 JACKSON HOLLOW RD, HAYMARKET, VA, 20169",76515282,"R"
233286,"16310 KNOTTINGHAM DR","PFLUGERVILLE","TX",78660,30.4540913370001,-97.6470970459999,286,"16310 KNOTTINGHAM DR, PFLUGERVILLE, TX, 78660","Match","Exact","16310 KNOTTINGHAM DR, PFLUGERVILLE, TX, 78660",63933362,"L"
233287,"16310 MANGO RIDGE COURT","HUMBLE","TX",77396,29.96445971,-95.21181709,287,"16310 MANGO RIDGE COURT, HUMBLE, TX, 77396","Match","Exact","16310 MANGO RIDGE CT, HUMBLE, TX, 77396",96420953,"L"
233288,"16310 MARK LANE","TINLEY PARK","IL",60477,41.5950254640001,-87.773505939,288,"16310 MARK LANE, TINLEY PARK, IL, 60477","Match","Exact","16310 MARK LN, TINLEY PARK, IL, 60477",650004568,"R"
233289,"16310 MUIRFIELD DR","ODESSA","FL",33556,28.1067043460001,-82.632802075,289,"16310 MUIRFIELD DR, ODESSA, FL, 33556","Match","Exact","16310 MUIRFIELD DR, ODESSA, FL, 33556",653179326,"R"
233290,"16310 OTTER CREEK PKWY","LITTLE ROCK","AR",72210,34.663254556,-92.434172437,290,"16310 OTTER CREEK PKWY, LITTLE ROCK, AR, 72210","Match","Exact","16310 OTTER CREEK PKWY, LITTLE ROCK, AR, 72210",83600923,"L"
233291,"16310 VILLARET DR","HOUSTON","TX",77083,29.7044636250001,-95.674160149,291,"16310 VILLARET DR, HOUSTON, TX, 77083","Match","Exact","16310 VILLARET DR, HOUSTON, TX, 77083",96607845,"L"
233292,"16311 ARCHERY RANGE ROAD","SHAWNEE","OK",74801,35.328544573,-97.06691627,292,"16311 ARCHERY RANGE ROAD, SHAWNEE, OK, 74801","Match","Exact","16311 ARCHERY RANGE RD, SHAWNEE, OK, 74801",650902750,"R"
233293,"16311 ARCHERY RANGE","SHAWNEE","OK",74801,35.328544573,-97.06691627,293,"16311 ARCHERY RANGE, SHAWNEE, OK, 74801","Match","Non_Exact","16311 ARCHERY RANGE RD, SHAWNEE, OK, 74801",650902750,"R"
233294,"16311 BRIDGECROSSING DR","LITHIA","FL",33547,27.8394673240001,-82.2131299389999,294,"16311 BRIDGECROSSING DR, LITHIA, FL, 33547","Match","Exact","16311 BRIDGECROSSING DR, LITHIA, FL, 33547",625728998,"R"
233295,"16311 COURTHOUSE ROAD","EASTVILLE","VA",23314,NA,NA,295,"16311 COURTHOUSE ROAD, EASTVILLE, VA, 23314","No_Match",NA,NA,NA,NA
233296,"16311 HADEN CREST CT","CYPRESS","TX",77429,29.9725145780001,-95.666085374,296,"16311 HADEN CREST CT, CYPRESS, TX, 77429","Match","Exact","16311 HADEN CREST CT, CYPRESS, TX, 77429",627714379,"R"
233297,"16311 Jadestone Terrace Ln","HOUSTON","TX",77044,29.919974446,-95.1893687099999,297,"16311 Jadestone Terrace Ln, HOUSTON, TX, 77044","Match","Exact","16311 JADESTONE TERRACE LN, HOUSTON, TX, 77044",627681318,"R"
233298,"16311 NORWALK BLVD","NORWALK","CA",90650,33.8830701040001,-118.07276899,298,"16311 NORWALK BLVD, NORWALK, CA, 90650","Match","Exact","16311 NORWALK BLVD, NORWALK, CA, 90650",141744035,"R"
233299,"16311 NW 19 CT","MIAMI GARDENS","FL",33054,25.923473524,-80.2340280889999,299,"16311 NW 19 CT, MIAMI GARDENS, FL, 33054","Match","Exact","16311 NW 19TH CT, MIAMI GARDENS, FL, 33054",116028603,"R"
233300,"16311 TRES RITOS","SAN ANTONIO","TX",78247,29.58963988,-98.374253817,300,"16311 TRES RITOS, SAN ANTONIO, TX, 78247","Match","Non_Exact","16311 TRES RITOS ST, SAN ANTONIO, TX, 78247",101501184,"R"
233301,"16311 VENTURA BLVD","ENCINO","CA",91436,34.157021236,-118.488333382,301,"16311 VENTURA BLVD, ENCINO, CA, 91436","Match","Exact","16311 VENTURA BLVD, ENCINO, CA, 91436",141556623,"R"
233302,"16312 ARBOR ST","OMAHA","NE",68130,41.234751368,-96.168920416,302,"16312 ARBOR ST, OMAHA, NE, 68130","Match","Exact","16312 ARBOR ST, OMAHA, NE, 68130",116966659,"R"
233303,"16312 ARMSTRONG PL","TAMPA","FL",33647,28.111346471,-82.4017312889999,303,"16312 ARMSTRONG PL, TAMPA, FL, 33647","Match","Exact","16312 ARMSTRONG PL, TAMPA, FL, 33647",104579314,"L"
233304,"16312 MUIRFIELD PLACE","EDMOND","OK",73013,35.634664023,-97.569202189,304,"16312 MUIRFIELD PLACE, EDMOND, OK, 73013","Match","Exact","16312 MUIRFIELD PL, EDMOND, OK, 73013",606075820,"R"
233305,"16312 OLD YORK ROAD","MONKTON","MD",21111,NA,NA,305,"16312 OLD YORK ROAD, MONKTON, MD, 21111","Tie",NA,NA,NA,NA
233306,"16312 SOUTH BURCH STREET","OLATHE","KS",66062,38.8342398670001,-94.794459456,306,"16312 SOUTH BURCH STREET, OLATHE, KS, 66062","Match","Exact","16312 S BURCH ST, OLATHE, KS, 66062",91312579,"R"
233307,"16312 WILLOW STREAM LN","NORTH FORT MYERS","FL",33917,26.7027616290001,-81.844184694,307,"16312 WILLOW STREAM LN, NORTH FORT MYERS, FL, 33917","Match","Exact","16312 WILLOW STREAM LN, N FORT MYERS, FL, 33917",118020558,"L"
233308,"16313 CENTRAL PARK AVE","MARKHAM","IL",60428,41.59320267,-87.704173692,308,"16313 CENTRAL PARK AVE, MARKHAM, IL, 60428","Match","Exact","16313 CENTRAL PARK AVE, MARKHAM, IL, 60428",111704811,"L"
233309,"16313 E 17TH PL UNIT A","AURORA","CO",80220,39.7460152460001,-104.804141366,309,"16313 E 17TH PL UNIT A, AURORA, CO, 80220","Match","Non_Exact","16313 17TH PL, AURORA, CO, 80011",177396788,"L"
233310,"16313 NE LEAPER RD","VANCOUVER","WA",98686,45.739921472,-122.606787446,310,"16313 NE LEAPER RD, VANCOUVER, WA, 98686","Match","Exact","16313 NE LEAPER RD, VANCOUVER, WA, 98686",158338881,"R"
233311,"16313 NORTHWOOD RD NW","PRIOR LAKE","MN",55372,44.713234588,-93.4582733399999,311,"16313 NORTHWOOD RD NW, PRIOR LAKE, MN, 55372","Match","Exact","16313 NORTHWOOD RD NW, PRIOR LAKE, MN, 55372",38155199,"R"
233312,"16313 POND MEADOW LA","BOWIE","MD",20716,38.913894134,-76.7227266199999,312,"16313 POND MEADOW LA, BOWIE, MD, 20716","Match","Exact","16313 POND MEADOW LN, BOWIE, MD, 20716",76328526,"R"
233313,"16313 SACRAMENTO AVENUE","BROOKSVILLE","FL",34604,28.5101684260001,-82.458926138,313,"16313 SACRAMENTO AVENUE, BROOKSVILLE, FL, 34604","Match","Exact","16313 SACRAMENTO AVE, BROOKSVILLE, FL, 34604",647927137,"L"
233314,"16313 SUNLAND CT","WESTFIELD","IN",46074,40.0255940210001,-86.144556259,314,"16313 SUNLAND CT, WESTFIELD, IN, 46074","Match","Exact","16313 SUNLAND CT, WESTFIELD, IN, 46074",617970771,"L"
233315,"16313","LITHIA","FL",33547,NA,NA,315,"16313, LITHIA, FL, 33547","No_Match",NA,NA,NA,NA
233316,"16314 16 AVENUE","WHITESTONE","NY",11357,NA,NA,316,"16314 16 AVENUE, WHITESTONE, NY, 11357","No_Match",NA,NA,NA,NA
233317,"16314 ELM POINT LANE","SUGAR LAND","TX",77498,NA,NA,317,"16314 ELM POINT LANE, SUGAR LAND, TX, 77498","No_Match",NA,NA,NA,NA
233318,"16314 FRENCH PRAIRIE RD NE","GERVAIS","OR",97026,NA,NA,318,"16314 FRENCH PRAIRIE RD NE, GERVAIS, OR, 97026","No_Match",NA,NA,NA,NA
233319,"16314 SW FOUR WOOD WAY","INDIANTOWN","FL",34956,27.0309685760001,-80.47478212,319,"16314 SW FOUR WOOD WAY, INDIANTOWN, FL, 34956","Match","Exact","16314 SW FOUR WOOD WAY, INDIANTOWN, FL, 34956",120417303,"L"
233320,"16314 VALHALLA DR","BOTHELL","WA",98011,47.7458328650001,-122.213300852,320,"16314 VALHALLA DR, BOTHELL, WA, 98011","Match","Exact","16314 VALHALLA DR, BOTHELL, WA, 98011",187031623,"R"
233321,"16314 W RAMBLING VINE","TAMPA","FL",33624,NA,NA,321,"16314 W RAMBLING VINE, TAMPA, FL, 33624","No_Match",NA,NA,NA,NA
233322,"16315 130TH AVE APT 5A","JAMAICA","NY",11434,NA,NA,322,"16315 130TH AVE APT 5A, JAMAICA, NY, 11434","No_Match",NA,NA,NA,NA
233323,"16315 BAYCROSS DRIVE","BRADENTON","FL",34212,27.3895646870001,-82.374728125,323,"16315 BAYCROSS DRIVE, BRADENTON, FL, 34212","Match","Non_Exact","16315 BAYCROSS DR, BRADENTON, FL, 34202",625408931,"L"
233324,"16315 GRIFFIN DRIVE E","PUYALLUP","WA",98375,47.1087497070001,-122.309948928,324,"16315 GRIFFIN DRIVE E, PUYALLUP, WA, 98375","Match","Exact","16315 GRIFFIN DR E, PUYALLUP, WA, 98375",184685303,"L"
233325,"16315 HARWOOD DRIVE SW","FROSTBURG","MD",21532,39.6347200810001,-78.887535795,325,"16315 HARWOOD DRIVE SW, FROSTBURG, MD, 21532","Match","Exact","16315 HARWOOD DR SW, FROSTBURG, MD, 21532",123341970,"L"
233326,"16315 HASKINS LN","CARSON","CA",90746,33.8839907720001,-118.260877785,326,"16315 HASKINS LN, CARSON, CA, 90746","Match","Exact","16315 HASKINS LN, CARSON, CA, 90746",241244179,"R"
233327,"16315 INGLEWOOD PL NE","KENMORE","WA",98028,47.7469628800001,-122.256755193,327,"16315 INGLEWOOD PL NE, KENMORE, WA, 98028","Match","Exact","16315 INGLEWOOD PL NE, KENMORE, WA, 98028",186946796,"R"
233328,"16315 INGLEWOOD PL NE","KENMOREE","WA",98028,47.7469628800001,-122.256755193,328,"16315 INGLEWOOD PL NE, KENMOREE, WA, 98028","Match","Non_Exact","16315 INGLEWOOD PL NE, KENMORE, WA, 98028",186946796,"R"
233329,"16315 OLD CASPAR RAILROAD RD","FORT BRAGG","CA",95437,NA,NA,329,"16315 OLD CASPAR RAILROAD RD, FORT BRAGG, CA, 95437","No_Match",NA,NA,NA,NA
233330,"16315 PEAR RIDGE PLACE","HUMBLE","TX",77396,29.9645072540001,-95.212758144,330,"16315 PEAR RIDGE PLACE, HUMBLE, TX, 77396","Match","Exact","16315 PEAR RIDGE PL, HUMBLE, TX, 77396",96420958,"R"
233331,"16315 WAGNER WAY APT 209","EDEN PRAIRIE","MN",55344,44.864053777,-93.4829630689999,331,"16315 WAGNER WAY APT 209, EDEN PRAIRIE, MN, 55344","Match","Exact","16315 WAGNER WAY, EDEN PRAIRIE, MN, 55344",640440714,"R"
233332,"16316 160TH STREET","LISMORE","MN",56155,43.7613860650001,-95.924548241,332,"16316 160TH STREET, LISMORE, MN, 56155","Match","Exact","16316 160TH ST, LISMORE, MN, 56155",29730877,"R"
233333,"16316 GRACKLE DR","ROGERS","AR",72756,36.326375231,-94.020794214,333,"16316 GRACKLE DR, ROGERS, AR, 72756","Match","Exact","16316 GRACKLE DR, ROGERS, AR, 72756",47836978,"R"
233334,"16316 LAKE SHORE RD","WEED","CA",96094,41.521392388,-122.373520227,334,"16316 LAKE SHORE RD, WEED, CA, 96094","Match","Non_Exact","16316 LAKE SHORE DR, WEED, CA, 96094",113231653,"R"
233335,"16316 TOLEDO BEND COURT","PROSPER","TX",75078,33.235650574,-96.852124494,335,"16316 TOLEDO BEND COURT, PROSPER, TX, 75078","Match","Exact","16316 TOLEDO BEND CT, PROSPER, TX, 75078",646946311,"R"
233336,"16317 1/2 PIUMA AVE","CERRITOS","CA",90703,33.8872525240001,-118.105871316,336,"16317 1/2 PIUMA AVE, CERRITOS, CA, 90703","Match","Exact","16317 PIUMA AVE, CERRITOS, CA, 90703",647566389,"R"
233337,"16317 65TH AVE","TINLEY PARK","IL",60477,41.5945349890001,-87.777563087,337,"16317 65TH AVE, TINLEY PARK, IL, 60477","Match","Exact","16317 65TH AVE, TINLEY PARK, IL, 60477",111702851,"L"
233338,"16317 ANDREWS CIRCLE","CEDAR KEY","FL",32625,29.149899485,-83.042642856,338,"16317 ANDREWS CIRCLE, CEDAR KEY, FL, 32625","Match","Exact","16317 ANDREWS CIR, CEDAR KEY, FL, 32625",43311935,"R"
233339,"16317 AVALANCHE RUN","BROOMFIELD","CO",80023,39.9928739050001,-105.02482024,339,"16317 AVALANCHE RUN, BROOMFIELD, CO, 80023","Match","Exact","16317 AVALANCHE RUN, BROOMFIELD, CO, 80023",210039452,"L"
233340,"16317 C STREET","OMAHA","NE",68130,41.2247409600001,-96.16855458,340,"16317 C STREET, OMAHA, NE, 68130","Match","Exact","16317 C ST, OMAHA, NE, 68130",647695391,"R"
233341,"16317 COLUMBUS AVENUE","ROCKVILLE","MD",20855,39.1263322670001,-77.1674224339999,341,"16317 COLUMBUS AVENUE, ROCKVILLE, MD, 20855","Match","Exact","16317 COLUMBUS AVE, ROCKVILLE, MD, 20855",650593417,"L"
233342,"16317 COPPERWOOD RUN WAY","HOUSTON","TX",77084,NA,NA,342,"16317 COPPERWOOD RUN WAY, HOUSTON, TX, 77084","No_Match",NA,NA,NA,NA
233343,"16317 E 48TH ST","TULSA","OK",74130,36.095217489,-95.795977223,343,"16317 E 48TH ST, TULSA, OK, 74130","Match","Non_Exact","16317 E 48TH ST, TULSA, OK, 74134",624659429,"R"
233344,"16317 SPRING PARK LANE","CERRITOS","CA",90703,33.8829231190001,-118.072131077,344,"16317 SPRING PARK LANE, CERRITOS, CA, 90703","Match","Exact","16317 SPRING PARK LN, CERRITOS, CA, 90703",141744036,"R"
233345,"16317 TUBA ST","NORTH HILLS","CA",91343,34.256511355,-118.487725146,345,"16317 TUBA ST, NORTH HILLS, CA, 91343","Match","Exact","16317 TUBA ST, NORTH HILLS, CA, 91343",141543337,"R"
233346,"16318 455 AVENUE","WATERTOWN","SD",57201,45.017817124,-97.10641749,346,"16318 455 AVENUE, WATERTOWN, SD, 57201","Match","Exact","16318 455TH AVE, WATERTOWN, SD, 57201",200735139,"R"
233347,"16318 COPPER STILL TERRACE","MOSELEY","VA",23120,37.4110228390001,-77.712299323,347,"16318 COPPER STILL TERRACE, MOSELEY, VA, 23120","Match","Exact","16318 COPPER STILL TER, MOSELEY, VA, 23120",625627477,"R"
233348,"16318 EAST YORKSHIRE DR","LOXAHATCHEE","FL",33470,NA,NA,348,"16318 EAST YORKSHIRE DR, LOXAHATCHEE, FL, 33470","No_Match",NA,NA,NA,NA
233349,"16318 EAST YORKSHIRE DRIVE","LOXAHATCHEE","FL",33470,NA,NA,349,"16318 EAST YORKSHIRE DRIVE, LOXAHATCHEE, FL, 33470","No_Match",NA,NA,NA,NA
233350,"16318 HIDDEN VIEW ST","SAN ANTONIO","TX",78232,29.590313537,-98.498658883,350,"16318 HIDDEN VIEW ST, SAN ANTONIO, TX, 78232","Match","Exact","16318 HIDDEN VIEW ST, SAN ANTONIO, TX, 78232",101495523,"R"
233351,"16318 INGLEWOOD LN NE","KENMORE","WA",98028,47.747249937,-122.255449312,351,"16318 INGLEWOOD LN NE, KENMORE, WA, 98028","Match","Exact","16318 INGLEWOOD LN NE, KENMORE, WA, 98028",239779218,"R"
233352,"16318 QUAIL HUNT","MISSOURI CITY","TX",77489,29.590873882,-95.512918374,352,"16318 QUAIL HUNT, MISSOURI CITY, TX, 77489","Match","Non_Exact","16318 QUAIL HUNT DR, MISSOURI CITY, TX, 77489",78271352,"L"
233353,"16318 TISONS BLUFF ROAD","JACKSONVILLE","FL",32218,30.537470452,-81.617631223,353,"16318 TISONS BLUFF ROAD, JACKSONVILLE, FL, 32218","Match","Exact","16318 TISONS BLUFF RD, JACKSONVILLE, FL, 32218",648184488,"L"
233354,"16318 VIKING WAY","POULSBO","WA",98370,47.711426825,-122.65991681,354,"16318 VIKING WAY, POULSBO, WA, 98370","Match","Non_Exact","16318 VIKING WAY NW, POULSBO, WA, 98370",629071727,"R"
233355,"16319 BOULDER PASS","SAN ANTONIO","TX",78247,29.588953519,-98.375906975,355,"16319 BOULDER PASS, SAN ANTONIO, TX, 78247","Match","Non_Exact","16319 BOULDER PASS ST, SAN ANTONIO, TX, 78247",101501186,"R"
233356,"16319 BRANDERS BRIDGE ROAD","CHESTER","VA",23831,37.296684703,-77.439555879,356,"16319 BRANDERS BRIDGE ROAD, CHESTER, VA, 23831","Match","Exact","16319 BRANDERS BRIDGE RD, CHESTER, VA, 23831",653495938,"L"
233357,"16319 DOBSON","SOUTH HOLLAND","IL",60477,NA,NA,357,"16319 DOBSON, SOUTH HOLLAND, IL, 60477","No_Match",NA,NA,NA,NA
233358,"16319 NAPA VINE DRIVE","HOUSTON","TX",77053,29.5896818840001,-95.480103088,358,"16319 NAPA VINE DRIVE, HOUSTON, TX, 77053","Match","Exact","16319 NAPA VINE DR, HOUSTON, TX, 77053",78271674,"R"
233359,"16319 NE RUSSELL","PORTLAND","OR",97230,45.541604288,-122.494761229,359,"16319 NE RUSSELL, PORTLAND, OR, 97230","Match","Non_Exact","16319 NE RUSSELL ST, PORTLAND, OR, 97230",157522743,"L"
233360,"16319 RED OAK DR","MISSOURI CITY","TX",77489,29.6325015950001,-95.535753088,360,"16319 RED OAK DR, MISSOURI CITY, TX, 77489","Match","Exact","16319 RED OAK DR, MISSOURI CITY, TX, 77489",96352393,"R"
233361,"1631B WEST MAIN ST","JEFFERSON CITY","MO",65109,38.5884292270001,-92.193373131,361,"1631B WEST MAIN ST, JEFFERSON CITY, MO, 65109","Match","Exact","1631 W MAIN ST, JEFFERSON CITY, MO, 65109",34409815,"R"
233362,"1631NEWTON STREET NW","WASHINGTON","DC",20010,NA,NA,362,"1631NEWTON STREET NW, WASHINGTON, DC, 20010","No_Match",NA,NA,NA,NA
233363,"1632 1/2 CRENSHAW BLVD","LOS ANGELES","CA",90019,34.044028053,-118.328770725,363,"1632 1/2 CRENSHAW BLVD, LOS ANGELES, CA, 90019","Match","Exact","1632 CRENSHAW BLVD, LOS ANGELES, CA, 90019",640413644,"L"
233364,"1632 17 ROAD","LOMA","CO",81524,39.2392095960001,-108.738351461,364,"1632 17 ROAD, LOMA, CO, 81524","Match","Exact","1632 17 RD, LOMA, CO, 81524",122460120,"L"
233365,"1632 17TH AVE","LEWISTON","ID",83501,46.40304731,-117.008918396,365,"1632 17TH AVE, LEWISTON, ID, 83501","Match","Exact","1632 17TH AVE, LEWISTON, ID, 83501",173130965,"L"
233366,"1632 20TH ST","OGDEN","UT",84401,41.2306717050001,-111.935947192,366,"1632 20TH ST, OGDEN, UT, 84401","Match","Exact","1632 20TH ST, OGDEN, UT, 84401",155697918,"L"
233367,"1632 32ND STREET NW","WASHINGTON","DC",20007,38.911327779,-77.063932143,367,"1632 32ND STREET NW, WASHINGTON, DC, 20007","Match","Exact","1632 32ND ST NW, WASHINGTON, DC, 20007",76224885,"L"
233368,"1632 51ST ST S","FARGO","ND",58103,46.8562752600001,-96.87107797,368,"1632 51ST ST S, FARGO, ND, 58103","Match","Exact","1632 51ST ST S, FARGO, ND, 58103",151468613,"R"
233369,"1632 54TH STREET","BROOKLYN","NY",11204,40.627706978,-73.987557997,369,"1632 54TH STREET, BROOKLYN, NY, 11204","Match","Exact","1632 54TH ST, BROOKLYN, NY, 11204",59080330,"R"
233370,"1632 5TH STREET","DAYTONA BEACH","FL",32117,29.2231854820001,-81.0687151389999,370,"1632 5TH STREET, DAYTONA BEACH, FL, 32117","Match","Exact","1632 5TH ST, DAYTONA BEACH, FL, 32117",94522424,"R"
233371,"1632 5TH STREET","KEY WEST","FL",33040,NA,NA,371,"1632 5TH STREET, KEY WEST, FL, 33040","No_Match",NA,NA,NA,NA
233372,"1632 7TH ST W","WEST FARGO","ND",58078,46.858289052,-96.910930247,372,"1632 7TH ST W, WEST FARGO, ND, 58078","Match","Exact","1632 7TH ST W, WEST FARGO, ND, 58078",151480138,"R"
233373,"1632 ALEX AVENUE","AUBURN","AL",36830,32.5752473210001,-85.43215501,373,"1632 ALEX AVENUE, AUBURN, AL, 36830","Match","Exact","1632 ALEX AVE, AUBURN, AL, 36830",618823475,"L"
233374,"1632 ANDREWS RD NW","ROANOKE","VA",24017,37.293188705,-79.9622594579999,374,"1632 ANDREWS RD NW, ROANOKE, VA, 24017","Match","Exact","1632 ANDREWS RD NW, ROANOKE, VA, 24017",62904194,"L"
233375,"1632 ANTIOCH CHURCH RD","EASTMAN","GA",31023,32.244369041,-83.269963635,375,"1632 ANTIOCH CHURCH RD, EASTMAN, GA, 31023","Match","Exact","1632 ANTIOCH CHURCH RD, EASTMAN, GA, 31023",9522226,"R"
233376,"1632 ARBOR RIDGE  DRIVE","FORT WORTH","TX",76112,32.7551866680001,-97.190052505,376,"1632 ARBOR RIDGE  DRIVE, FORT WORTH, TX, 76112","Match","Exact","1632 ARBOR RIDGE DR, FORT WORTH, TX, 76112",101901195,"L"
233377,"1632 ARROYO SIERRA WAY","ROCKLIN","CA",95765,38.830294032,-121.28527299,377,"1632 ARROYO SIERRA WAY, ROCKLIN, CA, 95765","Match","Exact","1632 ARROYO SIERRA WAY, ROCKLIN, CA, 95765",648500178,"R"
233378,"1632 ARROYO SIERRA","ROCKLIN","CA",95765,38.830294032,-121.28527299,378,"1632 ARROYO SIERRA, ROCKLIN, CA, 95765","Match","Non_Exact","1632 ARROYO SIERRA WAY, ROCKLIN, CA, 95765",648500178,"R"
233379,"1632 ASBURY ROAD","WESTFIELD","NC",27053,36.5227105870001,-80.3986354749999,379,"1632 ASBURY ROAD, WESTFIELD, NC, 27053","Match","Exact","1632 ASBURY RD, WESTFIELD, NC, 27053",635420559,"R"
233380,"1632 BANIDA AVE","ROWLAND HEIGHTS","CA",91748,33.9874709040001,-117.880531218,380,"1632 BANIDA AVE, ROWLAND HEIGHTS, CA, 91748","Match","Exact","1632 BANIDA AVE, ROWLAND HEIGHTS, CA, 91748",141779285,"L"
233381,"1632 BEACON HILL DRIVE","HIGHLANDS RANCH","CO",80126,39.5398755960001,-104.97149844,381,"1632 BEACON HILL DRIVE, HIGHLANDS RANCH, CO, 80126","Match","Exact","1632 BEACON HILL DR, HIGHLANDS RANCH, CO, 80126",130817483,"R"
233382,"1632 BIG OAK DR","WEST VALLEY CITY","UT",84119,40.7190566530001,-111.937370349,382,"1632 BIG OAK DR, WEST VALLEY CITY, UT, 84119","Match","Non_Exact","1632 W BIG OAK DR, WEST VALLEY CITY, UT, 84119",609020103,"R"
233383,"1632 BOULDER CT","ROCHESTER","MI",48306,42.7024963860001,-83.1044666069999,383,"1632 BOULDER CT, ROCHESTER, MI, 48306","Match","Exact","1632 BOULDER CT, ROCHESTER, MI, 48306",69796679,"R"
233384,"1632 BROADWAY STREET 236","EUREKA","CA",95501,40.792581231,-124.177738191,384,"1632 BROADWAY STREET 236, EUREKA, CA, 95501","Match","Exact","1632 BROADWAY ST, EUREKA, CA, 95501",113060514,"L"
233385,"1632 CAINS AVE","PALM BAY","FL",32907,28.0398003760001,-80.724690145,385,"1632 CAINS AVE, PALM BAY, FL, 32907","Match","Non_Exact","1632 CAINS AVE NW, PALM BAY, FL, 32907",93896017,"R"
233386,"1632 CALIPER DR","TROY","MI",48084,42.575733615,-83.180229949,386,"1632 CALIPER DR, TROY, MI, 48084","Match","Exact","1632 CALIPER DR, TROY, MI, 48084",69736529,"L"
233387,"1632 CAMPHOR WAY","LODI","CA",95242,38.1103962780001,-121.293584805,387,"1632 CAMPHOR WAY, LODI, CA, 95242","Match","Exact","1632 CAMPHOR WAY, LODI, CA, 95242",133878967,"R"
233388,"1632 CANAL LANE","DANDRIDGE","TN",37725,35.989030336,-83.3545276629999,388,"1632 CANAL LANE, DANDRIDGE, TN, 37725","Match","Exact","1632 CANAL LN, DANDRIDGE, TN, 37725",618083805,"L"
233389,"1632 CANTAMAR WAY","ROSEVILLE","CA",95747,38.8056305540001,-121.342306222,389,"1632 CANTAMAR WAY, ROSEVILLE, CA, 95747","Match","Exact","1632 CANTAMAR WAY, ROSEVILLE, CA, 95747",106818592,"L"
233390,"1632 CARROLL ST","BROOKLYN","FL",11213,NA,NA,390,"1632 CARROLL ST, BROOKLYN, FL, 11213","No_Match",NA,NA,NA,NA
233391,"1632 CENTER STREET","EVANSTON","WY",82930,41.2705491,-110.973007448,391,"1632 CENTER STREET, EVANSTON, WY, 82930","Match","Non_Exact","1632 W CENTER ST, EVANSTON, WY, 82930",160259832,"R"
233392,"1632 CENTRAL AVENUE","YORKTOWN HGTS","NY",10598,NA,NA,392,"1632 CENTRAL AVENUE, YORKTOWN HGTS, NY, 10598","No_Match",NA,NA,NA,NA
233393,"1632 CENTRAL PARKWAY","CINCINNATI","OH",45202,39.114620567,-84.5213901829999,393,"1632 CENTRAL PARKWAY, CINCINNATI, OH, 45202","Match","Exact","1632 CENTRAL PKWY, CINCINNATI, OH, 45202",103935288,"R"
233394,"1632 CERULEAN WAY","GOTHA","FL",34734,28.5440346240001,-81.5205103709999,394,"1632 CERULEAN WAY, GOTHA, FL, 34734","Match","Exact","1632 CERULEAN WAY, GOTHA, FL, 34734",94372751,"R"
233395,"1632 CHURCH STREET","DETRIOT","MI",48216,42.3304275840001,-83.068444717,395,"1632 CHURCH STREET, DETRIOT, MI, 48216","Match","Non_Exact","1632 CHURCH ST, DETROIT, MI, 48216",95479326,"R"
233396,"1632 CLAIPER DR","TROY","MI",48084,NA,NA,396,"1632 CLAIPER DR, TROY, MI, 48084","No_Match",NA,NA,NA,NA
233397,"1632 COUNTY ROAD 618","CAPE GIRARDEAU","MO",63701,NA,NA,397,"1632 COUNTY ROAD 618, CAPE GIRARDEAU, MO, 63701","No_Match",NA,NA,NA,NA
233398,"1632 CRESCENT RD","LAWRENCE","KS",66044,38.9584353450001,-95.25572334,398,"1632 CRESCENT RD, LAWRENCE, KS, 66044","Match","Exact","1632 CRESCENT RD, LAWRENCE, KS, 66044",17684546,"R"
233399,"1632 CROWELL ROAD","VIENNA","VA",22182,38.9518170490001,-77.307489096,399,"1632 CROWELL ROAD, VIENNA, VA, 22182","Match","Exact","1632 CROWELL RD, VIENNA, VA, 22182",76044720,"L"
233400,"1632 CUMBERLAND FALLS HIGHWAY","CORBIN","KY",40701,36.918529827,-84.123247831,400,"1632 CUMBERLAND FALLS HIGHWAY, CORBIN, KY, 40701","Match","Exact","1632 CUMBERLAND FALLS HWY, CORBIN, KY, 40701",150140543,"L"
233401,"1632 CUPERTINO WAY","SALINAS","CA",93906,36.7059118670001,-121.627712544,401,"1632 CUPERTINO WAY, SALINAS, CA, 93906","Match","Exact","1632 CUPERTINO WAY, SALINAS, CA, 93906",196823999,"L"
233402,"1632 DELTURA DR","MYRTLE BEACH","SC",29588,33.649501355,-79.042790926,402,"1632 DELTURA DR, MYRTLE BEACH, SC, 29588","Match","Exact","1632 DELTURA DR, MYRTLE BEACH, SC, 29588",645468027,"R"
233403,"1632 DOVER ST","IOWA CITY","IA",52240,41.642513239,-91.493879208,403,"1632 DOVER ST, IOWA CITY, IA, 52240","Match","Exact","1632 DOVER ST, IOWA CITY, IA, 52240",84496813,"L"
233404,"1632 DRAGONBACK PASS","FRISCO","TX",75034,33.1563620540001,-96.901049254,404,"1632 DRAGONBACK PASS, FRISCO, TX, 75034","Match","Non_Exact","1632 DRAGONBACK PASS, FRISCO, TX, 75036",653237289,"R"
233405,"1632 E DONNER DR","TEMPE","AZ",85282,33.3789072480001,-111.912615471,405,"1632 E DONNER DR, TEMPE, AZ, 85282","Match","Exact","1632 E DONNER DR, TEMPE, AZ, 85282",128238528,"L"
233406,"1632 E RICHARDSON RD","WESTMINSTER","MD",21158,NA,NA,406,"1632 E RICHARDSON RD, WESTMINSTER, MD, 21158","No_Match",NA,NA,NA,NA
233407,"1632 E SILVER SPRINGS BLVD","OCALA","FL",34471,NA,NA,407,"1632 E SILVER SPRINGS BLVD, OCALA, FL, 34471","No_Match",NA,NA,NA,NA
233408,"1632 EDISON AVE","BRONX","NY",10461,40.8441792260001,-73.832857126,408,"1632 EDISON AVE, BRONX, NY, 10461","Match","Exact","1632 EDISON AVE, BRONX, NY, 10461",80305791,"R"
233409,"1632 ELLIS STREET","STEVENS POINT","WI",54481,44.521550919,-89.5760461089999,409,"1632 ELLIS STREET, STEVENS POINT, WI, 54481","Match","Exact","1632 ELLIS ST, STEVENS POINT, WI, 54481",126794016,"R"
233410,"1632 FELTHAM PLACE","LONGMONT","CO",80501,40.1919419070001,-105.117291319,410,"1632 FELTHAM PLACE, LONGMONT, CO, 80501","Match","Exact","1632 FELTHAM PL, LONGMONT, CO, 80501",188154580,"L"
233411,"1632 FERRY STREET","LA CROSSE","WI",54601,43.8056516130001,-91.232081248,411,"1632 FERRY STREET, LA CROSSE, WI, 54601","Match","Exact","1632 FERRY ST, LA CROSSE, WI, 54601",51012882,"R"
233412,"1632 GLENVIEW AVENUE","MEMPHIS","TN",38106,35.110636099,-90.007707287,412,"1632 GLENVIEW AVENUE, MEMPHIS, TN, 38106","Match","Exact","1632 GLENVIEW AVE, MEMPHIS, TN, 38106",72908786,"L"
233413,"1632 GLENWOOD CIR","STATE COLLEGE","PA",16803,40.798447047,-77.8986608229999,413,"1632 GLENWOOD CIR, STATE COLLEGE, PA, 16803","Match","Exact","1632 GLENWOOD CIR, STATE COLLEGE, PA, 16803",50369850,"L"
233414,"1632 GLENWOOD CT","FINKSBURG","MD",21048,39.5032995400001,-76.938857253,414,"1632 GLENWOOD CT, FINKSBURG, MD, 21048","Match","Exact","1632 GLENWOOD CT, FINKSBURG, MD, 21048",650227367,"L"
233415,"1632 HAYES STREET","SAN FRANCISCO","CA",94117,37.774290507,-122.443338776,415,"1632 HAYES STREET, SAN FRANCISCO, CA, 94117","Match","Exact","1632 HAYES ST, SAN FRANCISCO, CA, 94117",192283300,"R"
233416,"1632 HERRING LANE","CUMBERLAND","FL",34714,28.3708240460001,-81.688160613,416,"1632 HERRING LANE, CUMBERLAND, FL, 34714","Match","Non_Exact","1632 HERRING LN, CLERMONT, FL, 34714",94209282,"R"
233417,"1632 HILLSIDE DRIVE","MANNFORD","OK",74044,36.138792913,-96.347260811,417,"1632 HILLSIDE DRIVE, MANNFORD, OK, 74044","Match","Exact","1632 HILLSIDE DR, MANNFORD, OK, 74044",652767029,"R"
233418,"1632 HOOTING HOLLOW DRIVE","GREENSBORO","NC",27401,NA,NA,418,"1632 HOOTING HOLLOW DRIVE, GREENSBORO, NC, 27401","No_Match",NA,NA,NA,NA
233419,"1632 HULL AVE APT 301","DES MOINES","IA",50313,41.6222812030001,-93.593719793,419,"1632 HULL AVE APT 301, DES MOINES, IA, 50313","Match","Exact","1632 HULL AVE, DES MOINES, IA, 50313",652701119,"L"
233420,"1632 HWY 133N","CROSSETT","AR",71635,NA,NA,420,"1632 HWY 133N, CROSSETT, AR, 71635","No_Match",NA,NA,NA,NA
233421,"1632 JO ANN DRIVE","PARMA","OH",44134,41.352794632,-81.690079651,421,"1632 JO ANN DRIVE, PARMA, OH, 44134","Match","Exact","1632 JO ANN DR, PARMA, OH, 44134",61141298,"R"
233422,"1632 KEOKE COURT","SANTA ROSA","CA",95403,38.480420467,-122.749092862,422,"1632 KEOKE COURT, SANTA ROSA, CA, 95403","Match","Exact","1632 KEOKE CT, SANTA ROSA, CA, 95403",67502033,"L"
233423,"1632 KING COVE","GRAND FORKS","ND",58201,47.9051735360001,-97.0714903909999,423,"1632 KING COVE, GRAND FORKS, ND, 58201","Match","Exact","1632 KING COVE, GRAND FORKS, ND, 58201",171276124,"L"
233424,"1632 KINGS VIEW DRIVE","GRAND FORKS","ND",58201,47.8670557140001,-97.050438819,424,"1632 KINGS VIEW DRIVE, GRAND FORKS, ND, 58201","Match","Exact","1632 KINGS VIEW DR, GRAND FORKS, ND, 58201",648132682,"L"
233425,"1632 KNOX HIGHWAY 28","WILLIAMSFIELD","IL",61489,40.9368647910001,-90.034706005,425,"1632 KNOX HIGHWAY 28, WILLIAMSFIELD, IL, 61489","Match","Exact","1632 KNOX HIGHWAY 28, WILLIAMSFIELD, IL, 61489",9043334,"L"
233426,"1632 LAKETON RD","PITTSBURGH","PA",15221,40.44863666,-79.869466627,426,"1632 LAKETON RD, PITTSBURGH, PA, 15221","Match","Exact","1632 LAKETON RD, PITTSBURGH, PA, 15221",51683995,"R"
233427,"1632 LEXINGTON AVE 37","MANSFIELD","OH",44907,40.7153475530001,-82.5482143309999,427,"1632 LEXINGTON AVE 37, MANSFIELD, OH, 44907","Match","Exact","1632 LEXINGTON AVE, MANSFIELD, OH, 44907",207222106,"R"
233428,"1632 LEXINGTON AVE APT 30","MANSFIELD","OH",44907,40.7153475530001,-82.5482143309999,428,"1632 LEXINGTON AVE APT 30, MANSFIELD, OH, 44907","Match","Exact","1632 LEXINGTON AVE, MANSFIELD, OH, 44907",207222106,"R"
233429,"1632 M-30","ALGER","MI",48610,NA,NA,429,"1632 M-30, ALGER, MI, 48610","No_Match",NA,NA,NA,NA
233430,"1632 MACKENZIE","WASHINGTON","IL",61571,40.710159403,-89.433496303,430,"1632 MACKENZIE, WASHINGTON, IL, 61571","Match","Non_Exact","1632 MACKENZIE ST, WASHINGTON, IL, 61571",646543089,"L"
233431,"1632 MACOMBER STREET","TOLEDO","OH",43606,41.6655258640001,-83.581798449,431,"1632 MACOMBER STREET, TOLEDO, OH, 43606","Match","Exact","1632 MACOMBER ST, TOLEDO, OH, 43606",33938107,"R"
233432,"1632 MAPLE AVE","HADDON HEIGHTS","NJ",8034,NA,NA,432,"1632 MAPLE AVE, HADDON HEIGHTS, NJ, 8034","No_Match",NA,NA,NA,NA
233433,"1632 MAPLE AVE","HADDON HEIGHTS","NJ",8035,39.875441778,-75.073200963,433,"1632 MAPLE AVE, HADDON HEIGHTS, NJ, 8035","Match","Exact","1632 MAPLE AVE, HADDON HEIGHTS, NJ, 08035",134351497,"L"
233434,"1632 MASSACHUSETTS AVE SE","WASHINGTON","DC",20003,38.8863371200001,-76.981698577,434,"1632 MASSACHUSETTS AVE SE, WASHINGTON, DC, 20003","Match","Exact","1632 MASSACHUSETTS AVE SE, WASHINGTON, DC, 20003",76230936,"L"
233435,"1632 MCALLISTER DR","CHARLOTTE","NC",28216,35.281473599,-80.863190883,435,"1632 MCALLISTER DR, CHARLOTTE, NC, 28216","Match","Exact","1632 MCALLISTER DR, CHARLOTTE, NC, 28216",70476066,"R"
233436,"1632 MCGEE AVENUE","BERKELEY","CA",94703,37.876149479,-122.278143629,436,"1632 MCGEE AVENUE, BERKELEY, CA, 94703","Match","Exact","1632 MCGEE AVE, BERKELEY, CA, 94703",124993794,"R"
233437,"1632 MEADOWLARK LANE","MARYSVILLE","OH",43040,40.2608666130001,-83.378085465,437,"1632 MEADOWLARK LANE, MARYSVILLE, OH, 43040","Match","Exact","1632 MEADOWLARK LN, MARYSVILLE, OH, 43040",135344120,"R"
233438,"1632 MERCER AVE","COLLEGE PARK","GA",30337,33.664891169,-84.442559762,438,"1632 MERCER AVE, COLLEGE PARK, GA, 30337","Match","Exact","1632 MERCER AVE, COLLEGE PARK, GA, 30337",17348029,"L"
233439,"1632 MISSION STREET","SAN ANGELO","TX",76905,31.4449505630001,-100.402719749,439,"1632 MISSION STREET, SAN ANGELO, TX, 76905","Match","Exact","1632 MISSION ST, SAN ANGELO, TX, 76905",190684263,"L"
233440,"1632 MUELLER","WINTERSET","IA",NA,41.405383842,-93.939415052,440,"1632 MUELLER, WINTERSET, IA, ","Match","Non_Exact","1632 MUELLER CT, WINTERSET, IA, 50273",75204047,"L"
233441,"1632 N 9TH STREET","DURANT","OK",73072,NA,NA,441,"1632 N 9TH STREET, DURANT, OK, 73072","No_Match",NA,NA,NA,NA
233442,"1632 N ST MICHAEL CT","CHICAGO","IL",60614,NA,NA,442,"1632 N ST MICHAEL CT, CHICAGO, IL, 60614","No_Match",NA,NA,NA,NA
233443,"1632 N ST","BEDFORD","IN",47421,38.860273953,-86.490066746,443,"1632 N ST, BEDFORD, IN, 47421","Match","Exact","1632 N ST, BEDFORD, IN, 47421",606741845,"R"
233444,"1632 NE 33 ST  APT A","OAKLAND PARK","FL",33334,26.168796554,-80.12544565,444,"1632 NE 33 ST  APT A, OAKLAND PARK, FL, 33334","Match","Non_Exact","1632 NE 33RD ST, OAKLAND PARK, FL, 33334",114724473,"R"
233445,"1632 NORSEN DRIVE","SCOTT TOWNSHIP","PA",15243,40.3648367210001,-80.0794746829999,445,"1632 NORSEN DRIVE, SCOTT TOWNSHIP, PA, 15243","Match","Non_Exact","1632 NORSEN DR, PITTSBURGH, PA, 15243",647489138,"R"
233446,"1632 NORTH 10TH","MCALLEN","TX",78501,26.2181744170001,-98.2275310749999,446,"1632 NORTH 10TH, MCALLEN, TX, 78501","Match","Non_Exact","1632 N 10TH ST, MCALLEN, TX, 78501",607630404,"R"
233447,"1632 NORTH 76TH STREET","PHILADELPHIA","PA",19151,39.9750362240001,-75.2679005319999,447,"1632 NORTH 76TH STREET, PHILADELPHIA, PA, 19151","Match","Exact","1632 N 76TH ST, PHILADELPHIA, PA, 19151",131392993,"L"
233448,"1632 OAKLEAF LANE","PITTSBURGH","PA",15237,40.57430981,-80.082212238,448,"1632 OAKLEAF LANE, PITTSBURGH, PA, 15237","Match","Exact","1632 OAKLEAF LN, PITTSBURGH, PA, 15237",51933669,"R"
233449,"1632 PASEO CARINA NUM 6","CHULA VISTA","CA",91915,32.63059859,-116.93530425,449,"1632 PASEO CARINA NUM 6, CHULA VISTA, CA, 91915","Match","Non_Exact","1632 PSO CARINA, CHULA VISTA, CA, 91915",645155939,"L"
233450,"1632 PEGASUS ST","NEWPORT BEACH","CA",92660,33.663104973,-117.882490512,450,"1632 PEGASUS ST, NEWPORT BEACH, CA, 92660","Match","Exact","1632 PEGASUS ST, NEWPORT BEACH, CA, 92660",144049077,"R"
233451,"1632 REDTAIL DR","HARTFORD","WI",53027,43.336647553,-88.39660076,451,"1632 REDTAIL DR, HARTFORD, WI, 53027","Match","Exact","1632 REDTAIL DR, HARTFORD, WI, 53027",79575679,"L"
233452,"1632 RELYEA AVENUE","CHARLESTON","SC",29412,32.7378555280001,-79.952881286,452,"1632 RELYEA AVENUE, CHARLESTON, SC, 29412","Match","Exact","1632 RELYEA AVE, CHARLESTON, SC, 29412",640318925,"L"
233453,"1632 RITCHIE RD","STOW","OH",44224,41.1854290800001,-81.451095902,453,"1632 RITCHIE RD, STOW, OH, 44224","Match","Exact","1632 RITCHIE RD, STOW, OH, 44224",61346949,"R"
233454,"1632 RIVERWAY BEND CIRCLE","DALLAS","TX",75217,32.7399848490001,-96.664972566,454,"1632 RIVERWAY BEND CIRCLE, DALLAS, TX, 75217","Match","Exact","1632 RIVERWAY BEND CIR, DALLAS, TX, 75217",102961602,"R"
233455,"1632 ROCKFORD ST","AKRON","OH",44301,41.038171989,-81.520322616,455,"1632 ROCKFORD ST, AKRON, OH, 44301","Match","Exact","1632 ROCKFORD ST, AKRON, OH, 44301",61345185,"R"
233456,"1632 RODMAN STREET","PHILADELPHIA","PA",19146,39.944441709,-75.169248755,456,"1632 RODMAN STREET, PHILADELPHIA, PA, 19146","Match","Exact","1632 RODMAN ST, PHILADELPHIA, PA, 19146",131407845,"L"
233457,"1632 S ALBANY AVE","CHICAGO","IL",60623,41.858076495,-87.702918438,457,"1632 S ALBANY AVE, CHICAGO, IL, 60623","Match","Exact","1632 S ALBANY AVE, CHICAGO, IL, 60623",616790720,"R"
233458,"1632 S CHAMPION AVE","COLUMBUS","OH",43207,39.9313674790001,-82.9714439269999,458,"1632 S CHAMPION AVE, COLUMBUS, OH, 43207","Match","Exact","1632 S CHAMPION AVE, COLUMBUS, OH, 43207",135585684,"L"
233459,"1632 S CHEYENNE AVE","TULSA","OK",74119,36.1390624640001,-95.989612565,459,"1632 S CHEYENNE AVE, TULSA, OK, 74119","Match","Exact","1632 S CHEYENNE AVE, TULSA, OK, 74119",166441817,"R"
233460,"1632 S GENESEE AVE","LOS ANGELES","CA",90019,34.0463065230001,-118.364752032,460,"1632 S GENESEE AVE, LOS ANGELES, CA, 90019","Match","Exact","1632 S GENESEE AVE, LOS ANGELES, CA, 90019",141600686,"L"
233461,"1632 S INDIANA AVENUE UNIT 306","CHICAGO","IL",60616,41.8597424980001,-87.622458686,461,"1632 S INDIANA AVENUE UNIT 306, CHICAGO, IL, 60616","Match","Non_Exact","1632 S INDIANA AVE, CHICAGO, IL, 60616",111769924,"R"
233462,"1632 S JUNIPER ST","PHILADELPHIA","PA",19148,39.929923827,-75.1674802489999,462,"1632 S JUNIPER ST, PHILADELPHIA, PA, 19148","Match","Exact","1632 S JUNIPER ST, PHILADELPHIA, PA, 19148",131411901,"R"
233463,"1632 S JUNIPER STREET","PHILADELPHIA","PA",19148,39.929923827,-75.1674802489999,463,"1632 S JUNIPER STREET, PHILADELPHIA, PA, 19148","Match","Exact","1632 S JUNIPER ST, PHILADELPHIA, PA, 19148",131411901,"R"
233464,"1632 S MASON ROAD","KATY","TX",77450,29.758743725,-95.7515990649999,464,"1632 S MASON ROAD, KATY, TX, 77450","Match","Exact","1632 S MASON RD, KATY, TX, 77450",96623306,"L"
233465,"1632 S RIVERSTONE LN STE304","BOISE","ID",83712,NA,NA,465,"1632 S RIVERSTONE LN STE304, BOISE, ID, 83712","No_Match",NA,NA,NA,NA
233466,"1632 SANDALWOOD DRIVE","GRAND PRAIRIE","TX",75052,32.662699999,-97.024833257,466,"1632 SANDALWOOD DRIVE, GRAND PRAIRIE, TX, 75052","Match","Exact","1632 SANDALWOOD DR, GRAND PRAIRIE, TX, 75052",103005259,"R"
233467,"1632 SHADOWBROOK DRIVE","ACWORTH","GA",30201,34.0841882660001,-84.595490432,467,"1632 SHADOWBROOK DRIVE, ACWORTH, GA, 30201","Match","Non_Exact","1632 SHADOWBROOK DR, ACWORTH, GA, 30102",68839629,"R"
233468,"1632 SHERBURNE AVE APT 4","ST PAUL","MN",55104,44.956550576,-93.169059891,468,"1632 SHERBURNE AVE APT 4, ST PAUL, MN, 55104","Match","Exact","1632 SHERBURNE AVE, SAINT PAUL, MN, 55104",638357646,"L"
233469,"1632 SOUTH ALBANY","CHICAGO","IL",60623,41.8580784230001,-87.7029185,469,"1632 SOUTH ALBANY, CHICAGO, IL, 60623","Match","Non_Exact","1632 S ALBANY AVE, CHICAGO, IL, 60623",616790720,"R"
233470,"1632 SOUTH MOUNTAIN RD","DILLSBURG","PA",17019,40.0643270520001,-77.109898329,470,"1632 SOUTH MOUNTAIN RD, DILLSBURG, PA, 17019","Match","Exact","1632 S MOUNTAIN RD, DILLSBURG, PA, 17019",88718074,"L"
233471,"1632 SOUTHEASTERN PKWY","OWENSBORO","KY",42303,37.7281476360001,-87.0838916869999,471,"1632 SOUTHEASTERN PKWY, OWENSBORO, KY, 42303","Match","Exact","1632 SOUTHEASTERN PKWY, OWENSBORO, KY, 42303",37561165,"L"
233472,"1632 SOUTHSHORE DIAMOND LAKE RD","NEWPORT","WA",99156,48.138100154,-117.175842241,472,"1632 SOUTHSHORE DIAMOND LAKE RD, NEWPORT, WA, 99156","Match","Exact","1632 SOUTHSHORE DIAMOND LAKE RD, NEWPORT, WA, 99156",169917641,"R"
233473,"1632 ST CLAIR ST","PEA RIDGE","AR",72751,36.4558455150001,-94.1275160169999,473,"1632 ST CLAIR ST, PEA RIDGE, AR, 72751","Match","Non_Exact","1632 ST CLAIR, PEA RIDGE, AR, 72751",647882271,"L"
233474,"1632 SURREY COURT","WALNUT CREEK","CA",94598,37.932207556,-122.041346142,474,"1632 SURREY COURT, WALNUT CREEK, CA, 94598","Match","Exact","1632 SURREY CT, WALNUT CREEK, CA, 94598",192056063,"R"
233475,"1632 SW IVEY STREET","PORT ST. LUCIE","FL",34987,27.293722905,-80.4272516349999,475,"1632 SW IVEY STREET, PORT ST. LUCIE, FL, 34987","Match","Non_Exact","1632 IVY ST, PORT ST LUCIE, FL, 34987",120180394,"L"
233476,"1632 SW IVY ST","PORT ST LUCIE","FL",34987,27.293722905,-80.4272516349999,476,"1632 SW IVY ST, PORT ST LUCIE, FL, 34987","Match","Exact","1632 IVY ST, PORT ST LUCIE, FL, 34987",120180394,"L"
233477,"1632 SWAN ST","OGDEN","UT",84401,41.225447812,-111.936090218,477,"1632 SWAN ST, OGDEN, UT, 84401","Match","Exact","1632 SWAN ST, OGDEN, UT, 84401",155697968,"L"
233478,"1632 T ST SE","WASHINGTON","DC",20020,38.8672715070001,-76.981710017,478,"1632 T ST SE, WASHINGTON, DC, 20020","Match","Exact","1632 T ST SE, WASHINGTON, DC, 20020",76231206,"L"
233479,"1632 TELFAIR WAY","CHARLESTON","SC",29405,NA,NA,479,"1632 TELFAIR WAY, CHARLESTON, SC, 29405","No_Match",NA,NA,NA,NA
233480,"1632 UNDERCLIF AVE APT 5B","BRONX","NY",10453,40.84939394,-73.921763969,480,"1632 UNDERCLIF AVE APT 5B, BRONX, NY, 10453","Match","Non_Exact","1632 UNDERCLIFF AVE, BRONX, NY, 10453",609080738,"R"
233481,"1632 VIA LAZO","PALOS VERDES ESTATES","CA",90274,33.7952209590001,-118.401970406,481,"1632 VIA LAZO, PALOS VERDES ESTATES, CA, 90274","Match","Exact","1632 VIA LAZO, PALOS VERDES ESTATES, CA, 90274",141583960,"R"
233482,"1632 VIA LINDA","FULLERTON","CA",92833,33.8901780630001,-117.966895924,482,"1632 VIA LINDA, FULLERTON, CA, 92833","Match","Exact","1632 VIA LINDA, FULLERTON, CA, 92833",650984566,"R"
233483,"1632 W 221 STREET","TORRANCE","CA",90501,33.8267890320001,-118.307282574,483,"1632 W 221 STREET, TORRANCE, CA, 90501","Match","Exact","1632 221ST ST, TORRANCE, CA, 90501",141668553,"L"
233484,"1632 W 221ST STREET","TORRANCE","CA",90501,33.8267890320001,-118.307282574,484,"1632 W 221ST STREET, TORRANCE, CA, 90501","Match","Exact","1632 221ST ST, TORRANCE, CA, 90501",141668553,"L"
233485,"1632 W 40TH ST","ERIE","PA",16509,42.0873079030001,-80.101358863,485,"1632 W 40TH ST, ERIE, PA, 16509","Match","Exact","1632 W 40TH ST, ERIE, PA, 16509",117494719,"R"
233486,"1632 W DIVERSEY PKWY APT 3W","CHICAGO","IL",60614,41.932393819,-87.669706508,486,"1632 W DIVERSEY PKWY APT 3W, CHICAGO, IL, 60614","Match","Non_Exact","1632 W DIVERSEY PKWY, CHICAGO, IL, 60614",111764057,"R"
233487,"1632 WASHINGTON ST NE","MINNEAPOLIS","MN",55413,45.004458593,-93.257557874,487,"1632 WASHINGTON ST NE, MINNEAPOLIS, MN, 55413","Match","Exact","1632 WASHINGTON ST NE, MINNEAPOLIS, MN, 55413",43631135,"L"
233488,"1632 WEINREICH CT","FOLSOM","CA",95630,38.6815727640001,-121.117261309,488,"1632 WEINREICH CT, FOLSOM, CA, 95630","Match","Exact","1632 WEINREICH CT, FOLSOM, CA, 95630",133444212,"L"
233489,"1632 WEST KIOWA","COLORADO SPRINGS","CO",80904,38.8415924780001,-104.84860601,489,"1632 WEST KIOWA, COLORADO SPRINGS, CO, 80904","Match","Non_Exact","1632 W KIOWA ST, COLORADO SPRINGS, CO, 80904",105513309,"R"
233490,"1632 WIESE LANE","RACINE","WI",53406,42.7154120880001,-87.867361311,490,"1632 WIESE LANE, RACINE, WI, 53406","Match","Exact","1632 WIESE LN, RACINE, WI, 53406",653396774,"R"
233491,"1632","LAKE ARIEL","PA",18436,NA,NA,491,"1632, LAKE ARIEL, PA, 18436","No_Match",NA,NA,NA,NA
233492,"1632","LAWRENCE","KS",66046,NA,NA,492,"1632, LAWRENCE, KS, 66046","No_Match",NA,NA,NA,NA
233493,"16320 BADILLO ST","COVINA","CA",91722,34.0864669970001,-117.927827639,493,"16320 BADILLO ST, COVINA, CA, 91722","Match","Non_Exact","16320 E BADILLO ST, COVINA, CA, 91722",141712039,"R"
233494,"16320 E NINE MILE","EASTPOINTE","MI",48021,42.4646505810001,-82.9536776309999,494,"16320 E NINE MILE, EASTPOINTE, MI, 48021","Match","Non_Exact","16320 E 9 MILE RD, EASTPOINTE, MI, 48021",110679362,"R"
233495,"16320 FIRST STREET","GUERNEVILLE","CA",95446,NA,NA,495,"16320 FIRST STREET, GUERNEVILLE, CA, 95446","No_Match",NA,NA,NA,NA
233496,"16320 HUEBNER ROAD","SAN ANTONIO","TX",78248,29.5867686130001,-98.530734885,496,"16320 HUEBNER ROAD, SAN ANTONIO, TX, 78248","Match","Exact","16320 HUEBNER RD, SAN ANTONIO, TX, 78248",645310184,"L"
233497,"16320 JOHNS LAKE RD","CLERMONT","FL",34711,28.525067189,-81.68382558,497,"16320 JOHNS LAKE RD, CLERMONT, FL, 34711","Match","Exact","16320 JOHNS LAKE RD, CLERMONT, FL, 34711",94203062,"L"
233498,"16320 L ST","OMAHA","NE",68135,41.2122087160001,-96.170966166,498,"16320 L ST, OMAHA, NE, 68135","Match","Exact","16320 L ST, OMAHA, NE, 68135",647749564,"L"
233499,"16320 N NAPA LN","SPOKANE","WA",99208,47.806607817,-117.381690278,499,"16320 N NAPA LN, SPOKANE, WA, 99208","Match","Exact","16320 N NAPA LN, SPOKANE, WA, 99208",189904338,"L"
233500,"16320 NW 48TH AVE","MIAMI GARDEN","FL",33014,25.921560938,-80.27867688,500,"16320 NW 48TH AVE, MIAMI GARDEN, FL, 33014","Match","Non_Exact","16320 NW 48TH AVE, MIAMI GARDENS, FL, 33014",116027137,"L"
