"ID","Address","City","State","Zip"
957001,"BOX 334","CELESTE","TX","75423"
957002,"BOX 335","LAUPAHOEHOE","HI","96764"
957003,"BOX 337 SE-751 05","UPPSALA, SWEDEN",NA,NA
957004,"BOX 342","GARFIELD","WA","99130"
957005,"BOX 343","SPRINGFIELD","VT","05156"
957006,"BOX 3444 126 HUNTER SMITH AVE SW","WISE","VA","24293"
957007,"BOX 345 - 101 FELLOWSHIP RD","UWCHLAND","PA","19480"
957008,"BOX 345","PAGO PAGO","AS","96799"
957009,"BOX 348","BOOKER","TX","79005"
957010,"BOX 348","FLINTSTONE","GA","30725"
957011,"BOX 35","FORT YUKON","AK","99740"
957012,"BOX 351","KARLSTAD","MN","56732"
957013,"BOX 352","DOUGLAS","WY","82633"
957014,"BOX 352238 SAO 130 HUB 232","SEATTLE","WA","98195"
957015,"BOX 352600 UNIVERSITY OF WASHINGTON","SEATTLE","WA","98185"
957016,"BOX 353130","SEATTLE","WA","98195"
957017,"BOX 355","BISMARCK","ND","58502"
957018,"BOX 355351 UNIVERSITY OF WASHINGTON","SEATTLE","WA","98195"
957019,"BOX 355674","SEATTLE","WA","98195"
957020,"BOX 358","CULEBRA","PR","00775"
957021,"BOX 362","BEARSVILLE","NY","12409"
957022,"BOX 365","HIBBING","MN","55746"
957023,"BOX 366","BONDURANT","WY","82922"
957024,"BOX 371","JOHNSON","KS","67855"
957025,"BOX 372896","DECATUR","GA","30037"
957026,"BOX 372896","DECATYR","GA","30037"
957027,"BOX 375","ANDREWS","TX","79714"
957028,"BOX 376","PINEHURST","ID","83850"
957029,"BOX 379","CHALLIS","ID","83226"
957030,"BOX 38 STAR ROUTE ONE","COVELO","CA","95482"
957031,"BOX 38","HARRINGTON","WA","99134"
957032,"BOX 383","HADDONFIELD","NH","08033"
957033,"BOX 383","HADDONFIELD","NJ","08033"
957034,"BOX 383","PAGO PAGO","AS","96799"
957035,"BOX 3843","SEAL BEACH","CA","90740"
957036,"BOX 3846","CAMP VERDE","AZ","86322"
957037,"BOX 385","EUTAW","AL","35462"
957038,"BOX 387","PADUCAH","TX","79248"
957039,"BOX 39","EXTON","PA","19341"
957040,"BOX 391","CIMARRON","KS","67835"
957041,"BOX 398","PERU","NE","68421"
957042,"BOX 4","KINGMAN","IN","47952"
957043,"BOX 4","STRASBURG","CO","80136"
957044,"BOX 401","HYDE PARK","VT","05655"
957045,"BOX 4043","NAIROBI","DC","00506"
957046,"BOX 4066","MIDLAND","TX","79704"
957047,"BOX 41","ALBANY","OK","74721"
957048,"BOX 41","BRUNSWICK","MD","21716"
957049,"BOX 41","MEROM","IN","47861"
957050,"BOX 410191","SAN FRANCISCO","CA","94141"
957051,"BOX 41071","LUBBOCK","TX","79409"
957052,"BOX 4147","AVON","CO","81620"
957053,"BOX 415","MCLAUGHLIN","SD","57642"
957054,"BOX 415","SAN MIGUEL","NM","88058"
957055,"BOX 41767","PAGO PAGO","AS","96799"
957056,"BOX 419","VEGA ALTA","PR","00646"
957057,"BOX 42","CLEARWATER","NE","68726"
957058,"BOX 42004","MEMPHIS","TN","38174"
957059,"BOX 421 69 JAMESON ROAD","MANCHESTER","KY","40962"
957060,"BOX 421","ST JOHNSBURY","VT","05819"
957061,"BOX 422","WALTON","IN","46994"
957062,"BOX 423","HUNTINGTON BCH","CA","92648"
957063,"BOX 425","FORBES","MN","55738"
957064,"BOX 426","HARLOWTON","MT","59036"
957065,"BOX 428","FORT YUKON","AK","99740"
957066,"BOX 43","ITMANN","WV","24847"
957067,"BOX 430","CHESTER","MT","59522"
957068,"BOX 430","WASHINGTON","VA","22747"
957069,"BOX 431","HARRINGTON","WA","99134"
957070,"BOX 43111","LUBBOCK","TX","79409"
957071,"BOX 434","WEST GLACIER","MT","59936"
957072,"BOX 4382","PAGO PAGO","AS","96799"
957073,"BOX 44","BRISCOE","TX","79011"
957074,"BOX 44","BROOKFIELD","OH","44403"
957075,"BOX 44","BURNSIDE","PA","15721"
957076,"BOX 44","KELLER","TX","76244"
957077,"BOX 44","MCCONNELL BURG","PA","17233"
957078,"BOX 441","SPUR","TX","79370"
957079,"BOX 445","YEMASEE","SC","29945"
957080,"BOX 44579","EDEN PRAIRIE","MN","55344"
957081,"BOX 455","HARRINGTON","WA","99134"
957082,"BOX 455","INCHELIUM","WA","99138"
957083,"BOX 4608 SFA STATION","NACOGDOCHES","TX","75692"
957084,"BOX 461","BRACKETTVILLE","TX","78832"
957085,"BOX 462","ERIE","IL","61250"
957086,"BOX 466","GRAND MARAIS","MN","55604"
957087,"BOX 47","CONNOQUENESSING","PA","16027"
957088,"BOX 471","DURAND","IL","61024"
957089,"BOX 471","MENARD","TX","76859"
957090,"BOX 471","SPRING CITY","UT","84662"
957091,"BOX 472  17340-240 AVE","NEW RICHLAND","MN","56072"
957092,"BOX 473","GARRISONVILLE","VA",NA
957093,"BOX 473","LIBBY","MT","59923"
957094,"BOX 476","SULLIVAN ISLAND","SC","29482"
957095,"BOX 4799 WAYNESBURG PIKE","MOUNDSVILLE","WV","26041"
957096,"BOX 481 133 PATRICK LANE","PULASKI","WI","54162"
957097,"BOX 481","PAGO PAGO","AS","96799"
957098,"BOX 48152","CUMBERLAND","NC","28331"
957099,"BOX 483 204 PARKER STREET","BRUIN","PA","16022"
957100,"BOX 4861","GALLUP","NM","87305"
957101,"BOX 487","CHESTER","MT","59522"
957102,"BOX 49","LAUPAHOEHOE","HI","96764"
957103,"BOX 491","HARRINGTON","WA","99134"
957104,"BOX 496","HAMILTON","MT","59840"
957105,"BOX 5","BYUMBA",NA,NA
957106,"BOX 501791","SAIPAN","MP","96950"
957107,"BOX 5018","YABUCOA","PR","00767"
957108,"BOX 502","CULBERTSON","MT","59218"
957109,"BOX 503","OTIS ORCHARDS","WA","99027"
957110,"BOX 50397","EUGENE","OR","97405"
957111,"BOX 506141","SAIPAN","MP","96950"
957112,"BOX 50985","BILLINGS","MT","59105"
957113,"BOX 51","MADISON","SD","57042"
957114,"BOX 510","BROOKNEAL","VA","24528"
957115,"BOX 513","VERDUNVILLE","WV","25649"
957116,"BOX 52","BRUIN","PA","16022"
957117,"BOX 523","SPRING CITY","UT","84662"
957118,"BOX 523","WINTHROP","MN","56044"
957119,"BOX 529","MCCLUSKY","ND","58463"
957120,"BOX 53 HOOLEHUA","MOLOKAI","HI","96729"
957121,"BOX 53","HOLLEHUA","HI","96729"
957122,"BOX 53","PSC 480","AP","96370"
957123,"BOX 539","GRAYS KNOB","KY","40829"
957124,"BOX 54","CELESTE","TX","75423"
957125,"BOX 5405","MS STATE","MS","39762"
957126,"BOX 541","DUCHESNE","UT","84021"
957127,"BOX 545","LA VETA","CO","81055"
957128,"BOX 55 124 DUSTY DRIVE","ALVERDA","PA","15701"
957129,"BOX 55","BRUNSWICK","ME","04011"
957130,"BOX 55","DARROUZETT","TX","79024"
957131,"BOX 55","MT GILEAD","OH","43338"
957132,"BOX 550486","DALLAS","TX","75355"
957133,"BOX 551603","DALLAS","TX","75355"
957134,"BOX 555","BAKER","MT","59313"
957135,"BOX 555","MONTAGUE","CA","96064"
957136,"BOX 5566","MISSOULA","MT","59806"
957137,"BOX 562","LENOIR CITY","TN","37771"
957138,"BOX 5705 CLARKSON UNIVERSITY","POTSDAM","NY","13699"
957139,"BOX 572","LA VETA","CO","81055"
957140,"BOX 574","MC MINNVILLE","TN","37111"
957141,"BOX 57714","TUCSON","AZ","85732"
957142,"BOX 58","GREEN MOUNTAIN FALLS","CO","80819"
957143,"BOX 583","JUNCTION CITY","OR","97448"
957144,"BOX 591","FAIRVIEW","MT","59221"
957145,"BOX 59311","RENTON","WA","98058"
957146,"BOX 59504","JACKSON","MS","39284"
957147,"BOX 598","BUFFALO","SD","57720"
957148,"BOX 6","DAYTON","OR","97114"
957149,"BOX 600","CLAVERACK","NY","12513"
957150,"BOX 602","LA VETA","CO","81055"
957151,"BOX 602","VIENNA","MO","65582"
957152,"BOX 60429","MIDLAND","TX","79711"
957153,"BOX 609","UNION CITY","GA","30291"
957154,"BOX 61","HEAVENER","OK","74937"
957155,"BOX 61","NEWFANE","VT","05345"
957156,"BOX 612","BOONEVILLE","KY","41314"
957157,"BOX 615","FORT YATES","ND","58538"
957158,"BOX 61625","HARRISBURG","PA","17106"
957159,"BOX 6182","MAYAGUEZ","PR","00681"
957160,"BOX 620323","LAS VEGAS","NV","89162"
957161,"BOX 621133","ORLANDO","FL","32862"
957162,"BOX 623","HOLDEN","WV","25625"
957163,"BOX 6239","WARWICK","RI","02887"
957164,"BOX 625","CULBERTSON","MT","59218"
957165,"BOX 625","SPRING LAKE","NJ","07753"
957166,"BOX 628","NOTRE DAME","IN","46556"
957167,"BOX 629","GARYVILLE","LA","70051"
957168,"BOX 632282","IRVING","TX","75063"
957169,"BOX 634","KENMARE","ND","58746"
957170,"BOX 635","CASTANER","PR","00631"
957171,"BOX 636","BOONEVILLE","AR","72927"
957172,"BOX 64","CARPIO","ND","58725"
957173,"BOX 64","MURFREESBORO","TN","37132"
957174,"BOX 644","CULBERTSON","MT","59218"
957175,"BOX 647","CHESTER","MT","59522"
957176,"BOX 656","MATEWAN","WV","25678"
957177,"BOX 657","DOUGLASSVILLE","PA","19518"
957178,"BOX 66","FLORENCE","MT","59833"
957179,"BOX 66","LUTSEN","MN","55604"
957180,"BOX 66","MONTEVALLO","AL","35115"
957181,"BOX 662114","LIHUE","HI","96766"
957182,"BOX 66494","LOS ANGELES","CA","90066"
957183,"BOX 667814","CHARLOTTE","NC","28266"
957184,"BOX 676","GRANGEVILLE","ID","83530"
957185,"BOX 68","GRAND MARAIS","MN","55604"
957186,"BOX 683","CHESTER","MT","59522"
957187,"BOX 685","TATUM","NM","88267"
957188,"BOX 685","VALENCIA","PA","16049"
957189,"BOX 686","SWITZER","WV","25647"
957190,"BOX 696","PINEHURST","ID","83850"
957191,"BOX 7","BURLINGTON","ND","58722"
957192,"BOX 7","HARRODSBURG","IN","47434"
957193,"BOX 700","CHESTER","MT","59522"
957194,"BOX 703","BROWNING","MT","59417"
957195,"BOX 7081-128","MAMMOTH LAKES","CA","93546"
957196,"BOX 722","EUREKA","MT","59917"
957197,"BOX 726","REDLANDS","CA","92373"
957198,"BOX 729","LARGO","FL","33779"
957199,"BOX 730","DE QUEEN","AR","71832"
957200,"BOX 732","CUSHING","WI","54006"
957201,"BOX 733","BOOKER","TX","79005"
957202,"BOX 735","VIRGINIA CITY","NV","89440"
957203,"BOX 736 RUST COLLEGE","HOLLY SPRINGS","MS","38635"
957204,"BOX 74","PIEDMONT","SD","57769"
957205,"BOX 7414","BALTIMORE","MD","21227"
957206,"BOX 7414","SAN DIEGO","CA","92167"
957207,"BOX 7415","CAPISTRANO","CA","92624"
957208,"BOX 749","HOLLIS","NH","03049"
957209,"BOX 75","NORTH PITCHER","NY","13124"
957210,"BOX 7503","SPOKANE","WA","99207"
957211,"BOX 755","CUSHING","WI","54006"
957212,"BOX 756","CULBERTSON","MT","59218"
957213,"BOX 757","NASHVILLE","NC","27856"
957214,"BOX 760528","PAUUILO","HI","96776"
957215,"BOX 7621","RALEIGH","NC","27695"
957216,"BOX 768","BAKER","MT","59313"
957217,"BOX 772822","STEAMBOAT SPRINGS","CO","80477"
957218,"BOX 78","KAKAMEGA, KENYA",NA,NA
957219,"BOX 78","LAJAS","PR","00667"
957220,"BOX 791","MENARD","TX","76859"
957221,"BOX 793 ROCKY MOUTNAIN HOUSE","AB, T4T 1A6 CANADA",NA,NA
957222,"BOX 795","PRIEST RIVER","ID","83856"
957223,"BOX 8002","RELEIGH","LA","27695"
957224,"BOX 802","HOOD RIVER","OR","97031"
957225,"BOX 803","VEGA BAJA","PR","00694"
957226,"BOX 806","GROESBECK","TX","76642"
957227,"BOX 806","HOVEN","SD","57450"
957228,"BOX 807","HOVEN","SD","57450"
957229,"BOX 81","HANNAFORD","ND","58448"
957230,"BOX 813","HALF MOON BAY","CA","94019"
957231,"BOX 8145","STATESBORO","GA","30460"
957232,"BOX 815","OZARK","AR","72949"
957233,"BOX 8161","AUSTIN","TX","78713"
957234,"BOX 8188 SVRB","SAIPAN","MP","96950"
957235,"BOX 820","PADUCAH","TX","79248"
957236,"BOX 822","CAMPTON","KY","41301"
957237,"BOX 823","BARNSTABLE","MA","02630"
957238,"BOX 83","VANSANT","VA","24656"
957239,"BOX 8344","LAUREL","MS","39441"
957240,"BOX 8364","CHRISTIANSTED","VI","00823"
957241,"BOX 843017","RICHMOND","VA","23284"
957242,"BOX 8432 625 7TH AVENUE NE","HICKORY","NC","28601"
957243,"BOX 844","MOUNTAIN VIEW","AR","72560"
957244,"BOX 844","TRUMANSBURG","NY","14886"
957245,"BOX 849","FORT BENTON","MT","59442"
957246,"BOX 85","ADELPHIA","NJ","07710"
957247,"BOX 85193","SEATTLE","WA","98145"
957248,"BOX 852","CULBERTSON","MT","59218"
957249,"BOX 86","ROSANKY","TX","78953"
957250,"BOX 86","WEST SPRINGFIELD","PA","16443"
957251,"BOX 863","UNEEDA","WV","25205"
957252,"BOX 867","DECATUR","TX","76234"
957253,"BOX 869","CARRIZOZO","NM","88301"
957254,"BOX 870348","TUSCALOOSA","AL","35487"
957255,"BOX 87728","SAN DIEGO","CA","92138"
957256,"BOX 88","HOT SPRINGS","SD","57747"
957257,"BOX 884","CAYEY","PR","00737"
957258,"BOX 884","DE QUEEN","AR","71832"
957259,"BOX 886145","GREAT LAKES",NA,NA
957260,"BOX 890 SOUTH FERRY RD","SHELTER ISLAND","NY","11964"
957261,"BOX 894","HOMER","AK","99603"
957262,"BOX 9015 UNIVERSITY STATION","GRAND FORKS","ND","58202"
957263,"BOX 902","FORT PORTAL-UGANDA",NA,NA
957264,"BOX 906","PLATTE","SD","57369"
957265,"BOX 91","MOSCOW","OH","45153"
957266,"BOX 91F  401 W KENNEDY BLVD","TAMPA","FL","33606"
957267,"BOX 92","MCCONNELL BURG","PA","17233"
957268,"BOX 9224","SCARBOROUGH","NY","10510"
957269,"BOX 927","KNOXVILLE","TN","37901"
957270,"BOX 928","SENECA","IL","61360"
957271,"BOX 93","BALLENTINE","SC","29002"
957272,"BOX 93","HARRODSBURG","IN","47434"
957273,"BOX 94","HAUULA","HI","96717"
957274,"BOX 94","HAYES","VA","23062"
957275,"BOX 94","INDIAN VALLEY","ID","83632"
957276,"BOX 94","LAKE MILLS","IA","50450"
957277,"BOX 94","LAKEWOOD","NY","14750"
957278,"BOX 941","BAKER","MT","59313"
957279,"BOX 943","BRACKETTVILLE","TX","78832"
957280,"BOX 9464","NAPERVILLE","IL","60567"
957281,"BOX 9476","LOUISVILLE","KY","40214"
957282,"BOX 95","FORT GAINES","GA","39851"
957283,"BOX 95","JOSEPH","OR","97846"
957284,"BOX 9546","MISSISSIPPI STATE","MS","39762"
957285,"BOX 958","BRACKETTVILLE","TX","78832"
957286,"BOX 962","CHALLIS","ID","83226"
957287,"BOX 9681","MISSISSIPPI STATE","MS","39762"
957288,"BOX 97","ANTRIM","NH","03440"
957289,"BOX 98","SPRING CITY","UT","84662"
957290,"BOX 982976","PAGO PAGO","AS","96799"
957291,"BOX 99  2815 CANAL DR","MILLERSPORT","OH","43046"
957292,"BOX 993","ALMA","AR","72921"
957293,"BOX 997391","PAGO PAGO","AS","96799"
957294,"BOX B-2 DELTA STATE UNIVERISTY","CLEVELAND","MS","38732"
957295,"BOX KXA","KETCHIKAN","AK","99950"
957296,"BOX N","LAKE ISABELLA","CA","93240"
957297,"BOX U","TAMPA","FL","33606"
957298,"BOX-417","BONNER SPRINGS","KS","66012"
957299,"BOX10238","FAIRBANKS","AK","99710"
957300,"BOX194","THONOSASSA","FL","33592"
957301,"BOX2554","MONROE","MI","48161"
957302,"BOX315","LAUPAHOEHOE","HI","96764"
957303,"BP16625","YAOUNDE",NA,NA
957304,"BQ DE LAS FLORES CALLE TIAGOZAN A26","BAYAMON","PR","00956"
957305,"BRADFORD STREET","AUBURN","NY","13021"
957306,"BRADLEY ROAD","SPRINGFIELD","MA","01119"
957307,"BRAGG HOLLOW ROAD","HALCOTSVILLE","NY","12438"
957308,"BRAMBLEWOOD LANE","WOODBRIDGE","VA","22191"
957309,"BRAMBLEWOOD RD","FORT WORTH","TX","76133"
957310,"BRANDEIS ENGLISH DEPARTMENT MS 023","WALTHAM","MA","02454"
957311,"BRANDON","BRANDON","VT","05733"
957312,"BRANEGAN COURTH 108 B","BOZEMAN","MT","59715"
957313,"BRANIFF BLDG 324 N ROBINSON S100","OKLAHOM CITY","OK","73102"
957314,"BRANKA COPICA 9","NOVI SAD SERBIA","MS","39564"
957315,"BRANSFORD COURT","APOPLKA","FL","32712"
957316,"BRAVOS DE BOSTON","VIEQUES","PR","00765"
957317,"BRAZIL ELLIOT STORE RD","TRENTON","TN","38382"
957318,"BREITENFELDT ROAD","TIGERTON","WI","54486"
957319,"BRENTWOOD DRIVE","WINDSOR","CT","06095"
957320,"BRENUM DR","BYRAM","MS","39171"
957321,"BREVOORT ROAD","CHAPPAQUA","NY","10514"
957322,"BREWSTER DRIVE","WARMINSTER","PA","18974"
957323,"BRIABAY DRIVE","JONESBORO","GA","30238"
957324,"BRIAR STONE LN","SUGAR LAND","TX","77479"
957325,"BRIDGEWAY CHURCH PO BOX 471","WAYNESBORO","MS","39367"
957326,"BRIDLE PATH","NORTH ANDOVER","MA","01845"
957327,"BRIDLE WOOD DR","DALLAS","TX","75211"
957328,"BRIGHTENBACK LANE","WAITSFIELD","VT","05673"
957329,"BRIGHTON HILL ROAD 5124","COLUMBIA","SC","29223"
957330,"BRISAS DE LAUREL 510 C PERLA","COTO LAUREL","PR","00717"
957331,"BRISAS DE SAN ALFONSO APTO 501","CAGUAS","PR","00725"
957332,"BRISAS DEL MAR 901 DRA IRMA I RUIZ","LUQUILLO","PR","00773"
957333,"BRITTANY","MILLER","MI","49506"
957334,"BROAD MARSH","HAYES","VA","23072"
957335,"BROAD STREET","SOMERSWORTH","NH","03878"
957336,"BROAD STREET","TYLERTOWN","MS","39667"
957337,"BROAD STREET","WRENS","GA","30833"
957338,"BROGDEN STREET","SAVANNAH","GA","31406"
957339,"BROMELIA ST 1","GUAYNABO","PR","00969"
957340,"BROOKHAVEN NATL LAB BUILDING 438","UPTON","NY","11973"
957341,"BROOKLYN CENTER","MINNEAPOLIS","MN","55430"
957342,"BROOKLYN","NEW YORK","NY","11216"
957343,"BROOKLYN","NY","NY","11249"
957344,"BROOKS LAKE RD","RUTHERFORDTON","NC","28139"
957345,"BROOKSTEAD MEADOW COURT","CHARLOTTE","NC","28215"
957346,"BROTHEL ROBERTS RD","NEWTON","MS","39301"
957347,"BROWARD DRIVE","NEW CITY","NY","10956"
957348,"BROWN LANE","SHELBYVILLE","TN","37160"
957349,"BROWN U BOX 1862 - UNIV HALL 417","PROVIDENCE","RI","02912"
957350,"BROWN UNIVERSITY BOX D182 HOPE ST","PROVIDENCE","RI","02912"
957351,"BROWNSVILLE RD","PITTSBURG","PA","15227"
957352,"BRUCE MUSEUM - 1 MUSEUM DR","GREENWICH","CT","06830"
957353,"BRYANT AVENUE","GLEN ELLYN","IL","60137"
957354,"BSCI DEPT AT KENT STATE U","KENT","OH","44242"
957355,"BSK PLLC STE 900 200 DELAWARE AVE","BUFFALO","NY","14202"
957356,"BUCKOUT ROAD","WEST HARRISON","NV","10604"
957357,"BUCKSTONE DR","SOUTHAMPTON","PA","18966"
957358,"BUENA VISTA AVE","MCLEAN","VA","22102"
957359,"BUFFALO SPEEDWAY APT 13204","HOUSTON","TX","77504"
957360,"BUFFALO ST","WAYLAND","NY","14572"
957361,"BUFORD","BUFORD","GA","30519"
957362,"BUILDING 123 STREET NUMBER 109","KALAA LBN",NA,NA
957363,"BUILDING 51 MUSEUM ROAD","GAINESVILLE","FL","32611"
957364,"BUILDING 606 2ND STREET","ANCHORAGE","AK","99505"
957365,"BUILDING 7 APT 5P","NY","NY","10039"
957366,"BUILDING 758","FORT SILL","OK","73503"
957367,"BUILDING 87 STREET NUMBER 2","KALAA LBN",NA,NA
957368,"BUKASA","KAMPALA, UGANDA",NA,NA
957369,"BUNSENSTR 18 81735","MUNICH GERMANY",NA,NA
957370,"BURGAMY 601PASS","GROVETOWN","GA","30813"
957371,"BURGOYNE AVENUE","TICONDEROGA","NY","12883"
957372,"BURLINGAME","GARLAND","TX","75043"
957373,"BURLINGTON RD","BRIDGETON","NJ","08302"
957374,"BURMAN","DAYTON","OH","45417"
957375,"BURNSVILLE178 JOE YOUNG RD","BURNSVILLE","NC","28714"
957376,"BUTLER HILL ROAD","KNOXVILLE","PA","16928"
957377,"BUTLER ST","EASTON","PA","18042"
957378,"BUTTERNUT LANE","FRENCHBURG","KY","40322"
957379,"BUZON 38502","AGUADA","PR","00602"
957380,"BVHC PO BOX 423","BABYLON","NY","11702"
957381,"BX 230","NYC","NY","10276"
957382,"C AND K LOOP 4","EAST WATERBORO","ME","04030"
957383,"C ANGORA 1021     PUERTO NUEVO","SAN JUAN","PR","00920"
957384,"C BAIXADA ALBA 16 2ND 1ST 08174","BARCELONA SPAIN",NA,NA
957385,"C CROSANDA B31 URB PARQ BUCARE","SAN JUAN","PR","00926"
957386,"C DOMINO 321 VILLA HOSTOS CAPANILLA","TOA BAJA","PR","00949"
957387,"C ENCANTADA 1104 BO MORA BOX 112","ISABELA","PR","00662"
957388,"C MCKINLEY T-8 PARKVILLE","GUAYNABO","PR","00969"
957389,"C O   13-3410 MOKU ST","PAHOA","HI","96778"
957390,"C PEDRO BIGAY 305 URB BALDRICH","SAN JUAN","PR","00918"
957391,"C PERUSA 282 URB COLLEGE PARK","SAN JUAN","PR","00921"
957392,"C PRADERA 224 LA CUMBRE","SAN JUAN","PR","00926"
957393,"C SN FRNSCO SUITE 200 PMB 5480","SAN JUAN","PR","00901"
957394,"C TIVOLI A-3 PASEO DE LA FUENTE","SAN JUAN","PR","00926"
957395,"C VIZCARRONDO 55","CAGUAS","PR","00725"
957396,"C WILLY ROSARIO  NO 126","COAMO","PR","00769"
957397,"C-12 2049 BARNSBORO ROAD","BLACKWOOD","NJ","08012"
957398,"C-21 D ST JARD CAROLINA","CAROLINA","PR","00983"
957399,"C-4 344","SOUTH JORDAN","UT",NA
957400,"C-HENSYN VILLAGE APT","BUDD LAKE","NJ","07828"
957401,"C-O KARMA AYITI 434 6TH AVE STE 2","NEW YORK","NY","10011"
957402,"C/ MONSERRATE  COND LAGUNA PARK AP6","SAN JUAN","PR","00907"
957403,"C/ O 7186 S ROBB STREET","LITTLETON","CO","80127"
957404,"C/- 1509 JUNE LANE","COLUMBIA","MO","65202"
957405,"C/- 2784 HOMESTEAD ROAD - 301","SANTA CLARA","CA","95051"
957406,"C/- BAKER MCKENZIE 452 FIFTH AVENU","NEW YORK","NY","10018"
957407,"C/0 1901 CHRISTIAN STREET","PHILADELPHIA","PA","19146"
957408,"C/0 2600 SOUTH LOOP WEST STE 435","HOUSTON","TX","77054"
957409,"C/0 4463 GROVE LAKE STR","LOGANVILLE","GA","30052"
957410,"C/0 S IRWIN 757 N PARK BLVD","GLEN ELLYN","IL","60137"
957411,"C/O         14024 STONE GATE DRIVE","BATON ROUGE","LA","70816"
957412,"C/O  B MAGUIRE 74 9TH AVE B0X 30233","NEW YORK","NY","10011"
957413,"C/O 1000 SUNSET PKWY","NOVATO","CA","94949"
957414,"C/O 1003 BISHOP ST STE 1925","HONOLULU","HI","96813"
957415,"C/O 1003 BISHOP STREET SUITE 465","HONOLULU","HI","96813"
957416,"C/O 1006 NW 87 AVE APT 102","MIAMI","FL","33172"
957417,"C/O 10102 N MEMORY LN","RATHDRUM","ID","83858"
957418,"C/O 1011  28TH STREET","DES MOINES","IA","50311"
957419,"C/O 1011 MOUNTAIN RIVER DR","LEBANON","OR","97355"
957420,"C/O 1021 STORRS RD","STORRS MANSFIELD","CT","06268"
957421,"C/O 10251 VISTA SORRENTO PKWY 250","SAN DIEGO","CA","92121"
957422,"C/O 103 12TH AVE APT 213","SEATTLE","WA","98122"
957423,"C/O 1045 COUNTRYSIDE DRIVE","MCPHERSON","KS","67460"
957424,"C/O 10501 SE MARKET ST","PORTLAND","OR","97216"
957425,"C/O 1067 EMIGRANT CREEK ROAD","ASHLAND","OR","97520"
957426,"C/O 108 COLUMBIA ST","HUNTINGTON STATION","NY","11746"
957427,"C/O 109 WISE ROAD","GREENSBORO","PA","15338"
957428,"C/O 1100 H STREET - NW SUITE 840","WASHINGTON","DC","20005"
957429,"C/O 1100 H STREET - NW SUITE 840","WASHINGTON","VA","20005"
957430,"C/O 1101 BISON DR","BOULDER","CO","80302"
957431,"C/O 1102 E YANONALI ST","SANTA BARBA","CA","93103"
957432,"C/O 1102 E YANONALI ST","SANTA BARBARA","CA","93103"
957433,"C/O 111 SHEPARD AVENUE","EAST ORANGE","NJ","07018"
957434,"C/O 11149 WEST RIVER ROAD","COLUMBIA STATION","OH","44028"
957435,"C/O 1131 GUARNIERI DR NE","WARREN","IA","44483"
957436,"C/O 1131 GUARNIERI DR NE","WARREN","OH","44483"
957437,"C/O 116 S WALNUT STREET","TRINIDAD","CO","81082"
957438,"C/O 11605 WEST 73RD AVE","ARVADA","CO","80005"
957439,"C/O 1194 PACIFIC STREET","SAN LUIS OBISPO","CA","93401"
957440,"C/O 11A VERONA PL","BROOKLYN","NY","11216"
957441,"C/O 12 PARK LANE","TEXARKANA","TX","75503"
957442,"C/O 12 S CHERRY ST","TROY","OH","45373"
957443,"C/O 1202 PROSPECT STREET","HONOLULU","HI","96822"
957444,"C/O 1203 PROSSER AVENUE","PROSSER","WA","99350"
957445,"C/O 123 DANTES DR","HOCKESSIN","DE","19707"
957446,"C/O 1261 FRUITWOOD WAY","TRACY","CA","95376"
957447,"C/O 1319 VAN BUREN STREET","SOUTH BEND","IN","46628"
957448,"C/O 1329 BOLTON STREET","BALTIMORE","MD","21217"
957449,"C/O 1338 OREGON AVE","KLAMATH FALLS","OR","97601"
957450,"C/O 134 SPRING STREET SUITE 302","NEW YORK","NY","10012"
957451,"C/O 1364 N CAREY STREET","BALTIMORE","MD","21217"
957452,"C/O 13940 CEDAR ROAD NUM 305","CLEVELAND HEIGHTS","OH","44118"
957453,"C/O 13959 CEDAR CT","SULTAN","WA","98294"
957454,"C/O 1402 HIGHWAY A1A SUITE A","SATELLITE BEACH","FL","32937"
957455,"C/O 1415 WEST FRONT STREET","BUFFALO","IA","52725"
957456,"C/O 1415 WEST FRONT STREET","BUFFALO","IA","52728"
957457,"C/O 142 WASHINGTON AVE","VALLEY STREAM","NY","11580"
957458,"C/O 142 WASHINGTON AVENUE","VALLEY STREAM","NY","11580"
957459,"C/O 1427 EHUPUA STREET","HONOLULU","HI","96821"
957460,"C/O 14437 LILLEY BROOK CV","AUSTIN","TX","78717"
957461,"C/O 1479 WEYHILL CRESCENT DR","BETHLEHEM","PA","18015"
957462,"C/O 15 CENTRAL PARK WEST PH 40B","NEW YORK","NY","10023"
957463,"C/O 150 WEST JEFFERSON 100","DETROIT","MI","48226"
957464,"C/O 15051 LEFFINGWELL ROAD STE 106","WHITTIER","CA","90604"
957465,"C/O 15117 KOMEDAL ROAD NE","BAINBRIDGE ISLAND","WA","98110"
957466,"C/O 1600 INVERNESS","LANSING","MI","48915"
957467,"C/O 16039 STONEHAM CIRCLE","PFLUGERVILLE","TX","78660"
957468,"C/O 1656 WILLIAMS HWY","GRANTS PASS","OR","97527"
957469,"C/O 169 GRANDVIEW DRIVE","LIMERICK","ME","04048"
957470,"C/O 1709 NORRIS DRIVE","AUSTIN","TX","78704"
957471,"C/O 1711 W WARNER HILL RD","ULSTER","PA","18850"
957472,"C/O 1720 BEDFORD AVE APT 2F","BROOKLYN","NY","11225"
957473,"C/O 175 E DELAWARE PL 6602","CHICAGO","IL","60611"
957474,"C/O 1812 LEGEND DR","MODESTO","CA","95357"
957475,"C/O 182 DANE WAY","WINDER","GA","30680"
957476,"C/O 182 HIGHLAND AVENUE","ARLINGTON","MA","02746"
957477,"C/O 18275 MEADOW SONG WAY","SALINAS","CA","93908"
957478,"C/O 1875 S REED","CHINO VALLEY","AZ","86323"
957479,"C/O 1901 CHRISTIAN STREET","PHILADELPHIA","PA","19146"
957480,"C/O 19101 NW 11 STREET","PEMBROKE PINES","FL","33029"
957481,"C/O 200 PALOUSE STREET SUITE 201-7","WENATCHEE","WA","98801"
957482,"C/O 2000 CONYNGHAM AVENUE","DALLAS","PA","18612"
957483,"C/O 2000 HOSPITAL DRIVE","SEDRO WOOLLEY","WA","98284"
957484,"C/O 20011 EASTWOOD DRIVE","ZACHARY","LA","70791"
957485,"C/O 201 S BISCAYNE BLVD STE 800","MIAMI","FL","33131"
957486,"C/O 2027 DODGE ST SUITE 501","OMAHA","NE","68102"
957487,"C/O 219 W 26 STREET","WILMINGTON","DE","19802"
957488,"C/O 219 W 26TH STREET","WILMINGTON","DE","19802"
957489,"C/O 22 SHARPE ROAD","NEWTON","MA","02459"
957490,"C/O 2200 WILLOW DR","NEWBERG","OR","97132"
957491,"C/O 2227 S STATE RT 157","EDWARDSVILLE","IL","62025"
957492,"C/O 225 UNION AVE APT 232","CAMPBELL","CA","95008"
957493,"C/O 227 S CANADA STREET","SANTA BARBARA","CA","93103"
957494,"C/O 23 CALLE ALEXIA","SANTA FE","NM","87508"
957495,"C/O 23 EAGLES WAY","BAR HARBOR","ME","04609"
957496,"C/O 231 WOLF LANE","RICHMOND","VT","05477"
957497,"C/O 232 VILLAGE ROAD","SOUTH ORANGE","NJ","07079"
957498,"C/O 23219 STRINGTOWN ROAD 245","CLARKSBURG","MD","20871"
957499,"C/O 251 N WEST STREET","DOYLESTOWN","PA","18901"
957500,"C/O 264 WEST 77TH STREET APT 4","NEW YORK","NY","10024"
