"ID","Address","City","State","Zip"
647501,"457 HADDONFIELD RD  SUITE 600","CHERRY HILL","NJ","08002"
647502,"457 HADDONFIELD RD SUITE 230","CHERRY HILL","NJ","08002"
647503,"457 HANDSOME OAK DRIVE","HARDEEVILLE","SC","29927"
647504,"457 HARTFORD ROAD","MOUNT LAUREL","NJ","08054"
647505,"457 HUNTER CIRCLE","KISSIMMEE","FL","34758"
647506,"457 HUNTER RD","WHITMIRE","SC","29178"
647507,"457 HUXLEY DRIVE","BUFFALO","NY","14225"
647508,"457 ISHMAN BALLARD ROAD","NEWNAN","GA","30263"
647509,"457 JEFFERSON DRIVE","PALMYRA","VA","22963"
647510,"457 JULIA WAY","LEXINGTON","KY","40508"
647511,"457 KELLY MILL RD","SENECA","SC","29672"
647512,"457 KENTUCKY LANE","WATERPROOF","LA","71357"
647513,"457 LAFAYETTE AVENUE","ROCKVILLE CENTRE","NY","11570"
647514,"457 LAKE AVE","WORCESTER","MA","01604"
647515,"457 LAMP HILL ROAD","SAINT MARYS","WV","26170"
647516,"457 LANDA ST SUITE H","NEW BRAUNFELS","TX","78130"
647517,"457 LINDEN BOULEVARD","BROOKLYN","NY","11203"
647518,"457 LINN AVE","CRYSTAL LAKE","IL","60014"
647519,"457 LIVINGSTON AVENUE","ALBANY","NY","12206"
647520,"457 MIDLAND STREET","BRIDGEPORT","CT","06605"
647521,"457 MILLER AVE","FREEPORT","NY","11520"
647522,"457 MYSTIC GLEN LOOP","KINGWOOD","TX","77339"
647523,"457 N ALTA VISTA BLVD","LOS ANGELES","CA","90036"
647524,"457 N ERIE BEACH RAOD","LAKESIDE","OH","43440"
647525,"457 N GRANGER ST","GRANVILLE","OH","43023"
647526,"457 NATHAN DEAN BLVD 105 125","DALLAS","GA","30132"
647527,"457 NATHAN DEAN BLVD STE 105-314","DALLAS","GA","30132"
647528,"457 NATHAN DEAN BLVD","DALLAS","GA","30132"
647529,"457 NEW HAVEN AVE","MILFORD","CT","06460"
647530,"457 NORTH GULKANA STREET","PALMER","AK","99645"
647531,"457 NORTHRIDGE DRIVE","KALISPELL","MT","59901"
647532,"457 OAKDALE ST","STATEN ISLAND","NY","10310"
647533,"457 ONTARIO STREET UNIT 1","ALBANY","NY","12208"
647534,"457 PALM DRIVE","GLENDALE","CA","91202"
647535,"457 PARK AVE","COLLINGSWOOD","NJ","08108"
647536,"457 PARK CITY BON AYR ROAD","PARK CITY","KY","42160"
647537,"457 PARK DR","CAMPBELL","OH","44405"
647538,"457 PATTEN STREET","BOSTON","GA","31626"
647539,"457 PATUXENT CT","LA PALA","MD","20646"
647540,"457 PELICAN PT RD","PONTE VEDRA","FL","32081"
647541,"457 PERKINS RD","GOLDSBORO","NC","27530"
647542,"457 PLEASANT LAKE AVENUE","HARWICH","MA","02645"
647543,"457 POTOMAC AVENUE","ROMNEY","WV","26757"
647544,"457 REMINGTON DRIVE","EVANSTON","WY","82930"
647545,"457 RIVERSIDE DR","WAYNE","NJ","07470"
647546,"457 ROCKBOROUGH TRACE","STONE MOUNTAIN","GA","30083"
647547,"457 ROCKCREST DRIVE","CINCINNATI","OH","45246"
647548,"457 ROCKCREST DRIVE","CINCINNATI","OH",NA
647549,"457 ROSE INN AVE","MADRID","PA","18064"
647550,"457 ROSEMOUNT DR","FLORENCE","SC","29505"
647551,"457 ROSSLYN AVENUE 1ST FL","SPRINGDALE","PA","15144"
647552,"457 ROUT 17K","BLOOMINGBERG","NY","12721"
647553,"457 S ARDEN BLVD","LOS ANGELES","CA","90020"
647554,"457 S MARENGO AVE RM16","PASADENA","CA","91101"
647555,"457 S MARENGO AVE UNIT 4","PASADENA","CA","91101"
647556,"457 S SOTO ST","LOS ANGELES","CA","90066"
647557,"457 SAINT MICHAEL STREET","MOBILE","AL","36602"
647558,"457 SCOTTY LN","DYER","IN","46311"
647559,"457 SETTLERS DR","LITITZ","PA","17543"
647560,"457 SHAWNEE LANE","CHILLICOTHE","OH","45601"
647561,"457 SOUTH MIDDLEBROOK RD","FERRISBURGH","VT","05491"
647562,"457 SOUTH MIDDLEBROOK RD","VERGENNES","VT","05491"
647563,"457 STAFFORD AVE","BOZEMAN","MT","59718"
647564,"457 STURBRIDGE DRIVE","LITITZ","PA","17543"
647565,"457 SUMMIT AVE","PHILADELPHIA","PA","19128"
647566,"457 SW 1200 RD","CHILHOWEE","MO","64733"
647567,"457 TELEGRAPH ROAD","WINLOCK","WA","98596"
647568,"457 TYLER AVE","LIVERMORE","CA","94550"
647569,"457 TYLER AVENUE","LIVERMORE","CA","94550"
647570,"457 W 46TH STREET APT 4C","NEW YORK","NY","10036"
647571,"457 W 57TH STREET APT 1203","NEW YORK","NY","10019"
647572,"457 W 57TH STREET APT 912","NEW YORK","NY","10019"
647573,"457 W 640 N","LOGAN","UT","84321"
647574,"457 W 8TH ST","LOVELAND","CO","80537"
647575,"457 W BONEBRAKE RD","VEEDERSBURG","IN","47987"
647576,"457 W DEMING PLACE","CHICAGO","IL","60614"
647577,"457 W HOLY HILL ROAD","MOUNTAIN CITY","TN","37683"
647578,"457 W LEXINGTON DR SUITE 204","GLENDALE","CA","91203"
647579,"457 W VICTORIA ST","CHICAGO","IL","60660"
647580,"457 W VIRGINIA ST","STAYTON","OR","97383"
647581,"457 WARBURTON AVE - APT 2","HASTINGS-ON-HUDSON","NY","10706"
647582,"457 WEST 125TH STREET APT4C","NEW YORK","NY","10027"
647583,"457 WEST 21ST ST","SPOKANE","WA","99203"
647584,"457 WEST ALLEN ST","ALLENTOWN","PA","18102"
647585,"4570 127TH TRL N","WEST PALM BEACH","FL","33411"
647586,"4570 39TH AVENUE","VERO BEACH","FL","32967"
647587,"4570 AVERY LANCE C227","LACEY","WA","98503"
647588,"4570 BERMUDA ST","PHILADELPHIA","PA","19124"
647589,"4570 BLUEBONNET BLVD","BATON ROUGE","LA","70809"
647590,"4570 BRAID LANE","MASON","OH","45040"
647591,"4570 CHARMION LANE","ENCINO","CA","91316"
647592,"4570 DEER CREEK BOULEVARD","SARASOTA","FL","34238"
647593,"4570 DESOTO CAVERNS PARKWAY","CHILDERSBURG","AL","35044"
647594,"4570 EVERGLADES BLVD N","NAPLES","FL","34120"
647595,"4570 FLINT HILL ROAD","AUSTELL","GA","30106"
647596,"4570 FORD ROAD SUITE 2","PHILA","PA","19131"
647597,"4570 FORD ROAD SUITE 2","PHILADELPHIA","PA","19131"
647598,"4570 FOREST EDGE LANE","WEST BLOOMFIELD","MI","48323"
647599,"4570 HOLLANSBURG SAMPSON RD","ARCANUM","OH","45304"
647600,"4570 IRON HORSE TRAIL","COLORADO SPRINGS","CO","80917"
647601,"4570 KELDEN CIRCLE","COLLEGE PARK","GA","30349"
647602,"4570 LAKE EMILY ROAD","AMHERST","WI","54406"
647603,"4570 LINDAWOOD LN","MEMPHIS","TN","38128"
647604,"4570 MANITOU RD","MANITOU","KY","42436"
647605,"4570 N 450 E","CRAIGVILLE","IN","46731"
647606,"4570 NEWPORT LANE","WARRENSVILLE HEIGHTS","OH","44128"
647607,"4570 PAPER MILL RD SE","MARIETTA","GA","30067"
647608,"4570 POPULAR SPRINGS FARM RD","LAPLATA","MD","20646"
647609,"4570 S EASTERN AVE SUITE 24","LAS VEGAS","NV","89119"
647610,"4570 S STACH RD","COEUR D&apos;ALENE","ID","83814"
647611,"4570 SANTEE TRAIL","MABLETON","GA","30126"
647612,"4570 SETTLES BRIDGE RD","SUWANEE","GA","30024"
647613,"4570 TOPHAND DR","PLACERVILLE","CA","95667"
647614,"4570 W 164TH ST","LAWNDALE","CA","90260"
647615,"4570 WALWIT ST","DEARBORN","MI","48126"
647616,"45700 KRAFTS POINT RD","CABLE","WI","54821"
647617,"45702 W STARLIGHT DR","MARICOPA","AZ","85139"
647618,"45708 IMPERIAL SQUARE SUITE 414","STERLING","VA","20166"
647619,"4571 146TH LANE NW","ANDOVER","MN","55304"
647620,"4571 156TH ST","FLUSHING","NY","11355"
647621,"4571 168TH ST W","LAKEVILLE","MN","55044"
647622,"4571 FELICIANA DR","NEW ORLEANS","LA","70126"
647623,"4571 FELICIANA DRIVE","NEW ORLEANS","LA","70126"
647624,"4571 FM 11101","NEW BRAUNFELS","TX","78132"
647625,"4571 GLOBE WILLOW DR","EL PASO","TX","79922"
647626,"4571 HIALEAH DRIVE","VIRGINIA BEACH","VA","23464"
647627,"4571 HOLLY","ST. LOUIS","MO","63115"
647628,"4571 JOHN R ROAD","TROY","MI","48085"
647629,"4571 LOCKHAVEN CIRCLE","IRVINE","CA","92604"
647630,"4571 MASSILLON ROAD","NORTH CANTON","OH","44720"
647631,"4571 N OCONNOR RD APT 1325","IRVING","TX","75062"
647632,"4571 N OUTLOOK CT","CLOVIS","CA","93619"
647633,"4571 SCHOONER AVENUE","LAKELAND","FL","33805"
647634,"4571 SILVER SPRINGS DR","DALLAS","TX","75211"
647635,"4571 US HWY 20","CUSHING","IA","51018"
647636,"4571 VALLEJO STREET","DENVER","CO","80211"
647637,"4571 VALLEY PARKWAY SE APT D","SMYRNA","GA","30082"
647638,"4571 VISTA DR","CANANDAIGUA","NY","14424"
647639,"4571 W 223RD STREET","BUCYRUS","KS","66013"
647640,"4571 W COUNTRY ROAD 400 S","MUNCIE","IN","47302"
647641,"4571 W COUNTY RD 700 SOUTH","MUNCIE","IN","47302"
647642,"4571 WILDCAT LANE","CONCORD","CA","94521"
647643,"4571 YAQUI GULCH ROAD","MARIPOSA","CA","95338"
647644,"4571 YELLOWSTONE AVE","LOS ANGELES","CA","90032"
647645,"45710 TUSCANY CT","FREMONT","CA","94539"
647646,"45711 N MONEY CREEK RD","RUSHFORD","MN","55871"
647647,"4572 CHATSWORTH OVERLOOK","ROSWELL","GA","30075"
647648,"4572 County Road 665","Ona","FL","33865"
647649,"4572 COUNTY ROAD 665","Ona","FL","33865"
647650,"4572 CRESTVIEW COURT","CLEVELAND","OH","44143"
647651,"4572 DEERFIELD ROAD","HAMBURG","NY","14075"
647652,"4572 E COUNTY DOWN DR","CHANDLER","AZ","85249"
647653,"4572 EL LAGO COURT","OAKLEY","CA","94561"
647654,"4572 ELAM RD","STONE MOUNTAIN","GA","30083"
647655,"4572 ELMHURST","DETROIT","MI","48204"
647656,"4572 FM 1960 RD W","HOUSTON","TX","77069"
647657,"4572 FM 999","GARY","TX","75643"
647658,"4572 GOLDEN GATE PKWY","NAPLES","FL","34119"
647659,"4572 MORGATE CIR NW","CANTON","OH","44708"
647660,"4572 OXFORD DR","EVANS","GA","30809"
647661,"4572 S 1900 W APT17","ROY","UT","84067"
647662,"4572 S GAR STREET","LITTLETON","CO","80123"
647663,"4572 SYLVAN OAK DR","DAYTON","OH","45426"
647664,"4572 TIMBER TRL NE","SILVERTON","OR","97381"
647665,"4572 WELSHFIELD COURT  NW","KENNESAW","GA","30152"
647666,"45723 BERKSHIREST","LANCASTER","CA","93534"
647667,"45725 STONEY RUN DRIVE","GREAT MILLS","MD","20634"
647668,"45729 CLOUDBURST LANE","TEMECULA","CA","92592"
647669,"4573 BRIDLEWOOD","SAINT LOUIS","MO","63128"
647670,"4573 CLOISTER CIR","HAMPTON","GA","30228"
647671,"4573 E BUCKHORN TRAIL","CAVE CREEK","AZ","85331"
647672,"4573 E MARY MARTIN DR","WASILLA","AK","99654"
647673,"4573 ENRIGHT AVE","ST LOUIS","MO","63108"
647674,"4573 GREENVIEW","EL DORADO HILLS","CA","95762"
647675,"4573 HWY 64","BEN WHEELER","TX","75754"
647676,"4573 INDIAN ROCK TERRACE NW","WASHINGTON","DC","20007"
647677,"4573 IRONWOOD LANE","TERRE HAUTE","IN","47802"
647678,"4573 KELLYBROOK DR","CONCORD","NC","28205"
647679,"4573 NARRAGANSETT AVE","SAN DIEGO","CA","92107"
647680,"4573 OLIVEHURST AVENUE","OLIVEHURST","CA","95961"
647681,"4573 OSPREY LN","DECATUR","GA","30035"
647682,"4573 POND LANE","MARIETTA","GA","30062"
647683,"4573 RELIANT ROAD","JAMESVILLE","NY","13078"
647684,"4573 SANDPINE LANE","SARASOTA","FL","34233"
647685,"4573 SKYLARK","EL PASO","TX","79922"
647686,"4573 SYRACUSE ROAD","CAZENOVIA","NY","13035"
647687,"4573 W 138TH ST APT B","HAWTHORNE","CA","90250"
647688,"4573 W 147TH STREET","LAWNDALE","CA","90260"
647689,"4573 WILLIS AVENUE - 209","SHERMAN OAKS","CA","91403"
647690,"45732 JAGUAR WAY","TEMECULA","CA","92592"
647691,"45735 PALM LANE","LANCASTER","CA","93535"
647692,"45736 INDIAN RIVER RD","INDIO","CA","92201"
647693,"45737 SE WILDCAT MTN DR","SANDY","OR","97055"
647694,"4574 ALLEN BRIDGE ROAD","FOUNTAIN INN","SC","29644"
647695,"4574 CASA MIA CIRCLE","LAS VEGAS","NV","89121"
647696,"4574 CINCO DRIVE","LILBURN","GA","30047"
647697,"4574 ERRINGTON RD","COLUMBUS","OH","43227"
647698,"4574 GRIGGS RD","HOUSTON","TX","77021"
647699,"4574 HAMPSHIRE PIKE","HAMPSHIRE","TN","38461"
647700,"4574 MICHAEL AVE","NORTH OLMSTEAD","OH","44070"
647701,"4574 N 48TH STREET","MILWAUKEE","WI","53218"
647702,"4574 N GLENROCK WAY","MERIDIAN","ID","83646"
647703,"4574 N MACKENZIE LANE","BOISE","ID","83703"
647704,"4574 PAMELA PLACE","LITHONIA","GA","30038"
647705,"4574 RFD","LONG GROVE","IL","60047"
647706,"4574 ROBIN HOOD TRAIL W","SARASOTA","FL","34232"
647707,"4574 TORRINGTON DR","GRAND RAPIDS","MI","49512"
647708,"4574 W TRIPLETT RD","GUTHRIE","OK","73044"
647709,"4574 WILLOW STREET","PALO","IA","52324"
647710,"45740 ROSCOE ROAD","SAINT CLAIRSVILLE","OH","43950"
647711,"45742 DAYTON SQUARE","STERLING","VA","20166"
647712,"45742 SMOKETREE TER","STERLING","VA","20166"
647713,"45747 CHALET VALLEY LN","HINCKLEY","MN","55037"
647714,"4575 14TH STREET UNIT 107","BOULDER","CO","80304"
647715,"4575 ADAMS AVE","MIAMI BEACH","FL","33140"
647716,"4575 ADDINGTON DR","MEMPHIS","TN","38128"
647717,"4575 BRUMBY LN","CUMMING","GA","30041"
647718,"4575 CANASTA CT","HOPE MILLS","NC","28348"
647719,"4575 CLAY STREET","DENVER","CO","80211"
647720,"4575 COVE CIR","MADERIA BEACH","FL","33708"
647721,"4575 DAWN COURT","COLUMBUS","GA","31907"
647722,"4575 DEAN MARTIN DRIVER UNIT 2601","LAS VEGAS","NV","89103"
647723,"4575 EMERSON PARK DRIVE APT 208","ORLANDO","FL","32839"
647724,"4575 ENRIGHT AVE","ST LOUIS","MO","63108"
647725,"4575 FALLS AVENUE","POWDER SPRINGS","GA","30127"
647726,"4575 FARVIEW DR","CINCINNATI","OH","45247"
647727,"4575 FONTANA LAKE DRIVE","BRYSON CITY","NC","28713"
647728,"4575 HAMWOOD ST","NORT PORT","FL","34287"
647729,"4575 HOLST ST","BEAUMONT","TX","77708"
647730,"4575 LANSMORE DR","DAYTON","OH","45415"
647731,"4575 LIMA VISTA AVE","VERNON","CA","90058"
647732,"4575 LINCOLN WAY","LILBURN","GA","30047"
647733,"4575 NE 28TH TERRACE","OCALA","FL","34479"
647734,"4575 NOBLE PASS","CUMMING","GA","30041"
647735,"4575 NORTH COUNTY ROAD 125 W","NEW CASTLE","IN","47362"
647736,"4575 PALM AVE APT G","RIVERSIDE","CA","92506"
647737,"4575 PIKE AVE","SARASOTA","FL","34233"
647738,"4575 PRAIRIE BROOK LANE","PALMYRA","MO","63461"
647739,"4575 RAMONA AVENUE 10","LA VERNE","CA","91750"
647740,"4575 RAMONA AVENUE 6","LA VERNE","CA","91750"
647741,"4575 S 5TH ST","MILWAUKEE","WI","53207"
647742,"4575 STONECREST","SPRINGDALE","AR","72762"
647743,"4575 US HWY 26/85","TORRINGTON","WY","82240"
647744,"4575 VALLEY PKWY","SMYRNA","GA","30082"
647745,"4575 W 32ND AVENUE","DENVER","CO","80212"
647746,"4575 W 80TH CIRCLE APT 317","BLOOMINGTON","MN","55437"
647747,"4575 W COUGAR AVE","LAS VEGAS","NV","89139"
647748,"4575 WABEEK FOREST DRIVE","BLOOMFIELD HILL","MI","48302"
647749,"4575 WEBB BRIDGE RD SUITE 3842","ALPHARETTA","GA","30023"
647750,"4575 WEBB BRIDGE ROAD UNIT 3581","ALPHARETTA","GA","30023"
647751,"4575 WHIMBREL PL","WINTER PARK","FL","32792"
647752,"4575 WOODVALLEY DRIVE","ACWORTH","GA","30101"
647753,"4575","FLORENCE","OR","97439"
647754,"45750 CHEYENNE PLACE","FREMONT","CA","94539"
647755,"4576 47TH ST","BOULDER","CO","80301"
647756,"4576 ABRIGADOR TRAIL NE","COMSTOCK PARK","MI","49321"
647757,"4576 ARABELA DRIVE","LAS CRUCES","NM","88012"
647758,"4576 BRICKY RD S","BEE BRANCH","AR","72013"
647759,"4576 DE SILVA STREET","FREMONT","CA","94538"
647760,"4576 E COUNTY ROAD 75 N","FILLMORE","IN","46128"
647761,"4576 EBENEZER ROAD","LEXINGTON","MS","39095"
647762,"4576 HIGHWAY 80 WEST","JACKSON","MS","39209"
647763,"4576 JADE AVENUE","WICHITA","KS","67060"
647764,"4576 N 450 E","PORTLAND","IN","47371"
647765,"4576 NW 19 AVENUE","FORT LAUDERDALE","FL","33309"
647766,"4576 OLD MAKENA RD","KIHEI","HI","96753"
647767,"4576 OLD MAKENA ROAD","KIHEI","HI","96753"
647768,"4576 TEXAS ST","SAN DIEGO","CA","92116"
647769,"4576 TWEEDY BLVD","SOUTH GATE","CA","90280"
647770,"4576 VALLEY BROOK DR","BETTENDORF","IA","52722"
647771,"4576 VALLEY BROOK DRIVE","BETTENDORF","IA","52722"
647772,"45760 CHABLIS COURT","FREMONT","CA","94539"
647773,"45761 GREENRIDGE DR","NORTHVILLE","MI","48167"
647774,"45768 COUNTY ROAD 10","SANBORN","MN","56083"
647775,"4577 BROOKSHIRE LOOP","BESSEMER","AL","35022"
647776,"4577 CEDARWOOD WAY","SACRAMENTO","CA","95823"
647777,"4577 HIGHT RD","OXFORD","NC","27565"
647778,"4577 LAPEER ROAD SUITE G","ORION TOWNSHIP","MI","48359"
647779,"4577 MCCALLA TRACE PKWY","BESSEMER","AL","35022"
647780,"4577 MINT WAY","DALLAS","TX","75236"
647781,"4577 N 60TH STREET","MILWAUKEE","WI","53218"
647782,"4577 N LAKEWOOD DRIVE","SAN BERNARDINO","CA","92407"
647783,"4577 N LAKEWWOD DRIVE","SAN BERNARDINO","CA","92407"
647784,"4577 NW 41 PLACE","LAUDERDALE LAKES","FL","33319"
647785,"4577 OLENTANGY RIVER ROAD G16","COLUMBUS","OH","43214"
647786,"4577 OLENTANGY RIVER ROAD","COLUMBUS","OH","43214"
647787,"4577 QUARTERHORSE LANE","CHIPLEY","FL","32428"
647788,"4577 S VALLEY ROAD","TUCSON","AZ","85714"
647789,"4577 SUMMER CREEK COVE","MEMPHIS","TN","38141"
647790,"4577 TABOR NW UNIT C","COMSTOCK PARK","MI","49321"
647791,"4577 W POLO CREEK CT","FRESNO","CA","93722"
647792,"4577 WEST LAKE SAMMAMISH PKWAY NE","REDMOND","WA","98052"
647793,"45774 MADISON DRIVE","EAST LIVERPOOL","OH","43920"
647794,"45775 CORTE CARMELLO","TEMECULA","CA","92592"
647795,"45776 164TH ST","WATERTOWN","SD","57201"
647796,"45779 COAL CREEK DR","PARKER","CO","80138"
647797,"4578 CASTLEPOINT DRIVE","COLORADO SPRINGS","CO","80917"
647798,"4578 DEEP SPRINGS COURT","ROCHESTER","MI","48306"
647799,"4578 E CAMP LOWELL DR","TUCSON","AZ","85712"
647800,"4578 ELROY-ANSONIA RD","ANSONIA","OH","45303"
647801,"4578 HOLLY LAKE DR","LAKE WORTH","FL","33463"
647802,"4578 MERRIL AVENUE","RIVERSIDE","CA","92506"
647803,"4578 N COMISO PL","MERIDIAN","ID","83646"
647804,"4578 OAKWOOD LANE","NAZARETH","PA","18064"
647805,"4578 ROXBURY","BATAVIA","OH","45103"
647806,"4578 W 224 ST","FAIRVIEW PARK","OH","44126"
647807,"45787","NORTHVILLE","MI","48168"
647808,"4579 54TH STREET","SAN DIEGO","CA","92115"
647809,"4579 ACACIA RIDGE STREET","SACRAMENTO","CA","95834"
647810,"4579 BLUE MOUNDS TRAIL","BLACK EARTH","WI","53515"
647811,"4579 BRIAR POST CT","TALLAHASSEE","FL","32311"
647812,"4579 C GARDEN SPOT RD","DEER PARK","WA","99006"
647813,"4579 CALLAN BLVD","DALY CITY","CA","94015"
647814,"4579 COOPER LN","CINCINNATI","OH","45242"
647815,"4579 EMPRESS WAY N","HUGO","MN","55038"
647816,"4579 FRANCISCO VERRETT DRIVE","NEW ORLEANS","LA","70126"
647817,"4579 GARDEN SPOT RD","DEER PARK","WA","99006"
647818,"4579 HIGHWAY 107","MARKSVILLE","LA","71351"
647819,"4579 KNOTTY OAKS DR","MEMPHIS","TN","38141"
647820,"4579 LACLEDE AVE 122","SAINT LOUIS","MO","63108"
647821,"4579 LACLEDE AVE APT 122","ST LOUIS","MO","63108"
647822,"4579 LACLEDE AVE","ST LOUIS","MO","63108"
647823,"4579 LACLEDE AVENUE 406","ST LOUIS","MO","63108"
647824,"4579 LACLEDE AVENUE SUITE 427","SAINT LOUIS","MO","63108"
647825,"4579 LACLEDE AVENUE","SAINT LOUIS","MO","63108"
647826,"4579 LACLEDE","SAINT LOUIS","MO","63108"
647827,"4579 LASALLE AVE NE","ST MICHAEL","MN","55376"
647828,"4579 MIDDLEBURY COLLEGE","MIDDLEBURY","VT","05753"
647829,"4579 RINCON PL","DUMFRIES","VA","22025"
647830,"4579 SANDPIPER COVE","BRYAN","TX","77845"
647831,"4579 WINDSTREAM LN","BRECKSVILLE","OH","44141"
647832,"4579 WINNETKA RD","WHITE CITY","OR","97503"
647833,"4579 WOODLAND SHORES DR","LOON LAKE","WA","99006"
647834,"45796 PALM MEADOW","INDIO","CA","92201"
647835,"457E 2ND AVENUE","CASTLE ROCK","CO","80108"
647836,"458  W WOLFE STREET","HARRISONBURG","VA","22802"
647837,"458 34TH AVE NORTH","ST. PETERSBURG","FL","33704"
647838,"458 45TH STREET","COPIAGUE","NY","11726"
647839,"458 6TH STREET","DOVER","NH","03820"
647840,"458 ACORN DRIVE","WARMINSTER","PA","18974"
647841,"458 ATLANTIC AVE","CAMDEN","NJ","08104"
647842,"458 BAY RIDGE AVENUE","BROOKLYN","NY","11220"
647843,"458 BEACON KNOLL LANE","FORT MILL","SC","29708"
647844,"458 BOYD DR","SHARON","PA","16146"
647845,"458 BROCKTON DRIVE","MIDDLETOWN","DE","19709"
647846,"458 BUSTI AVE","BUFFALO","NY","14201"
647847,"458 CAMELIA LANE","LAKE CITY","SC","29560"
647848,"458 CANDLEWOOD LAKE ROAD N","NEW MILFORD","CT","06776"
647849,"458 CANYON CREST DR","SIMI VALLEY","CA","93065"
647850,"458 CAPITOL VILLAGE CIRCLE","SAN JOSE","CA","95136"
647851,"458 CASON ROAD","CEDARTOWN","GA","30125"
647852,"458 CENTER AVE","WESTWOOD","NJ","07675"
647853,"458 CHAMBERS LANE","WEST CHESTER","PA","19382"
647854,"458 CHANNING AVENUE","PALO ALTO","CA","94301"
647855,"458 CLINTON AVENUE","BROOKLYN","NY","11238"
647856,"458 CLOUDS WAY","ROCK HILL","SC","29732"
647857,"458 COFFEY HILL ROAD","NASHVILLE","IN","47448"
647858,"458 CORRIGAN HEIGHTS RD","CORRIGAN","TX","75939"
647859,"458 COURTLAND LANE","PICKERINGTON","OH","43147"
647860,"458 CREST AVE","ST LOUIS","MO","63122"
647861,"458 CREST COURT","SAINT LOUIS","MO","63122"
647862,"458 DAVID DR","BLOOMFIELD","IN","47424"
647863,"458 DELCAMP STREET","LEXINGTON","KY","40508"
647864,"458 E 3RD STREET APT 1","SOUTH BOSTON","MA","02127"
647865,"458 E VERDUGO AVE APT L","BURBANK","CA","91501"
647866,"458 EAGLE ROCK ROAD","BRANSON","MO","65616"
647867,"458 EAST MAIN STREET","NORTH ADAMS","MA","01247"
647868,"458 ELIZABETH AVE 5349","SOMERSET","NJ","08873"
647869,"458 ELIZABETH AVE 5349","SOMERSET","NY","08873"
647870,"458 ELIZABETH AVE","SOMERSET","NJ","08873"
647871,"458 ELIZABETH AVENUE","SOMERSET","NJ","08873"
647872,"458 ESSEX STREET","BEVERLY","MA","01915"
647873,"458 FAIRGROUNDS RD","BRADFORD","NH","03221"
647874,"458 FAIRWAY DR","PEMBROKE","NH","03275"
647875,"458 FLAT CREEK TRAIL","FAYETTEVILLE","GA","30214"
647876,"458 FRONT ST","PHILO","OH","43771"
647877,"458 GALWAY DRIVE","IOWA CITY","IA","52246"
647878,"458 GEORGE STREET","RIDGEWOOD","NJ","07450"
647879,"458 GLENMAR","GLEN BURNIE","MD","21061"
647880,"458 GODBY BRANCH RD","CHAPMANVILLE","WV","25508"
647881,"458 HAMPSHIRE HILL RD","VERMONT","VT","05682"
647882,"458 HARDING LANE","LAVON","TX","75166"
647883,"458 HARRISON STREET","PASSAIC","NJ","07055"
647884,"458 HERMITAGE DRIVE","DEERFIELD","IL","60015"
647885,"458 HOIST RD","BECKLEY","WV","25801"
647886,"458 HONERENG TRAIL","ANNAPOLIS","MD","21401"
647887,"458 HWY 569","FERRIDAY","LA","71334"
647888,"458 KINGS RD","APOLLO","PA","15613"
647889,"458 KOONCE RD","LAKE CHARLES","LA","70611"
647890,"458 LAUREL ROAD","SPENCER","WV","25276"
647891,"458 LIBERTY AVENUE","MONONGAHELA","PA","15063"
647892,"458 LIVINGSTON DR","LANCASTER","SC","29720"
647893,"458 LONG AVE","MANASQUAN","NJ","08736"
647894,"458 LYLES RD SE","CLEVELAND","TN","37323"
647895,"458 LYNESS AVENUE","HARRISON","OH","45030"
647896,"458 LYNNELL WAY","MOORE","SC","29369"
647897,"458 MADISON AVE SUITE 2","AKRON","OH","44320"
647898,"458 MADISON AVE","AKRON","OH","44320"
647899,"458 MAHAR HALL","OSWEGO","NY","13126"
647900,"458 MAIN STREET","AMESBURY","MA","01913"
647901,"458 MAIN STREET","CHATHAM","NJ","07078"
647902,"458 MAPLE ST","LIVERMORE","CA","94550"
647903,"458 MARION STREET","BROOKLYN","NY","11233"
647904,"458 MEHAFFEY DRIVE","FAIRBURN","GA","30213"
647905,"458 MICHELLE CIR","BERNALILLO","NM","87004"
647906,"458 MORIAH ROAD","LONDON","KY","40741"
647907,"458 N AMY DRIVE","PEORIA","IL","61604"
647908,"458 N DOHENY DR SUITE 69678","W HOLLYWOOD","CA","90069"
647909,"458 N DOHENY DR SUITE 69678","W. HOLLYWOOD","CA","90069"
647910,"458 N DOHENY DRIVE SUITE 69678","W HOLLYWOOD","CA","90069"
647911,"458 NC HWY 18 S","MORAVIAN FALLS","NC","28654"
647912,"458 NEPTUNE AVE APT 7F","BROOKLYN","NY","11224"
647913,"458 NEW SCOTLAND SOUTH ROAD","SLINGERLANDS","NY","12159"
647914,"458 NOBLE STREET","KUTZTOWN","PA","19530"
647915,"458 NORTH DEARBOURNE","PHILA","PA","19139"
647916,"458 OAK CREEK DR","VADNAIS HTS","MN","55127"
647917,"458 OAKLAND AVENUE","APOPKA","FL","32703"
647918,"458 OLD MORGANTOWN ROAD E","FRIENDSVILLE","MD","21531"
647919,"458 OLD NISKAYUNA RD","LATHAM","NY","12110"
647920,"458 OLIVE ORCHARD DR","AUBURN","CA","95603"
647921,"458 PINE TREE LN","BOULDER","CO","80304"
647922,"458 REDWOOD FOREST DRIVE","BALLWIN","MO","63021"
647923,"458 RIVER RD","LEBANON","ME","04027"
647924,"458 RIVERBEND DR","MACON","GA","31211"
647925,"458 ROSE GARDEN ROAD","ELLIJAY","GA","30540"
647926,"458 S 15TH ST","NEWARK","NJ","07103"
647927,"458 SALLIOTTE","ECORSE","MI","48229"
647928,"458 SHAWSHEEN AVENUE","WILMINGTON","MA","01887"
647929,"458 SHORE RUSH DRIVE","PAWLEYS ISLAND","SC","29585"
647930,"458 SOUTH MAIN STREET","PATASKALA","OH","43062"
647931,"458 SOUTH OAKHURST DRIVE APT 2","BEVERLY HILLS","CA","90212"
647932,"458 STUYVESANT AVE PO BOX 22221","TRENTON","NJ","08618"
647933,"458 TAYLOR OAKS DR","WACO","TX","76705"
647934,"458 THOROUGHBRED DR","CHARLES TOWN","WV","25414"
647935,"458 TIMBER RIDGE ROAD","BLUFF CITY","TN","37618"
647936,"458 TISDALE STREET","MOBILE","AL","36604"
647937,"458 TOEPFER AVE","MADISON","WI","53711"
647938,"458 TRANQUILITY LANE","CEDAR HILL","TX","75104"
647939,"458 TRAYLOR BRANCH RD","WAVERLY","TN","37185"
647940,"458 W 52ND ST APT 6B","NEW YORK CITY","NY","10019"
647941,"458 W COLUMBUS ST","KENTON","OH","43326"
647942,"458 W GLENDALE ST","PRINCETON","IN","47670"
647943,"458 W UMPQUA ST","ROSEBURG","OR","97471"
647944,"458 WEST 17TH STREET","NEW YORK","NY","10011"
647945,"458 WEST LAKEWOOD","HOLLAND","MI","49424"
647946,"458 WOODLAND SHORES RD","JAMES ISLAND","SC","29412"
647947,"458","SAINT THOMAS","VI","00804"
647948,"458","WYNNEWOOD","PA","19096"
647949,"4580 ADAMS AVE","OGDEN","UT","84403"
647950,"4580 ATLANTIC AVENUE NO 17771","LONG BEACH","CA","90807"
647951,"4580 BROADWAY APRTMENT 3D","NEW YORK","NY","10040"
647952,"4580 BROADWAY APT 3J","NEW YORK","NY","10040"
647953,"4580 BROADWELL CIR","FLOWERY BRANCH","GA","30542"
647954,"4580 CHALLENGER WAY 73","WEST PALM BEACH","FL","33417"
647955,"4580 COVENANT CT","GURNEE","IL","60031"
647956,"4580 COVINGTON PIKE","MEMPHIS","TN","38135"
647957,"4580 DON TIMOTEO DR","LOS ANGELES","CA","90008"
647958,"4580 E THOUSAND OAKS BLVD STE 350","WESTLAKE VILLAGE","CA","91362"
647959,"4580 EAGLE KEY CIR","NAPLES","FL","34112"
647960,"4580 FLINT ST","CHANDLER","AZ","85226"
647961,"4580 GRIMSON RD","OSHKOSH","WI","54904"
647962,"4580 HIGHWAY 177","CAPE GIRARDEAU","MO","63701"
647963,"4580 JACKSONTOWN ROAD","MANSON","NC","27553"
647964,"4580 KLAHANIE DR SE 472","ISSAQUAH","WA","98029"
647965,"4580 KLAHANIE DR SE SUITE 325","ISSAQUAH","WA","98029"
647966,"4580 LONDONDERRY ROAD APT C83","HARRISBURG","PA","17109"
647967,"4580 MAMANE ST","KAPA'A","HI","96746"
647968,"4580 MARINERS BAY","OCEANSIDE","CA","92057"
647969,"4580 MOUNTAINGATE DR","RENO","NV","89519"
647970,"4580 MOUNTAINGATE DRIVE","RENO","NV","89519"
647971,"4580 N 200 W","GREENFIELD","IN","46140"
647972,"4580 N ROCK LN","PRESCOTT VALLEY","AZ","86314"
647973,"4580 N VIA MADRE","TUCSON","AZ","85749"
647974,"4580 OTTOBINE ROAD","DAYTON","VA","22821"
647975,"4580 PARKDALE AVE NW","CANTON","OH","44718"
647976,"4580 PAUL SWEET ROAD","SANTA CRUZ","CA","95060"
647977,"4580 POINT WHITE DRIVE NE","BAINBRIDGE ISLAND","WA","98110"
647978,"4580 REGAL","COPLEY","OH","44321"
647979,"4580 RIDGEWOOD COURT","BATAVIA","OH","45103"
647980,"4580 S MERRILVILLE RD","BALDWIN","MI","49304"
647981,"4580 SEDONA LANE","DACONO","CO","80514"
647982,"4580 SIGNAL RIDGE COURT","BUFORD","GA","30518"
647983,"4580 SOMERSET LANE","BROOKFIELD","WI","53045"
647984,"4580 SOUTH WHITE WAY","LITTETON","CO","80127"
647985,"4580 TOURNAMENT DR APT 203","RALEIGH","NC","27612"
647986,"4580 VIRGINIA AVE","KENNESAW","GA","30144"
647987,"4580 W COUNTY ROAD 200 S","NEW CASTLE","IN","47362"
647988,"4580","LOGGERS RUN NE","MI","49525"
647989,"45800 HWY 14","WING","ND","58494"
647990,"45801 CENTRAL CAMP ROAD","DELAND","FL","32702"
647991,"45802 FOUNTAIN VIEW DR","CANTON","MI","48188"
647992,"45805 EVENING WAY","STERLING","VA","20164"
647993,"45807 WAKEFILED","SHELBY TOWNSHIP","MI","48317"
647994,"45808 MOUNTAIN PINE SQUARE","STERLING","VA","20166"
647995,"4581 BALSAM AVE","TAYLORSVILLE","UT","84123"
647996,"4581 CARAMBOLA CIRCLE","COCONUT CREEK","FL","33073"
647997,"4581 CELIA COURT","FREMONT","CA","94555"
647998,"4581 CHRISTENSEN CIRCLE","LITTLETON","CO","80123"
647999,"4581 COLD CANYON LANE","SOUTH JORDAN","UT","84095"
648000,"4581 COONTOWN RD","CHAMBERSBURG","PA","17202"
