"ID","Address","City","State","Zip"
408501,"2505 GRANT ST","VANCOUVER","WA","98660"
408502,"2505 HEALY AVE","FAR ROCKAWAY","NY","11691"
408503,"2505 HIGHLAWN AVENUE","SANFORD","FL","32771"
408504,"2505 HIKES LANE","LOUISVILLE","KY","40218"
408505,"2505 HILTON ROAD - STE 110","FERNDALE","MI","48220"
408506,"2505 HORTON DRIVE","ANDERSON","IN","46011"
408507,"2505 HOWDEN","MUSKEGON","MI","49444"
408508,"2505 KENNEWICK AVE NE","RENTON","WA","98056"
408509,"2505 KEY BLVD","ARLINGTON","VA","22201"
408510,"2505 KINGS DRIVE","EDINBURG","TX","78539"
408511,"2505 KRISTINE CT","CENTRALIA","WA","98531"
408512,"2505 LAKEHURST AVENUE","DISTRICT HEIGHTS","MD","20747"
408513,"2505 LANCASTER RD","RICHMOND","KY","40475"
408514,"2505 LANCASTER ROAD","RICHMOND","KY","40475"
408515,"2505 LAS BRISAS DRIVE","VIRGINIA BEACH","VA","23456"
408516,"2505 LEXINGTON COURT","JACKSON","NJ","08527"
408517,"2505 LINCOLN","ST ALBANS","WV","25177"
408518,"2505 LISA DR","WALDORF","MD","20601"
408519,"2505 LONGVIEW AVE","ROCHESTER HILLS","MI","48307"
408520,"2505 LONGVIEW STREET APT 413","AUSTIN","TX","78705"
408521,"2505 LORD BALTIMORE DIVE","BALTIMORE","MD","21244"
408522,"2505 LORD BALTIMORE","BALTIMORE","MD","21244"
408523,"2505 LOUIS LANE","LEWISVILLE","TX","75056"
408524,"2505 LYNWOOD ST","MORRIS","IL","60450"
408525,"2505 MARKET STREET","COLUMBUS CITY","IA","52738"
408526,"2505 MARY AVE","PEARLAND","TX","77581"
408527,"2505 MILLER WOOD COURT","VALRICO","FL","33594"
408528,"2505 MOUNTAIN LODGE CIRCLE","BIRMINGHAM","AL","35216"
408529,"2505 MOUNTAINVIEW DRIVE","ST. ALBANS","WV","25177"
408530,"2505 N 154TH ST","OMAHA","NE","68116"
408531,"2505 N 24TH STREET","OMAHA","NE","68110"
408532,"2505 N 41ST ST","MILWAUKEE","WI","53210"
408533,"2505 N AVENUE","NATIONAL CITY","CA","91950"
408534,"2505 N GALE AVE","PEORIA","IL","61604"
408535,"2505 N GATE TERRACE","SILVER SPRING","MD","20906"
408536,"2505 N OLD SMITHVILLE RD","MULDOON","TX","78949"
408537,"2505 N RUTHERFORD AVE","CHICAGO","IL","60707"
408538,"2505 N SLAPPEY BOULEVARD","ALBANY","GA","31701"
408539,"2505 N WHITNEY ROAD","INDEPENDENCE","MO","64058"
408540,"2505 NE 97TH PLACE","ANKENY","IA","50021"
408541,"2505 NE SUMNER STREET","PORTLAND","OR","97211"
408542,"2505 NELSON DRIVE","THIEF RIVER FALLS","MN","56701"
408543,"2505 NORTH 33RD STREET","PHILADELPHIA","PA","19132"
408544,"2505 NORTH BATTLE RIDGE ROAD","CUSHING","OK","74023"
408545,"2505 NW 6TH ST","GAINESVILLE","FL","32609"
408546,"2505 NW 82ND ST APT F2","LAWTON","OK","73505"
408547,"2505 ORLANDO DRIVE","VALDOSTA","GA","31601"
408548,"2505 OSELL AVE SW","COKATO","MN","55321"
408549,"2505 PANOLA ROAD","LITHONIA","GA","30058"
408550,"2505 PARK RIDGE LANE","BILLINGS","MT","59106"
408551,"2505 PATTON HILL ROAD","CHILLICOTHE","OH","45601"
408552,"2505 PICKWICK RD","BALTIMORE","MD","21207"
408553,"2505 PINTO TRAIL","MCFARLAND","WI","53558"
408554,"2505 POCOSHOCK PL 103","NORTH CHESTERFIELD","VA","23235"
408555,"2505 POCOSHOCK PL STE 103","NORTH CHESTERFIELD","VA","23235"
408556,"2505 PRAIRIE MOSS DRIVE","BOSSIER CITY","LA","71111"
408557,"2505 PRINCETON AVE","MIDLAND","TX","79701"
408558,"2505 PROSPECT ST","HOUSTON","TX","77004"
408559,"2505 Q STREET SE APT 3","WASHINGTON","DC","20020"
408560,"2505 RIVER ROAD","PT PLEASANT","NJ","08742"
408561,"2505 ROSEWOOD LANE","EDMOND","OK","73013"
408562,"2505 S 11TH AVE","BROADVIEW","IL","60155"
408563,"2505 S 186TH CIRCLE","OMAHA","NE","68130"
408564,"2505 S 500 W","LEBANON","IN","46052"
408565,"2505 S JOHN REDDITT APT 1310","LUFKIN","TX","75904"
408566,"2505 S ROSELLA PL","PHILADELPHIA","PA","19153"
408567,"2505 S VIEW PKWY","YUMA","AZ","85365"
408568,"2505 S WASHGINTON ST","PORT ANGELES","WA","98362"
408569,"2505 S WASHINGTON ST","PORT ANGELES","WA","98362"
408570,"2505 SAN GABRIEL ST UNIT 410","AUSTIN","TX","78705"
408571,"2505 SHELL CT","STOCKTON","CA","95206"
408572,"2505 SOUTH HARDING AVENUE","CHICAGO","IL","60623"
408573,"2505 SOUTH MEADE STREET","DENVER","CO","80219"
408574,"2505 SOUTHMORE","HOUSTON","TX","77004"
408575,"2505 STATE STREET","GUTHRIE CENTER","IA","50115"
408576,"2505 STRANAHAN DR","ALHAMBRA","CA","91803"
408577,"2505 SUGARHOUSE RD","WEST BURKE","VT","05871"
408578,"2505 SW REGENCY DRIVE","LEES SUMMIT","MO","64082"
408579,"2505 SW WINTERBOND CIRCLE","LEES SUMMIT","MO","64081"
408580,"2505 THOMAS DRIVE","KINSTON","NC","28501"
408581,"2505 TRIBBLE GATES DR","LLOGANVILLE","GA","30052"
408582,"2505 TRUXILLO ST","HOUSTON","TX","77004"
408583,"2505 TULIP LANE","CAPE GIRARDEAU","MO","63701"
408584,"2505 TULIP LANE","CAPE GIRARDEAU","MO","63703"
408585,"2505 TULIP LN","CAPE GIRARDEAU","MO","63701"
408586,"2505 UNIVERSITY AVENUE","AUSTIN","TX","78712"
408587,"2505 UPLAND DRIVE","CONCORD","CA","94520"
408588,"2505 VASSAR DRIVE","BOUDER","CO","80305"
408589,"2505 VIA ASTUTO","CARLSBAD","CA","92010"
408590,"2505 W 65TH AVE","MERIVILLE","IL","46410"
408591,"2505 W 84TH STREET","LEAWOOD","KS","66206"
408592,"2505 W OWEN K GARRIOTT","ENID","OK","73703"
408593,"2505 W WALKER CT","SPOKANE","WA","99208"
408594,"2505 WALDRON RD","CORPUS CHRISTI","TX","78418"
408595,"2505 WALNUT STREET SUITE 303","BOULDER","CO","80302"
408596,"2505 WAYFARER","DISCOVERY BAY","CA","94505"
408597,"2505 WEBSTER AVE","DODGE CITY","KS","67801"
408598,"2505 WEDGLEA / APT 239","DALLAS","TX","75212"
408599,"2505 WEST 58TH PLACE","MERRILLVILLE","IN","46410"
408600,"2505 WEST CHESTNUT AVE APT 1R","ALTOONA","PA","16601"
408601,"2505 WEST CORNELL ST","MILWAUKEE","WI","53209"
408602,"2505 WILMA LN","PLANO","TX","75074"
408603,"2505 WORDSWORTH ST","HOUSTON","TX","77030"
408604,"2505 WYDOWN LANE","AURORA","IL","60502"
408605,"2505 WYDOWN LN","AURORA","IL","60502"
408606,"2505","CORPUS CHRISTI","TX","78418"
408607,"2505","DALTON","GA","30721"
408608,"2505","EAST ORANGE","NJ","07019"
408609,"25050  W  STREET","HOLTON","KS","66436"
408610,"25050 483RD AVE","GARRETSON","SD","57030"
408611,"25050 CYPRESS HOLLOW COURT APT 203","BONTIA SPRINGS","FL","34134"
408612,"25050 LONGHORN TRAIL","RAMAH","CO","80832"
408613,"25050 MARSHALL","DEARBORN","MI","48124"
408614,"25050 OASIS TRAIL","CANYON","TX","79015"
408615,"25050 PITKIN RD","SPRING","TX","77386"
408616,"25050 RIDING PLAZA","SOUTH RIDING","VA","20166"
408617,"25050 ROAD R23","DELPHOS","OH","45833"
408618,"25051 128TH PL SE","KENT","WA","98030"
408619,"25051 CHARINA ROAD","HOMELAND","CA","92548"
408620,"25052 CRESTVIEW DR","LOMA LINDA","CA","92354"
408621,"25052 HWY 5","CENTERVILLE","IA","52544"
408622,"25052 SHERWOOD CIRCLE","SOUTHFIELD","MI","48075"
408623,"25053 OAKANA RD","RAMONA","CA","92065"
408624,"25054 175TH AVE","FORT RIPLEY","MN","56449"
408625,"25054 WEST CATHERINE DRIVE","PLAINFIELD","IL","60431"
408626,"25055 COPA DEL ORO  APT 101","HAYWARD","CA","94544"
408627,"25057 PLEASANT TRL","RICHMOND HTS","OH","44143"
408628,"25057 WHEELER RD","NEWHALL","CA","91321"
408629,"25058 TYLER DR","WINDSOR","VA","23487"
408630,"25059 EDGAR","ANTIOCH","IL","60002"
408631,"25059 PINE COURT","LIBERTY LAKE","WA","99019"
408632,"25059 SKYLAND RD","LOS GATOS","CA","95033"
408633,"25059 WHEELER ROAD","SANTA CLARITA","CA","91321"
408634,"25059 WINTERGREEN CT","STEVENSON RANCH","CA","90014"
408635,"2506 152ND LANE NE","HAM LAKE","MN","55304"
408636,"2506 20ST STREET SUITE 4","LUBBOCK","TX","79410"
408637,"2506 62ND AVE","OAKLAND","CA","94605"
408638,"2506 6TH AVE E","WILLISTON","ND","58801"
408639,"2506 78TH AVENUE","PHILADELPHIA","PA","19150"
408640,"2506 ALAMOCITOS CREEK DR","Killeen","TX","76549"
408641,"2506 ALEX RYAN DRIVE","CHARLOTTE","NC","28216"
408642,"2506 ANDERS LANE","KEMAH","TX","77565"
408643,"2506 ANDERS LN","KEMAH","TX","77565"
408644,"2506 ASHDOWN DRIVE","BOSSIER CITY","LA","71111"
408645,"2506 ASHLEY 17","HAMBURG","AR","71646"
408646,"2506 ATASCADERO RD","MORRO BAY","CA","93442"
408647,"2506 BAILEY AVE","NEW FREEDOM","PA","17349"
408648,"2506 BENSHOFF HILL ROAD","JOHNSTOWN","PA","15909"
408649,"2506 BERGAN STREET","SOUTH BEND","IN","46628"
408650,"2506 BILL DAVIS ROAD","MANNING","SC","29102"
408651,"2506 BISMARK","VERNON","TX","76384"
408652,"2506 BLAIRGOWERY COURT","GILROY","CA","95020"
408653,"2506 BLOSSOM TRAILS","MANSFIELD","TX","76063"
408654,"2506 BLUNT LANE","ALEXANDRIA","VA","22032"
408655,"2506 BROOKLINE COURT APT 404","ARLINGTON","TX","76006"
408656,"2506 BURGUNDY LANE","COLUMBUS","OH","43232"
408657,"2506 BURRMONT ROAD","ROCKFORD","IL","61107"
408658,"2506 CARPENTER RD SE UNIT A","LACEY","WA","98503"
408659,"2506 CECELIA AVE","BRENTWOOD","MO","63144"
408660,"2506 CLEBURNE","HOUSTON","TX","77004"
408661,"2506 CLIFTON PARK TERRACE","ST. LOUIS","MO","63139"
408662,"2506 CREEKSIDE TRACE","JONESBORO","GA","30236"
408663,"2506 CREEKSIDE TRCE","JONESBORO","GA","30236"
408664,"2506 CRESTVIEW DR","MAGNOLIA","AR","71753"
408665,"2506 DAREL DRIVE APT 203","SUITLAND","MD","20746"
408666,"2506 DORSET DRIVE","VALPARAISO","IN","46383"
408667,"2506 DRUID PARK DRIVE","BALTIMORE","MD","21215"
408668,"2506 DURLSTON COURT","CEDAR PARK","TX","78613"
408669,"2506 E 12TH AVE","TAMPA","FL","33605"
408670,"2506 E 18TH ST","TUCSON","AZ","85716"
408671,"2506 EDISON ST","DETROIT","MI","48206"
408672,"2506 ELMHURST DRIVE","FAYETTEVILLE","NC","28304"
408673,"2506 EUDORA COURT","FOREST HILL","MD","21050"
408674,"2506 FALLING LEAF COURT","MURFREESBORO","TN","37130"
408675,"2506 FARNAM STREET","DAVENPORT","IA","52803"
408676,"2506 FIELDSTONE DR","LAGRANGE","KY","40031"
408677,"2506 FLEET AVE","LOUISVILLE","KY","40217"
408678,"2506 HASELWOOD LANE","ROUND ROCK","TX","78665"
408679,"2506 HILLTOP DRIVE APT 302","WACO","TX","76710"
408680,"2506 IDLEWOOD DR","GARLAND","LA","75040"
408681,"2506 J R DR","MANVEL","TX","77578"
408682,"2506 J R DRIVE","MANVEL","TX","77578"
408683,"2506 JACKSON ST APT 2A","PHILADELPHIA","PA","19145"
408684,"2506 KEYSTONE AVE","NORTH RIVERSIDE","IL","60546"
408685,"2506 KILBOURNE DRIVE","GREENSBORO","NC","27407"
408686,"2506 LAKE DEBRA DRIVE APT 12103","ORLANDO","FL","32835"
408687,"2506 LAKE ELLEN DR","TAMPA","FL","33618"
408688,"2506 LAKELAND DR   STE 200","FLOWOOD","MS","39232"
408689,"2506 LENNOX ROAD SE","CONYERS","GA","30094"
408690,"2506 LENNYS DRIVE","AUGUSTA","GA","30906"
408691,"2506 LESLIE LANE","DEER PARK","TX","77536"
408692,"2506 LIBERTY COURT","MODESTO","CA","95355"
408693,"2506 LINK ROAD","LYNCHBURG","VA","24503"
408694,"2506 LONDONDERRY ROAD","LUTHERVILLE-TIMONIUM","MD","21093"
408695,"2506 LUMPKIN RD APT","AUGUSTA","GA","30906"
408696,"2506 M ST NW","WASHINGTON","DC","20037"
408697,"2506 MANION DR","WILLIAMSBURG","VA","23185"
408698,"2506 MARTIN CIRCLE","BIRMINGHAM","AL","35235"
408699,"2506 MARYLAND AVE","BALTIMORE","MD","21218"
408700,"2506 MAYOWOOD LANE SW","ROCHESTER","MN","55902"
408701,"2506 MCDIVITT ROAD","MADISON","WI","53713"
408702,"2506 MCKINLEY RD APT 501","JOHNSON CITY","TN","37604"
408703,"2506 MIAMI AVENUE","NASHVILLE","TN","37214"
408704,"2506 N 26TH LANE","MCALLEN","TX","78501"
408705,"2506 N 7TH AVE PL E","NEWTON","IA","50208"
408706,"2506 N HYACINTH LANE","WICHITA","KS","67204"
408707,"2506 N HYACINTH","WICHITA","KS","67204"
408708,"2506 N UPSHUR STREET","ARLINGTON","VA","22207"
408709,"2506 NE 8TH STREET","FT LAUDERDALE","FL","33304"
408710,"2506 NE CHEVALIA COURT","GRIMES","IA","50111"
408711,"2506 NELDIA CT","NASHVILLE","TN","37206"
408712,"2506 NORFOLK ST","LOS ANGELES","CA","90033"
408713,"2506 NORMANDY DR APT 207B","GRAND RAPIDS","MI","49506"
408714,"2506 NORTH 2450 EAST","LAYTON","UT","84040"
408715,"2506 NORTH OLD MANOR","WICHITA","KS","67220"
408716,"2506 NORTH TUSTIN AVE UNIT C","SANTA ANA","CA","92705"
408717,"2506 NW 115TH ST","MIAMI","FL","33142"
408718,"2506 OAK ALLEY","MONROE","LA","71201"
408719,"2506 OCOTILLO DRIVE","ALAMOGORDO","NM","88310"
408720,"2506 OLYMPIC","OAK HARBOR","WA","98277"
408721,"2506 PATAGONIA STREET","LEAGUE CITY","TX","77573"
408722,"2506 PEGRAM AVE","AUSTIN","TX","78757"
408723,"2506 PEPPERIDGE DR","KATY","TX","77494"
408724,"2506 PINE VILLAGE DRIVE","HOUSTON","TX","77080"
408725,"2506 PORTER WAY","STOCKTON","CA","95207"
408726,"2506 REGAL OAKS LN","LUTZ","FL","33559"
408727,"2506 REGAL RD","LAGRANGE","KY","40031"
408728,"2506 REVERE BLVD","BRIGANTINE","NJ","08203"
408729,"2506 RIO PINAR LAKES","ORLANDO","FL","32822"
408730,"2506 RIVER ROAD","MISSOULA","MT","59801"
408731,"2506 RIVERTON DRIVE","CONYERS","GA","30013"
408732,"2506 ROSLYN AVENUE","BALTIMORE","MD","21216"
408733,"2506 ROUSE BRANCH RD","LIBERTY","KY","42539"
408734,"2506 S 8TH STREET","MARSHALLTOWN","IA","50158"
408735,"2506 S HILLSBORO AVE","SPRINGFIELD","MO","65804"
408736,"2506 SADDLE LANE","MARION","IL","62959"
408737,"2506 SARASOTA LANE","PANAMA CITY","FL","32405"
408738,"2506 SEIDENBERG AVENUE","KEY WEST","FL","33040"
408739,"2506 SHUMSKY RD","TRAVERSE CITY","MI","49656"
408740,"2506 SMITH HARBOUR DR","DENVER","NC","28037"
408741,"2506 SOUTH HOBSON STREET","PHILADELPHIA","PA","19142"
408742,"2506 STREAM BANK DR","CHARLOTTE","NC","28269"
408743,"2506 SUMMER HAVEN LANE","RICHMOND","AA","77406"
408744,"2506 SUMMER HAVEN LANE","RICHMOND","TX","77406"
408745,"2506 TIMBER TRAIL DRIVE S","COLUMBUS","OH","43224"
408746,"2506 TOP HILL ROAD","LOUISVILLE","KY","40206"
408747,"2506 TRANSIT DR","KILLEEN","TX","76543"
408748,"2506 TRANSOM PL","WOODBRIDGE","VA","22191"
408749,"2506 TREE SUMMIT PKWY","DULUTH","GA","30096"
408750,"2506 URBINO COURT","APEX","NC","27502"
408751,"2506 VAULX LN","NASHVILLE","TN","37204"
408752,"2506 VILLANOVA STREET","ARLINGTON","TX","76018"
408753,"2506 W DUNLAP AVE UNIT 207","PHOENIX","AZ","85021"
408754,"2506 W FLORENTINE RD","PHOENIX","AZ","85086"
408755,"2506 W IMPERIAL","HAWTHORNE","CA","90250"
408756,"2506 W PROSPECT RD","TAMPA","FL","33629"
408757,"2506 W PROSPECT ROAD","TAMPA","FL","33629"
408758,"2506 W SOMERSET ST","PHILADELPHIA","PA","19132"
408759,"2506 WESTOVER RD","AUSTIN","TX","78703"
408760,"2506 WHITE ROAD","NEW HOLLAND","OH","43145"
408761,"2506 WHITEHALL ESTATES DRIVE APT C","CHARLOTTE","NC","28273"
408762,"2506 WHITTIER DRIVE","DAVIS","CA","95618"
408763,"2506 WINDMILL VIEW ROAD","EL CAJON","CA","92020"
408764,"2506 WOOD RIVER PKWY","MANSFIELD","TX","76063"
408765,"2506 WOODLAWN DRIVE","BRISTOL","PA","19007"
408766,"2506 YORKSHIRE DR","HUNTSVILLE","AL","35803"
408767,"2506","OCOCEE","FL","34761"
408768,"25060 COUNTRY WAY","GOSHEN","IN","46526"
408769,"25060 HANCOCK AVE","MURRIETA","CA","92562"
408770,"25061 105TH STREET","COLUMBUS JCT","IA","52738"
408771,"25061 BODEGA CT","HEMET","CA","92544"
408772,"25061 NW 176TH AVE","HIGH SPRINGS","FL","32643"
408773,"25062 MINERAL SPRINGS CIR","STONE RIDGE","VA","20105"
408774,"25062 NW 133RD ROAD","HIGH SPRINGS","FL","32643"
408775,"25062 SOUTH STATE HWY 47","WARRENTON","MO","63383"
408776,"25063 NW 187TH AVE","HIGH SPRINGS","FL","32643"
408777,"25063 SHANNON STREET","HEMPSTEAD","TX","77445"
408778,"25064 SW 123RD PLACE","PRINCETON","FL","33032"
408779,"25064","WILMINGTON","DE","19899"
408780,"25067 ECHO CLIFF RD","MAPLE HILL","KS","66507"
408781,"25068 BLACKBERRY LN","PINE CITY","MN","55063"
408782,"25069 BLUE LOCKSPUR DR","HOLLYWOOD","MD","20636"
408783,"25069 PATRICIA AVENUE","WARREN","MI","48091"
408784,"25069 SNIVELY ROAD","DANVILLE","OH","43014"
408785,"2506H HURSTON LN NE","WASHINGTON","DC","20018"
408786,"2507 12TH AVENUE","MINNEAPOLIS","MN","55404"
408787,"2507 17TH ST","RICE LAKE","WI","54868"
408788,"2507 1ST STREET","EMMETSBURG","IA","50536"
408789,"2507 29 1/2 ST","ROCK ISLAND","IL","61201"
408790,"2507 31ST STREET COURT","ROCK ISLAND","IL","61201"
408791,"2507 3RD STREET NORTHEAST","MINNEAPOLIS","MN","55418"
408792,"2507 ADMIRAL CIR","HAYWARD","CA","94545"
408793,"2507 BARN RD","PASO ROBLES","CA","93446"
408794,"2507 BAY AVENUE","HAMPTON","VA","23661"
408795,"2507 BELMONTS ESTATES AVE A","TAMPA","FL","33610"
408796,"2507 BOULDER SPRINGS POINT","ELLENWOOD","GA","30294"
408797,"2507 BRITANY PARK LN","ELLENWOOD","GA","30294"
408798,"2507 BRITTANY PARK LN","ELLENWOOD","GA","30294"
408799,"2507 BRYANT AVENUE NORTH","MINNEAPOLIS","MN","55411"
408800,"2507 C STREET","EUREKA","CA","95501"
408801,"2507 CALLAWAY ROAD SUITE 200","TALLAHASSEE","FL","32303"
408802,"2507 CANYON RIDGE COURT","ARLINGTON","TX","76006"
408803,"2507 CASCADE DR","AUSTIN","TX","78757"
408804,"2507 CHESSTAL STREET","ST. CHARLES","MO","63301"
408805,"2507 CLOVER RIDGE","LEAGUE CITY","TX","77573"
408806,"2507 CODY POE RD","KILLEEN","TX","76549"
408807,"2507 COHENSEY ST","ROSEVILLE","MN","55113"
408808,"2507 COPA DEL ORO DR","UNION CITY","CA","94587"
408809,"2507 CR 3400","PAWHUSKA","OK","74056"
408810,"2507 DEL SUR","SANTA MARIA","CA","93455"
408811,"2507 DRAMMEN PLACE","HENRICO","VA","23233"
408812,"2507 E 11TH PL","TULSA","OK","74104"
408813,"2507 E 15TH ST 321","LONG BEACH","CA","90804"
408814,"2507 E HUNTINGTON DR","TEMPE","AZ","85282"
408815,"2507 EARLCOVE DR","DALLAS","TX","75227"
408816,"2507 EAST CONQUEST STREET","WICHITA","KS","67219"
408817,"2507 EAST TOP HAT RD","PRINCETON","IN","47670"
408818,"2507 ELM AVENUE","RAPID CITY","SD","57701"
408819,"2507 FALCON LANE","MCALESTER","OK","74501"
408820,"2507 FISH CREEK RD","ESTES PARK","CO","80517"
408821,"2507 FLORENCE RD","SOUTHLAKE","TX","76092"
408822,"2507 FORT MIRO AVE","MONROE","LA","71201"
408823,"2507 FOX RUN DR","SIGNAL MOUNTAIN","TN","37377"
408824,"2507 GIRDWOOD ROAD","TIMONIUM","MD","21093"
408825,"2507 GOLFERS ST","LAS VEGAS","NV","89142"
408826,"2507 HARMONY LANE","ENUMCLAW","WA","98022"
408827,"2507 HARPERS CREEK CT","FRESNO","TX","77545"
408828,"2507 HILLARY TRAIL","MANSFIELD","TX","76063"
408829,"2507 HOPE DRIVE","CONYERS","GA","30094"
408830,"2507 HUGHES AVENUE","BRONX","NY","10458"
408831,"2507 HUGHES COURT","ATLANTA","GA","30331"
408832,"2507 INDIANOLA AVE","COLUMBUS","OH","43202"
408833,"2507 INDIANOLA AVENUE","COLUMBUS","OH","43202"
408834,"2507 KELLY AVE","EXCELSIOR","MN","55331"
408835,"2507 KENSINGTON BLVD","SILVER SPRING","MD","20902"
408836,"2507 KLAMATH COURT","NAMPA","ID","83686"
408837,"2507 LACEWING LN","HOUSTON","TX","77067"
408838,"2507 LAKE CAPRI ROAD","CONYERS","GA","30012"
408839,"2507 LONGBOW DRIVE","BIRMINGHAM","AL","35214"
408840,"2507 LYNN LAKE CIR S APT D","SAINT PETERSBURG","FL","33712"
408841,"2507 LYNN LAKE CIRCLE SOUTH APT C","ST. PETERSBURG","FL","33712"
408842,"2507 MADEWOOD DRIVE","FORT PIERCE","FL","34981"
408843,"2507 MARS","IDAHO FALLS","ID","83402"
408844,"2507 MCCLAUGHLIN ST","MOBILE","AL","36605"
408845,"2507 MCLAUGHLIN DRIVE","MOBILE","AL","36605"
408846,"2507 MILLERS WAY","FITCHBURG","WI","53711"
408847,"2507 MISSUM POINTE","SAN MARCOS","TX","78666"
408848,"2507 MONTA VISTA WAY","ATLANTA","GA","30315"
408849,"2507 MONTA VISTA WAY","HOSCHTON","GA","30548"
408850,"2507 MONTECITO LN","RICHMOND","TX","77406"
408851,"2507 MONTEREY DRIVE","PLAINFIELD","IL","60586"
408852,"2507 MOSS ROAD","VAN BUREN","AR","72956"
408853,"2507 N 100TH TERR","KANSAS CITY","KS","66109"
408854,"2507 N COCOA BLVD","COCOA","FL","32922"
408855,"2507 N HOWARD","SPOKANE","WA","99205"
408856,"2507 NAVARRA DR UNIT 104","CARLSBAD","CA","92009"
408857,"2507 NAVY PLACE","BELLMORE","NY","11710"
408858,"2507 NE 27TH AVE","PORTLAND","OR","97212"
408859,"2507 NW 1ST STREET","CAPE CORAL","FL","33993"
408860,"2507 NW SAVIER ST","PORTLAND","OR","97210"
408861,"2507 OAK LANE","ROLLING MEADOWS","IL","60008"
408862,"2507 OLD TROY PIKE","DAYTON","OH","45404"
408863,"2507 OREGON AVE","ANACORTES","WA","98221"
408864,"2507 PEBBLEBOOK LN","ROLLING MEADOWS","IL","60008"
408865,"2507 PERIWINKLE SPOUT COVE","MOUNT PLEASANT","SC","29466"
408866,"2507 PINE LANE","BARLING","AR","72923"
408867,"2507 PORTER LANE","MINERAL WELLS","TX","76067"
408868,"2507 RAILROAD DR","WILLOW SPRINGS","MO","65793"
408869,"2507 RAINBOW RD","BISMARCK","AR","71929"
408870,"2507 RETTROP DR","MCLEANSVILLE","NC","27301"
408871,"2507 REUBEN BOISE RD","DALLAS","OR","97338"
408872,"2507 REX RD APT 10C","ELLENWOOD","GA","30294"
408873,"2507 REX ROAD","ELLENWOOD,","GA","30294"
408874,"2507 RIO GRANDE DRIVE","MERRILL","WI","54452"
408875,"2507 ROSS AVE","FORT WORTH","TX","76164"
408876,"2507 S PEABODY ST","PORT ANGELES","WA","98362"
408877,"2507 S SAINT LOUIS","CHICAGO","IL","60623"
408878,"2507 SCHLEY AVE","SAN ANTONIO","TX","78210"
408879,"2507 SE 11TH STREET","MINERAL WELLS","TX","76067"
408880,"2507 SE 130TH AVE","PORTLAND","OR","97236"
408881,"2507 SE BLAIRMONT DR","VANCOUVER","WA","98683"
408882,"2507 SKEETER LN","EVANS","GA","30809"
408883,"2507 SOUTH APPLE AVE","MARSHFIELD","WI","54449"
408884,"2507 SPRINGFIELD ST","BISMARCK","ND","58503"
408885,"2507 ST  CHRISTOPHER CIRCLE APT AD","WILSON","NC","27893"
408886,"2507 STONEGATE DRIVE","SEAGOVILLE","TX","75159"
408887,"2507 SUMMER PLACE DRIVE","ARLINGTON","TX","76014"
408888,"2507 SUN VALLEY WAY","FLORHAM PARK","NJ","07932"
408889,"2507 SUNSET DR","CLINTON","OK","73601"
408890,"2507 SW PORTLAND CT","SEATTLE","WA","98106"
408891,"2507 TALBOTT AVE","LOUISVILLE","KY","40205"
408892,"2507 TENNYSON ST","CORSICANA","TX","75110"
408893,"2507 TIMBER LANE DRIVE","ARKANSAS CITY","KS","67005"
408894,"2507 TREFOIL WAY","N CHESTERFIELD","VA","23235"
408895,"2507 TWENTIETH AVE","KINGSBURG","CA","93631"
408896,"2507 UNITY STREET","KLAMATH FALLS","OR","97603"
408897,"2507 UNIVERSITY AVE","DES MOINES","IA","50311"
408898,"2507 W 136TH AVE","BROOMFIELD","CO","80023"
408899,"2507 W 154TH ST","GARDENA","CA","90249"
408900,"2507 W LELAND","CHICAGO","IL","60625"
408901,"2507 WARMHEARTH LOOP","ROSEVILLE","CA","95747"
408902,"2507 WASHINGTON STREET","GREENVILLE","TX","75401"
408903,"2507 WATERFORD DR","SAN ANTONIO","TX","78217"
408904,"2507 WENTWORTH RD","BALTIMORE","MD","21234"
408905,"2507 WEST BROADWAY","MINNEAPOLIS","MN","55411"
408906,"2507 WILLOW GLEN DRIVE","BALTIMORE","MD","21209"
408907,"2507 WOODSORRELL LANE","CHARLOTTE","NC","28213"
408908,"25070 ACORN TRAIL","NOVI","MI","48374"
408909,"25070 MAHALO CIRCLE","MADISON","AL","35756"
408910,"25071 WHISKEY CREEK DRIVE","DETROIT LAKES","MN","56501"
408911,"25073 HWY 85","GAY","GA","30218"
408912,"25074 HUNTER LANE","FLAT ROCK","MI","48134"
408913,"25075  SHAKER BLVD","BEACHWOOD","OH","44122"
408914,"25075 COTTONWOOD AVE","MORENO VALLEY","CA","92553"
408915,"25075 MITCHELL","HEMPSTEAD","TX","77445"
408916,"25078 NOYES AVE","GLENWOOD","IA","51534"
408917,"25079 FRIAR LANE","SOUTHFIELD","MI","48033"
408918,"25079 LORING AVE","WILDOMAR","CA","92595"
408919,"2507ORMOND RUN","MISSOURI CITY","TX","77459"
408920,"2508 -A OLDE OAKS LANE","GREENSBORO","NC","27406"
408921,"2508 133RD LANE NW","ANDOVER","MN","55304"
408922,"2508 14TH ST W","LEHIGH ACRES","GA","33971"
408923,"2508 225TH TRAIL","WINTERSET","IA","50273"
408924,"2508 225TH TRL","WINTERSET","IA","50273"
408925,"2508 38 1/2 AVE S","FARGO","ND","58104"
408926,"2508 3RD AVE","LA CROSSE","WI","54603"
408927,"2508 5 VERONA AVE","SAINT LOUIS","MO","63114"
408928,"2508 5TH AVE","YOUNGSTOWN","OH","44505"
408929,"2508 6TH STREET","MUSKEGON HEIGHTS","MI","49444"
408930,"2508 APRIL LIU LANE APT 401","CHARLOTTE","NC","28213"
408931,"2508 ASHLEY DR","OKLAHOMA CITY","OK","73120"
408932,"2508 ATKINS LANE","HEPHZIBAH","GA","30815"
408933,"2508 AUBURN AVENUE","CINCINNATI","OH","45219"
408934,"2508 AVENUE D APT 19","KATY","TX","77493"
408935,"2508 AVERON DR","FUQUAY VARINA","NC","27526"
408936,"2508 BALSAM COVE RD","NAPERVILLE","IL","60563"
408937,"2508 BITTEL ROAD","OWENSBORO","KY","42301"
408938,"2508 BRAVO AVE","PASADENA","TX","77502"
408939,"2508 BRENTON POINT DRIVE","RESTON","VA","20191"
408940,"2508 BRIERS NORTH DRIVE","DUNWOODY","GA","30360"
408941,"2508 BRITTON ROAD","CRESTON","OH","44217"
408942,"2508 BROOK AVENUE","WICHITA FALLS","TX","76301"
408943,"2508 BROOK HILL CIRCLE","ANCHORAGE","AK","99516"
408944,"2508 BUGLE DR W","CHESAPEAKE","VA","23321"
408945,"2508 BUSHEYWOOD DRIVE","YUKON","OK","73098"
408946,"2508 CALDWELL PARK COURT SE","OWENS CROSS ROADS","AL","35763"
408947,"2508 CARLOS AVE","BIRMINGHAM","AL","35211"
408948,"2508 CEDAR CREEK DRIVE","MOUNT PLEASANT","TX","75455"
408949,"2508 CEDAR CREEK DRIVE","MT PLEASANT","TX","75455"
408950,"2508 CENTERLINE ROAD","CONROE","TX","77384"
408951,"2508 CHAMBERLAYNE AVE","RICHMOND","VA","23222"
408952,"2508 CLINTONVILLE RD","WINCHESTER","KY","40391"
408953,"2508 CORINTH DRIVE","GREENSBORO","NC","27406"
408954,"2508 CORTEZ ST","LAREDO","TX","78043"
408955,"2508 CREEKS EDGE DRIVE","PEARLAND","TX","77581"
408956,"2508 DANA ST","RICHMOND",NA,NA
408957,"2508 DELAWARE ST SE APT 127","MINNEAPOLIS","MN","55414"
408958,"2508 DEPAUW AVENUE","ORLANDO","FL","32804"
408959,"2508 DRACENA DR","RALEIGH","NC","27610"
408960,"2508 E 23RD ST","TUCSON","AZ","85713"
408961,"2508 E 24TH ST","BIG SPRING","TX","79720"
408962,"2508 E FOX FARM","CHEYENNE","WY","82007"
408963,"2508 E JOHNSON APT K-14","JONESBORO","AR","72401"
408964,"2508 E PINE ISLAND LN","PAYSON","AZ","85541"
408965,"2508 E POPLAR COURT","BLOOMINGTON","IN","47401"
408966,"2508 EAST HILLS DRIVE","WILLIAMSPORT","PA","17701"
408967,"2508 EBY DR","CNNERSVILLE","IN","47331"
408968,"2508 EDGEWATER FALLS DRIVE","BRANDON","FL","33511"
408969,"2508 ELIOT PL","TEMPLE HILLS","MD","20748"
408970,"2508 EPPERSON SPRINGS RD","WESTMORELAND","TN","37186"
408971,"2508 FAIRWAY DRIVE","PALATKA","FL","32177"
408972,"2508 FLEET AVENUE","LOUISVILLE","KY","40217"
408973,"2508 FLEETWOOD DRIVE","COLUMBIA","MO","65302"
408974,"2508 FLINT COVE","LEXINGTON","KY","40509"
408975,"2508 FORESTRY ROAD","HENRYVILLE","IN","47126"
408976,"2508 FRONTIER DRIVE","GRAND PRAIRIE","TX","75052"
408977,"2508 GEORGIA AVE","BELLEVUE","NE","68005"
408978,"2508 GINDY DRIVE","BELLEVUE","NE","68147"
408979,"2508 GRAND MISSION WAY","PFLUGERVILLE","TX","78660"
408980,"2508 GRETTA ST NW","ALBUQUERQUE","NM","87122"
408981,"2508 GUY NALL","SEMINOLE","OK","74868"
408982,"2508 HALLQUIST AVE","RED WING","MN","55066"
408983,"2508 HANNAH HAVEN DRIVE","CONYERS","GA","30012"
408984,"2508 HEINE ROAD","CHEWELAH","WA","99109"
408985,"2508 HICKEY STREET","NORTH LAS VEGAS","NV","89030"
408986,"2508 HWY 118","PROVENCAL","LA","71468"
408987,"2508 HYACINTH DR","MESQUITE","TX","75181"
408988,"2508 INDEPENDENCE RD","COLLEYVILLE","TX","76034"
408989,"2508 JOHN HENRY DRIVE","SINKING SPRING","PA","19608"
408990,"2508 KAREN DR","ROCKFORD","IL","61101"
408991,"2508 KISMET ST","MARRERO","LA","70072"
408992,"2508 LALOR ROAD","OREGON","WI","53575"
408993,"2508 LAMP POST COURT","CHESAPEAKE","VA","23325"
408994,"2508 LANCASTER RD","NW WILSON","NC","27896"
408995,"2508 LASSEN BAY PLACE","CHARLOTTE","NC","28215"
408996,"2508 LAUREL STREET","BEAUMONT","TX","77702"
408997,"2508 LAURISTON DRIVE","NORMAN","OK","73072"
408998,"2508 LINDEN AVE","BALTIMORE","MD","21217"
408999,"2508 LINWOOD LANE","WOODBRIDGE","VA","22192"
409000,"2508 LUKE EDWARDS RD","DACULA","GA","30019"
