"ID","Address","City","State","Zip"
985001,"PO BOX 35893","PANAMA CITY","FL","32412"
985002,"PO BOX 359","BIG TIMBER","MT","59011"
985003,"PO BOX 359","DIXFIELD","ME","04224"
985004,"PO BOX 359","GRAND SALINE","TX","75140"
985005,"PO BOX 359","HAILEY","ID","83333"
985006,"PO BOX 359","SALVO","NC","27972"
985007,"PO BOX 359","SHELTER ISLAND","NY","11964"
985008,"PO BOX 359","SNOQUALMIE","WA","98065"
985009,"PO BOX 359","TAHOKA","TX","79373"
985010,"PO BOX 359005","GAINESVILLE","FL","32635"
985011,"PO BOX 359026","GAINESVILLE","FL","32635"
985012,"PO BOX 3591","BOONE","NC","28607"
985013,"PO BOX 3591","SUWANEE","GA","30024"
985014,"PO BOX 3595","VALDOSTA","GA","31604"
985015,"PO BOX 35972","TULSA","OK","74153"
985016,"PO BOX 36","ADIN","CA","96006"
985017,"PO BOX 36","BANGOR","PA","18013"
985018,"PO BOX 36","BIGGSVILLE","IL","61418"
985019,"PO BOX 36","BLACK HAWK","CO","80422"
985020,"PO BOX 36","BROKEN BOW","NE","68822"
985021,"PO BOX 36","BUENA","NJ","08310"
985022,"PO BOX 36","CAMPBELLTON","TX","78008"
985023,"PO BOX 36","CASEY","IA","50048"
985024,"PO BOX 36","CAVE JUNCTION","OR","97523"
985025,"PO BOX 36","CHERRYFIELD","ME","04622"
985026,"PO BOX 36","COWEN","WV","26206"
985027,"PO BOX 36","CYPRESS","TX","77410"
985028,"PO BOX 36","DRASCO","AR","72530"
985029,"PO BOX 36","EAGLE BUTTE","SD","57605"
985030,"PO BOX 36","EDEN","NY","14057"
985031,"PO BOX 36","EL PASO","TX","79940"
985032,"PO BOX 36","EUDORA","KS","66025"
985033,"PO BOX 36","FRANKLIN","NH","03235"
985034,"PO BOX 36","GILBERT","AZ","85299"
985035,"PO BOX 36","GREENSBORO","NC","27402"
985036,"PO BOX 36","HALLANDALE","FL","33008"
985037,"PO BOX 36","HARDIN","MT","59034"
985038,"PO BOX 36","HARRODSBURG","KY","40330"
985039,"PO BOX 36","INGRAM","KY","40955"
985040,"PO BOX 36","JORDANVILLE","NY","13361"
985041,"PO BOX 36","KENT","NY","14477"
985042,"PO BOX 36","LAKE CITY","FL","32056"
985043,"PO BOX 36","LEXINGTON","NY","12492"
985044,"PO BOX 36","LINCOLN","IA","50652"
985045,"PO BOX 36","LONE WOLF","OK","73655"
985046,"PO BOX 36","MT EPHIRAM","NJ","08059"
985047,"PO BOX 36","PHILMONT","NY","12565"
985048,"PO BOX 36","POUND RIDGE","NY","10576"
985049,"PO BOX 36","POWHATAN","AR","72458"
985050,"PO BOX 36","ROUND ROCK","TX","78680"
985051,"PO BOX 36","SALADO","TX","76571"
985052,"PO BOX 36","SHELDON SPRINGS","VT","05485"
985053,"PO BOX 36","STONINGTON","ME","04681"
985054,"PO BOX 36","TIMBO","AR","72680"
985055,"PO BOX 36","TISHOMINGO","OK","73460"
985056,"PO BOX 36","UNDERWOOD","IA","51576"
985057,"PO BOX 36","UNION CITY","GA","30291"
985058,"PO BOX 36","WAPITI","WY","82450"
985059,"PO BOX 36","WEST KILL","NY","12492"
985060,"PO BOX 36","YORK","ME","03909"
985061,"PO BOX 360","DUMAS","TX","79029"
985062,"PO BOX 360","FREDERICKSBURG","VA","22404"
985063,"PO BOX 360","HARDIN","TX","77561"
985064,"PO BOX 360","HILL CITY","SD","57745"
985065,"PO BOX 360","NAALEHU","HI","96772"
985066,"PO BOX 360","NEW YORK","NY","10163"
985067,"PO BOX 360","NIOTA","TN","37826"
985068,"PO BOX 360","UNDERHILL","VT","05489"
985069,"PO Box 360","WRIGHTWOOD","CA","92397"
985070,"PO BOX 360138","STRONGSVILLE","OH","44136"
985071,"PO BOX 3602","POUGHKEEPSIE","NY","12603"
985072,"PO BOX 360218","MELBOURNE","FL","32936"
985073,"PO BOX 3603","WILMINGTON","DE","19807"
985074,"PO BOX 36030","GREENSBORO","NC","27416"
985075,"PO BOX 3604","SEWARD","AK","99664"
985076,"PO BOX 36061","CHARLOTTE","NC","28236"
985077,"PO BOX 36062","GROSSE POINTE FARMS","MI","48236"
985078,"PO BOX 360645","MELBOURNE","FL","32936"
985079,"PO BOX 360671","SAN JUAN","PR","00936"
985080,"PO BOX 36068","INDIANAPOLIAS","IN","46055"
985081,"PO BOX 36077","GREENSBORO","NC","27416"
985082,"PO BOX 360861","MELBOURNE","FL","32936"
985083,"PO BOX 360906","LOS ANGELES","CA","90036"
985084,"PO BOX 360909","DECATUR","GA","30036"
985085,"PO BOX 361","ARCADIA","OK","73007"
985086,"PO BOX 361","BARKHAMSTED","CT","06063"
985087,"PO BOX 361","BONDUEL","WI","54107"
985088,"PO BOX 361","CARSON","WA","98610"
985089,"PO BOX 361","CHECOTAH","OK","74426"
985090,"PO BOX 361","CRESTED BUTTE","CO","81224"
985091,"PO BOX 361","HOLLY","MI","48442"
985092,"PO BOX 361","KAUFMAN","TX","75142"
985093,"PO BOX 361","LEBANON","IN","46052"
985094,"PO BOX 361","MAUGENSVILLE","MD","21767"
985095,"PO BOX 361","MAYSVILLE","WV","26833"
985096,"PO BOX 361","MENTOR","OH","44061"
985097,"PO BOX 361","MONROE","WA","98272"
985098,"PO BOX 361","NICHOLASVILLE","KY","40340"
985099,"PO BOX 361","NORTHFORK","WV","24868"
985100,"PO BOX 361","PROSSER","WA","99350"
985101,"PO BOX 361","SCOTLAND","PA","17254"
985102,"PO BOX 361","WHITESBURG","GA","30185"
985103,"PO BOX 361","WINTER PARK","CO","80482"
985104,"PO BOX 3610","INCLINE VILLAGE","NV","89450"
985105,"PO BOX 3610","PINEHURST","NC","28374"
985106,"PO BOX 36101","GREENSBORO","NC","27416"
985107,"PO BOX 361029","DACATUR","GA","30036"
985108,"PO BOX 3611","ENGLEWOOD","CO","80155"
985109,"PO BOX 36112","DENVER","CO","80236"
985110,"PO BOX 361158","STRONGSVILLE","OH","44136"
985111,"PO BOX 36123","ALBUQUERQUE","NM","87176"
985112,"PO BOX 361416","MELBOURNE","FL","32936"
985113,"PO BOX 36144","LOUISVILLE","KY","40233"
985114,"PO BOX 361483","LOS ANGELES","CA","90036"
985115,"PO BOX 361503","DECATUR","GA","30036"
985116,"PO BOX 361895","DECATUR","GA","30036"
985117,"PO BOX 361969","DECATUR","GA","30034"
985118,"PO BOX 362","ADAMSTOWN","PA","19501"
985119,"PO BOX 362","ALBURGH","VT","05440"
985120,"PO BOX 362","BALATON","MN","56115"
985121,"PO BOX 362","BELLE","MO","65013"
985122,"PO BOX 362","BOVINA","TX","79009"
985123,"PO BOX 362","CADDO MILLS","TX","75135"
985124,"PO BOX 362","CALHOUN","GA","30703"
985125,"PO BOX 362","CATAUMET","MA","02534"
985126,"PO BOX 362","ELKO","NV","89803"
985127,"PO BOX 362","FITZGERALD","GA","31750"
985128,"PO BOX 362","HALIFAX","NC","24558"
985129,"PO BOX 362","HALIFAX","VA","24558"
985130,"PO BOX 362","HARPERS FERRY","WV","25425"
985131,"PO BOX 362","HAWTHORNE","NJ","07507"
985132,"PO BOX 362","HERON LAKE","MN","56137"
985133,"PO BOX 362","KIMMER","WY","82576"
985134,"PO BOX 362","LEXINGTON","TX","78947"
985135,"PO BOX 362","MIDDLEFIELD","OH","44062"
985136,"PO BOX 362","NINETY SIZ","SC","29666"
985137,"PO BOX 362","RACINE","OH","45771"
985138,"PO BOX 362","ROWLETT","TX","75030"
985139,"PO BOX 362","SAN DIMAS","CA","91773"
985140,"PO BOX 362","SHOSHONI","WY","82649"
985141,"PO BOX 362","SOUTH CHARLESON","OH","45368"
985142,"PO BOX 362","WRANGELL","AK","99929"
985143,"PO BOX 36202","CINCINNATI","OH","45236"
985144,"PO BOX 362034","SAN JUAN","PR","00936"
985145,"PO BOX 362038","DECATUR","GA","30034"
985146,"PO BOX 36211","SAN JOSE","CA","95158"
985147,"PO BOX 362151","BIRMINGHAM","AL","35236"
985148,"PO BOX 362331","MILPITAS","CA","95036"
985149,"PO BOX 362351","SAN JUAN","PR","00936"
985150,"PO BOX 3624","JACKSON","WY","83001"
985151,"PO BOX 362573","SAN JUAN","PR","00936"
985152,"PO BOX 3627","HIGHLAND PARK","MI","48203"
985153,"PO BOX 3628","MARTINSVILLE","VA","24115"
985154,"PO BOX 362855","SAN JUAN","PR","00936"
985155,"PO BOX 3629","SUNRIVER","OR","97707"
985156,"PO BOX 363","BARTLESVILLE","OK","74005"
985157,"PO BOX 363","CLIFTON PARK","NY","12065"
985158,"PO BOX 363","COBDEN","IL","62920"
985159,"PO BOX 363","DUMAS","TX","79029"
985160,"PO BOX 363","HARRODSBURG","KY","40330"
985161,"PO BOX 363","HAYFIELD","MN","55940"
985162,"PO BOX 363","LOUISBURG","NC","27549"
985163,"PO BOX 363","MELVIN VILLAGE","NH","03850"
985164,"PO BOX 363","MISSOURI CITY","TX","77459"
985165,"PO BOX 363","PALMER","AK","99645"
985166,"PO BOX 363","PALOUSE","WA","99161"
985167,"PO BOX 363","STAR CITY","AR","71667"
985168,"PO BOX 363","TOLLESBORO","KY","44189"
985169,"PO BOX 363","VAUGHN","WA","98394"
985170,"PO BOX 363","ZIONSVILLE","IN","46077"
985171,"PO BOX 363086","SAN JUAN","PR","00936"
985172,"PO BOX 363162","NORTH LAS VEGAS","NV","89036"
985173,"PO BOX 363183","NORTH LAS VEGAS","NV","89131"
985174,"PO BOX 3632","NAMPA","ID","83653"
985175,"PO BOX 3633","ARIZONA CITY","AZ","85123"
985176,"PO BOX 3633","HUNTINGTON BEACH","CA","92605"
985177,"PO BOX 36341","DES MOINES","IA","50315"
985178,"PO BOX 3635","HUNTSVILLE","AL","35810"
985179,"PO BOX 3635","QUINLAN","TX","75474"
985180,"PO BOX 36354","GROSSE POINTE FARMS","MI","48236"
985181,"PO BOX 3636","AMARILLO","TX","79116"
985182,"PO BOX 3636","GRAPEVINE","TX","76099"
985183,"PO BOX 3636","KETCHUM","ID","83340"
985184,"PO BOX 3636","PHILADELPHIA","PA","19122"
985185,"PO BOX 3638","BRANDON","FL","33509"
985186,"PO BOX 3638","MIDWAY","KY","40347"
985187,"PO BOX 36382","LOUISVILLE","KY","40232"
985188,"PO BOX 364","BATTLE GROUND","WA","98604"
985189,"PO BOX 364","BURNS","OR","97720"
985190,"PO BOX 364","CANTON","TX","75103"
985191,"PO BOX 364","CHINCHILLA","PA","18410"
985192,"PO BOX 364","DAWSON","IL","62520"
985193,"PO BOX 364","FARMERVILLE","LA","71241"
985194,"PO BOX 364","GOLIAD","TX","77963"
985195,"PO BOX 364","GUILFORD","ME","04443"
985196,"PO BOX 364","JAMISON","PA","18929"
985197,"PO BOX 364","MAXWELL","IA","50161"
985198,"PO BOX 364","MORA","NM","87732"
985199,"PO BOX 364","NORTH MANCHESTER","IN","46962"
985200,"PO BOX 364","NOWATA","OK","74053"
985201,"PO BOX 364","NYACK","NY","10960"
985202,"PO BOX 364","OOLOGAH","OK","74053"
985203,"PO BOX 364","ORGAN","NM","88052"
985204,"PO BOX 364","OURAY","CO","81427"
985205,"PO BOX 364","OWINGS","MD","20736"
985206,"PO BOX 364","PABLO","MT","59855"
985207,"PO BOX 364","PALOUSE","WA","99161"
985208,"PO BOX 364","ROSEVILLE","MI","48066"
985209,"PO BOX 364","SENOIA","GA","30276"
985210,"PO BOX 364","TISHOMINGO","OK","73460"
985211,"PO BOX 364","VACAVILLE","CA","95696"
985212,"PO BOX 364","VALDOSTA","GA","31601"
985213,"PO BOX 364","WACO","NC","28120"
985214,"PO BOX 364","WACO","NC","28169"
985215,"PO BOX 364","YAMHILL","OR","97148"
985216,"PO BOX 364014","NORTH LAS VEGAS","NV","89036"
985217,"PO BOX 36402","CINCINNATI","OH","45236"
985218,"PO BOX 36403","DENVER","CO","80236"
985219,"PO BOX 364087","SAN JUAN","PR","00936"
985220,"PO BOX 364148","SAN JUAN","PR","00936"
985221,"PO BOX 36442","CHARLOTTE","NC","28236"
985222,"PO BOX 364433","NORTH LAS VEGAS","NV","89036"
985223,"PO BOX 364447","SAN JUAN","PR","00936"
985224,"PO BOX 3645","SIERRA VISTA","AZ","85636"
985225,"PO BOX 3646","PHOENIX","AZ","85030"
985226,"PO BOX 3648","WENATCHEE","WA","98807"
985227,"PO BOX 365","AMSTERDAM","NY","12010"
985228,"PO BOX 365","BATESVILLE","IN","47006"
985229,"PO BOX 365","CATAUMET","MA","02534"
985230,"PO BOX 365","CHAUMONT","NY","13622"
985231,"PO BOX 365","CHESTERTOWN","NY","12817"
985232,"PO BOX 365","COEUR D ALENE","ID","83816"
985233,"PO BOX 365","GLOBE","AZ","85502"
985234,"PO BOX 365","HARTSHORNE","OK","74547"
985235,"PO BOX 365","HOLYOKE","CO","80734"
985236,"PO BOX 365","KNIGHTS LANDING","CA","95645"
985237,"PO BOX 365","LAWTON","OK","73502"
985238,"PO BOX 365","LITTLEROCK","CA","93543"
985239,"PO BOX 365","LITTLETON","NC","27850"
985240,"PO BOX 365","MABLETON","GA","30126"
985241,"PO BOX 365","MATHER","PA","15346"
985242,"PO BOX 365","PETERSBURG","AK","99833"
985243,"PO BOX 365","SILVERTON","CO","81433"
985244,"PO BOX 365","SOMERS","MT","59932"
985245,"PO BOX 365","SOUTH HERO","VT","05486"
985246,"PO BOX 365","TUNKHANNOCK","PA","18657"
985247,"PO BOX 365","VAIL","CO","81658"
985248,"PO BOX 3650","LIHUE","HI","96766"
985249,"PO BOX 3650","OXFORD","AL","36203"
985250,"PO BOX 3650","WRIGHTWOOD","CA","92397"
985251,"PO BOX 3651","LAKE JACKSON","TX","77566"
985252,"PO BOX 3652","SILVER SPRING","MD","20918"
985253,"PO BOX 3652","VIRGINIA BEACH","VA","23454"
985254,"PO BOX 3652","WILMINGTON","NC","28406"
985255,"PO BOX 3653","LEWISTOWN","MT","59457"
985256,"PO BOX 3653","SAN ANGELO","TX","76902"
985257,"PO BOX 3657","MANKATO","MN","56001"
985258,"PO BOX 36575","ROCK HILL","SC","29732"
985259,"PO BOX 366","BERLIN","NY","12022"
985260,"PO BOX 366","CAPON BRIDGE","WV","26711"
985261,"PO BOX 366","COKATO","MN","55321"
985262,"PO BOX 366","COLUMBIA STATION","OH","44028"
985263,"PO BOX 366","CROWS LANDING","CA","95313"
985264,"PO BOX 366","DILLON","MT","59725"
985265,"PO BOX 366","FINLEY","TN","38030"
985266,"PO BOX 366","GOLDTHWAITE","TX","76844"
985267,"PO BOX 366","HAMBURG","AR","71646"
985268,"PO BOX 366","IVY","VA","22945"
985269,"PO BOX 366","KALISPELL","MT","59912"
985270,"PO BOX 366","LA JARA","CO","81140"
985271,"PO BOX 366","LOUISE","TX","77455"
985272,"PO BOX 366","MAVISDALE","VA","24627"
985273,"PO BOX 366","MILLBROOK","NY","12545"
985274,"PO BOX 366","PENN VALLEY","CA","95946"
985275,"PO BOX 366","PLAINS","TX","79355"
985276,"PO BOX 366","RAYMOND","NH","03077"
985277,"PO BOX 366","ROCKSPRINGD","TX","78880"
985278,"PO BOX 366","ROSWELL","NM","88202"
985279,"PO BOX 366","TAOS PUEBLO","NM","87571"
985280,"PO BOX 366","VAN BUREN","IN","46991"
985281,"PO BOX 366","WHEELERSBURG","OH","45694"
985282,"PO BOX 3660","ROSWELL","NM","88202"
985283,"PO BOX 366116","BONITA SPRINGS","FL","34136"
985284,"PO BOX 36612","SAN JUAN","PR","00936"
985285,"PO BOX 366252","SAN JUAN","PR","00936"
985286,"PO BOX 3663","MORIARTY","NM","87035"
985287,"PO BOX 3663","PAGO PAGO","AS","96799"
985288,"PO BOX 3664","BEVERLY HILLS","CA","90210"
985289,"PO BOX 366407","SAN JUAN","PR","00936"
985290,"PO BOX 3665","GREAT FALLS","MT","59403"
985291,"PO BOX 3665","SAN LEANDRO","CA","94578"
985292,"PO BOX 3666","SEWARD","AK","99664"
985293,"PO BOX 3667","MIDWAY","KY","40347"
985294,"PO BOX 366815","SAN JUAN","PR","00936"
985295,"PO BOX 3669","BIG SPRING","TX","79721"
985296,"PO BOX 3669","TRUCKEE","CA","96160"
985297,"PO BOX 36692","PHOENIX","AZ","85067"
985298,"PO BOX 367","ALBURNETT","IA","52202"
985299,"PO BOX 367","BERRYVILLE","AR","72616"
985300,"PO BOX 367","CALAIS","ME","04619"
985301,"PO BOX 367","CHOTEAU","MT","59422"
985302,"PO BOX 367","COLUMBIA","CA","95310"
985303,"PO BOX 367","EAST WINTHROP","ME","04343"
985304,"PO BOX 367","HERNANDO","FL","34441"
985305,"PO BOX 367","KAILUA KONA","HI","96740"
985306,"PO BOX 367","KOLOA","HI","96756"
985307,"PO BOX 367","LUVERNE","AL","36049"
985308,"PO BOX 367","MILLBROOK","AL","36054"
985309,"PO BOX 367","NAPLES","TX","75568"
985310,"PO BOX 367","OAKRIDGE","OR","97463"
985311,"PO BOX 367","PALMYRA","WI","53156"
985312,"PO BOX 367","RIDGE","NY","11961"
985313,"PO BOX 367","TURKEY CREEK","LA","70585"
985314,"PO BOX 367","WASECA","MN","56093"
985315,"PO BOX 367","WINTERS","CA","95694"
985316,"PO BOX 3670","SANTA CRUZ","CA","95063"
985317,"PO BOX 3673","FORT PIERCE","FL","34948"
985318,"PO BOX 36735","RICHMOND","VA","23235"
985319,"PO BOX 367362","SAN JUAN","PR","00936"
985320,"PO BOX 3674","BROKEN ARROW","OK","74013"
985321,"PO BOX 36741","DES MOINES","IA","50315"
985322,"PO BOX 367511","BONITA SPRINGS","FL","34136"
985323,"PO BOX 3676","ABILENE","TX","79604"
985324,"PO BOX 36782","CANTON","OH","44735"
985325,"PO BOX 36782","LOS ANGELES","CA","90036"
985326,"PO BOX 368","ALPHARETTA","GA","30009"
985327,"PO BOX 368","BIG PINEY","WY","83113"
985328,"PO BOX 368","BRADDOCK","PA","15104"
985329,"PO BOX 368","FRENCH GULCH","CA","96033"
985330,"PO BOX 368","HEBRON","NH","03241"
985331,"PO BOX 368","HELIX","OR","97835"
985332,"PO BOX 368","JENKS","OK","74037"
985333,"PO BOX 368","LEAVENWORTH","WA","98826"
985334,"PO BOX 368","MAUPIN","OR","97037"
985335,"PO BOX 368","MELBOURNE","AR","72556"
985336,"PO BOX 368","MINCO","OK","73059"
985337,"PO BOX 368","MURPHYS","CA","95247"
985338,"PO BOX 368","PEARCY","AR","71964"
985339,"PO BOX 368","PRINCETON","MN","55371"
985340,"PO BOX 368","REDWOOD VALLEY","CA","95470"
985341,"PO BOX 368","ROSEVILLE","NC","27571"
985342,"PO BOX 368","SCOBEY","MT","59263"
985343,"PO BOX 3680","VISALIA","CA","93278"
985344,"PO BOX 368058","SAN JUAN","PR","00936"
985345,"PO BOX 36817","ROCK HILL","SC","29732"
985346,"PO BOX 36819","HOUSTON","TX","77234"
985347,"PO BOX 3682","PAGO PAGO","AS","96799"
985348,"PO BOX 3683","MANHATTAN BEACH","CA","90266"
985349,"PO BOX 36836","LOS ANGELES","CA","90036"
985350,"PO BOX 3686","OCALA","FL","34478"
985351,"PO BOX 3686","OCALA","FL","34486"
985352,"PO BOX 3687","CLEBURNE","TX","76033"
985353,"PO BOX 3687","TONOPAH","NV","89049"
985354,"PO BOX 3689","ALPINE","WY","83128"
985355,"PO BOX 369","BIG SANDY","TX","75755"
985356,"PO BOX 369","BRAWLEY","CA","92227"
985357,"PO BOX 369","CONTOOCOOK","NH","03229"
985358,"PO BOX 369","DECATUR","AL","35602"
985359,"PO BOX 369","FAIRHOPE","AL","36533"
985360,"PO BOX 369","FIDDLETOWN","CA","95629"
985361,"PO BOX 369","GLENEDEN BEACH","OR","97388"
985362,"PO BOX 369","HOCKLEY","TX","77447"
985363,"PO BOX 369","HUNDRED","WV","26575"
985364,"PO BOX 369","INDIANOLA","MS","38751"
985365,"PO BOX 369","LAPORTE","CO","80535"
985366,"PO BOX 369","MEDFORD","OR","97501"
985367,"PO BOX 369","MT. PLEASANT","TN","38474"
985368,"PO BOX 369","SELAH","WA","98942"
985369,"PO BOX 369","SISTERS","OR","97759"
985370,"PO BOX 369","TONTO BASIN","AZ","85553"
985371,"PO BOX 369","WATERBURY CENTER","VT","05677"
985372,"PO BOX 3691","IRMO","SC","29063"
985373,"PO BOX 3691","LAWRENCEBURG","IN","47025"
985374,"PO BOX 36928","GROSSE POINTE","MI","48230"
985375,"PO BOX 3693","LISLE","IL","60532"
985376,"PO BOX 3693","REDWOOD CITY","CA","94064"
985377,"PO BOX 3693","TORRANCE","CA","90510"
985378,"PO BOX 36931","PANAMA CITY","FL","32412"
985379,"PO BOX 3694","GALLUP","NM","87305"
985380,"PO BOX 3694","LA HABRA","CA","90638"
985381,"PO BOX 3697","AUBURN","ME","04212"
985382,"PO BOX 3699","ARIZONA CITY","AZ","85123"
985383,"PO BOX 3699","TUBA CITY","AZ","86045"
985384,"PO BOX 37 702 N SPRING","MARFA","TX","79843"
985385,"PO BOX 37 CENTRAL AVE","BARBOURSVILLE","WV","25504"
985386,"PO BOX 37","ADEL","OR","97620"
985387,"PO BOX 37","ALGER","MI","48116"
985388,"PO BOX 37","ALLEN","NE","68710"
985389,"PO BOX 37","BOURNEVILLE","OH","45617"
985390,"PO BOX 37","BURLEY","WA","98322"
985391,"PO BOX 37","CARVER","MN","55315"
985392,"PO BOX 37","CLARKSTON","WA","99403"
985393,"PO BOX 37","CRESTED BUTTE","CO","81224"
985394,"PO BOX 37","DEXTER","MI","48130"
985395,"PO BOX 37","EASTON","MN","56025"
985396,"PO BOX 37","ELEELE","HI","96705"
985397,"PO BOX 37","FALLSTON","NC","28042"
985398,"PO BOX 37","GLASSBORO","NJ","08028"
985399,"PO BOX 37","GREENFIELD","OH","45123"
985400,"PO BOX 37","HARLOWTON","MT","59036"
985401,"PO BOX 37","HEBRON","NH","03241"
985402,"PO BOX 37","MARIETTA","OK","73448"
985403,"PO BOX 37","MCHENRY","MD","21541"
985404,"PO BOX 37","MIDDLETOWN","CA","95461"
985405,"PO BOX 37","MORGANTOWN","IN","46160"
985406,"PO BOX 37","MOYOCK","NC","27958"
985407,"PO BOX 37","NORA SPRINGS","IA","50458"
985408,"PO BOX 37","NORTH GRANBY","CT","06060"
985409,"PO BOX 37","OCCIDENTAL","CA","95465"
985410,"PO BOX 37","ONTARIO","OR","97914"
985411,"PO BOX 37","PANHANDLE","TX","79068"
985412,"PO BOX 37","PENN VALLEY","CA","95946"
985413,"PO BOX 37","PORT HADLOCK","WA","98339"
985414,"PO BOX 37","RAINBOW","TX","76077"
985415,"PO BOX 37","RISING STAR","TX","76471"
985416,"PO BOX 37","RODUCO","NC","27969"
985417,"PO BOX 37","SHADY SIDE","MD","20764"
985418,"PO BOX 37","SHERWOOD","MI","49089"
985419,"PO BOX 37","SPENCER","SD","57374"
985420,"PO BOX 37","STILLWATER","ME","04489"
985421,"PO BOX 37","THOMPSON FALLS","MT","59873"
985422,"PO BOX 37","TONAWANDA","NY","14150"
985423,"PO BOX 37","TONAWNDA","NY","14150"
985424,"PO BOX 37","TROUT CREEK","MT","59874"
985425,"PO BOX 37","VIRGINIA CITY","NV","89440"
985426,"PO BOX 37","WAVERLY","MN","55390"
985427,"PO BOX 37","WINNETT","MT","59087"
985428,"PO BOX 37","WOODLAND PARK","CO","80866"
985429,"PO BOX 370","BETHLEHEM","NH","03574"
985430,"PO BOX 370","COLFAX","WI","54730"
985431,"PO BOX 370","EDGEWOOD","NM","87015"
985432,"PO BOX 370","GAINESVILLE","GA","30503"
985433,"PO BOX 370","GLADE SPRING","VA","24340"
985434,"PO BOX 370","LEAKEY","TX","78873"
985435,"PO BOX 370","MARS HILL","NC","28754"
985436,"PO BOX 370","NORTH MANCHESTER","IN","46962"
985437,"PO BOX 370","REDWAY","CA","95560"
985438,"PO BOX 370","TIGER","GA","30576"
985439,"PO BOX 370","TIMBERON","NM","88350"
985440,"PO BOX 370","WALWORTH","WI","53184"
985441,"PO BOX 370","WILLIAMS BAY","WI","53191"
985442,"PO BOX 370003","LAS VEGAS","NV","89137"
985443,"PO BOX 370015","DENVER","CO","80237"
985444,"PO BOX 37003","DECATUR","GA","30037"
985445,"PO BOX 370042","DECATUR","GA","30037"
985446,"PO BOX 370066","MAPLE HEIGHTS","OH","44137"
985447,"PO BOX 370069","MONTARA","CA","94037"
985448,"PO BOX 370121","LAS VEGAS","NV","89124"
985449,"PO BOX 370141","DENVER","CO","80237"
985450,"PO BOX 370185","KEY LARGO","FL","33037"
985451,"PO BOX 3702","MERCED","CA","95344"
985452,"PO BOX 37025","FT WORTH","TX","76117"
985453,"PO BOX 370250","DENVER","CO","80237"
985454,"PO BOX 370294","MONTARA","CA","94037"
985455,"PO BOX 370325","WEST HARTFORD","CT","06117"
985456,"PO BOX 370343","DENVER","CO","80237"
985457,"PO BOX 370454","MIAMI","FL","33137"
985458,"PO BOX 3705","SANTA ANA","CA","92703"
985459,"PO BOX 370541","KEY LARGO","FL","33037"
985460,"PO BOX 370584","RESEDA","CA","91335"
985461,"PO BOX 370627","DENVER","CO","80237"
985462,"PO BOX 370690","DENVER","CO","80237"
985463,"PO BOX 3707 MC 06-90","SEATTLE","WA","98124"
985464,"PO BOX 3707 MC 08-90","SEATTLE","WA","98124"
985465,"PO BOX 3707 MC 42-31","SEATTLE","WA","98124"
985466,"PO BOX 3707","SEATTLE","WA","98124"
985467,"PO BOX 3707","TONOPAH","NV","89049"
985468,"PO BOX 370750","DENVER","CO","80207"
985469,"PO BOX 3708","EL PASO","TX","79923"
985470,"PO BOX 370818","LAS VEGAS","NV","89137"
985471,"PO BOX 37083","RALEIGH","NC","27627"
985472,"PO BOX 370871","DENVER","CO","80237"
985473,"PO BOX 370913","MONTARA","CA","94037"
985474,"PO BOX 370976","CAYEY","PR","00737"
985475,"PO BOX 370984","DECATUR","GA","30037"
985476,"PO BOX 371 KXA","KASAAN","AK","99950"
985477,"PO BOX 371","ALTO","NM","88312"
985478,"PO BOX 371","AMESBURY","MA","01913"
985479,"PO BOX 371","ARCADIA","FL","34265"
985480,"PO BOX 371","BLACK RIVER FALLS","WI","54615"
985481,"PO BOX 371","DUMFRIES","VA","22026"
985482,"PO BOX 371","EAGLE","NE","68347"
985483,"PO BOX 371","ENGLEWOOD","OH","45322"
985484,"PO BOX 371","HANALEI","HI","96714"
985485,"PO BOX 371","HARDIN","MT","59034"
985486,"PO BOX 371","HAWTHORNE","NV","89415"
985487,"PO BOX 371","INDEPENDENCE","KS","67301"
985488,"PO BOX 371","JACKSON","GA","30233"
985489,"PO BOX 371","LANCASTER","KY","40444"
985490,"PO BOX 371","MARION","SD","57043"
985491,"PO BOX 371","MECHANICSVILLE","VA","23111"
985492,"PO BOX 371","NASHVILLE","IN","47448"
985493,"PO BOX 371","PATEROS","WA","98846"
985494,"PO BOX 371","POLACCA","AZ","86042"
985495,"PO BOX 371","PORT EWEN","NY","12466"
985496,"PO BOX 371","PRINEVILLE","OR","97754"
985497,"PO BOX 371","RED RIVER","NM","87558"
985498,"PO BOX 371","SALADO","TX","76571"
985499,"PO BOX 371","SANDPOINT","ID","83864"
985500,"PO BOX 371","VIEQUES","PR","00765"
