"ID","Address","City","State","Zip"
971501,"PO BOX 1273","ASTORIA","OR","97103"
971502,"PO BOX 1273","BONDALL","CA","92003"
971503,"PO BOX 1273","CONNELL","WA","99326"
971504,"PO BOX 1273","CRESTONE","CO","81131"
971505,"PO BOX 1273","FOND DU LAC","WI","54936"
971506,"PO BOX 1273","KILAUEA","HI","96754"
971507,"PO BOX 1273","LAKESIDE","AZ","85929"
971508,"PO BOX 1273","LEADVILLE","CO","80461"
971509,"PO BOX 1273","YUCCA VALLEY","CA","98226"
971510,"PO BOX 12735","YUMA","AZ","85365"
971511,"PO BOX 12738","OLYMPIA","WA","98508"
971512,"PO BOX 1274","ADDISON","TX","75001"
971513,"PO BOX 1274","ELLENSBURG","WA","98926"
971514,"PO BOX 1274","MURPHYSBORO","IL","62966"
971515,"PO BOX 1274","POLSON","MT","59860"
971516,"PO BOX 1274","TALKEETNA","AK","99676"
971517,"PO BOX 1274","TRUCKEE","CA","96160"
971518,"PO BOX 1275","BERNALILLO","NM","87004"
971519,"PO BOX 1275","BRYSON CITY","NC","28713"
971520,"PO BOX 1275","DAUPHIN ISLAND","AL","36528"
971521,"PO BOX 1275","PAONIA","CO","81428"
971522,"PO BOX 12754","GAINESVILLE","FL","32604"
971523,"PO BOX 12756","NEW BERN","NC","28562"
971524,"PO BOX 1276","SARATOGA","WY","82331"
971525,"PO BOX 1276","WICHITA","KS","67201"
971526,"PO BOX 12762","RALEIGH","NC","27605"
971527,"PO BOX 12768","ROCHESTER","NY","14612"
971528,"PO BOX 1277","BRECKENRIDGE","CO","80424"
971529,"PO BOX 1277","CLAYTON","CA","94517"
971530,"PO BOX 12771","WILMINGTON","NC","28405"
971531,"PO BOX 12774","TALLAHASSEE","FL","32317"
971532,"PO BOX 12778","NORFOLK","VA","23541"
971533,"PO BOX 1278","BAKER","MT","59313"
971534,"PO BOX 1278","DRIGGS","ID","83422"
971535,"PO BOX 1278","LINCOLNTON","NC","28093"
971536,"PO BOX 1278","SCAPPOOSE","OR","97056"
971537,"PO BOX 12780","ALEXANDRIA","LA","71315"
971538,"PO BOX 128","BANNOCK","OH","43972"
971539,"PO BOX 128","BOYES","MT","59316"
971540,"PO BOX 128","BURDEN","KS","67019"
971541,"PO BOX 128","CARBONDALE","CO","81623"
971542,"PO BOX 128","CLEAR LAKE","WA","98235"
971543,"PO BOX 128","CONNELL","WA","99326"
971544,"PO BOX 128","ESSEX","MO","63846"
971545,"PO BOX 128","FLOYDADA","TX","79235"
971546,"PO BOX 128","HACHITA","NM","88040"
971547,"PO BOX 128","HARTLINE","WA","99135"
971548,"PO BOX 128","HAVANA","FL","32333"
971549,"PO BOX 128","HINES","OR","97738"
971550,"PO BOX 128","HORSESHOE","NC","28742"
971551,"PO BOX 128","LAS VEGAS","NM","87701"
971552,"PO BOX 128","LEWISBURG","PA","17837"
971553,"PO BOX 128","LOUISBURG","KS","66053"
971554,"PO BOX 128","MASTIC BEACH","NY","11951"
971555,"PO BOX 128","MCCALL","ID","83638"
971556,"PO BOX 128","MERSHON","GA","31551"
971557,"PO BOX 128","MIDFIELD","TX","76063"
971558,"PO BOX 128","MIDFIELD","TX","77458"
971559,"PO BOX 128","MORIAH","NY","12960"
971560,"PO BOX 128","NEW RICHMOND","OH","46157"
971561,"PO BOX 128","NORIAH","NY","12960"
971562,"PO BOX 128","ODESSA","DE","19730"
971563,"PO BOX 128","PLEASANTVILLE","NY","10570"
971564,"PO BOX 128","RACINE","WV","25165"
971565,"PO BOX 128","ROANOKE","TX","76262"
971566,"PO BOX 128","ROCKSPRINGS","TX","78880"
971567,"PO BOX 128","SANGERVILLE","ME","04479"
971568,"PO BOX 128","SAYREVILLE","NJ","08871"
971569,"PO BOX 128","SILVERTON","OR","97381"
971570,"PO BOX 128","SMITHVILLE","MO","64089"
971571,"PO BOX 128","SNELLVILLE","GA","30078"
971572,"PO BOX 12804","ROANOKE","VA","24028"
971573,"PO BOX 12809","SAN DIEGO","CA","92112"
971574,"PO BOX 1281","BELLMAWR","NJ","08099"
971575,"PO BOX 1281","DILLON","SC","29536"
971576,"PO BOX 12813","BEAUMONT","TX","77726"
971577,"PO BOX 1282","GLENDIVE","MT","59330"
971578,"PO BOX 1282","PERRIS","CA","92572"
971579,"PO BOX 1282","WALKERTOWN","NC","27051"
971580,"PO BOX 1282","WEST POINT","CA","95255"
971581,"PO BOX 128201","NASHVILLE","TN","37212"
971582,"PO BOX 1283","ANN ARBOR","MI","48106"
971583,"PO BOX 1283","DAHLGREN","VA","22448"
971584,"PO BOX 1283","EAST STROUDSBURG","PA","18301"
971585,"PO BOX 1283","EL CAJON","CA","92022"
971586,"PO BOX 1283","LOUISVILLE","KY","42419"
971587,"PO BOX 1283","STOWE","VT","05672"
971588,"PO BOX 1284","CASPER","WY","82602"
971589,"PO BOX 1284","COTTONWOOD","AZ","86326"
971590,"PO BOX 1284","FREER","TX","78357"
971591,"PO BOX 1284","GIDDINGS","TX","78942"
971592,"PO BOX 1284","HARTWELL","GA","30643"
971593,"PO BOX 1284","LADSON","SC","29456"
971594,"PO BOX 1284","MASON","TX","76856"
971595,"PO BOX 1284","RUTHER GLEN","VA","22546"
971596,"PO BOX 1284","WHITEHOUSE","TX","75791"
971597,"PO BOX 1285","OURAY","CO","81427"
971598,"PO BOX 1286","ANAHEIM","CA","92815"
971599,"PO BOX 1286","CALDWELL","TX","77836"
971600,"PO BOX 1286","LYTLE","TX","78052"
971601,"PO BOX 1286","MOUNT GILEAD","NC","27306"
971602,"PO BOX 1286","ODEM","TX","78370"
971603,"PO BOX 12861","TALLAHASSEE","FL","32317"
971604,"PO BOX 1287","ALAMEDA","CA","94501"
971605,"PO BOX 1287","EULESS","TX","76039"
971606,"PO BOX 1287","EULESS","TX","76040"
971607,"PO BOX 1287","NAPLES","FL","34106"
971608,"PO BOX 1287","NEW ULM","TX","78950"
971609,"PO BOX 1287","OAKWOOD","GA","30566"
971610,"PO BOX 1287","ORANGEBURG","SC","29116"
971611,"PO BOX 12873","GAINESVILLE","FL","32604"
971612,"PO BOX 12874","FLORENCE","SC","29504"
971613,"PO BOX 1288","BLUE HILL","ME","04614"
971614,"PO BOX 1288","SHELBYVILLE","KY","40066"
971615,"PO BOX 12882","RENO","NV","89510"
971616,"PO BOX 12887","DURHAM","NC","27709"
971617,"PO BOX 1289","HEREFORD","AZ","85615"
971618,"PO BOX 1289","PEMBROKE","NC","28372"
971619,"PO BOX 1289","SAUGUS","MA","01906"
971620,"PO BOX 1289","TELLURIDE","CO","81435"
971621,"PO BOX 129","ALLEN","TX","75013"
971622,"PO BOX 129","BARRONETT","WI","54813"
971623,"PO BOX 129","BERRYVILLE","AR","72616"
971624,"PO BOX 129","BROOKSIDE","NJ","07926"
971625,"PO BOX 129","CROSSNORE","NC","28616"
971626,"PO BOX 129","DAVENPORT","WA","99122"
971627,"PO BOX 129","DAYTON","IN","47941"
971628,"PO BOX 129","GLENNALLEN","AK","99588"
971629,"PO BOX 129","HENNIKER","NH","03242"
971630,"PO BOX 129","HERMOSA BEACH","CA","90254"
971631,"PO BOX 129","HOLLY","MI","48442"
971632,"PO BOX 129","JAL","NM","88252"
971633,"PO BOX 129","JASPER","GA","30143"
971634,"PO BOX 129","LAKE WALES","FL","33859"
971635,"PO BOX 129","NAZARETH","TX","79063"
971636,"PO BOX 129","NINE MILE FALLS","WA","99026"
971637,"PO BOX 129","PANHANDLE","TX","79068"
971638,"PO BOX 129","PERKINSVILLE","NY","14529"
971639,"PO BOX 129","RAMER","AL","36069"
971640,"PO BOX 129","REDWAY","CA","95560"
971641,"PO BOX 129","SPRING CITY","TN","37381"
971642,"PO BOX 129","TYRONE","GA","30290"
971643,"PO BOX 129","WINFALL","NC","27985"
971644,"PO BOX 1290","LA JOYA","TX","78560"
971645,"PO BOX 1290","LA VETA","CO","81055"
971646,"PO BOX 12901","KANSAS CITY","MO","66112"
971647,"PO BOX 1291","BIG TIMBER","MT","59011"
971648,"PO BOX 1291","BUFFALO","NV","14205"
971649,"PO BOX 1291","BUFFALO","NY","14205"
971650,"PO BOX 1291","DELAND","FL","32721"
971651,"PO BOX 1291","GRANBY","CO","80446"
971652,"PO BOX 1291","HAUGHTON","LA","71037"
971653,"PO BOX 1291","PETERSBURG","WV","26847"
971654,"PO BOX 1291","ST HELENA ISLAND","SC","29920"
971655,"PO BOX 1291","SUMTER","SC","29148"
971656,"PO BOX 1291","TELLURIDE","CO","81435"
971657,"PO BOX 1291","WEST CHESTER","PA","19382"
971658,"PO BOX 1292","AFTON","WY","83110"
971659,"PO BOX 1292","FALLBROOK","CA","92084"
971660,"PO BOX 1292","WILMINGTON","NC","28402"
971661,"PO BOX 1293","KAMUELA","HI","96743"
971662,"PO BOX 1293","WEST CHESTER","OH","45071"
971663,"PO BOX 12936","PRESCOTT","AZ","86304"
971664,"PO BOX 1294","BRUSH PRAIRIE","WA","98606"
971665,"PO BOX 1294","CHINO VALLEY","AZ","86323"
971666,"PO BOX 1294","LINCOLN","AR","72744"
971667,"PO BOX 1294","TOCCOA","GA","30577"
971668,"PO BOX 1294","WINDOW ROCK","AZ","86515"
971669,"PO BOX 1295","HERMITAGE","PA","16148"
971670,"PO BOX 1295","LEWISBURG","WV","24901"
971671,"PO BOX 1295","SONOITA","AZ","85637"
971672,"PO BOX 1295","WINNEMUCCA","NV","89445"
971673,"PO BOX 1296","BEEVILLE","TX","78104"
971674,"PO BOX 1296","HAYDEN","ID","83835"
971675,"PO BOX 1296","WELDON","CA","93283"
971676,"PO BOX 1297 - BEENLEIGH","QUEENSLAND, AUSTRALI",NA,NA
971677,"PO BOX 1297","BEDFORD","IN","47421"
971678,"PO BOX 1297","INTERVALE","NH","03845"
971679,"PO BOX 1297","MCCAYSVILLE","GA","30555"
971680,"PO BOX 1297","PENA BLANCA","NM","87041"
971681,"PO BOX 1297","PENN VALLEY","CA","95946"
971682,"PO BOX 1298","BELMONT","NC","28012"
971683,"PO BOX 1298","DUBOIS","WY","82513"
971684,"PO BOX 1298","HOPKINSVILLE","KY","42240"
971685,"PO BOX 1298","PAULDEN","AZ","86334"
971686,"PO BOX 1298","THREE FORKS","MT","59752"
971687,"PO BOX 1298","WEST MEMPHIS","AR","72303"
971688,"PO BOX 1298","WHITERIVER","AZ","85941"
971689,"PO BOX 12987","FORT PIERCE","FL","34979"
971690,"PO BOX 1299","AMARILLO","TX","79105"
971691,"PO BOX 1299","BATTLEGROUND","WA","98604"
971692,"PO BOX 1299","CHANDLER","TX","75758"
971693,"PO BOX 1299","COLUMBIA FALLS","MT","59912"
971694,"PO BOX 1299","DAVIDSON","NC","28036"
971695,"PO BOX 1299","DECATUR","TX","76234"
971696,"PO BOX 1299","ELSA","TX","78543"
971697,"PO BOX 1299","KILLEB","AL","35645"
971698,"PO BOX 1299","KILLEN","AL","35645"
971699,"PO BOX 1299","KINGSHILL","VI","00851"
971700,"PO BOX 1299","MILTON","NH","03851"
971701,"PO BOX 1299","MORENO VALLEY","CA","92556"
971702,"PO BOX 12990","LONGVIEW","TX","75607"
971703,"PO BOX 13","ALTOONA","WI","54720"
971704,"PO BOX 13","ANMOORE","WV","26323"
971705,"PO BOX 13","ARJAY","KY","40902"
971706,"PO BOX 13","BARKER","TX","77413"
971707,"PO BOX 13","BOYCE","VA","22620"
971708,"PO BOX 13","BRIDGEPORT","WV","26330"
971709,"PO BOX 13","BUFFALO LAKE","MN","55314"
971710,"PO BOX 13","CARLOS","MN","56319"
971711,"PO BOX 13","CENTEREACH","NY","11720"
971712,"PO BOX 13","CHURCH ROAD","VA","23833"
971713,"PO BOX 13","CLOUDCROFT","NM","88317"
971714,"PO BOX 13","CORVALLIS","MT","59828"
971715,"PO BOX 13","ELBERT","WV","24830"
971716,"PO BOX 13","FLAT TOP","WV","25841"
971717,"PO BOX 13","GEORGETOWN","CT","06829"
971718,"PO BOX 13","GLENVILLE","NC","28736"
971719,"PO BOX 13","GUTHRIE","TX","79236"
971720,"PO BOX 13","HARRODS CREEK","KY","40027"
971721,"PO BOX 13","HASSELL","NC","27841"
971722,"PO BOX 13","HOLLYWOOD","SC","29449"
971723,"PO BOX 13","LISBON","OH","44432"
971724,"PO BOX 13","MARSHALLTOWN","IA","50158"
971725,"PO BOX 13","MORO","OR","97039"
971726,"PO BOX 13","NEEDVILLE","TX","77461"
971727,"PO BOX 13","NORTH ZULCH","TX","77872"
971728,"PO BOX 13","PAISLEY","OR","97636"
971729,"PO BOX 13","PHIPPSBURG","CO","80483"
971730,"PO BOX 13","PIMA","AZ","85543"
971731,"PO BOX 13","PORT RICHEY","FL","34673"
971732,"PO BOX 13","ROSEMOUNT","MN","55369"
971733,"PO BOX 13","SHERIDAN","TX","77475"
971734,"PO BOX 13","SHOSHONE","CA","92384"
971735,"PO BOX 13","TITUSVILLE","NJ","08560"
971736,"PO BOX 13","VALRICO","FL","33594"
971737,"PO BOX 13","WINNETT","MT","59087"
971738,"PO BOX 13","YOUNGSVILLE","NY","12791"
971739,"PO BOX 130","ADAMSVILLE","TN","38310"
971740,"PO BOX 130","ANDOVER","KS","67002"
971741,"PO BOX 130","BALSAM","NC","28707"
971742,"PO BOX 130","BARBOURSVILLE","VA","22923"
971743,"PO BOX 130","BRIDGEPORT","MI","48722"
971744,"PO BOX 130","CLIFF","NM","88028"
971745,"PO BOX 130","CROSBY","ND","58730"
971746,"PO BOX 130","DAPHNE","AL","36526"
971747,"PO BOX 130","EAST GLACIER PARK","MT","59434"
971748,"PO BOX 130","FULTON","MO","65251"
971749,"PO BOX 130","GNADENHUTTEN","OH","44629"
971750,"PO BOX 130","GREENVILLE","OH","45331"
971751,"PO BOX 130","LEBANON","OK","73440"
971752,"PO BOX 130","LITHIA SPRINGS","GA","30122"
971753,"PO BOX 130","MARBLE CITY","OK","74945"
971754,"PO BOX 130","MAUPIN","OR","97037"
971755,"PO BOX 130","MCCARR","KY","41544"
971756,"PO BOX 130","MENOMONIE","WI","54730"
971757,"PO BOX 130","NORTH PLATTE","NE","69101"
971758,"PO BOX 130","ODELL","OR","97044"
971759,"PO BOX 130","OXFORD","MD","21654"
971760,"PO BOX 130","PENROSE","CO","81240"
971761,"PO BOX 130","READING","MA","01867"
971762,"PO BOX 130","RINCON","GA","31326"
971763,"PO BOX 130","SAN JACINTO","CA","92581"
971764,"PO BOX 130","SPRINGER","OK","73458"
971765,"PO BOX 130","WADESBORO","NC","28170"
971766,"PO BOX 1300","COROZAL","PR","00783"
971767,"PO BOX 13004","ATLANTA","GA","03024"
971768,"PO BOX 130044","ANN ARBOR","MI","48113"
971769,"PO BOX 13006","OFFUTT AFB","NE","68113"
971770,"PO BOX 130061","CORAM","MT","59913"
971771,"PO BOX 13009","LOS ANGELES","CA","92658"
971772,"PO BOX 1301 11 MIMOSA PLACE","SHELTER IS HEIGHTS","NY","11965"
971773,"PO BOX 1301","HUNTSVILLE","AL","35807"
971774,"PO BOX 1301","KELLER","TX","76244"
971775,"PO BOX 1301","LOUISVILLE","KY","40201"
971776,"PO BOX 1301","MINOCQUA","WI","54548"
971777,"PO BOX 1301","UKIAH","CA","95482"
971778,"PO BOX 1301","WARSAW","MO","65355"
971779,"PO BOX 13010","PENSACOLA","FL","32591"
971780,"PO BOX 130118","ROSEVILLE","MN","55113"
971781,"PO BOX 13012","ALBUQUERQUE","NM","87192"
971782,"PO BOX 130123","CORAM","MT","59913"
971783,"PO BOX 1302","CARMEL","CA","93921"
971784,"PO BOX 1302","CASTROVILLE","TX","78009"
971785,"PO BOX 1302","HANALEI","HI","96714"
971786,"PO BOX 1302","MARINA","CA","93933"
971787,"PO BOX 1302","MOORESVILLE","NC","28115"
971788,"PO BOX 1302","RICHLAND","WA","99352"
971789,"PO BOX 13021","WILMINGTON","DE","19850"
971790,"PO BOX 13026","JEKYLL ISLAND","GA","31527"
971791,"PO BOX 1303","EAGLE RIVER","WI","54521"
971792,"PO BOX 1303","ISABELA","PR","00662"
971793,"PO BOX 1303","LAKE PLACID","FL","33862"
971794,"PO BOX 1303","LAKEVIEW","OR","97630"
971795,"PO BOX 1303","SANDIA PARK","NM","87047"
971796,"PO BOX 1303","SPRING VALLEY","CA","91977"
971797,"PO BOX 13030","TRAPPER CREEK","AK","99683"
971798,"PO BOX 130335","HANOVER STREET","MA","02113"
971799,"PO BOX 130350","HOUSTON","TX","77219"
971800,"PO BOX 130378","CORAM","MT","59913"
971801,"PO BOX 13038","LANSING","MI","48901"
971802,"PO BOX 130383","THE WOODLANDS","TX","77393"
971803,"PO BOX 1304","ATLANTA","TX","75551"
971804,"PO BOX 1304","CULLMAN","AL","35056"
971805,"PO BOX 1304","EL CAMPO","TX","77437"
971806,"PO BOX 1304","MOUNT VERNON","OH","43050"
971807,"PO BOX 130458","THE WOODLANDS","TX","77393"
971808,"PO BOX 13047  SFA STATION","NACOGDOCHES","TX","75962"
971809,"PO BOX 13047","AIEA","HI","96701"
971810,"PO BOX 130485","THE WOODLANDS","TX","77393"
971811,"PO BOX 1305","ANACONDA","MT","59711"
971812,"PO BOX 1305","BETHEL","AK","99559"
971813,"PO BOX 1305","GOTHA","FL","34734"
971814,"PO BOX 1305","HAYESVILLE","NC","28904"
971815,"PO BOX 1305","KINGSTON","WA","98346"
971816,"PO BOX 1305","MITCHELL","SD","57301"
971817,"PO BOX 13051","ROANOKE","VA","24031"
971818,"PO BOX 13057","SAVANNAH","GA","31416"
971819,"PO BOX 1306","CHOTEAU","MT","59422"
971820,"PO BOX 1306","ELVERTA","CA","95626"
971821,"PO BOX 1306","FAIRHOPE","AL","36533"
971822,"PO BOX 1306","KIHEI","HI","96753"
971823,"PO BOX 1306","PHILIPSBURG","MT","59858"
971824,"PO BOX 1306","RED LODGE","MT","59068"
971825,"PO BOX 1306","SAN JOSE","CA","95109"
971826,"PO BOX 13063","FAIRLAWN","OH","44334"
971827,"PO BOX 1307","BISBEE","AZ","85603"
971828,"PO BOX 1307","LEAKEY","TX","78873"
971829,"PO BOX 1307","SANTA MONICA","CA","90406"
971830,"PO BOX 13071","SALEM","OR","97309"
971831,"PO BOX 1308  GRACIE STATION","NEW YORK","NY","10028"
971832,"PO BOX 1308","SMITHFIELD","NC","27577"
971833,"PO BOX 13087","ODESSA","TX","79768"
971834,"PO BOX 1309","BROKEN ARROW","OK","74013"
971835,"PO BOX 1309","COEBURN","VA","24230"
971836,"PO BOX 1309","LITCHFIELD PARK","AZ","85340"
971837,"PO BOX 1309","LONG BEACH","WA","98631"
971838,"PO BOX 130934","DALLAS","TX","75313"
971839,"PO BOX 130941","HOUSTON","TX","77219"
971840,"PO BOX 131 123 CHURCH ST","MILTON","NY","12547"
971841,"PO BOX 131 9309 ROUTE 36N","SIGEL","PA","15860"
971842,"PO BOX 131","ARMAGH","PA","15920"
971843,"PO BOX 131","BENHAM","KY","40807"
971844,"PO BOX 131","CHAPIN","SC","29036"
971845,"PO BOX 131","DEER PARK","CA","94576"
971846,"PO BOX 131","FOUNTAIN","CO","80817"
971847,"PO BOX 131","GOOCHLAND","VA","23063"
971848,"PO BOX 131","GORDON","TX","76453"
971849,"PO BOX 131","GRAYSON","GA","30017"
971850,"PO BOX 131","HALES CORNERS","WI","53130"
971851,"PO BOX 131","HOUSTON","TX","77001"
971852,"PO BOX 131","ITASCA","TX","76055"
971853,"PO BOX 131","JAROSO","CO","81138"
971854,"PO BOX 131","JAY","OK","74346"
971855,"PO BOX 131","KAPAA","HI","96746"
971856,"PO BOX 131","KENESAW","NE","68956"
971857,"PO BOX 131","LAKE ELMORE","VT","05657"
971858,"PO BOX 131","LUCERNEMINES","PA","15754"
971859,"PO BOX 131","MADRID","NY","13660"
971860,"PO BOX 131","MANITOWISH WATERS","WI","54545"
971861,"PO BOX 131","MIDDLEVILLE","NJ","07855"
971862,"PO BOX 131","OLIVE HILL","KY","41164"
971863,"PO BOX 131","PALMETTO","LA","71358"
971864,"PO BOX 131","PORTSULPHUR","LA","70083"
971865,"PO BOX 131","SALTERS","SC","29590"
971866,"PO BOX 131","SANDPOINT","ID","83864"
971867,"PO BOX 131","SILVER LAKE","NH","03875"
971868,"PO BOX 131","SOUTH HAVEN","MI","49090"
971869,"PO BOX 131","STEVINSON","CA","95374"
971870,"PO BOX 131","THREE SPRINGS","PA","17264"
971871,"PO BOX 131","TORRINGTON","CT","06790"
971872,"PO BOX 131","TWENTYNINE PALMS","CA","92277"
971873,"PO BOX 131","UNION","NJ","07083"
971874,"PO BOX 131","VIEQUES","PR","00765"
971875,"PO BOX 131","WAKE FOREST","NC","27588"
971876,"PO BOX 131","WARNERS","NY","13164"
971877,"PO BOX 131","WELLINGTON","CO","80549"
971878,"PO BOX 131","WHITEWRIGHT","TX","75491"
971879,"PO BOX 131","WILMORE","PA","15962"
971880,"PO BOX 1310","HAMET","NC","28345"
971881,"PO BOX 1310","HAMLET","NC","28345"
971882,"PO BOX 1310","LEAKEY","TX","78873"
971883,"PO BOX 1310","MEREDITH","NH","03253"
971884,"PO BOX 1310","SCAPPOOSE","OR","97056"
971885,"PO BOX 1310","SPOKANE VALLEY","WA","99037"
971886,"PO BOX 13104","SACRAMENTO","CA","95813"
971887,"PO BOX 1311","BELMONT","NH","03220"
971888,"PO BOX 1311","BRONSON","FL","32621"
971889,"PO BOX 1311","DICKINSON","TX","77539"
971890,"PO BOX 1311","JOHNSTON","IA","50131"
971891,"PO BOX 1311","MCCAMEY","TX","79752"
971892,"PO BOX 1311","TALLEVAST","FL","34270"
971893,"PO BOX 1311","WAYNESBORO","GA","30830"
971894,"PO BOX 131148","THE WOODLANDS","TX","77393"
971895,"PO BOX 131151","ANN ARBOR","MI","48113"
971896,"PO BOX 131173","HOUSTON","TX","77219"
971897,"PO BOX 1312","BUNELL","FL","32110"
971898,"PO BOX 1312","BUNNELL","FL","32110"
971899,"PO BOX 1312","EYOTA","MN","55934"
971900,"PO BOX 1312","HIRAM","GA","30141"
971901,"PO BOX 1312","LA PORTE","TX","77572"
971902,"PO BOX 1312","ORTING","WA","98360"
971903,"PO BOX 1312","PROSPER","TX","75078"
971904,"PO BOX 1312","SAINT JOHNS","AZ","85936"
971905,"PO BOX 1312","WAKE FOREST","NC","27588"
971906,"PO BOX 1312","WILSON","WY","84014"
971907,"PO BOX 131224","DALLAS","TX","75313"
971908,"PO BOX 131265","SPRING","TX","77393"
971909,"PO BOX 131272","CARLSBAD","CA","92013"
971910,"PO BOX 1313","BOZEMAN","MT","59771"
971911,"PO BOX 1313","DUMAS","TX","79086"
971912,"PO BOX 1313","LAFAYETTE","IN","47902"
971913,"PO BOX 1313","LONGVIEW","WA","98632"
971914,"PO BOX 1313","OKEMOS","MI","48805"
971915,"PO BOX 1313","SAN CLEMENTE","CA","92672"
971916,"PO BOX 1313","WATKINSVILLE","GA","30677"
971917,"PO BOX 1313","WILSONVILLE","OR","97070"
971918,"PO BOX 1313","WRIGHTSVILLE BEACH","NC","28480"
971919,"PO BOX 13132","AUSTIN","TX","78711"
971920,"PO BOX 13132","JACKSON","WY","83002"
971921,"PO BOX 131359","TYLER","TX","75713"
971922,"PO BOX 1314","BOWIE","MD","20718"
971923,"PO BOX 1314","MONROE","NC","28111"
971924,"PO BOX 1314","NEW YORK","NY","10013"
971925,"PO BOX 1314","NEW YORK","NY","10014"
971926,"PO BOX 1314","PEA RIDGE","AR","72751"
971927,"PO BOX 1314","STUDIO CITY","CA","91614"
971928,"PO BOX 1314","TUBAC","AZ","85646"
971929,"PO BOX 1314","WARM SPRINGS","OR","97761"
971930,"PO BOX 1315","CHERRY HILL","NJ","08034"
971931,"PO BOX 1315","CUTCHOGUE","NY","11935"
971932,"PO BOX 1315","FAIR LAWN","NJ","07410"
971933,"PO BOX 1315","KILLEEN","TX","76540"
971934,"PO BOX 1315","MANZANITA","OR","97130"
971935,"PO BOX 1315","NEWBERRY","FL","32669"
971936,"PO BOX 13150","SEATTLE","WA","98198"
971937,"PO BOX 131507","THE WOODLANDS","TX","77393"
971938,"PO BOX 1316","DELAND","FL","32721"
971939,"PO BOX 1316","ENOSBURG FALLS","VT","05450"
971940,"PO BOX 1316","KURTIS TOWN","HI","96760"
971941,"PO BOX 1316","ROSWELL","NM","88202"
971942,"PO BOX 1316","THOUSAND OAKS","CA","91358"
971943,"PO BOX 13162","SAN JUAN","PR","00908"
971944,"PO BOX 13167","TRAPPER CREEK","AK","99683"
971945,"PO BOX 1317","BLUE HILL","ME","04614"
971946,"PO BOX 1317","EL DORADO","CA","95623"
971947,"PO BOX 1317","MATHEWS","VA","23109"
971948,"PO BOX 13174","SACRAMENTO","CA","95813"
971949,"PO BOX 13174","SACRAMENTO","CA","95814"
971950,"PO BOX 131748","CARLSBAD","CA","92013"
971951,"PO BOX 131796","CARLSBAD","CA","92013"
971952,"PO BOX 1318 MLA 2502","SACRAMENTO","CA","95812"
971953,"PO BOX 1318","DUBOIS","WY","82513"
971954,"PO BOX 1318","HOCKESSIN","DE","19707"
971955,"PO BOX 1319","TULARE","CA","93275"
971956,"PO BOX 131966","HOUSTON","TX","77219"
971957,"PO BOX 132","ACME","PA","15610"
971958,"PO BOX 132","BURLISON","TN","38015"
971959,"PO BOX 132","CALDWELL","OH","43724"
971960,"PO BOX 132","CASTLEWOOD","VA","24224"
971961,"PO BOX 132","CHIMAYO","NM","87532"
971962,"PO BOX 132","CONWAY","NH","03818"
971963,"PO BOX 132","FOSTER","VA","23056"
971964,"PO BOX 132","FULTON","TX","78358"
971965,"PO BOX 132","GAULEY BRIDGE","WV","25085"
971966,"PO BOX 132","GOODRICH","ND","58444"
971967,"PO BOX 132","HEYBURN","ID","83336"
971968,"PO BOX 132","LAUPAHOEHOE","HI","96764"
971969,"PO BOX 132","LONG CREEK","OR","97856"
971970,"PO BOX 132","MACON","MS","39341"
971971,"PO BOX 132","MANITOWISH WATERS","WI","54545"
971972,"PO BOX 132","MARBLEHEAD","MA","01945"
971973,"PO BOX 132","MIFFLINBURG","PA","17844"
971974,"PO BOX 132","NEWALLA","OK","74857"
971975,"PO BOX 132","NEWBURGH","NY","12551"
971976,"PO BOX 132","NORTH LAKWOOD","WA","98259"
971977,"PO BOX 132","OLD FORGE","NY","13420"
971978,"PO BOX 132","PARK HILLS","MO","63601"
971979,"PO BOX 132","PATEROS","WA","98846"
971980,"PO BOX 132","POMEROY","WA","99347"
971981,"PO BOX 132","QUINCY","CA","95971"
971982,"PO BOX 132","ROGERS","TX","76569"
971983,"PO BOX 132","SAG HARBOR","NY","11963"
971984,"PO BOX 132","STEARNS","KY","42647"
971985,"PO BOX 132","TRYON","NC","28782"
971986,"PO BOX 132","WAITSBURG","WA","99361"
971987,"PO BOX 132","WAKEENEY","KS","67672"
971988,"PO BOX 1320","CANYONVILLE","WA","97417"
971989,"PO BOX 1320","COLUSA","CA","95932"
971990,"PO BOX 1320","WHEELER","TX","79096"
971991,"PO BOX 13201","JACKSON","WY","83002"
971992,"PO BOX 13202","DURHAM","NC","27709"
971993,"PO BOX 13205","CHESAPEAKE","VA","23325"
971994,"PO BOX 13205","PORTLAND","OR","97213"
971995,"PO BOX 1321","DUNCAN","OK","73533"
971996,"PO BOX 1321","LIBERTY TOWNSHIP","OH","45011"
971997,"PO BOX 1321","WALLA WALLA","WA","99362"
971998,"PO BOX 13216","SAN BERNARDINO","CA","92423"
971999,"PO BOX 13218","MAUMELLE","AR","72113"
972000,"PO BOX 1322","ANCHOR POINT","AK","99556"
