"ID","Address","City","State","Zip"
457001,"290 S HUMBOLDT ST","DENVER","CO","80209"
457002,"290 S LEMON STREET STE 406","ANAHEIM","CA","92805"
457003,"290 S MAIN ST","HALIFAX","VA","24558"
457004,"290 S SCHOOL AVE","COLBY","KS","67701"
457005,"290 S UNION ST","BLOOMINGTON","IN","47406"
457006,"290 S WESTFIELD STREET","OSHKOSH","WI","54902"
457007,"290 SALINEVILLE RD NE","CARROLLTON","OH","44615"
457008,"290 SANTA ROSA AVE","MOUNTAIN VIEW","CA","94043"
457009,"290 SCHILLING PARK","COLLIERVILLE","TN","38017"
457010,"290 SE GRAPE AVNEUE","WINSTON","OR","97496"
457011,"290 SENECA TRAIL WEST","LAKE QUIVIRA","KS","66217"
457012,"290 SEQUOIA DR","PASADENA","CA","91105"
457013,"290 SETTLERS PASS","CEDAR SPRINGS","MI","49319"
457014,"290 SHRAWDER AVENUE","MIDDLEBURG","PA","17842"
457015,"290 SISSON AVENUE NE","ATLANTA","GA","30317"
457016,"290 SONORA DR","ELGIN","IL","60124"
457017,"290 SOUTH ATLANTIC AVE","HALLOCK","MN","56728"
457018,"290 SOUTH DUFFY RD","BUTLER","OR","16001"
457019,"290 SOUTH GORDON RD SW","MABLETON","GA","30126"
457020,"290 SOUTH LINE STREET","GRENADA","MS","38901"
457021,"290 SOUTH ROAD","BRENTWOOD","NH","03833"
457022,"290 SOUTH SREET","CENTERVILLE","SD","57014"
457023,"290 SOUTHBANK DRIVE","AIKEN","SC","29803"
457024,"290 ST MARKS PLACE","STATEN ISLAND","NY","10301"
457025,"290 STATE HWY 64","LOUISBURG","MO","65685"
457026,"290 STATE ROUTE 143","ALBANY","OH","45710"
457027,"290 STONEHEDGE LANE","MECHANICSBURG","PA","17055"
457028,"290 STRAIGHT CREEK RD","WARTRACE","TN","37183"
457029,"290 STUYVESANT AVE","NEWARK","NJ","07106"
457030,"290 SUNRIDGE WAY","VACAVIILE","CA","95688"
457031,"290 SUNRIDGE WAY","VACAVILLE","CA","95688"
457032,"290 SYCAMORE DRIVE","LACYGNE","KS","66040"
457033,"290 SYCAMORE DRIVE","LINN VALLEY","KS","66040"
457034,"290 TELFORD NEW VICTORY RD","TELFORD","TN","37690"
457035,"290 TELFORD NEW VICTOTY RD","TELFORD","TN","37690"
457036,"290 TERRY RD","HUNTINGDON","TN","38344"
457037,"290 THUNDERBIRD TRACE","MARIETTA","GA","30067"
457038,"290 TORRINGTON ROAD","LITCHFIELD","CT","06759"
457039,"290 UNION AVENUE","NEW ROCHELLE","NY","10801"
457040,"290 VALLEY AVE","ALTOONA","PA","16601"
457041,"290 VALLEY ROAD","TOCCOA","GA","30577"
457042,"290 VERMONT STREET","WEST ROXBURY","MA","02132"
457043,"290 VILLAGE DR","BEREA","KY","40403"
457044,"290 W 14TH ST","SAN PEDRO","CA","90731"
457045,"290 W 200 S","HEBER CITY","UT","84032"
457046,"290 W JAMAICA ST","VALLEY STREAM","NY","11580"
457047,"290 W KINGSBURY RD","KELSO","WA","98626"
457048,"290 W WINTHROP","ELMHURST","IL","60126"
457049,"290 WALLABOUT ST A1","BROOKLYN","NY","11206"
457050,"290 WALLABOUT STREET APT 6B","BROOKLYN","NY","11206"
457051,"290 WALNUT HILL RD","NORTH YARMOUTH","ME","04097"
457052,"290 WARDENS ROW NUMBER 1","TENNESSEE COLONY","TX","75861"
457053,"290 WARREN RD LOT 74","CARBONDALE","IL","62901"
457054,"290 WATER STREET","ALBANY","VT","05820"
457055,"290 WATER STREET","CROMWELL","KY","42333"
457056,"290 WEBSTER AVE","ROCHESTER","NY","14609"
457057,"290 WEST 100 NORTH","KAYSVILLE","UT","84037"
457058,"290 WEST 12TH AVENUE   UNIT 606","DENVER","CO","80204"
457059,"290 WEST 4TH STREET","CALHOUN","KY","42327"
457060,"290 WEST 4TH STREET","DEER PARK","NY","11729"
457061,"290 WEST LAKE PARK RD","LEWISVILLE","TX","75057"
457062,"290 WEST NINE MILE ROAD","FERNDALE","MI","48220"
457063,"290 WEST PAIA AVE","KAHALUI","HI","96732"
457064,"290 WESTVIEW COMMONS BLVD STE C","ROCHESTER","NY","14624"
457065,"290 WESTWOOD CIRCLE","MACON","GA","31206"
457066,"290 WESTWOOD CIRCLE","MACON","GA","32106"
457067,"290 WHILEY ROAD","GROTON","MA","01450"
457068,"290 WHISPERING WOODS LANE APT 5","ST AUGUSTINE","FL","32084"
457069,"290 WHITE HOLLOW ROAD","KENNA","WV","25248"
457070,"290 WILLOW BAY DRIVE","MURRELLS INLET","SC","29576"
457071,"290 WILLOW SHOALS DRIVE","COVINGTON","GA","30016"
457072,"290 WILSON AVE","PERRIS","CA","92561"
457073,"290 WINSTED AVE","HOLLAND","MI","49423"
457074,"290 WOODY DR","JACKSON","MS","39212"
457075,"290 WOODY DRIVE","JACKSON","MS","39212"
457076,"290","BELMONT","MA","02478"
457077,"2900  NE  VISTA DEL REY","ALBUQUERQUE","NM","87112"
457078,"2900 -7 SUSSEX STREET","GREENVILLE","NC","27834"
457079,"2900 10TH SW - A","MINOT","ND","58701"
457080,"2900 139TH ST NE","SURREY","ND","58785"
457081,"2900 18TH STREET","DETROIT","MI","48216"
457082,"2900 1ST AVENUE SOUTH","BIRMINGHAM","AL","35233"
457083,"2900 1ST ST","MARION","IA","52302"
457084,"2900 28TH ST SW","GRANDVILLE","MI","49418"
457085,"2900 ABBOTTS POINTE DR","DULUTH","GA","30097"
457086,"2900 ADAMS ST A4","RIVERSIDE","CA","92504"
457087,"2900 ADAMS STREET C130","RIVERSIDE","CA","92504"
457088,"2900 ADAMS STREET STE C130","RIVERSIDE","CA","92504"
457089,"2900 ANA DRIVE","GREAT FALLS","MT","59404"
457090,"2900 ANITA LANE","MONROE","LA","71201"
457091,"2900 ATHENA LANE APT 38E","LITHONIA","GA","30038"
457092,"2900 ATHENA LANE","LITHONIA","GA","30058"
457093,"2900 ATKINS DRIVE","YANKTON","SD","57078"
457094,"2900 AVENUE G","BIRMINGHAM","AL","35218"
457095,"2900 BALDWIN ST","HUDSONVILLE","MI","49426"
457096,"2900 BARCELONA DR","DOUGLAS","AZ","85607"
457097,"2900 BARCELONA WAY","CONYERS","GA","30012"
457098,"2900 BAYVIEW DR","CORONA DEL MAR","CA","92625"
457099,"2900 BEDFORD AVENUE","BROOKLYN","NY","11210"
457100,"2900 BLUECUTT ROAD SUITE 2","COLUMBUS","MS","39705"
457101,"2900 BOYD BRANCH","DESOTO","MO","63020"
457102,"2900 BRACKENWOOD DRIVE","SNELLVILLE","GA","30039"
457103,"2900 BRANDYWINE AVE","ANCHORAGE","AK","99502"
457104,"2900 BRANNON ROAD","SNELLVILLE","GA","30039"
457105,"2900 BRISTOL STREET BLDG E SUITE 20","COSTA MESA","CA","92626"
457106,"2900 BROAD AVENUE  STE 103","MEMPHIS","TN","38112"
457107,"2900 BUCK SHOALS ROAD","HAMPTONVILLE","NC","27020"
457108,"2900 BURTON AVENUE","LAS VEGAS","NV","89102"
457109,"2900 CAMILLE DRIVE","COLLEGE STATION","TX","77845"
457110,"2900 CAMP WOOD COURT","PLANO","TX","75025"
457111,"2900 CAPETANIOS DRIVE","EL DORADO HILLS","CA","95762"
457112,"2900 CAPSTAN DR","ANCHORAGE","AK","99516"
457113,"2900 CEADARBRIDGE ROAD","NORTHFIELD","NJ","08225"
457114,"2900 CEDAR MILL DRIVE","ACWORTH","GA","30102"
457115,"2900 CEDARBRIDGE ROAD","NORTHFIELD","NJ","08225"
457116,"2900 CENTRAL DR","GARY","IN","46407"
457117,"2900 CENTURY PARK 1903","AUSTIN","TX","78727"
457118,"2900 CENTURY PARK 704","AUSTIN","TX","78727"
457119,"2900 CHERRYWOOD CIRCLE NW","MASSILLON","OH","44646"
457120,"2900 CHIPPEWA TRAIL","FORT WORTH","TX","76135"
457121,"2900 CITY VIEW CT","NORMAN","OK","73071"
457122,"2900 CLEVELAND AVENUE","ST JOSEPH","MI","49085"
457123,"2900 CLEVELAND ROAD APT 203","BENTON HARBOR","MI","49022"
457124,"2900 COHOBA DR","AUSTIN","TX","78748"
457125,"2900 COLONIAL AVE","KETTERING","OH","45419"
457126,"2900 COLUMBUS AVE","SANDUSKY","OH","44870"
457127,"2900 COMMONWEALTH","LA CRESCENTA","CA","91214"
457128,"2900 COMMUNITY AVE","LA CRESCENTA-MONTROS","CA","91214"
457129,"2900 COMMUNITY AVE","LA CRESCENTA","CA","91214"
457130,"2900 COMMUNITY COLLEGE AVENUE","CLEVELAND","OH","44115"
457131,"2900 COMMUNITY COLLEGE AVENUE","CLEVELAND","OH","44120"
457132,"2900 CONNECTICUT AVE NW 105","WASHINTONG","DC","20008"
457133,"2900 CONNECTICUT AVE NW APT 318","WASHINGTON","DC","20008"
457134,"2900 CONNECTICUT AVE NW","WASHINGTON","DC","20008"
457135,"2900 CONNECTICUT AVE NW105","WASHINGTON","DC","20008"
457136,"2900 CONNECTICUT AVENUE  NO 438","WASHINGTON","DC","20008"
457137,"2900 CORDOVA RD","CORDOVA","SC","29039"
457138,"2900 CORKWOOD CIRCLE","FLOWER MOUND","TX","75022"
457139,"2900 COUNTY BARN ROAD","NAPLES","FL","34112"
457140,"2900 COVINGTON ROAD","SILVER SPRING","MD","20910"
457141,"2900 CR SW 3190","WINNSBORO","TX","75459"
457142,"2900 CR SW3190","MOUNT VERNON","TX","75457"
457143,"2900 CROSSWAY ROAD","BURLINGTON","WI","53105"
457144,"2900 DEL RIO DRIVE","SAINT AUGUSTINE","FL","32084"
457145,"2900 DELK RD - STE 700 - NO 48","MARIETTA","GA","30060"
457146,"2900 DELK RD 700158","MARIETTA","GA","30067"
457147,"2900 DELK RD SE STE 700 PMB 148","MARIETTA","GA","30067"
457148,"2900 DELK RD","ATLANTA","GA","30067"
457149,"2900 DELK ROAD STE 700","MARIETTA","GA","30067"
457150,"2900 DESOTO WAT SOUTH","ST PETERSBURG","FL","33712"
457151,"2900 DILIDO RD APT 624","DALLAS","TX","75228"
457152,"2900 DOUGLAS DR N 304","MINNEAPOLIS","MN","55422"
457153,"2900 DREHER SHOALS RD","IRMO","SC","29212"
457154,"2900 E FIRESIDE CIRCLE","SIOUX FALLS","SD","57103"
457155,"2900 E JEFFERSON AVE SUITE C4","Detroit","MI","48207"
457156,"2900 E JEFFERSON AVE SUITE C4","DETROIT","MI","48207"
457157,"2900 E NORTH STREET APT 421","GREENVILLE","SC","29615"
457158,"2900 E OAKLAND PARK BLVD","FORT LAUDERDALE","FL","33306"
457159,"2900 E OLIVER STREET","BALTIMORE","MD","21213"
457160,"2900 E WATER TOWER DRIVE","CRETE","IL","60147"
457161,"2900 EAST HIBBARD ROAD","CORUNNA","MI","48817"
457162,"2900 EAST HIBBARD","CORUNNA","MI","48817"
457163,"2900 EAST JEFFERSON UNIT 6B","DETROIT","MI","48207"
457164,"2900 EAST OLIVER STREET C","BALTIMORE","MD","21213"
457165,"2900 EAST OLIVER STREET","BALTIMORE","MD","21213"
457166,"2900 EL CAMINO AVE APT 231","LAS VEGAS","NV","89102"
457167,"2900 EL CAMINO AVENUE APT 267","LAS VEGAS","NV","89102"
457168,"2900 ELISHA AVENUE","ZION","IL","60099"
457169,"2900 ELKMONT COURT","LITTLE ROCK","AR","72204"
457170,"2900 EXPOSITION BLVD SUITE B","SANTA MONICA","CA","90404"
457171,"2900 FAYETTE ST","BALTIMORE","MD","21224"
457172,"2900 FELLMAN DR","ASHLAND","WI","54806"
457173,"2900 FIRST AVENUE APT N403","SEATTLE","WA","98121"
457174,"2900 FIRST AVENUE","ASHLAND","KY","25702"
457175,"2900 FLORIDA AVE","CHARLOTTE","NC","28205"
457176,"2900 FORAKER PLACE NW","ALBUQUERQUE","NM","87107"
457177,"2900 FOXBORO LANE","HOLLAND","MI","49424"
457178,"2900 FRITZ COVE RD","JUNEAU","AK","99801"
457179,"2900 GASTON ROAD","GREENVILLE","GA","30222"
457180,"2900 GATEHOUSE ROAD","NORFOLK","VA","23504"
457181,"2900 GATEWAY DRIVE","POMPANO BEACH","FL","33069"
457182,"2900 GATTIS SCHOOL ROAD","ROUND ROCK","TX","78664"
457183,"2900 GENERAL ANDERSON APT N-137","VANCOUVER","WA","98661"
457184,"2900 GLASGOW DRIVE","NORMAN","OK","73072"
457185,"2900 GLEASON AVE","COLUMBUS","GA","31907"
457186,"2900 GOLDBRIDGE DR","AUSTIN","TX","78745"
457187,"2900 GROVE WAY","CASTRO VALLEY","CA","94546"
457188,"2900 GULF BLVD APT 112","BELLEAIR BEACH","FL","32771"
457189,"2900 GULF BLVD APT 112","BELLEAIR BEACH","FL","33786"
457190,"2900 HARTLEY RD","JACKSONVILLE","FL","32257"
457191,"2900 HERBERTSVILLE ROAD","POINT PLEASANT BORO","NJ","08742"
457192,"2900 HICKORY RD","AUBURNDALE","FL","33823"
457193,"2900 HIGH PLAINS ROAD","VALIER","MT","59486"
457194,"2900 HIGHGROVE CT","COLLEYVILLE","TX","76034"
457195,"2900 HIGHWAY 180 W","MINERAL WELLS","TX","76067"
457196,"2900 HILLSIDE AVENUE","CHEVERLY","MD","20785"
457197,"2900 HORIZON DRIVE STE 18","BRYANT","AR","72022"
457198,"2900 HURSTBOURNE VILLAGE DR","LOUISVILLE","KY","40299"
457199,"2900 HWY 86","NAZARETH","TX","79063"
457200,"2900 IRVING AVE SOUTH APT 501","MINNEAPOLIS","MN","55408"
457201,"2900 JEFFERSON A602","DETROIT","MI","48207"
457202,"2900 JENNIFER DRIVE","COLLEGE STATION","TX","77845"
457203,"2900 KILBORNE DR","CHARLOTTE","NC","28205"
457204,"2900 KINGSTON DRIVE","PLANO","TX","75080"
457205,"2900 KINGSTOWN RD APT 111","KINGSTON","RI","02881"
457206,"2900 KIRBY PARKWAY SUITE 5","MEMPHIS","TN","38119"
457207,"2900 KLOCKNER RD","HAMILTON","NJ","08690"
457208,"2900 KLOCKNER ROAD","HAMILTON SQUARE","NJ","08690"
457209,"2900 KLOCKNER ROAD","HAMILTON","NJ","08690"
457210,"2900 KNIGHTS ROAD APT B30","BENSALEM","PA","19020"
457211,"2900 L R W BLDG 300","EAST POINT","GA","30344"
457212,"2900 LANDRUM DR  SW APT 71","ATLANTA","GA","30311"
457213,"2900 LANDRUM DR SW APT 71","ATLANTA","GA","30311"
457214,"2900 LANDRUM DRIVE APT 61","ATLANTA","GA","30311"
457215,"2900 LANSING AVENUE","PORSMOUTH","VA","23704"
457216,"2900 LAUREL RIDGE WAY APT 6101","EAST POINT","GA","30344"
457217,"2900 LEIVASY ROAD","NETTIE","WV","26681"
457218,"2900 LEMON STREET UNIT B","RIVERSIDE","CA","92501"
457219,"2900 LIVE OAK","BAY CITY","TX","77414"
457220,"2900 LONG ACRE DR","BYERS","IN","47711"
457221,"2900 LONG ACRE DR","EVANSVILLE","IN","47711"
457222,"2900 LOS AMIGOS COURT APT B","LAS CRUCES","NM","88011"
457223,"2900 LOS AMIGOS CT APT A","LAS CRUCES","NM","88011"
457224,"2900 LOSANTIVILLE AVENUE","CINCINNATI","OH","45213"
457225,"2900 LOUISIANA BLVD","ALBUQUERQUE","NM","87110"
457226,"2900 MADISON AVENUE UNIT C 23","FULLERTON","CA","92831"
457227,"2900 MAIN LINE BLVD APT 215","ALEXANDRIA","VA","22301"
457228,"2900 MAIN LINE BLVD APT 346","ALEXANDRIA","VA","22301"
457229,"2900 MAIN LINE BOULEVARD APT 242","ALEXANDRIA","VA","22301"
457230,"2900 MANITO DR","MOUNT VERNON","WA","98273"
457231,"2900 MANOR ROAD APT 2345","AUSTIN","TX","78722"
457232,"2900 MARAZAN ST","DENAIR","CA","95316"
457233,"2900 MCKINNON ST - 2406","DALLAS","TX","75201"
457234,"2900 MCKINNON STREET UNIT 1205","DALLAS","TX","75201"
457235,"2900 MEADOWBROOK CT","COLLEGE STATION","TX","77845"
457236,"2900 METZGER","ALBUQUERQUE","NM","80003"
457237,"2900 MIDDLETOWN RD","PITTSBURGH","PA","15204"
457238,"2900 MONROE ST","LAPORTE","IN","46350"
457239,"2900 MONROE STREET","LA PORTE","IN","46350"
457240,"2900 MONTICELLO PL UNIT 305","ORLANDO","FL","32835"
457241,"2900 MOSSY OAK TRAIL","WAYCROSS","GA","31503"
457242,"2900 MT DIABLO STREET","CONCORD","CA","94518"
457243,"2900 MUIR AVENUE SPACE 120","ATWATER","CA","95301"
457244,"2900 MUNCIE ROAD","RICHMOND","VA","23223"
457245,"2900 N 18TH ST","OZARK","AR","72949"
457246,"2900 N 26TH AVE APT 601","HOLLYWOOD","FL","33020"
457247,"2900 N 32ND STREET","BOISE","ID","83703"
457248,"2900 N BAYSHORE DRIVE","SENECA","SC","29672"
457249,"2900 N BREASEWOOD BLVD APT 3408","HOSUTON","TX","77025"
457250,"2900 N COUNCIL RD","BETHANY","OK","73008"
457251,"2900 N DOWNING STREET APT 206","DENVER","CO","80205"
457252,"2900 N GOVERNMENT WAY 329","CDA","ID","83814"
457253,"2900 N MENOMONEE RIVER PARKWAY","MILWAUKEE","WI","53222"
457254,"2900 N MERRIMAC","CHICAGO","IL","60634"
457255,"2900 N MILITARY TR - SUITE 107","BOCA RATON","FL","33431"
457256,"2900 N QUINLA PARK ROAD","AUSTIN","TX","78732"
457257,"2900 N QUINLAN PARK ROAD","AUSTIN","TX","78732"
457258,"2900 N RIVERWALKS DRIVE","CHICAGO","IL","60618"
457259,"2900 N RODEO GULCH RD","SOQUEL","CA","95073"
457260,"2900 N UNIVERSITY DR UNIT 54","CORAL SPRINGS","FL","33065"
457261,"2900 N UNIVERSITY DRIVE","CORAL SPRINGS","FL","33065"
457262,"2900 N WOODARD ST","CHICAGO","IL","60618"
457263,"2900 NARANJA DR","MISSION","TX","78574"
457264,"2900 NE 132ND AVE","PORTLAND","OR","97230"
457265,"2900 NE 14 ST CSWY UNIT 103","POMPANO BEACH","FL","33062"
457266,"2900 NE 30TH ST F7","FORT LAUDERDALE","FL","33306"
457267,"2900 NE 86TH AVE","VANCOUVER","WA","98665"
457268,"2900 NE 9TH TERRACE","POMPANO BEACH","FL","33064"
457269,"2900 NE BROOKTREE LANE","KANSAS CITY","MO","64119"
457270,"2900 NEDERLAND AVE NO 512","NEDERLAND","TX","77627"
457271,"2900 NOBLE AVE","RICHMOND","VA","23222"
457272,"2900 NOBLESTOWN ROAD","PITTSBURGH","PA","15205"
457273,"2900 NORMANDY DRIVE","ELLICOTT CITY","MD","21043"
457274,"2900 NORTH BRAESWOOD APT 4310","HOUSTON","TX","77025"
457275,"2900 NORTH BRAESWOOD BLVD APT 4421","HOUSTON","TX","77025"
457276,"2900 NORTH DIXIELAND ROAD APT E4","ROGERS","AR","72956"
457277,"2900 NORTH STREET","NEW HAVEN","VT","05472"
457278,"2900 NW 130TH AVE","SUNRISE","FL","33323"
457279,"2900 NW 210TH TER","MIAMI GARDENS","GA","33056"
457280,"2900 NW 42ND AVE","COCONUT CREEK","FL","33066"
457281,"2900 NW CHELSEA PL","BLUE SPRINGS","MO","64015"
457282,"2900 NW CIRCLE A DR","PORTLAND","OR","97229"
457283,"2900 O ST SE","WASHINGTON","DC","20020"
457284,"2900 OAK TREE AVE APT 11203","NORMAN","OK","73072"
457285,"2900 OKELLY STREET","RALEIGH","NC","27610"
457286,"2900 OLD HWY 63 SOUTH AUITE 3-103A","COLUMBIA","MO","65201"
457287,"2900 OLEY TURNPIKE RD APT J6","READING","PA","19606"
457288,"2900 OSTROM ROAD","MARYSVILLE","CA","95901"
457289,"2900 PARK AVE NO 1","MINEAPOLIS","MN","55407"
457290,"2900 PARK AVENUE 10","MINNEAPOLIS","MN","55407"
457291,"2900 PARK AVENUE WEST","ONTARIO","OH","44906"
457292,"2900 PARKLAND DRIVE","DISTRICT HEIGHTS","MD","20747"
457293,"2900 PARKWAY DRIVE","PLACERVILLE","CA","95667"
457294,"2900 PARRISH RD","TITUSVILLE","FL","32796"
457295,"2900 PAVING STONE COURT","EFFINGHA","SC","29541"
457296,"2900 PEARLAND PARKWAY UNIT 7106","PEARLAND","TX","77581"
457297,"2900 PELHAM ROAD NORTH","ST PETERSBURG","FL","33710"
457298,"2900 PINOLE VALLEY ROAD","PINOLE","CA","94564"
457299,"2900 PIONEER AVE","CHEYENNE","WY","82001"
457300,"2900 PLAINVIEW DR SE","MANDAN","ND","58554"
457301,"2900 PREAKNESS DR NW","MARIETTA","GA","30064"
457302,"2900 PRYTANIA STREET","NEW ORLEANS","LA","70115"
457303,"2900 PURCHASE STREET","PURCHASE","NY","10577"
457304,"2900 QUEEN LANE","PHILADELPHIA","PA","19129"
457305,"2900 RIVER RD","GRANVILLE","OH","43023"
457306,"2900 RIVERS END","WEST BRANCH","MI","48661"
457307,"2900 ROCKFALLS LANE","HENDERSON","KY","89074"
457308,"2900 ROCKFALLS LANE","HENDERSON","NV","89074"
457309,"2900 ROCKY POINT DRIVE","TAMPA","FL","33607"
457310,"2900 ROMA TERRACE","MANHATTAN","KS","66502"
457311,"2900 ROYAL CREST DRIVE","MIDLOTHIAN","VA","23113"
457312,"2900 RUTGERS LANE","RICHMOND","VA","23233"
457313,"2900 S 28TH ST","LINCOLN","NE","68502"
457314,"2900 S AMOR DRIVE","NEW BERLIN","WI","53146"
457315,"2900 S CLIFF AVE","SIOUX FALLS","SD","57105"
457316,"2900 S FLOWER POT RANCH RD","CAMP VERDE","AZ","86322"
457317,"2900 S GERBERA AVE","SIOUX FALLS","SD","57106"
457318,"2900 S GESNER ROAD - APT 201","HOUSTON","TX","77063"
457319,"2900 S GLEBE ROAD 311","ARLINGTON","VA","22206"
457320,"2900 S GREBE PL","BOISE","ID","83716"
457321,"2900 S QUINCY ST STE 330","ARLINGTON","VA","22206"
457322,"2900 SAN JOSE AVE","ALAMEDA","CA","94501"
457323,"2900 SANDPIPER PLACE","CLEARWATER","FL","33762"
457324,"2900 SARATOGA COURT","SHERWOOD","AR","72120"
457325,"2900 SE 18TH COURT","OKEECHOBEE","FL","34974"
457326,"2900 SEELEY RD","CADILLAC","MI","49601"
457327,"2900 SOCIALVILLE FOSTER ROAD","MAINEVILLE","OH","45039"
457328,"2900 SOUTH CLIFF AVENUE","SIOUX FALLS","SD","57105"
457329,"2900 SOUTH GILBERT ROAD SUITE 4","CHANDLER","AZ","85286"
457330,"2900 SOUTH QUINCY STREET SUITE 600","ARLINGTON","VA","22206"
457331,"2900 SOUTHWEST BLVD","CHARLOTTE","NC","28216"
457332,"2900 SPENCER ROAD","DENTON","TX","76208"
457333,"2900 SPRUCE CIRCLE","SNELLVILLE","GA","30078"
457334,"2900 STANDIFORD  AVE  16B  PMB251","MODESTO","CA","95350"
457335,"2900 STANDIFORD AVE 16B  PMB251","MODESTO","CA","95350"
457336,"2900 STANDIFORD AVE 16B PMB251","MODESTO","CA","95350"
457337,"2900 STATE HIGHWAY 156","COLDSPRING","TX","77331"
457338,"2900 STATE RD A1A APT 811","ATLANTIC BEACH","FL","32233"
457339,"2900 STILLWOOD WAY","OPELIKA","AL","36804"
457340,"2900 SUMMER HOLLOW CT","HERMITAGE","TN","37076"
457341,"2900 SUTTON RD","OAKTON","VA","22181"
457342,"2900 SW 116TH AVE STE 105","MIRAMAR","FL","33025"
457343,"2900 SW 125TH AVE APT 312","SUNRISE","FL","33068"
457344,"2900 SW 13TH STREET","GAINESVILLE","FL","32605"
457345,"2900 SW 18 ST","DES MOINES","IA","50315"
457346,"2900 SW 30TH STREET","DES MOINES","IA","50321"
457347,"2900 SWEITZER ROAD","UNIONTOWN","OH","44685"
457348,"2900 TARTAN TRL","HUTCHINSON","KS","67502"
457349,"2900 TATARRAX DRIVE","MANHATTAN","KS","66502"
457350,"2900 THOMAS AVE S APARTMENT 2302","MINNEAPOLIS","MN","55416"
457351,"2900 THOMAS AVE S APT 1627","MINNEAPOLIS","MN","55416"
457352,"2900 THOMAS AVE S APT 2210","MINNEAPOLIS","MN","55416"
457353,"2900 THOMAS AVE S STE 1916","MINNEAPOLIS","MN","55416"
457354,"2900 TIMBER PARK DRIVE","EVANSVILLE","IN","47715"
457355,"2900 TONAWANDA CREEK ROAD","AMHERST","NY","14228"
457356,"2900 TUCKASEEGEE RD APT 1","CHARLOTTE","NC","28208"
457357,"2900 UNIVERSITY AVENUE","CROOKSTON","MN","56716"
457358,"2900 UNIVERSITY PARKWAY","LAWRENCEVILLE","GA","30043"
457359,"2900 VALLEY RD","OREFIELD","PA","18069"
457360,"2900 VALVENT CT","HENDERSON","NV","89044"
457361,"2900 W 32ND AVE","STILLWATER","OK","74074"
457362,"2900 W ANDERSON LN STE C200-137","AUSTIN","TX","78757"
457363,"2900 W BAKER RD APT505","BAYTON","TX","77521"
457364,"2900 W BAKER RD","BAYTOWN","TX","77521"
457365,"2900 W CYPRESS RD SUITE 1","FORT LAUDERDALE","FL","33309"
457366,"2900 W DALLAS APT 646","HOUSTON","TX","77019"
457367,"2900 W FLOURNIY","CHICAGO","IL","60612"
457368,"2900 W FLOURNOY","CHICAGO","IL","60612"
457369,"2900 W GLENLAKE AVE UNIT G","CHICAGO","IL","60659"
457370,"2900 W GREENBRIER LN","PEORIA","IL","61614"
457371,"2900 W HURON DRIVE","DELTONA","FL","32738"
457372,"2900 W LEHMAN AVE 202","WEST VALLEY CITY","UT","84119"
457373,"2900 W LEHMAN AVE APT 18","WEST VALLEY CITY","UT","84119"
457374,"2900 W LEHMAN AVENUE 214","WEST VALLEY CITY","UT","84119"
457375,"2900 W ROYAL LANE APT 1006","IRVING","TX","75063"
457376,"2900 W SCHAFER","HOWELL","MI","48839"
457377,"2900 W SOUTHLAKE BLVD SUITE 170","SOUTHLAKE","TX","76092"
457378,"2900 W YOUNGS RD","GLADWIN","MI","48624"
457379,"2900 WATROUS","DES MOINES","IA","50321"
457380,"2900 WEST 30TH AVE","EMPORIA","KS","66801"
457381,"2900 WEST CAPITOL AVENUE","LITTLE ROCK","AR","72205"
457382,"2900 WEST COYLE AVE","CHICAGO","IL","60645"
457383,"2900 WEST DALLAS STREET APT 656","HOUSTON","TX","77019"
457384,"2900 WEST DALLAS","HOUSTON","TX","77019"
457385,"2900 WEST HURON DR","DELTONA","FL","32738"
457386,"2900 WEST LUCES RD","WILLIAMS","AZ","86046"
457387,"2900 WESTFORK DRIVE      SUITE 401","BATON ROUGE","LA","70827"
457388,"2900 WESTFORK DRIVE  SUITE 401","BATON ROUGE","LA","70827"
457389,"2900 WESTFORK DRIVE","BATON ROUGE","LA","70827"
457390,"2900 WILLIAMSBURG CT","WOODBRIDGE","VA","22191"
457391,"2900 WILLIAMSBURG TERR APT K201","PLATTE CITY","MO","64079"
457392,"2900 WILSON AVE SW STE 110","GRANDVILLE","MI","49418"
457393,"2900 WINCHESTER ROAD","PARIS","KY","40361"
457394,"2900 WINDING PATHWAY","FLOWER MOUND","TX","75022"
457395,"2900 WOODFERN CT","WOODBRIDGE","VA","22193"
457396,"2900","CORUNNA","MI","48817"
457397,"2900","LITHONIA","GA","30038"
457398,"29000 INFORMATION LANE UNIT 406","EASTON","MD","21601"
457399,"29000 NE 150TH ST","DUVALL","WA","98019"
457400,"29000 US HIGHWAY 98  SUITE 201A","DAPHNE","GA","36526"
457401,"29000 US HIGHWAY 98 SUITE 203-B","DAPHNE","AL","36526"
457402,"29001 SE RYAN RD","BLUE SPRINGS","MO","64014"
457403,"29002 FOX FOUNTAIN LN","SPRING","TX","77386"
457404,"29002 LAKE RIDGE LN","HIGHLAND","CA","92346"
457405,"29005 100TH ST NW","ANGUS","MN","56562"
457406,"29005 COUNTY ROAD 343","BELL CITY","MO","63735"
457407,"29005 GOLDEN LAKE CIRCLE","MENIFEE","CA","92585"
457408,"29005 SEBRING CT","HAYWARD","CA","94544"
457409,"29006 CHAFFIN LIGHT","SAN ANTONIO","TX","78260"
457410,"29006 COAL COULEE RD E","MOHLER","WA","99154"
457411,"29006 FOREST HILL DRIVE","FARMINGTON HILLS","MI","48331"
457412,"29006 LAUREL RD","MT STERLING","IA","52573"
457413,"29007 UXBRIDGE DR","WILLOWICK","OH","44095"
457414,"29008 COLONIAL DR","GEORGETOWN","TX","78628"
457415,"29009 BANDY ROAD","LITTLE ROCK","AR","72223"
457416,"2901 14TH AVE SOUTHEAST","MANDAN","ND","58554"
457417,"2901 14TH ST NW","WASHINGTON","DC","20009"
457418,"2901 18TH FAIRWAY DR","BELLEVILLE","IL","62220"
457419,"2901 225TH STREET","SAUK VILLAGE","IL","60411"
457420,"2901 25TH ST SW","LEHIGH","FL","33976"
457421,"2901 26 STREET        809","BRADENTON","FL","34205"
457422,"2901 26TH STREET","BRADENTON","FL","34205"
457423,"2901 36TH AVE S","FARGO","ND","58104"
457424,"2901 3RD AVENUE SUITE 330","SEATTLE","WA","98121"
457425,"2901 46TH AVE NE","OLYMPIA","WA","98506"
457426,"2901 67TH AVENUE S","ST PETERSBURG","FL","33712"
457427,"2901 78TH STREET","URBANDALE","IA","50322"
457428,"2901 97TH ST","LUBBOCK","TX","79423"
457429,"2901 ABIGAIL DR APT 3","LOUISVILLE","KY","40205"
457430,"2901 ALBANY STREET","BRUNSWICK","GA","31520"
457431,"2901 ALETHEA DR","MOORE","OK","73160"
457432,"2901 ARNOLD RD","Hamptonville","NC","27020"
457433,"2901 BAKERSMILL","FAYETTEVILLE","NC","28306"
457434,"2901 BARTON SKYWAY APT 2212","AUSTIN","TX","78746"
457435,"2901 BEACON AVE","COLUMBUS","GA","31904"
457436,"2901 BERGAMONT CT","RALEIGH","NC","27614"
457437,"2901 BERTLAND AVE APT 1624","DURHAM","NC","27705"
457438,"2901 BERTLAND AVE SUITE 1334","DURHAM","NC","27705"
457439,"2901 BERTLAND AVE","DURHAM","NC","27709"
457440,"2901 BLEDSOE APT 1329","FORT WORTH","TX","76107"
457441,"2901 BODINE DR","WILMINGTON","DE","19810"
457442,"2901 BOSTON ST UNIT 412","BALTIMORE","MD","21224"
457443,"2901 BOSTON STREET UNIT 412","BALTIMORE","MD","21224"
457444,"2901 BRAXTON ROAD","DRAKES BRANCH","VA","23937"
457445,"2901 BREASTWORKS RD","MCDAVID","FL","32568"
457446,"2901 BREWER HOLLOW RD","WYALUSING","PA","18853"
457447,"2901 BREWER HOLLOW ROAD","WYALUSING","PA","18853"
457448,"2901 BRIARCREEK","CHICKASHA","OK","73018"
457449,"2901 BRIDGE WOOD LANE","BOYNTON BEACH","FL","33472"
457450,"2901 BRIDGEWALK ST","COLUMBUS","OH","43224"
457451,"2901 BRISTOL WAY","GLEN CARBON","IL","62034"
457452,"2901 BROCE DRIVE","NORMAN","OK","73072"
457453,"2901 BROKEN BOW WAY","PLANO","TX","75093"
457454,"2901 BROOK STONE CT","MOORE","OK","73160"
457455,"2901 BRYCE ST","SACRAMENTO","CA","95821"
457456,"2901 BYRDHILL ROAD","RICHMOND","VA","23228"
457457,"2901 CALLE DEL SOL WAY","RANCHO CORDOVA","CA","95670"
457458,"2901 CHEYENNE BLVD","SIOUX CITY","IA","51104"
457459,"2901 CITY PLACE WEST BLVD APT 644","DALLAS","IL","75204"
457460,"2901 CLAREMONT DR","BARTLESVILLE","OK","74006"
457461,"2901 CLEVELAND AVENUE STE 101","SANTA ROSA","CA","95403"
457462,"2901 CLIFFVIEW CT","GRANBURY","TX","76048"
457463,"2901 CLINT MOORE RD","BOCA RATON","FL","33496"
457464,"2901 CLINTMOORE ROAD 326","BOCA RATON","FL","33496"
457465,"2901 CRYSTAL LANE","LUMBERTON","NC","28358"
457466,"2901 CURRY FORD ROAD SUITE 211-B","ORLANDO","FL","32806"
457467,"2901 CUTTERS GROVE APT 219","ANOKA","MN","55303"
457468,"2901 DAKOTA PARK CIR S","FARGO","ND","58104"
457469,"2901 DENTON CUTOFF","LEWISTOWN","MT","59457"
457470,"2901 DESERT ZINNIA LANE","LAS VEGAS","NV","89135"
457471,"2901 DEVONDALE PLACE","SAINT LOUIS","MO","63131"
457472,"2901 DRUID PARK DRIVE    SUITE A100","BALTIMORE","MD","21215"
457473,"2901 DRUID PARK DRIVE   SUITE A100","BALTIMORE","MD","21215"
457474,"2901 DRUID PARK DRIVE SUITE 206","BALTIMORE","MD","21215"
457475,"2901 DRUMMOND PT","HAMPTON","GA","30228"
457476,"2901 DUNBARTON AVE NW","CANTON","OH","44708"
457477,"2901 E 23RD ST","ALVA","FL","33920"
457478,"2901 E 5TH STREET APT 33","GREENVILLE","NC","27858"
457479,"2901 E JOHNSON AVE","PENSACOLA","FL","32514"
457480,"2901 E MAYFIELD RD","GRAND PRAIRIE","TX","75052"
457481,"2901 E TECUMSEH ROAD","NORMAN","OK","73071"
457482,"2901 EARLHAM DR","DAYTON","OH","45406"
457483,"2901 EAST BALTIMORE ST BOX 2","BALTIMORE","MD","21224"
457484,"2901 EAST SUPERIOR STREET","DULUTH","MN","55812"
457485,"2901 EDGEWOOD","ALLIANCE","OH","44601"
457486,"2901 EISSLER STREET","BAKERSFIELD","CA","93306"
457487,"2901 ELIDA DR","GRAND RAPIDS","MN","55744"
457488,"2901 ELM STREET","OVIEDO","FL","32765"
457489,"2901 ELMORE STREET","VIRGINIA BEACH","VA","23456"
457490,"2901 EUCLID AVE APT 322","CLEVELAND","OH","44115"
457491,"2901 EUCLID AVE NE APT 20A","ALBUQUERQUE","NM","87106"
457492,"2901 FAIRFIELD COURT","DUNEDIN","FL","34698"
457493,"2901 FAIRVIEW RD","RALEIGH","NC","27608"
457494,"2901 FALLSTAFF ROAD APT 203","BALTIMORE","MD","21209"
457495,"2901 FAUBOROUGH CT","FORT COLLINS","CO","80525"
457496,"2901 FERRY AVE APT S9","CAMDEN","NJ","08104"
457497,"2901 FLOWER ST","HUNTINGTON PARK","CA","90255"
457498,"2901 FONTENELLE BLVD","OMAHA","NE","68104"
457499,"2901 FOX LAIR DR APT 104","WOODBRIDGE","VA","22191"
457500,"2901 FOX LAIR DRIVE APT 203","WOODBRIDGE","VA","22191"
