"ID","Address","City","State","Zip"
967001,"P O BOX 7547","NORTH BERGEN","NJ","07047"
967002,"P O BOX 755","FLORENCE","SC","29503"
967003,"P O BOX 755","HANOVER","NH","03755"
967004,"P O BOX 755","RULEVILLE","MS","38771"
967005,"P O BOX 755","WESTMINSTER","MD","21158"
967006,"P O BOX 758","ANGEL FIRE","NM","87710"
967007,"P O BOX 76","CEDAR KEY","FL","32625"
967008,"P O BOX 76","EVADALE","TX","77615"
967009,"P O BOX 760","ARROYO SECO","NM","87514"
967010,"P O BOX 760324","LATHRUP-VILLAGE","MI","48076"
967011,"P O BOX 760503","LATHRUP VILLAGE","MI","48076"
967012,"P O BOX 7611","PINE BLUFF","AR","71611"
967013,"P O BOX 7624","BAINBRIDGE","GA","39818"
967014,"P O BOX 763","LOON LAKE","WA","99148"
967015,"P O BOX 7632","DENVER","CO","80207"
967016,"P O BOX 763476","DALLAS","TX","75376"
967017,"P O BOX 764","SWANSEA","SC","29160"
967018,"P O BOX 765","LATON","CA","93242"
967019,"P O BOX 7652","WILTON","CT","06897"
967020,"P O BOX 765234","DALLAS","TX","75376"
967021,"P O BOX 765266","DALLAS","TX","75376"
967022,"P O BOX 7654","SILVER SPRINGS","MD","20907"
967023,"P O BOX 766","ANADARKO","OK","73005"
967024,"P O BOX 76617","MILWAUKEE","WI","53216"
967025,"P O BOX 767","WILLIAMSTON","SC","29697"
967026,"P O BOX 7673","TALLAHASSEE","FL","32314"
967027,"P O BOX 768","MOORHEAD","MS","38671"
967028,"P O BOX 769","TAZEWELL","TN","37879"
967029,"P O BOX 77","EAST SPENCER","NC","28039"
967030,"P O BOX 77","REDCREST","CA","95569"
967031,"P O BOX 77","TALKING ROCK","GA","30175"
967032,"P O BOX 770","HAGERMAN","ID","83332"
967033,"P O BOX 770095","NEW ORLEANS","LA","70117"
967034,"P O BOX 7703","MORENO VALLEY","CA","92552"
967035,"P O BOX 7704","RENO","NV","89510"
967036,"P O BOX 770849","WINTER GARDEN","FL","34777"
967037,"P O BOX 771","DAVIS","WV","26260"
967038,"P O BOX 77116","ATLANTA","GA","30357"
967039,"P O BOX 771383","ST LOUIS","MO","63177"
967040,"P O BOX 772","MONTGOMERY","TX","77356"
967041,"P O BOX 773","DAYTON","IN","47941"
967042,"P O BOX 773","NEWTON","WV","25266"
967043,"P O BOX 773","QUEEN CREEK","AZ","85142"
967044,"P O BOX 773","STOLLINGS","WV","25646"
967045,"P O BOX 77363","TUCSON","AZ","85703"
967046,"P O BOX 774","HARROGATE","TN","37752"
967047,"P O BOX 774","RANCHOS DE TAOS","NM","87557"
967048,"P O BOX 7742","HAMPTON","VA","23666"
967049,"P O BOX 775","HIXSON","TN","37343"
967050,"P O BOX 776283","STEAMBOAT SPRINGS","CO","80477"
967051,"P O BOX 777","HAMILTON","GA","31811"
967052,"P O BOX 777","RICHLAND","MO","65556"
967053,"P O BOX 778","GARRISONVILLE","VA","22463"
967054,"P O BOX 7781","CHRISTIANSTED","VI","00823"
967055,"P O BOX 78","GRANVILLE","TN","38564"
967056,"P O BOX 780","CEDAR HILL","TX","75106"
967057,"P O BOX 780833","WICHITA","KS","67278"
967058,"P O BOX 780837","SEBASTIAN","FL","32978"
967059,"P O BOX 781","FORT MEADE","FL","33841"
967060,"P O BOX 781","WEST PLAINS","MO","65775"
967061,"P O BOX 781035","ORLANDO","FL","32878"
967062,"P O BOX 781925","WICHITA","KS","67278"
967063,"P O BOX 782","FLIPPIN","AR","72634"
967064,"P O BOX 782","MOUNTAINAIR","NM","87036"
967065,"P O BOX 782295","ORLANDO","FL","32878"
967066,"P O BOX 783","FAYETTEVILLE","WV","25840"
967067,"P O BOX 785","SOPHIA","WV","25921"
967068,"P O BOX 786","NORRIS","TN","37828"
967069,"P O BOX 787","COLUMBUS","NC","28722"
967070,"P O BOX 787","LUSK","WY","82225"
967071,"P O BOX 7878","KINGSHILL","VI","00850"
967072,"P O BOX 788","CHESTER","SC","29706"
967073,"P O BOX 788","SOMERSET","TX","78069"
967074,"P O BOX 79","RIDDLETON","TN","37151"
967075,"P O BOX 790","KALISPELL","MT","59903"
967076,"P O BOX 790","PORT GIBSON","MS","39150"
967077,"P O BOX 7905","PORT SAINT LUCIE","FL","34952"
967078,"P O BOX 791","COLLINSVILLE","IL","62234"
967079,"P O BOX 792","HEDGESVILLE","WV","25427"
967080,"P O BOX 792","YORKTOWN","VA","23692"
967081,"P O BOX 792113","NEW ORLEANS",NA,NA
967082,"P O BOX 793","BLACK CREEK","GA","31308"
967083,"P O BOX 793","MILLBRAE","CA","94030"
967084,"P O BOX 794","SHADY COVE","OR","97539"
967085,"P O BOX 79443","HOUSTON","TX","77279"
967086,"P O BOX 796","FLEISCHMANNS","NY","12430"
967087,"P O BOX 796","TERRELL","TX","75160"
967088,"P O BOX 79670","DALLAS","TX","75379"
967089,"P O BOX 8","ALVA","FL","33920"
967090,"P O BOX 8","BARBOURSVILLE","WV","25504"
967091,"P O BOX 8","DORSET","OH","44032"
967092,"P O BOX 8","GUSTAVUS","AK","99826"
967093,"P O BOX 8","NORTH WASHINGTON","PA","16048"
967094,"P O BOX 8","THREE RIVERS","TX","78071"
967095,"P O BOX 8","WEST MINERAL","KS","66762"
967096,"P O BOX 80","STUTTGART","AR","72160"
967097,"P O BOX 80006","SIMPSONVILLE","SC","29680"
967098,"P O BOX 80011","CONYERS","GA","30013"
967099,"P O BOX 800266","DALLAS","TX","75380"
967100,"P O BOX 8006","CANTON","OH","44711"
967101,"P O BOX 8010","CHRISTIANSTED","VI","00823"
967102,"P O BOX 8010","SEMINOLE","FL","33775"
967103,"P O BOX 80116","BATON ROUGE","LA","70898"
967104,"P O BOX 801437","ACWORTH","GA","30101"
967105,"P O BOX 802","CALVERTON","NY","11933"
967106,"P O BOX 802","GARDEN VALLEY","ID","83622"
967107,"P O BOX 80248","CONYERS","GA","30013"
967108,"P O BOX 802712","DALLAS","TX","75380"
967109,"P O BOX 803","FOREST","MS","39074"
967110,"P O BOX 803","IONE","WA","99139"
967111,"P O BOX 803234","SANTA CLARITA","CA","91380"
967112,"P O BOX 8034","LACEY","WA","98509"
967113,"P O BOX 80353","SIMPSONVILLE","SC","29680"
967114,"P O BOX 8036","HOUMA","LA","70361"
967115,"P O BOX 804","HUGO","CO","80821"
967116,"P O BOX 804","SHEBOYGAN","WI","53082"
967117,"P O BOX 805","CLEVELAND","TX","77328"
967118,"P O BOX 805","PINEVILLE","WV","24874"
967119,"P O BOX 8052","STOCKTON","CA","95208"
967120,"P O BOX 806","KEYPORT","WA","98345"
967121,"P O BOX 806511","CHICAGO","IL","60680"
967122,"P O BOX 807","AMELIA","VA","23002"
967123,"P O BOX 807","PETERSTOWN","WV","24963"
967124,"P O BOX 807","STEPHENS","AR",NA
967125,"P O BOX 8070","CHRISTIANSTED","VI","00823"
967126,"P O BOX 808","WYLIE","TX","75098"
967127,"P O BOX 81","DEWITT","AR","72042"
967128,"P O BOX 81","NEW WASHINGTON","IN","47162"
967129,"P O BOX 81","THOMAS","WV","26292"
967130,"P O BOX 810","OOLTEWAH","TN","37363"
967131,"P O BOX 8102","COLUMBIA","SC","29209"
967132,"P O BOX 812","HORSESHOE","NC","28742"
967133,"P O BOX 812","KENANSVILLE","NC","28349"
967134,"P O BOX 81222","MOBILE","AL","36689"
967135,"P O BOX 81325","CHICAGO","IL","60681"
967136,"P O BOX 813676","SMYRNA","GA","30081"
967137,"P O BOX 814","ANAHUAC","TX","77514"
967138,"P O BOX 814076","HOLLYWOOD","FL","33081"
967139,"P O BOX 815","CARNATION","WA","98014"
967140,"P O BOX 815","FALFURRIAS","TX","78355"
967141,"P O BOX 815","HOLLISTER","MO","65673"
967142,"P O BOX 815","VALLEY SPRINGS","CA","95252"
967143,"P O BOX 8158","STATESBORO","GA","30460"
967144,"P O BOX 817","PAHRUMP","NV","89041"
967145,"P O BOX 8175","GREENVILLE","SC","29604"
967146,"P O BOX 818","COATS","NC","27521"
967147,"P O BOX 818","DANBURY","TX","77534"
967148,"P O BOX 81876","CONYERS","GA","30013"
967149,"P O BOX 819","LIVINGSTON","AL","35470"
967150,"P O BOX 8192","PORT SAINT LUCIE","FL","34985"
967151,"P O BOX 82 BAMENDA - CAMEROON","BAMENDA",NA,NA
967152,"P O BOX 82","CUMBERLAND","ME","04021"
967153,"P O BOX 82","EAST FALMOUTH","MA","02536"
967154,"P O BOX 820","BIXBY","OK","74008"
967155,"P O BOX 820","HURST","TX","76053"
967156,"P O BOX 820","PAULDEN","AZ","86334"
967157,"P O BOX 820067","NEW ORLEANS","LA","70122"
967158,"P O BOX 820067","NEW ORLEANS","LA","70182"
967159,"P O BOX 820386","HOUSTON","TX","77282"
967160,"P O BOX 821","WAILUKU","HI","96793"
967161,"P O BOX 821113","N RICHLAND HILLS","TX","76182"
967162,"P O BOX 82161","PEMBROKE PINES","FL","33082"
967163,"P O BOX 821893","VICKSBURG","MS","39182"
967164,"P O BOX 822","CLEVELAND","OK","74020"
967165,"P O BOX 822","DAVIS","WV","26260"
967166,"P O BOX 822","LOYALTON","CA","96118"
967167,"P O BOX 822","WELCH","WV","24801"
967168,"P O BOX 822055","PEMBROKE PINES","FL","33082"
967169,"P O BOX 8222","JACKSON","MS","39284"
967170,"P O BOX 823","SEVERNA PARK","MD","21146"
967171,"P O BOX 8233","FORT","TX","76124"
967172,"P O BOX 824","WILLS POINT","TX","75169"
967173,"P O BOX 824141","DALLAS","TX","75382"
967174,"P O BOX 8243","FORT WORTH","TX","76124"
967175,"P O BOX 8249","MRYTLE BEACH","SC","29578"
967176,"P O BOX 826","GARDENDALE","TX","79758"
967177,"P O BOX 826","PORTSMOUTH","RI","02871"
967178,"P O BOX 828","SLIDELL","LA","70459"
967179,"P O BOX 828","SOPHIA","WV","25921"
967180,"P O BOX 82914","TAMPA","FL","33682"
967181,"P O BOX 8292","PORTSMOUTH","NH","03802"
967182,"P O BOX 83","GUFFEY","CO","80820"
967183,"P O BOX 83","JENNINGS","LA","70546"
967184,"P O BOX 83","MILLBROOK","NY","12545"
967185,"P O BOX 83","ST THOMAS","VI","00804"
967186,"P O BOX 830023","TUSKEGEE","AL","36083"
967187,"P O BOX 830088","TUSKEGEE","AL","36083"
967188,"P O BOX 830244","TUSKEGEE","AL","36083"
967189,"P O BOX 830365","TUSKEGEE","AL","36083"
967190,"P O BOX 830614","TUSKEGEE","AL","36083"
967191,"P O BOX 831","BERKELEY SPRINGS","WV","25411"
967192,"P O BOX 832","LYNWOOD","CA","90262"
967193,"P O BOX 832","PETERSTOWN","WV","24963"
967194,"P O BOX 834","GLENDORA","CA","91740"
967195,"P O BOX 834","MCKEESPORT","PA","15134"
967196,"P O BOX 834","OKAHUMPKA","FL","34762"
967197,"P O BOX 83444","CONYERS","GA","30013"
967198,"P O BOX 835","BARBOURSVILLE","WV","25504"
967199,"P O BOX 835","SOUTH BOSTON","VA","24558"
967200,"P O BOX 8358","ST THOMAS","VI","00801"
967201,"P O BOX 838","DAYTON","TN","37321"
967202,"P O BOX 8390","ALEXANDRIA","VA","22306"
967203,"P O BOX 84","DUNCAN","MS","38740"
967204,"P O BOX 84","DUNCAN","NE","68634"
967205,"P O BOX 84","HORATIO","SC","29062"
967206,"P O BOX 84","RAMSEY","NJ","07446"
967207,"P O BOX 84","TREGO","MT","59934"
967208,"P O BOX 8401","TUCSON","AZ","85738"
967209,"P O BOX 8404","GREENWOOD","MS","38935"
967210,"P O BOX 8406","FT WORTH","TX","76124"
967211,"P O BOX 841","BELTSVILLE","MD","20704"
967212,"P O BOX 841","BOAZ","AL","35957"
967213,"P O BOX 841356","PEARLAND","TX","77584"
967214,"P O BOX 841395","PEARLAND","TX","77584"
967215,"P O BOX 841478","PEARLAND","TX","77584"
967216,"P O BOX 842","SEVERNA PARK","MD","21146"
967217,"P O BOX 8420","HUNTSVILLE","TX","77340"
967218,"P O BOX 8422","JACKSONVILLE","TX","76766"
967219,"P O BOX 84301","PEARLAND","TX","77584"
967220,"P O BOX 844","WAIANAE","HI","96792"
967221,"P O BOX 8470","WACO","TX","76714"
967222,"P O BOX 8470","WICHITA","KS","67208"
967223,"P O BOX 85","BELMAR","NJ","07719"
967224,"P O BOX 85","ELLISBURG","NY","13636"
967225,"P O BOX 85","ONEONTA","AL","35121"
967226,"P O BOX 85","REDFIELD","IA","50233"
967227,"P O BOX 85","SPURGER","TX","77660"
967228,"P O BOX 850","LIVINGSTON","LA","70754"
967229,"P O BOX 850","WAYNESBORO","TN","38485"
967230,"P O BOX 8502","SAN LUIS","AZ","85349"
967231,"P O BOX 850892","MOBILE","AL","36685"
967232,"P O BOX 851","CLANTON","AL","35046"
967233,"P O BOX 851044","MESQUITE","TX","75185"
967234,"P O BOX 852","LOUISVILLE","GA","30434"
967235,"P O BOX 852","ONEONTA","AL","35121"
967236,"P O BOX 8524","HUNTSVILLE","AL","35808"
967237,"P O BOX 853","PRAIRIEVILLE","LA","70769"
967238,"P O BOX 855","RACINE","OH","45771"
967239,"P O BOX 8557","FRESNO","CA","93747"
967240,"P O BOX 856","MOBILE","AL","36601"
967241,"P O BOX 857","CENTRE","AL","35960"
967242,"P O BOX 8573","SAVANNAH","GA","31412"
967243,"P O BOX 858","JEFFERSON","GA","30549"
967244,"P O BOX 86","BRONX","NY","10451"
967245,"P O BOX 86","CARLYLE","IL","62231"
967246,"P O BOX 86","MOUNT VERNON","NY","10552"
967247,"P O BOX 86","SHEPHERDSTOWN","WV","25443"
967248,"P O BOX 860","WINNSBORO","TX","75494"
967249,"P O BOX 860066","SHAWNEE","KS","66286"
967250,"P O BOX 8601","ST. THOMAS","VI","00801"
967251,"P O BOX 861","MILLBROOK","NY","12545"
967252,"P O BOX 861438","WARRENTON","VA","20187"
967253,"P O BOX 861544","LOS ANGELES","CA","90086"
967254,"P O BOX 862","BRISTOW","OK","74010"
967255,"P O BOX 862","LIVERMORE","CA","94551"
967256,"P O BOX 8625","SPRINGFIELD","MO","66801"
967257,"P O BOX 863","NEW YORK","NY","10008"
967258,"P O BOX 863","WHEATON","IL","60187"
967259,"P O BOX 864","MATHIS","TX","78368"
967260,"P O BOX 86422","TUCSON","AZ","85754"
967261,"P O BOX 865","PAHALA","HI","96777"
967262,"P O BOX 866","LYONS","GA","30436"
967263,"P O BOX 869","PENITAS","TX","78576"
967264,"P O BOX 8697","HONOLULU","HI","96830"
967265,"P O BOX 86975","LOS ANGELES","CA","90086"
967266,"P O BOX 87","JOSHUA","TX","76058"
967267,"P O BOX 870-488","NEW ORLEANS","LA","70187"
967268,"P O BOX 870007","STONE MOUNTAIN","GA","30087"
967269,"P O BOX 870221","NEW ORLEANS","LA","70187"
967270,"P O BOX 870713","STONE MOUNTAIN","GA","30087"
967271,"P O BOX 870991","NEW ORLEANS","LA","70187"
967272,"P O BOX 871","HUMBLE","TX","77347"
967273,"P O BOX 8710","AVON","CO","81620"
967274,"P O BOX 871881","VANCOUVER","WA","98684"
967275,"P O BOX 87305","MESQUITE","TX","75150"
967276,"P O BOX 87436","CHICAGO","IL","60680"
967277,"P O BOX 875","FOREST","VA","24551"
967278,"P O BOX 876","MAURICE","LA","70555"
967279,"P O BOX 876","NAMPA","ID","83651"
967280,"P O BOX 877","MORRISVILLE","NC","27560"
967281,"P O BOX 878","VAN VLECK","TX","77482"
967282,"P O BOX 879","OLIVE HILL","KY","41164"
967283,"P O BOX 879","WINLOCK","WA","98596"
967284,"P O BOX 8791","ST. THOMAS","VI","00801"
967285,"P O BOX 88","LAKE CREEK","TX","75450"
967286,"P O BOX 88","MATHISTON","MS","39752"
967287,"P O BOX 880275","PUKALANI","HI","96788"
967288,"P O BOX 881","LINCOLN","AR","72744"
967289,"P O BOX 882","GRIFFIN","GA","30224"
967290,"P O BOX 882","GROVELAND","FL","34736"
967291,"P O BOX 882","NITRO","WV","25143"
967292,"P O BOX 882","OLNEY","MD","20832"
967293,"P O BOX 883","ATLANTA","GA","30101"
967294,"P O BOX 883","JENKS","OK","74037"
967295,"P O BOX 8837","INDEPENDENCE","MO","64114"
967296,"P O BOX 8837","KANSAS CITY","MO","64114"
967297,"P O BOX 885","FERNDALE","CA","95536"
967298,"P O BOX 885","NOVI","MI","48376"
967299,"P O BOX 885","ROSENBERG","TX","77471"
967300,"P O BOX 8855","WARNER ROBINS","GA","31088"
967301,"P O BOX 886","HINESVILLE","GA","31310"
967302,"P O BOX 887","HALIFAX","VA","24558"
967303,"P O BOX 887","HINESVILLE","GA","31310"
967304,"P O BOX 8885","SPRING","TX","77387"
967305,"P O BOX 889","KANEOHE","HI","96744"
967306,"P O BOX 889","SUWANEE","GA","30024"
967307,"P O BOX 8897","TYLER","TX","75711"
967308,"P O BOX 89","LELAND","MS","38756"
967309,"P O BOX 89","SELMA","CA","93662"
967310,"P O BOX 890420","OKLAHOMA CITY","OK","73169"
967311,"P O BOX 8916","ST. THOMAS","VI","00801"
967312,"P O BOX 892","RIVERDALE","MD","20738"
967313,"P O BOX 893010","TEMECULA","CA","92589"
967314,"P O BOX 896","BRYAN","OH","43506"
967315,"P O BOX 896","THREE RIVERS","CA","93271"
967316,"P O BOX 897","PIERRE","SD","57501"
967317,"P O BOX 897","THREE RIVERS","CA","93271"
967318,"P O BOX 898","BLUE LAKE","CA","95525"
967319,"P O BOX 9","DEXTER","ME","04930"
967320,"P O BOX 9","EVADALE","TX","77615"
967321,"P O BOX 9","FAIRLAND","OK","74343"
967322,"P O BOX 9","NAZARETH","KY","40008"
967323,"P O BOX 9","PARADISE VALLEY","NV","89426"
967324,"P O BOX 9","SCHULENBURG","TX","78956"
967325,"P O BOX 9","TUMACACORI","AZ","85640"
967326,"P O BOX 90","ELGIN","OK","73538"
967327,"P O BOX 90","HAWTHORNE","NJ","07507"
967328,"P O BOX 90","LA CENTER","KY","42056"
967329,"P O BOX 90","PARADISE VLY","NV","89426"
967330,"P O BOX 90","SALE CREEK","TN","37373"
967331,"P O BOX 900","THREE RIVERS","CA","93271"
967332,"P O BOX 900","WESTFIELD CTR","OH","44251"
967333,"P O BOX 900221","HOMESTEAD","FL","33090"
967334,"P O BOX 901055","MEMPHIS","TN","38190"
967335,"P O BOX 901552","KANSAS CITY","MO","64190"
967336,"P O BOX 902","DEERFIELD BEACH","FL","33443"
967337,"P O BOX 902","HOMER","AK","99603"
967338,"P O BOX 9020","KAILUA KONA","HI","96740"
967339,"P O BOX 9020","TYLER","TX","75711"
967340,"P O BOX 902150","MEMPHIS","TN","38190"
967341,"P O BOX 90224","WASHINGTON","DC","20090"
967342,"P O BOX 90257","WASHINGTON","DC","20090"
967343,"P O BOX 9027","PENSACOLA","FL","32513"
967344,"P O BOX 903","LUFKIN","TX","75904"
967345,"P O BOX 90373","ANCHORAGE","AK","99509"
967346,"P O BOX 904","BREWTON","AL","36426"
967347,"P O BOX 90403","NASHVILLE","TN","37209"
967348,"P O BOX 90457","PHOENIX","AZ","85066"
967349,"P O BOX 905","GROVES","TX","77619"
967350,"P O BOX 905","PETAL","MS","39465"
967351,"P O BOX 90507","LOS ANGELES","CA","90009"
967352,"P O BOX 906","COLUMBIA","KY","42728"
967353,"P O BOX 906","ORANGE","CA","92856"
967354,"P O BOX 9062","RICHMOND","VA","23225"
967355,"P O BOX 90682","HOUSTON","TX","77290"
967356,"P O BOX 907","WEST JORDAN","UT","84084"
967357,"P O BOX 90751","SAN BERNARDINO","CA","92427"
967358,"P O BOX 908","JASPER","TX","75951"
967359,"P O BOX 91","FORT WORTH","TX","76101"
967360,"P O BOX 91","HUMBLE","TX","77347"
967361,"P O BOX 91","LOS ALAMITOS","CA","90720"
967362,"P O BOX 91","NETTLETON","MS","38858"
967363,"P O BOX 91","TENNYSON","IN","47637"
967364,"P O BOX 91099","COLUMBIA","SC","29223"
967365,"P O BOX 911","BROOKNEAL","VA","24528"
967366,"P O BOX 911","BRYAN","TX","77806"
967367,"P O BOX 911","CAPE MAY COURT HOUSE","NJ","08210"
967368,"P O BOX 912","ATHENS","TX","75751"
967369,"P O BOX 912","CHIEFLAND","FL","32644"
967370,"P O BOX 912","DUCKTOWN","TN","37326"
967371,"P O BOX 912","GUILDERLAND","NY","12084"
967372,"P O BOX 912","ZANESVILLE","OH","43702"
967373,"P O BOX 91282","RALEIGH","NC","27675"
967374,"P O BOX 913","MONROVIA","CA","91017"
967375,"P O BOX 913","PT CLEAR","AL","36564"
967376,"P O BOX 914","BEATTY","NV","89003"
967377,"P O BOX 914","MARIANNA","AR","72360"
967378,"P O BOX 914","MCGEHEE","AR","71654"
967379,"P O BOX 91462","LAKELAND","FL","33804"
967380,"P O BOX 91485","HOUSTON","TX","77291"
967381,"P O BOX 915","COLUMBIA","MO","65205"
967382,"P O BOX 915","WINDERMERE","FL","34786"
967383,"P O BOX 91531","LAKELAND","FL","33804"
967384,"P O BOX 917","NEDERLAND","CO","80466"
967385,"P O BOX 92","AMESBURY","MA","01913"
967386,"P O BOX 92","CORNING","CA","96021"
967387,"P O BOX 92","HAILEY","ID","83333"
967388,"P O BOX 92","KELSO","MO","63758"
967389,"P O BOX 92","LISMAN","AL","36912"
967390,"P O BOX 92","MADISON","WV","25130"
967391,"P O BOX 92","NORTH SUTTON","NH","03260"
967392,"P O BOX 92","TABOR","IA","51653"
967393,"P O BOX 920536","HOUSTON","TX","77292"
967394,"P O BOX 921","FRUITLAND PARK","FL","34731"
967395,"P O BOX 921","WINSTON","GA","30187"
967396,"P O BOX 9217","MONTGOMERY","AL","36108"
967397,"P O BOX 922","KAPAA","HI","96746"
967398,"P O BOX 922","OKMULGEE","OK","74447"
967399,"P O BOX 92345","LONG BEACH","CA","90809"
967400,"P O BOX 924","FORNEY","TX","75126"
967401,"P O BOX 924","KIIHEI","HI","96753"
967402,"P O BOX 924111","HOMESTEAD","FL","33032"
967403,"P O BOX 92417","WASHINGTON","DC","20090"
967404,"P O BOX 924613","HOUSTON","TX","77292"
967405,"P O BOX 926","FAYETTEVILLE","GA","30214"
967406,"P O BOX 927","ROYSE CITY","TX","75189"
967407,"P O BOX 92710","LAKELAND","FL","33804"
967408,"P O BOX 92731","LONG BEACH","CA","90809"
967409,"P O BOX 928","ANCHOR POINT","AK","99556"
967410,"P O BOX 929","DAYTONA BEACH","FL","32115"
967411,"P O BOX 929","WHITE SULPHUR SPRING","WV","24986"
967412,"P O BOX 93","ADDISON","TX","75001"
967413,"P O BOX 93","GATESVILLE","NC","27938"
967414,"P O BOX 93","LINCOLN","DE","19960"
967415,"P O BOX 93","MARION","SC","29571"
967416,"P O BOX 93","ROUGH READY","CA","95975"
967417,"P O BOX 930151","NORCROSS","GA","30003"
967418,"P O BOX 931","LOON LAKE","WA","99148"
967419,"P O BOX 931","OCOEE","FL","34761"
967420,"P O BOX 931","RED OAK","TX","75154"
967421,"P O BOX 932","NEW YORK","NY","10030"
967422,"P O BOX 933","CHRISTIANSTED","VI","00821"
967423,"P O BOX 933","HOLLIDAY","TX","76366"
967424,"P O BOX 933","SMITH STATION","AL","36877"
967425,"P O BOX 93381","CLEVELAND","OH","44101"
967426,"P O BOX 935","WEST POINT","CA","95255"
967427,"P O BOX 936","MARION","MT","59925"
967428,"P O BOX 936","MENARD","TX","76859"
967429,"P O BOX 936","REDWOOD VALLEY","CA","95470"
967430,"P O BOX 93658","CITY OF INDUSTRY","CA","91715"
967431,"P O BOX 938","BEATTY","NV","89003"
967432,"P O BOX 938","ELM CITY","NC","27822"
967433,"P O BOX 94","ALPINE","TX","79831"
967434,"P O BOX 94","DYERSBRUG","TN","38025"
967435,"P O BOX 94","GRAPELAND","TX","75844"
967436,"P O BOX 94","MIDWAY","GA","31320"
967437,"P O BOX 94","PRIDDY","TX","76870"
967438,"P O BOX 940031","HOUSTON","TX","77094"
967439,"P O BOX 940672","PLANO","TX","75094"
967440,"P O BOX 941054","ATLANTA","GA","31141"
967441,"P O BOX 941383","MAITLAND","FL","32794"
967442,"P O BOX 941522","HOUSTON","TX","77094"
967443,"P O BOX 942","ALVIN","TX","77512"
967444,"P O BOX 942","SPRINGFIELD","OH","45501"
967445,"P O BOX 942","TAYLOR","TX","76574"
967446,"P O BOX 942522","HOUSTON","TX","77094"
967447,"P O BOX 943","FAYETTEVILLE","GA","30214"
967448,"P O BOX 9433","PENSACOLA","FL","32513"
967449,"P O BOX 944","GROESBECK","TX","76642"
967450,"P O BOX 944","KINGS MTN","NC","28086"
967451,"P O BOX 945","LINCOLN CITY","OR","97367"
967452,"P O BOX 949","COLDSPRING","TX","77331"
967453,"P O BOX 949","EUREKA","CA","95502"
967454,"P O BOX 95","ARUA","LA","70506"
967455,"P O BOX 95","CROSBY","PA","16724"
967456,"P O BOX 95","D'LO","MS","39062"
967457,"P O BOX 95","DAYTON","OH","45401"
967458,"P O BOX 95","HOLTVILLE","CA","92250"
967459,"P O BOX 95","JACKSON","MN","56143"
967460,"P O BOX 950263","LAKE MARY","FL","32795"
967461,"P O BOX 951","ANAHUAC","TX","77514"
967462,"P O BOX 9513","WILMINGTON","DE","19809"
967463,"P O BOX 9516","COLLEGE STATION","TX","77842"
967464,"P O BOX 95213","SEATTLE","WA","98145"
967465,"P O BOX 9535","BEXLEY","OH","43209"
967466,"P O BOX 955","KIMBERTON","PA","19442"
967467,"P O BOX 955","WILDOMAR","CA","92595"
967468,"P O BOX 957","AGUADA","PR","00602"
967469,"P O BOX 957","PICKENS","MS","39146"
967470,"P O BOX 957235","DULUTH","GA","30095"
967471,"P O BOX 957403","DULUTH","GA","30095"
967472,"P O BOX 958188","DULUTH","GA","30096"
967473,"P O BOX 95886","SEATTLE","WA","98145"
967474,"P O BOX 959","SWEENY","TX","77480"
967475,"P O BOX 96","ALBION","ID","83311"
967476,"P O BOX 96","FLATONIA","TX","78941"
967477,"P O BOX 96","RANDOLPH","OH","44265"
967478,"P O BOX 96","WATERTOWN","TN","37184"
967479,"P O BOX 960","POPLARVILLE","MS","39470"
967480,"P O BOX 960994","RIVERDALE","GA","30296"
967481,"P O BOX 961","PINE LAKE","GA","30260"
967482,"P O BOX 9614","CHARLOTTE AMALIE","VI","00801"
967483,"P O BOX 962","CRANE","TX","79731"
967484,"P O BOX 962","LATROBE","PA","15650"
967485,"P O BOX 96272","HOUSTON","TX","77213"
967486,"P O BOX 963","BURNSVILLE","NC","28714"
967487,"P O BOX 963","PINE BUSH","NY","12566"
967488,"P O BOX 9636","TYLER","TX","75711"
967489,"P O BOX 964","DUNCAN","AZ","85534"
967490,"P O BOX 965","MIMS","FL","32754"
967491,"P O BOX 965","TEMPLETON","CA","93465"
967492,"P O BOX 966","CLARKSTON","GA","30021"
967493,"P O BOX 966","RANCHOS DE TAOS","NM","87557"
967494,"P O BOX 968","CHICKASHA","OK","73023"
967495,"P O BOX 9683","COLUMBUS","OH","43209"
967496,"P O BOX 9685","FAYETTEVILLE","NC","28311"
967497,"P O BOX 9685","PORT ST LUCIE","FL","34985"
967498,"P O BOX 97","LITTLE RIVER","AL","36550"
967499,"P O BOX 970 PARK FOREST","CHICAGO","IL","60466"
967500,"P O BOX 9705","FOUNTAIN VALLEY","CA","92728"
