"ID","Address","City","State","Zip"
63001,"1107 GREENRIVER TRAIL","CLEBURNE","TX","76033"
63002,"1107 GROVE ST","BALDWIN","KS","66006"
63003,"1107 GUSTAFSON AVE","BLACKSBURG","VA","24060"
63004,"1107 HACKBERRY DR","MASCOUTAH","IL","62258"
63005,"1107 HARDING","WICHITA","KS","67214"
63006,"1107 HARSON CT","GLENN HEIGHTS","TX","75706"
63007,"1107 HEATHFIELD DR","CHANNELVIEW","TX","77530"
63008,"1107 HERITAGE DRIVE","MCPHERSON","KS","67460"
63009,"1107 HIGHLAND ST","MONTROSE","CO","81401"
63010,"1107 HIGHWAY 16","FREDERICKSBURG","TX","78624"
63011,"1107 HILL ROAD","JASPER","AL","35501"
63012,"1107 HOLLYBURNE AVENUE","MENLO PARK","CA","94025"
63013,"1107 HONEYSUCKLE DR APT 11","HARRISBURG","SD","57032"
63014,"1107 HUBBLE STREET","FAIRBURY","NE","68352"
63015,"1107 INDEPENDENCE DRIVE","WEST CHESTER","PA","19382"
63016,"1107 JACKSON ST","NASHVILLE","TN","37208"
63017,"1107 JACKSON STREET","NASHVILLE","TN","37208"
63018,"1107 KENILWORTH DRIVE SUITE 305","TOWSON","MD","21204"
63019,"1107 KENILWORTH","TOWSON","MD","21204"
63020,"1107 KENNEDY DRIVE","PINCKNEYVILLE","IL","62274"
63021,"1107 KESTREL DRIVE","PATTERSON","CA","95363"
63022,"1107 KEY PLAZA NO 241","KEY WEST","FL","33040"
63023,"1107 KING WAY","BREINIGSVILLE","PA","18031"
63024,"1107 KINGS HEATHER DR","BOWIE","MD","20721"
63025,"1107 LANDGRAF","CAPE GIRARDEAU","MO","63701"
63026,"1107 LEGACY LN","WEST CHESTER","PA","19382"
63027,"1107 LEXINGTON AVE","DAYTON","OH","45402"
63028,"1107 LOCUST AVENUE","PAPILLON","NE","68046"
63029,"1107 LYNN DRIVE","KINSTON","NC","28504"
63030,"1107 MADISON STREET","PAWNEE","IL","62558"
63031,"1107 MAIN ST","HUNTINGTON  BCH","CA","92648"
63032,"1107 MAIN ST","HUNTINGTON BEACH","CA","92648"
63033,"1107 MAIN STREET/PO BOX 241","RUBY","NY","12475"
63034,"1107 MAJOR DRIVE","JEFFERSON CITY","MO","65101"
63035,"1107 MANTUA PIKE","MANTUA","NJ","08051"
63036,"1107 MAPLE DRIVE NW","CLEVELAND","TN","37312"
63037,"1107 MARSH ROAD","WILMINGTON","DE","19803"
63038,"1107 MAUREEN LANE","CINCINNATI","OH","45238"
63039,"1107 MAURY LANE","GREENSBORO","NC","27401"
63040,"1107 MEADOW CREEK DRIVE","IRVING","TX","75038"
63041,"1107 MEADOW SIDE DR","PRINCETON","TX","75407"
63042,"1107 MECHANIC STREET","OSAGE","IA","50461"
63043,"1107 MEDALFIELD DRIVE APT 2F","SUMMERTON","SC","29148"
63044,"1107 MILL LAKE QUARTER","CHESAPEAKE","VA","23320"
63045,"1107 MLK BLVD","MACON","GA","31201"
63046,"1107 MOFFETT RD","MODESTO","CA","95351"
63047,"1107 MORRIS ST","HAMMOND","IN","46320"
63048,"1107 MOSSRIDGE DRIVE","MISSOURI CITY","TX","77489"
63049,"1107 N 29 TH ST","RICHMOND","VA","23223"
63050,"1107 N 33RD STREET","CAMDEN","NJ","08105"
63051,"1107 N 7TH STREET","BALLINGER","TX","76821"
63052,"1107 N ASKARBEN STREET","WICHITA","KS","67235"
63053,"1107 N ATLANTIC DR","LANTANA","FL","33462"
63054,"1107 N BATAVIA ST","ORANGE","CA","92867"
63055,"1107 N COLLINGTON AVE","BALTIMORE","MD","21213"
63056,"1107 N COMMUNITY DRIVE","JUPITER","FL","33458"
63057,"1107 N EDGEMOOR STREET","WICHITA","KS","67208"
63058,"1107 N FEDERAL HIGHWAY","FORT LAUDERDALE","FL","33304"
63059,"1107 N FOREST OAK DRIVE","HENDERSON","KY","42420"
63060,"1107 N GILMOR  STREET","BALTIMORE","MD","21217"
63061,"1107 N HILL ST","SOUTH BEND","IN","44617"
63062,"1107 N LINCOLN ST","AMARILLO","TX","79107"
63063,"1107 N LINCOLN","AMARILLO","TX","79107"
63064,"1107 N SHAVER STREET","SALISBURY","NC","28144"
63065,"1107 NE 4TH AVE","WILLISTON","FL","32696"
63066,"1107 NE PINE ISLAND LN","CAPE CORAL","FL","33909"
63067,"1107 NEAL ROAD APT B","WATERTOWN","TN","37184"
63068,"1107 NIGHTCREST CIR","CORONA","CA","92881"
63069,"1107 NIMITZ DR","DUNCANVILLE","TX","75137"
63070,"1107 NIMITZ","DUNCANVILLE","TX","75137"
63071,"1107 NORTH J STREET","ELWOOD","IN","46036"
63072,"1107 NORTH J STRTEET","ELWOOD","IN","46036"
63073,"1107 NORTH MAIN STREET","BICKNELL","IN","47512"
63074,"1107 NORTH PARKWOOD DRIVE","FOREST PARK","GA","30297"
63075,"1107 NURSERY ROAD","ROGERS","AR","72758"
63076,"1107 NW 107 ST","MIAMI","FL","33168"
63077,"1107 O GRADY DRIVE","CHATTANOOGA","TN","37404"
63078,"1107 OAK MEADOW BLVD","JONESBORO","AR","72401"
63079,"1107 OLD FORGE ROAD","NEW CASTLE","DE","19720"
63080,"1107 ONTARIO AVE","NIAGARA","NY","14305"
63081,"1107 PARK DRIVE","HILLSBORO","TX","76645"
63082,"1107 PARKLAY CIRCLE","DALLAS","TX","75211"
63083,"1107 PARKS ROAD","WESTON","WY","82716"
63084,"1107 PARKS ROAD","WESTON","WY","82731"
63085,"1107 PENNYWORTH DR","SUGAR LAND","TX","77479"
63086,"1107 PERSIMMON AVE","LUFKIN","TX","75904"
63087,"1107 PINECREST DR","TALLAHASSEE","FL","32301"
63088,"1107 PINEHURST","HAYS","KS","67601"
63089,"1107 PLAYER WAY","HERNDON","VA","20170"
63090,"1107 POPLAR STREET","KULPMONT","PA","17834"
63091,"1107 POST OAK ROAD","LA GRANGE","TX","78945"
63092,"1107 RADIUS WAY","NEWPORT NEWS","VA","23602"
63093,"1107 RAINBOW AVENUE","MYRTLE BEACH","SC","29577"
63094,"1107 RAMANO DR","BELTON","SC","29627"
63095,"1107 RANSOM ROAD","LANCASTER","NY","14086"
63096,"1107 REDBUD DR","FRANKLIN","KY","42134"
63097,"1107 REGINA DRIVE","ALLEN","TX","75013"
63098,"1107 ROBERTS DRIVE","GODFREY","IL","62035"
63099,"1107 ROLAND HEIGHTS AVE","BALTIMORE","MD","21211"
63100,"1107 ROSEBURG RD","MYRTLE POINT","OR","97458"
63101,"1107 ROWANSHYRE CIRCLE","MCDONOUGH","GA","30253"
63102,"1107 S 12TH STREET","ROCKY FORD","CO","81067"
63103,"1107 S 143RD ST E","WICHITA","KS","67230"
63104,"1107 S 14TH AVE W","NEWTON","IA","50208"
63105,"1107 S COAST HWY","LAGUNA BEACH","CA","92651"
63106,"1107 S DIVISION","MAHOMET","IL","61853"
63107,"1107 S EWING STREET","DALLAS","TX","75216"
63108,"1107 S GILBERT RD STE 111","MESA","AZ","85204"
63109,"1107 S MAIN STREET","DUNCANVILLE","TX","75137"
63110,"1107 S MAIN STREET","REIDSVILLE","NC","27320"
63111,"1107 S PALOMINO CREEK DR","GILBERT","AZ","85296"
63112,"1107 S PAR DRIVE","RITZVILLE","WA","99169"
63113,"1107 S PETERS ST 528","NEW ORLEANS","LA","70130"
63114,"1107 S VAN NESS AVE","SANTA ANA","CA","92707"
63115,"1107 SANDALWOOD DR","ATLANTA","GA","30350"
63116,"1107 SANDUSKY DR","IOWA CITY","IA","52240"
63117,"1107 SCHENECTADY ROAD","ARLINGTON","TX","76017"
63118,"1107 SCOTNEY CASTLE CT","GREEN BAY","WI","54313"
63119,"1107 SE 19TH ST","CAPE CORAL","FL","33990"
63120,"1107 SE 4TH ST","GRESHAM","OR","97080"
63121,"1107 SE PRINCETON CT","LEE'S SUMMIT","MO","64081"
63122,"1107 SE RIVERSIDE DR","EVANSVILLE","IN","47708"
63123,"1107 SE RIVERSIDE DR","Evansville","IN","47713"
63124,"1107 SEAFORD COURT","BEL AIR","MD","21014"
63125,"1107 seneca creek road","west seneca","NY","14224"
63126,"1107 SENECA PL","LEWISVILLE","TX","75067"
63127,"1107 SHAW DRIVE","NEDERLAND","TX","77627"
63128,"1107 SHEEPSHEAD BAY ROAD","BROOKLYN","NY","11229"
63129,"1107 SHERMAN AVENUE","MADISON","WI","53703"
63130,"1107 SHERMAN STREET","WILLIAMSPORT","PA","17701"
63131,"1107 SLEIGHILL COURT","MOUNT AIRY","MD","21771"
63132,"1107 SMITH ST","NORFOLK","VA","23510"
63133,"1107 SNEED DRIVE","ATMORE","AL","36502"
63134,"1107 SOUTH 7TH STREET","BISMARCK","ND","58504"
63135,"1107 SOUTH 7TH STREET","MILBANK","SD","57252"
63136,"1107 SOUTH CLEVELAND STREET","LITTLE ROCK","AR","72204"
63137,"1107 SOUTH MAIN ST","NORTH CANTON","OH","44720"
63138,"1107 SOUTH TAYLOR","ST. LOUIS","MO","63110"
63139,"1107 SOUTH WASHINGTON ST","WHEATON","IL","60187"
63140,"1107 SOUTHWESTERN DR","RICHARDSON","TX","75081"
63141,"1107 SPRINGWATER CT","CINCINNATI","OH","45215"
63142,"1107 ST GEORGES AVE","COLONIA","NJ","07067"
63143,"1107 ST JOSEPH ST 102","DALLAS","TX","75204"
63144,"1107 STEVEN CIRCLE DR","NEW CARLISLE","OH","45344"
63145,"1107 STEVENAGE LANE","CHANNELVIEW","TX","77530"
63146,"1107 STONE SPRING WAY","LOUISVILLE","KY","40242"
63147,"1107 STUART DRIVE","MONCKS CORNER","SC","29461"
63148,"1107 SUMMIT ST","AUSTIN","TX","78741"
63149,"1107 SUN VALLEY WAY","FLORHAM PARK","NJ","07932"
63150,"1107 SURREY LANE","YARDLEY","PA","19067"
63151,"1107 SURRY CT","NEWCASTLE","DE","19720"
63152,"1107 SW 21ST STREET","FT. LAUDERDALE","FL","33315"
63153,"1107 SW 23RD","PENDLETON","OR","97801"
63154,"1107 SW ANCHOR WAY APT 308","BENTONVILLE","AR","72713"
63155,"1107 TAMWORTH HILL LANE","CARY","NC","27519"
63156,"1107 TANNER CROSSING LANE","INDIAN LAND","SC","29707"
63157,"1107 TEAKWOOD","GLENWOOD SPRINGS","CO","81601"
63158,"1107 TEAL AVE","PEOTONE","IL","60468"
63159,"1107 TINNELL RD","MT JULIET","TN","37122"
63160,"1107 TREE SUMMIT PKWY","DULUTH","GA","30096"
63161,"1107 TREERIDGE PARKWAY","ALPHARETTA","GA","30022"
63162,"1107 TWIN LAKES DR","WYLIE","TX","75098"
63163,"1107 TWISTING CREEK RD","GREENVILLE","NC","27834"
63164,"1107 TYREE ST","LYNCHBURG","VA","24504"
63165,"1107 UNION ST","SAXTON","PA","16678"
63166,"1107 US HIGHWAY 60 WEST","LEDBETTER","KY","42058"
63167,"1107 VALLEY RD","ELKINS PARK","PA","19027"
63168,"1107 VICTORIA DRIVE","FOX RIVER GROVE","IL","60021"
63169,"1107 VILLAGE GATE CT","MT. AIRY","MD","21771"
63170,"1107 VINETREE DRIVE","BRANDON","FL","33510"
63171,"1107 VISTA GRANDE DR","PACIFIC PALISADES","CA","90272"
63172,"1107 W 11TH ST S","NEWTON","IA","50208"
63173,"1107 W 13TH STREET","VANCOUVER","WA","98660"
63174,"1107 W 5TH ST","APPLETON","WI","54914"
63175,"1107 W ALEXANDER STREET","PLANT CITY","FL","33563"
63176,"1107 W ANNIE ST","AUSTIN","TX","78704"
63177,"1107 W FORT DAVIS AVE","ALPINE","TX","79830"
63178,"1107 W LEXINGTON AVE","WINCHESTER","KY","40391"
63179,"1107 W MEMORY LN NO-12","SANTA ANA","CA","92706"
63180,"1107 W NORTH SHORE AVE","CHICAGO","IL","60626"
63181,"1107 W OSBORN UNIT 114","PHOENIX","AZ","85013"
63182,"1107 W PARK ST","CEDAR PARK","TX","78613"
63183,"1107 W VERNON AVE","LOS ANGELES","CA","90037"
63184,"1107 WASHINGTON CIRCLE","TECUMSEH","OK","74873"
63185,"1107 WASHINGTON ST","HUNTINGDON","PA","16652"
63186,"1107 WEBSTER DRIVE","WILMINGTON","DE","19803"
63187,"1107 WEST KEATING DRIVE","LINCOLN","NE","68521"
63188,"1107 WEST MARION AVENUE","PUNTA GORDA","FL","33950"
63189,"1107 WEST PLEASANT RUN RD","DESOTO","TX","75115"
63190,"1107 WEST RIVIERA BLVD","OVIEDO","FL","32765"
63191,"1107 WEST WHITTIER CIRCLE","FLORENCE","SC","29501"
63192,"1107 WESTCHESTER CT","EVANSVILLE","IN","47711"
63193,"1107 WESTERN AVENUE","CEDARBURG","WI","53012"
63194,"1107 WESTMORELAND DRIVE","JACKSONVILLE","NC","28540"
63195,"1107 WESTVIEW DR","GATESVILLE","TX","76528"
63196,"1107 WHISTLING DUCK DRIVE","UPPER MARLBORO","MD","20774"
63197,"1107 WINDSOR CHASE LN","SPRING","TX","77373"
63198,"1107 WINDSOR PKWY","MOODY","AL","35004"
63199,"1107 WINSTON CT","NORMAL","IL","61761"
63200,"1107 WINTHER BLVD","NAMPA","ID","83651"
63201,"1107 WISCONSIN AVENUE","PALM HARBOR","FL","34683"
63202,"1107 WRIGHT STREET","WILMINGTON","NC","28401"
63203,"11070 ALBERI LANE","BLAIR","NE","68008"
63204,"11070 BISHOP HWY","LANSING","MI","48911"
63205,"11070 BRENTWOOD AVE","ZIONSVILLE","IN","46077"
63206,"11070 BROCKWAY RD 116","TRUCKEE","CA","96161"
63207,"11070 CALLINGTON COURT","SUWANEE","GA","30024"
63208,"11070 COUNTY ROAD 288","SOMERVILLE","TX","77879"
63209,"11070 CR 288","SOMERVILLE","TX","77879"
63210,"11070 DENSMAR RD","OAK HILLS","CA","92344"
63211,"11070 KATY FWY","HOUSTON","TX","77043"
63212,"11070 LEBANON","CINCINNATI","OH","45242"
63213,"11070 MEAD RD APT 1710","BATON ROUGE","LA","70816"
63214,"11070 MEAD ROAD UNIT 202","BATON ROUGE","LA","70816"
63215,"11070 MEAD ROAD","BATON ROUGE","LA","70816"
63216,"11070 OAK DRIVE","GRASS VALLEY","CA","95949"
63217,"11070 ROANOKE CT","RANCHO CORDOVA","CA","95670"
63218,"11070 S REDBUD LN","HAUBSTADT","IN","47639"
63219,"11070 SHARP AVE SUITE C","MISSION HILLS","CA","91345"
63220,"11070 SHELDON STREET","SUN VALLEY","CA","91352"
63221,"11070 SW 51ST STREET","DAVIE","FL","33328"
63222,"11070 ZUMBROTA AVE","BLAINE","MN","55449"
63223,"11071 90TH AVENUE N","SEMINOLE","FL","33772"
63224,"11071 GENOVA TERRACE","HAMPTON","GA","30228"
63225,"11071 HURON ST UNIT 1209","NORTHGLENN","CO","80234"
63226,"11071 HURON STREET UNIT 1209","NORTHGLENN","CO","80234"
63227,"11071 LAMBERT WAY","STANTON","CA","90680"
63228,"11071 PANHANDLE ROAD","HAMPTON","GA","30228"
63229,"11071 PANHANDLE ROAD","HAMPTON","GA","35244"
63230,"11071 SOUTH E 00W","FAIRMOUNT","IN","46928"
63231,"11071 SPRINGFIELD PL","HOLLYWOOD","FL","33026"
63232,"11071 ST RT 506","HILLSBORO","OH","45133"
63233,"11072 CORINE AVE","CINCINNATI","OH","45242"
63234,"11072 IRIS DRIVE","GARDEN GROVE","CA","92840"
63235,"11072 NORTH 5020 WEST","HIGHLAND","UT","84003"
63236,"11072 SOUTH WESTERN AVE","CHICAGO","IL","60643"
63237,"11072 VICTORY LANE","DODGE CITY","KS","67801"
63238,"11073 W OLYMPIC BLVD","LOS ANGELES","CA","90064"
63239,"11074 ARCHER STREET","ROSEWOOD","OH","43070"
63240,"11074 CAMINO PLAYA CARMEL","SAN DIEGO","CA","92124"
63241,"11074 PINNER RD","BENTONVILLE","AR","72712"
63242,"11074 PINNER ROAD","BENTONVILLE","AR","72712"
63243,"11074 S SHILLING AVE APT 2402","SOUTH JORDAN","UT","84095"
63244,"11074 W VIRGINIA AVE","AVONDALE","AZ","85392"
63245,"11074 WESTONHILL DRIVE","SAN DIEGO","CA","92126"
63246,"11075 ARROWHEAD ROAD","VICTORVILLE","CA","92392"
63247,"11075 BIG CANOE","JASPER","GA","30143"
63248,"11075 DESERT SKY LOOP","REDMOND","OR","97756"
63249,"11075 E OLD SCHOOLHOUSE RD","CORNVILLE","AZ","86325"
63250,"11075 EAST BLVD","CLEVELAND","OH","44106"
63251,"11075 LINDEN ST","LYNWOOD","CA","90262"
63252,"11075 MONTANA AVE","BOISE","ID","83713"
63253,"11075 ORBAN ROAD","GRASS LAKE","MI","49240"
63254,"11075 SE 200TH","KENT","WA","98031"
63255,"11075 SE MARSH RD","SANDY","OR","97055"
63256,"11075 TAYLOR GRADE ROAD","DUETTE","FL","34219"
63257,"11075 TOM LEE RD","PICAYUNE","MS","39466"
63258,"110751 S 4230 RD","CHECOTAH","OK","74426"
63259,"11076 GREEN CHAPEL RD","JOHNSTOWN","OH","43031"
63260,"11076 HWY 36 WEST","ABILENE","TX","79602"
63261,"11076 NE HWY 349","OLD TOWN","FL","32680"
63262,"11076 WILDLIFE TRL","TALLAHASSEE","FL","32312"
63263,"11076 WINDSOR PLC","TAMPA","FL","33624"
63264,"11077 230TH STREET","CADOTT","WI","54727"
63265,"11077 DISCOVERY DR NW","CONCORD","NC","28027"
63266,"11077 MINOR HILL HWY","GOODSPRINGS","TN","38460"
63267,"11077 PALMS BLVD APT 302","LOS ANGELES","CA","90034"
63268,"11078 HARBOUR SPRINGS CIRCLE","BOCA RATON","FL","33428"
63269,"11078 HIGHWAY 84","PAGOSA SPRINGS","CO","81147"
63270,"11078 LOPEZ RIDGE WAY","SAN DIEGO","CA","92121"
63271,"11078 RODEO DRIVE","OAK VIEW","CA","93022"
63272,"11078 SIERRA AVE","LA FERIA","TX","78559"
63273,"11078 TAMBERLY LN","TUJUNGA","CA","91042"
63274,"11079 E YUCCA ST","SCOTTSDALE","AZ","85259"
63275,"11079 POUNDBERRY CAMP PLACE","WALDORF","MD","20603"
63276,"11079 WEST COPPER TAIL DRIVE","TUCSON","AZ","85653"
63277,"1107A RUSSELL DRIVE","HIGHLAND BEACH","FL","33487"
63278,"1107B HOLLYWOOD RD","LINDEN","NJ","07036"
63279,"1108  19TH AVENUE NW","BIRMINGHAM","AL","35215"
63280,"1108 12TH ST","PORT ROYAL","SC","29935"
63281,"1108 14TH ST NUM 230","CODY","WY","82414"
63282,"1108 17TH ST","DES MOINES","IA","50314"
63283,"1108 17TH","LONGVIEW","WA","98632"
63284,"1108 18 AVE NW","REEDER","ND","58649"
63285,"1108 1ST AVE","ASBURY PARK","NJ","07712"
63286,"1108 200TH STREET","DEXTER","IA","50070"
63287,"1108 220TH AVE","LUVERNE","IA","50560"
63288,"1108 23RD AVE SW","GREAT FALLS","MT","59404"
63289,"1108 2ND AVE NE","CLARION","IA","50525"
63290,"1108 2ND ST SE","ORANGE CITY","IA","51041"
63291,"1108 30TH STREET  92102","SAN DIEGO","CA","92102"
63292,"1108 36TH AVE E","SEATTLE","WA","98112"
63293,"1108 43RD STREET","SACRAMENTO","CA","95819"
63294,"1108 54TH STREET","BROOKLYN","NY","11219"
63295,"1108 5TH STREET","AMERICUS","KS","66835"
63296,"1108 5TH STREET","ANACORTES","WA","98221"
63297,"1108 7TH AVE APT 111","FORT WORTH","TX","76104"
63298,"1108 7TH CT FI","FOX ISLAND","WA","98333"
63299,"1108 86TH CT NW","BRADENTON","FL","34209"
63300,"1108 8TH ST","BRITTON","SD","57430"
63301,"1108 9TH STREET SW","INDEPENDENCE","IA","50644"
63302,"1108 A STREET","WILMINGTON","DE","19801"
63303,"1108 ACOMA PL","FARMINGTON","NM","87401"
63304,"1108 AMERICUS AVE","VIRGINIA BEACH","VA","23451"
63305,"1108 AMHERST ST","WHITE OAK","PA","15131"
63306,"1108 ANDREW JACKSON WAY","HUNTSVILLE","AL","35801"
63307,"1108 ANNA STREET STE B2","ELIZABETH","NJ","07201"
63308,"1108 ANNA STREET","ELIZABETH","NJ","07201"
63309,"1108 ANTWERP ST","MOBILE","AL","36605"
63310,"1108 ARDSLEY ROAD","CHARLOTTE","NC","28207"
63311,"1108 ARTEMIS DRIVE","FAYETTEVILLE","NC","28311"
63312,"1108 ARTHUR AVE","ORLANDO","FL","32804"
63313,"1108 ASPEN CIRCLE","BIRMINGHAM","AL","35215"
63314,"1108 AUAHI STREET APT 3303","HONOLULU","HI","96814"
63315,"1108 AUTUMN GOLD DRIVE","GAMBRILLS","MD","21054"
63316,"1108 AVE K NW","CHILDRESS","TX","79201"
63317,"1108 AVENUE R","BROOKLYN","NY","11229"
63318,"1108 AZALEA DRIVE","SUMMERVILLE","SC","29435"
63319,"1108 AZALEA DRIVE","SUMMERVILLE","SC","29483"
63320,"1108 BAILI DR","GREENSBURG","IN","47240"
63321,"1108 BALBOA STREET","DALLAS","TX","75224"
63322,"1108 BARTOW ROAD APT B18","LAKELAND","FL","33801"
63323,"1108 BAYWATER DR","WEST COLUMBIA","SC","29170"
63324,"1108 BECK AVE","CODY","WY","82414"
63325,"1108 BELL SPRINGS RD","DRIPPING SPRINGS","TX","78620"
63326,"1108 BEULAH","TYLERTON","MS","39667"
63327,"1108 BIEHL DR UNIT C","BELGRADE","MT","59714"
63328,"1108 BLACKTHORN RD","LOUISVILLE","KY","40299"
63329,"1108 BRAYHILL ROAD","EDMOND","OK","73003"
63330,"1108 BRIGHTON ROAD","NAPERVILLE","IL","60563"
63331,"1108 BRINKER CT","MARION","IN","46952"
63332,"1108 BUCKBRUSH DR","FOLSOM","CA","95630"
63333,"1108 BURNHAM","DES MOINES","IA","50315"
63334,"1108 CAMERON AVENUE","TYRONE","PA","16686"
63335,"1108 CAMINO REAL APT 310","REDONDO BEACH","CA","90277"
63336,"1108 CANON YEOMANS TRAIL","AUSTIN","TX","78748"
63337,"1108 CAPELLO WAY","OJAI","CA","93023"
63338,"1108 CARLSBAD PLACE","VENTURA","CA","93003"
63339,"1108 CARRIE AVENUE","ROCHELLE","IL","61068"
63340,"1108 CEDAR CREEK DRIVE","CONROE","TX","77301"
63341,"1108 CEDAR STREET","LEESBURG","FL","34748"
63342,"1108 CELEBRATION AVE","CELEBRATION","FL","34747"
63343,"1108 CHAPARRAL","FARMINGTON","NM","87413"
63344,"1108 CHARTER CT","VIRGINIA BEACH","VA","23454"
63345,"1108 CHASER ST","BLACKLICK","OH","43004"
63346,"1108 CHATSWORTH ST N","SAINT PAUL","MN","55103"
63347,"1108 CHICKASAW TRAIL","GEORGETOWN","KY","40324"
63348,"1108 CHORLEYWOOD COURT","SMYRNA","TN","37167"
63349,"1108 CIELO CIRCLE","ROHNERT PARK","CA","94928"
63350,"1108 CITY PARK AVENUE","COLUMBUS","OH","43206"
63351,"1108 CITY VIEW TER","CHATTANOOGA","TN","37421"
63352,"1108 CLEVELAND BLVD 2","CALDWELL","ID","83605"
63353,"1108 COMANCHE DR","GEORGETOWN","KY","40324"
63354,"1108 COOLIDGE ROAD","ELIZABETH","NJ","07208"
63355,"1108 COREY DR","BLAIR","NE","68008"
63356,"1108 CORNELL DRIVE","SANFORD","FL","32771"
63357,"1108 COUNTY RD 143","KAUFMAN","TX","75142"
63358,"1108 COVENTRY CIRCLE","LANCASTER","OH","43130"
63359,"1108 CR 55","ROSHARON","TX","77583"
63360,"1108 CRELLIN ROAD","PLEASANTON","CA","94566"
63361,"1108 CUMBERLAND AVE","SAN LEANDRO","CA","94579"
63362,"1108 CUMBERLAND COURT","CHESAPEAKE","VA","23320"
63363,"1108 CUTIS STREET","SEDRO WOLLEY","WA","98284"
63364,"1108 DANIEL STREET","BAYTOWN","TX","77520"
63365,"1108 DELCASTLE CT","BOWIE","MD","20721"
63366,"1108 DERBY CT","CHESAPEAKE","VA","23322"
63367,"1108 DEVONNE","BROWNSVILLE","TN","38012"
63368,"1108 DICKSON LANE","FRANKLIN","TN","37069"
63369,"1108 DOREEN ST","FORT WORTH","TX","76108"
63370,"1108 DOTSON WAY","APEX","NC","27523"
63371,"1108 DRAKE AVENUE","ROSELLE","NJ","07203"
63372,"1108 DRAKE COVE","LEANDER","TX","78641"
63373,"1108 E 108TH STREET","KANSAS CITY","MO","64131"
63374,"1108 E 10TH ST APT 6","CARROLLTON","MO","64633"
63375,"1108 E 2700 S B11","SLC","UT","84106"
63376,"1108 E 32ND STREET","TUCSON","AZ","85713"
63377,"1108 E 67TH ST","LONG BEACH","CA","90895"
63378,"1108 E GROVECENTER ST","WEST COVINA","CA","91790"
63379,"1108 E HOFFMAN","SPOKANE","WA","99207"
63380,"1108 E INVERNESS BLVD 107","INVERNESS","FL","34450"
63381,"1108 E MARKET ST","CHARLOTTESVILLE","VA","22902"
63382,"1108 E MICHIGAN AVE","PHOENIX","AZ","85022"
63383,"1108 E OXFORD STREET","PHILADELPHIA","PA","19125"
63384,"1108 E ROBIN ST","OZARK","MO","65721"
63385,"1108 EAST 13TH","SWEETWATER","TX","79556"
63386,"1108 EAST 5TH STREET","SUPERIOR","WI","54880"
63387,"1108 EAST GROVECENTER STREET","WEST COVINA","CA","91790"
63388,"1108 EAST MAGNOLIA AVENUE","AUBURN","AL","36830"
63389,"1108 EAST MAIN ST STE 906 PO 924","RICHMOND","VA","23219"
63390,"1108 EAST MAIN STREET STE 906 -577","RICHMOND","VA","23219"
63391,"1108 EAST ORCHID LANE","PHOENIX","AZ","85020"
63392,"1108 EASTBROOK LANE","SAINT LOUIS","MO","63119"
63393,"1108 EL CAMINO REAL UNIT 231","EULESS","TX","76040"
63394,"1108 ELMWOOD AVE","HIGH POINT","NC","27265"
63395,"1108 ENDORA WAY","BOULDER CITY","NV","89005"
63396,"1108 FAIRBURY STREET","HENDERSON","NV","89052"
63397,"1108 FAREHAVEN COURTH","NORTHFIELD","MN","55057"
63398,"1108 FAYE LANE","WHITEHALL","AR","71602"
63399,"1108 FERN STREET","DURHAM","NC","27701"
63400,"1108 FERN","DURHAM","NC","27701"
63401,"1108 FISHLOCK AVE","FINDLAY","OH","45840"
63402,"1108 FITCH","SACRAMENTO","CA","95864"
63403,"1108 FLORA AVE","PEORIA","IL","61604"
63404,"1108 FLOYD AVENUE","RICHMOND","VA","23220"
63405,"1108 FONTAINE ROAD","LEXINGTON","KY","40502"
63406,"1108 FOREST OAKS LAND","HURST","TX","76053"
63407,"1108 FOREST OAKS LANE","HURST","TX","76053"
63408,"1108 FOUR WHEEL DR","WAKE FOREST","NC","27587"
63409,"1108 FOUR WHEEL DRIVE","WAKE FOREST","NC","27587"
63410,"1108 GARTLAND AVE","NASHVILLE","TN","37206"
63411,"1108 GAYLER ST","MOUNTAIN VIEW","AR","72560"
63412,"1108 GLENROSE DRIVE SE","SMYRNA","GA","30080"
63413,"1108 GRAND BLVD","BIRMINGHAM","AL","35214"
63414,"1108 GREEN STREET","NORRISTOWN","PA","19401"
63415,"1108 HELMER ROAD","RIVERDALE","GA","30236"
63416,"1108 HELMER ROAD","RIVERDALE","GA","30326"
63417,"1108 HENDERSHOT ROAD","WARFORDSBURG","PA","17267"
63418,"1108 HICKORY HIGHLAND DR","ANTIOCH","TN","37013"
63419,"1108 HOLLY MEADOW DR","HOLLY SPRINGS","NC","27540"
63420,"1108 HOMEFIELD COMMONS DRIVE","O'FALLON","MO","63366"
63421,"1108 HOOSE CT","FREDERICKSBURG","VA","22408"
63422,"1108 HWY 81","GENEVA","NE","68361"
63423,"1108 INDIANA AVENUE","SHEBOYGAN","WI","53081"
63424,"1108 INDO PLACE","HYATTSVILLE","MD","20785"
63425,"1108 ISLAND PARK BLVD","SHREVEPORT","LA","71105"
63426,"1108 JEFFERSON STREET NW","WASHINGTON","DC","20011"
63427,"1108 JOG ROAD","NORMAL","IL","61761"
63428,"1108 JOHN SMITH TRACE","HAMPTON","VA","23665"
63429,"1108 JOSEPHINE COURT","SEBRING","FL","33875"
63430,"1108 JUNIPER CT","ROSENBERG","TX","77471"
63431,"1108 KANAWHA BLVD EAST-UNIT 102","CHARLESTON","WV","25301"
63432,"1108 KELVIN RD APT 3","STORM LAKE","IA","50588"
63433,"1108 KERVILLE WAY","MCKINNEY","TX","75072"
63434,"1108 KINGSTON AVE","BELLEVUE","NE","68005"
63435,"1108 LAFAYETTE ST","WILLIAMSTOWN","NJ","08094"
63436,"1108 LAKEWOOD DRIVE","ANTIOCH","TN","37013"
63437,"1108 LARKSPUR DRIVE","CHEYENNE","WY","82001"
63438,"1108 LAVACA ST","AUSTIN","TX","78701"
63439,"1108 LENORE DRIVE","TACOMA","OR","98406"
63440,"1108 LENOX ROAD","BROOKLYN","NY","11212"
63441,"1108 LILAC LANE","DESOTO","TX","75115"
63442,"1108 LINCOLN AVE","LOUISVILLE","CO","80027"
63443,"1108 LOMBARD AVENUE","EVERETT","WA","98201"
63444,"1108 LOMBARD STREET -D45","PHILADELPHIA","PA","19147"
63445,"1108 LYNPARK COVE","MOBILE","AL","36608"
63446,"1108 MADEWOOD RD","LAPLACE","LA","70068"
63447,"1108 MADISON","WAUCONDA","IL","60084"
63448,"1108 MADRID STREET","TOWNSEND","DE","19734"
63449,"1108 MAGNOLIA CIRCLE","JONESBORO","GA","30236"
63450,"1108 MAIN ST","WALPOLE","MA","02081"
63451,"1108 MANCHESTER DRIVE","CARY","NC","27511"
63452,"1108 MAPLE AVENUE","EVANSTON","IL","60202"
63453,"1108 MAPLE ST","CLEVELAND","MS","38732"
63454,"1108 MAUGHAN LANE","MADISON","PA","15663"
63455,"1108 MAYFAIR ROAD","CHAMPAIGN","IL","61821"
63456,"1108 MAYS LANE","JONESBORO","AR","72401"
63457,"1108 MEADOWBROOK AVE","ANN ARBOR","MI","48103"
63458,"1108 MEADOWBROOK CT","FARMINGTON","MO","63640"
63459,"1108 MEADOWS ST","NEW BERN","NC","28560"
63460,"1108 MELBOURNE ST","HOUSTON","TX","77022"
63461,"1108 MELINA ROAD","SAPULPA","OK","74066"
63462,"1108 MEMORIAL CIRCLE TTU","LUBBOCK","TX","79409"
63463,"1108 MERLOUN DRIVE","OLIVE BRANCH","MS","38654"
63464,"1108 MERRILL STREET","NEW ORLEANS","LA","70114"
63465,"1108 MILLS AVENUE","BURLINGAME","CA","94010"
63466,"1108 MISSISSIPPI AVENUE","GREENWOOD","MS","38930"
63467,"1108 MOINO AVENUE UNIT 3","LONG BEACH","CA","90804"
63468,"1108 MORGAN STREET","FORT COLLINS","CO","80524"
63469,"1108 MOUNDS ST","MADISON","WI","53715"
63470,"1108 MULLICA HILL ROAD","MULLICA HILL","NJ","08062"
63471,"1108 N 21ST AVE","OZARK","MO","65721"
63472,"1108 N 5TH","OQUAWKA","IL","61469"
63473,"1108 N 92ND PLZ APT 214","OMAHA","NE","68114"
63474,"1108 N BUSEY AVENUE","URBANA","IL","61801"
63475,"1108 N CALHOUN","WEST LIBERTY","IA","52776"
63476,"1108 N DALLAS ST","ENNIS","TX","75119"
63477,"1108 N EAGLE ST","NAPERVILLE","IL","60563"
63478,"1108 N EAST END ROAD","STRAWBERRY PLAINS","TN","37871"
63479,"1108 N FRANKLIN ST UNIT 508","TAMPA","FL","33602"
63480,"1108 N KORBY ST","KOKOMO","IN","46901"
63481,"1108 N MALLARD LANE","ROGERS","AR","72756"
63482,"1108 N MILWAUKEE ST UNIT 126","MILWAUKEE","WI","53202"
63483,"1108 N OAKLEY BLVD -APT 2","CHICAGO","IL","60622"
63484,"1108 N SAN MATEO ST","HOBBS","NM","88240"
63485,"1108 N SAN MATER ST","HOBBS","NM","88240"
63486,"1108 N STEELE","TACOMA","WA","98406"
63487,"1108 NAKULUAI ST","WAILUKU","HI","96793"
63488,"1108 NAMEOKA","FAR ROCKAWAY","NY","11619"
63489,"1108 NE 151ST AVE","VANCOUVER","WA","98684"
63490,"1108 NE 23RD ST","CAPE CORAL","FL","33909"
63491,"1108 NE JACOB STREET","GRIMES","IA","50111"
63492,"1108 NETHERLAND COURT","VIRGINIA BEACH","IL","23453"
63493,"1108 NEUSE DR","ORIENTAL","NC","28571"
63494,"1108 NEW HOPE LANE","WINSTON SALEM","NC","27105"
63495,"1108 NISHISHIN TR","MONONA","WI","53716"
63496,"1108 NORMANDY CT","FLEMINGTON","NJ","08822"
63497,"1108 NORTH AVE","SUNNYSIDE","WA","98944"
63498,"1108 NORTH CROSSING WAY","DECATUR","GA","30033"
63499,"1108 NORTH L ST","TACOMA","WA","98403"
63500,"1108 NORTH LEE ST","SPOKANE","WA","99202"
