"ID","Address","City","State","Zip"
834501,"725 HILL ST","CARLSTADT","NJ","07072"
834502,"725 HILLTOP ST","BAIRD","TN","79504"
834503,"725 HILLYER HIGH ROAD","ANNISTON","AL","36207"
834504,"725 HOOVER ST","NORTH BELLMORE","NY","11710"
834505,"725 Hoover Street","North Bellmore","NY","11710"
834506,"725 HOOVER STREET","NORTH BELLMORE","NY","11710"
834507,"725 HUDSON AVE","ROCHESTER","NY","14621"
834508,"725 HURSTGREEN ROAD","WEBSTER GROVES","MO","63119"
834509,"725 INVERNESS DR","HORSHAM","PA","19044"
834510,"725 JEFFERSON STREET UNIT 39","HOBOKEN","NJ","07030"
834511,"725 JORALEMON ST 131","BELLEVILLE","NJ","07109"
834512,"725 JORDAN  208","SHREVEPORT","LA",NA
834513,"725 K ST NE","WASHINGTON","DC","20002"
834514,"725 KAPIOLANI BLVD APT 904","HONOLULU","HI","96813"
834515,"725 KAPIOLANI BLVD SUITE C423","HONOLULU","HI","96813"
834516,"725 KAPIOLANI BLVD SUITE C430","HONOLULU","HI","96813"
834517,"725 KENILWORTH RD","TALLAHASSEE","FL","32312"
834518,"725 KING AVE","MARION","OH","43302"
834519,"725 KIRKLY WAY","FAIRBURN","GA","30213"
834520,"725 KNIGHTSBRIDGE WAY","ANTIOCH","TN","37013"
834521,"725 KORNOELJE","COMSTOCK PARK","MI","49321"
834522,"725 LAKESHORE DR","BENNETTSVILLE","SC","29512"
834523,"725 LANEY WALKER BOULEVARD","AUGUSTA","GA","30901"
834524,"725 LANYON LN","SPARTANBURG","SC","29301"
834525,"725 LAUREN WAY","ALLEN","TX","75002"
834526,"725 LAVENDER LANE","UNION CITY","GA","30291"
834527,"725 LEATHER OAK LN","POMONA","CA","91766"
834528,"725 LENOX RD","GLEN ELLYN","IL","60137"
834529,"725 LEONA STREET","MORGAN CITY","LA","70380"
834530,"725 LEOPARD CT","KISSIMMEE","FL","34759"
834531,"725 LEWISVILLE-CLEMMONS RD","LEWISVILLE","NC","27023"
834532,"725 LILES BLVD","BREWTON","AL","36426"
834533,"725 LINCOLN PL","DELTA","CO","81416"
834534,"725 LONE OAK ROAD","PADUCAH","KY","42003"
834535,"725 LONG LANE","UPPER DARBY","PA","19082"
834536,"725 LOOKAWAY CT","SAINT LOUIS","MO","63137"
834537,"725 LOS CAMINOS STREET","ST AUGUSTINE","FL","32095"
834538,"725 LYNN MILAM LN","CONYERS","GA","30094"
834539,"725 MALUNIU AVE","KAILUA","HI","96734"
834540,"725 MANNING DRIVE","EAST DUBLIN","GA","31027"
834541,"725 MANSELL STREET","SAN FRANCISCO","CA","94134"
834542,"725 MARION AVE","LEVITTOWN","PA","19055"
834543,"725 MARTIN MILL PIKE","ROCKFORD","TN","37853"
834544,"725 MARTIN MILL PIKE","ROCKFORD","TN","37863"
834545,"725 MARYLAND AVE","VIRGINIA BEACH","VA","23451"
834546,"725 MCDOWELL ROAD","ASHEBORO","NC","27205"
834547,"725 MEADOWLARK ROAD","AUDUBON","PA","19403"
834548,"725 MILLARD FULLER BLVD","AMERICUS","FL","31709"
834549,"725 MILLARD FULLER BLVD","AMERICUS","GA","31709"
834550,"725 MONUMENT","EL PASO","TX","79938"
834551,"725 MORGAN DRIVE WEST","COATESVILLE","PA","19320"
834552,"725 MOUNT LEBANON ROAD","WILMINGTON","DE","19803"
834553,"725 MOUNTAIN ROAD","BLOOMINGBURG","NY","12721"
834554,"725 MOWRY ST","HARRISVILLE","RI","02830"
834555,"725 MUIRFIELD PL","FLORENCE","SC","29501"
834556,"725 MULE SHED LANE","RICHMOND","KY","40475"
834557,"725 MYSTIC CREEK WAY","SOUTH JORDAN","UT","84095"
834558,"725 N 1100 W","FOWLER","IN","47944"
834559,"725 N 13TH ST APT 669","MILWAUKEE","WI","53233"
834560,"725 N 44TH ST","PHILADELPHIA","PA","19104"
834561,"725 N 8TH STREET","BLACK RIVER FALLS","WI","54615"
834562,"725 N BARLOW LANE","BISHOP","CA","93514"
834563,"725 N CENTER PARKWAY/X102","KENNEWICK","WA","99336"
834564,"725 N COLLINGTON AVE","BALTIMORE","MD","21205"
834565,"725 N DOBSON RD APT 194","CHANDLER","AZ","85224"
834566,"725 N EPPINGTON DR","TROTWOOD","OH","45246"
834567,"725 N GILBERT RD STE 124 BOX 239","GILBERT","AZ","85234"
834568,"725 N HIGH","NEWTON","KS","67114"
834569,"725 N KINGSHIGHWAY BLVD","ST CHARLES","MO","63301"
834570,"725 N LAKE SHORE DR","BARRINGTON","IL","60010"
834571,"725 N LEMON STREET","ANAHEIM","CA","92805"
834572,"725 N LOWELL STREET","IRONWOOD","MI","49938"
834573,"725 N MAIN STREET","POLAND","OH","44514"
834574,"725 N SWEETZER AVE","LOS ANGELES","CA","90069"
834575,"725 NE 155TH ST","MIAMI","FL","33162"
834576,"725 NE 157TH AVE","PORTLAND","OR","97230"
834577,"725 NE 179 TER","N MIAMI BEACH","FL","33162"
834578,"725 NE 5TH ST APT 201","ANKENY","IA","50021"
834579,"725 NE 5TH ST APT 202","ANKENY","IA","50021"
834580,"725 NEW GLENDALE ROAD","ELIZABETHTOWN","KY","42701"
834581,"725 NEW JERSEY","LAWRENCE","KS","66044"
834582,"725 NEW VILLAGE DR","CHRISTIANSBURG","VA","24073"
834583,"725 NEWHALL DRIVE","NASHVILLE","TN","37206"
834584,"725 NORTH REDWOOD RD","SALT LAKE","UT","84074"
834585,"725 NORWAY ST","NORWAY","MI","49870"
834586,"725 NW 12TH STREET","FLORIDA CITY","FL","33034"
834587,"725 NW 13TH STREET APT 1402","GAINESVILLE","FL","32601"
834588,"725 NW 155TH ST","MIAMI","FL","33162"
834589,"725 NW 31ST PLACE","GAINESVILLE","FL","32609"
834590,"725 NW 49TH STREET","MIAMI","FL","33127"
834591,"725 NW 60TH APT 7","KANSAS CITY","KS","64118"
834592,"725 NW KINGWOOD AVE","REDMOND","OR","97756"
834593,"725 OAK STREET","HOOD RVIER","OR","97031"
834594,"725 OAKWOOD","MAYFIELD VILLAGE","OH","44040"
834595,"725 OHAMA","FRESNO","CA","93720"
834596,"725 OLD EDGEFIELD ROAD","NORTH AUGUSTA","SC","29841"
834597,"725 OLD GEORGIA ROAD","MOORE","SC","29369"
834598,"725 OLD US 1","LOUISVILLE","GA","30434"
834599,"725 OUTLOOK WAY","COLLEGE PARK","GA","30349"
834600,"725 PADDINGTON CT","SUWANEE","GA","30024"
834601,"725 PALESTINE ROAD","NEW RICHMOND","OH","45157"
834602,"725 PALMA DR","SALINAS","CA","93901"
834603,"725 PENN LN","MOORE","OK","73160"
834604,"725 PERROTT AVE","LOLETA","CA","95551"
834605,"725 PIN OAK","WADSWORTH","OH","44281"
834606,"725 PINE STREET","BARRON","WI","54812"
834607,"725 PRAIRIE GROVE RD","VALLEY VIEW","TX","76272"
834608,"725 PRINCETON PLACE NW","WASHINGTON","DC","20010"
834609,"725 QUEBEC PLACE NW","WASHINGTON","DC","20010"
834610,"725 RED OAK AVENUE","HOUSTON","TX","77532"
834611,"725 RIVER ROAD","EDGEWATER","NJ","07020"
834612,"725 RIVER STREET","ALLEGAN","MI","49010"
834613,"725 RIVERSIDE DRIVE APT 3D","NEW YORK","NY","10031"
834614,"725 RIVERSIDE DRIVE APT 7A","NEW YORK","NY","11031"
834615,"725 RIVERSIDE DRIVE","NEW YORK","NY","10031"
834616,"725 RODEO LANE","ALAMOSA","CO","81101"
834617,"725 S 200 W APT 101","SALT LAKE CITY","UT","84101"
834618,"725 S 200 W APT 101","SLC","UT","84101"
834619,"725 S 23RD ST","EASTON","PA","18042"
834620,"725 S 7TH ST","PHILADELPHIA","PA","19147"
834621,"725 S BARRINGTON AVE APT 211","LOS ANGELES","CA","90049"
834622,"725 S BECK AVENUE","TEMPE","AZ","85281"
834623,"725 S BROADVIEW","ANAHEIM","CA","92804"
834624,"725 S CAMPO APT 2","LAS CRUCES","NM","88001"
834625,"725 S FIGUEROA ST 200","LOS ANGELES","CA","90017"
834626,"725 S LAKE DR","MARSHALL","MO","65340"
834627,"725 S ROYAL STREET","ALEXANDRIA","VA","22314"
834628,"725 S TUCSON BLVD 9233","TUSCON","AZ","85716"
834629,"725 SADDLE DRIVE","ETNA","WY","83118"
834630,"725 SALTER RD","QUINCY","FL","32352"
834631,"725 SAN ANGELO DR","BISMARCK","ND","58504"
834632,"725 SANTA YNEZ WAY","SACRAMENTO","CA","95816"
834633,"725 SCHEMBRI LANE","PALO ALTO","CA","94303"
834634,"725 SE CARNIVAL AVE","PORT ST. LUCIE","FL","34983"
834635,"725 SE PARKER DRIVE","WAUKEE","IA","50263"
834636,"725 SE10TH ST","LEE'S SUMMIT","MO","64081"
834637,"725 SEIGLE AVENUE APT 104","CHARLOTTE","NC","28204"
834638,"725 SHAWMUT AVE APT 101","ROXBURY","MA","02119"
834639,"725 SHILOH CT","DAVIDSONVILLE","MD","21035"
834640,"725 SIGNAL POINT ROAD","GUNTERSVILLE","AL","35976"
834641,"725 SKINKER BLVD","ST LOUIS","MO","63105"
834642,"725 SNAPDRAGON LANE","DESOTO","TX","75115"
834643,"725 SOUTH 23RD STREET","EASTON","PA","18042"
834644,"725 SOUTH 37TH STREET","LOUISVILLE","KY","40211"
834645,"725 SOUTH ALVARADO STREET APT 300","LOS ANGELES","CA","90057"
834646,"725 SOUTH BIXEL","LOS ANGELES","CA","90017"
834647,"725 SOUTH CALHOUN STREET","TALLAHASSEE","FL","32301"
834648,"725 SOUTH HARRISON STREET","WILMINGTON","DE","19805"
834649,"725 SOUTH NOVA ROAD SUITE 185","ORMOND BEACH","FL","32174"
834650,"725 SOUTH SKINKER BLVD APARTMENT 7N","SAINT LOUIS","MO","63105"
834651,"725 SOUTH SKINKER","CLAYTON","MO","63105"
834652,"725 SOUTH WOODRUFF AVE","IDAHO FALLS","ID","83401"
834653,"725 SOUTH WYNONA","HOLYOKE","CO","80734"
834654,"725 SOUTH","SALMON","ID","83467"
834655,"725 SOUTHGATE AVENUE","DALY CITY","CA","94015"
834656,"725 SOUTHLAWN TERRACE","OELWEIN","IA","50662"
834657,"725 SPRINGDALE AVE","WHEELING","WV","26003"
834658,"725 STEPHENS NO B","MISSOULA","MT","59801"
834659,"725 STEWART AVENUE","MONROE","OH","45050"
834660,"725 STONECREST LANE","APPLING","GA","30802"
834661,"725 STRAFFORD RIDGE DRIVE","BALLWIN","MO","63021"
834662,"725 STREAMLINE DR APT B11","YAZOO","MS","39194"
834663,"725 STREAMLINE DRIVE C13","YAZOO","MS","39194"
834664,"725 SUMMER STREET","SALEM","OR","97301"
834665,"725 SUNSET DRIVE","HAVRE","MT","59501"
834666,"725 SW 4TH TER","DANIA BEACH","FL","33004"
834667,"725 TAMIAMI TR","KNOXVILLE","TN","37924"
834668,"725 TAMIAMI TRAIL","KNOXVILLE","TN","37924"
834669,"725 TANGLEWOOD DRIVE","BRACEY","VA","23919"
834670,"725 TANOAK CT","VIRGINIA BEACH","VA","23462"
834671,"725 TAYOPA CT","EL PASO","TX","79932"
834672,"725 TIMBERDALE DR","GRAND PRAIRIE","TX","75052"
834673,"725 TIMBERDALE STREET","GRAND PRAIRIE","TX","75052"
834674,"725 TOMBSTONE CANYON","BIBSEE","AZ","85603"
834675,"725 TREELINE TRAIL","HELENA","MT","59602"
834676,"725 TREES OF KENNESAW PKWY","KENNESAW","GA","30152"
834677,"725 TRUEMPER CIRCLE","WHITEMAN AFB","MO","65305"
834678,"725 TWIN OAKS DR","DECATUR","GA","30030"
834679,"725 UNIVERSITY AVE","LOS ALTOS","CA","94025"
834680,"725 UNIVERSITY ROW 201","MADISON","WI","53705"
834681,"725 VALLEY VIEW","MONROVIA","CA","91016"
834682,"725 VAN BUREN PL SE","ALBUQUERQUE","NM","87108"
834683,"725 VANCE ST","MEBANE","NC","27302"
834684,"725 VERNON STREET","ROSEVILLE","CA","95678"
834685,"725 VIEWMONT AVE","JOHNSTOWN","PA","15905"
834686,"725 VIEWMONT DRIVE","ASHEBORO","NC","27205"
834687,"725 VILLAS RIDGE DRIVE","LITHIA SPRINGS","GA","30122"
834688,"725 VINELAND PL","MINNEAPOLIS","MN","55403"
834689,"725 W 11TH ST","MEDFORD","OR","97501"
834690,"725 W 184TH ST - APT 6K","NEW YORK","NY","10033"
834691,"725 W 18TH ST UNIT B","CHICAGO","IL","60616"
834692,"725 W 22ND AVE UNIT B","ANCHORAGE","AK","99503"
834693,"725 W 2450 N","LEHI","UT","84043"
834694,"725 W 39TH STREET","SAVANNAH","GA","31415"
834695,"725 W 4TH ST","EMMETT","ID","83617"
834696,"725 W 700 S","BRIGHAM CITY","UT","84302"
834697,"725 W BLAIR ST","MINEOLA","TX","75773"
834698,"725 W BUELL RD","OAKLAND","MI","48363"
834699,"725 W COTTONWOOD DR","VALLEY CENTER","KS","67147"
834700,"725 W EXCHANGE ST","CRETE","IL","60417"
834701,"725 W LASALLE ST","VILLE PLATTE","LA","70586"
834702,"725 W NICHOLS ST","SPRINGFIELD","MO","65802"
834703,"725 W SPRING HOLLLOW LANE","PEORIA","IL","61605"
834704,"725 W TOWN AND COUNTRY RD SUITE 300","ORANGE","CA","92868"
834705,"725 W VENTURA BLVD UNIT J","CAMARILLO","CA","93010"
834706,"725 W VIRGINIA AVE","PEORIA","IL","61604"
834707,"725 W WOLF AVE","ELKHART","IN","46516"
834708,"725 WALNUT AVE","CHARLOTTE","NC","28208"
834709,"725 WALTON WAY SE","SMYRNA","GA","30082"
834710,"725 WARWICK AVE","MAGNOLIA","NJ","08049"
834711,"725 WASHINGTON HTS RD UNIT 31","EL CAJON","CA","92019"
834712,"725 WASHINGTON ST STE 203","OAKLAND","CA","94607"
834713,"725 WEBSTER PLACE","PLAINFIELD","NJ","07060"
834714,"725 WELCOME HOME ROAD","NORTH WILKESBORO","NC","28659"
834715,"725 WEST 17TH","CLOVIS","NM","88101"
834716,"725 WEST 184TH ST 5K","NEW YORK","NY","10033"
834717,"725 WEST 184TH ST","NEW YORK","NY","10033"
834718,"725 WEST CHERRY STREET","CHANUTE","KS","66720"
834719,"725 WEST FAIRFAX AVE","FORT WAYNE","IN","46807"
834720,"725 WEST FORT HILL RD","ROBBINSVILLE","NC","28771"
834721,"725 WEST HEINTZ STREET","MOLALLA","OR","97038"
834722,"725 WEST HOWE ST","BLOOMINGTON","IN","47403"
834723,"725 WEST MAIN STREET","WASHINGTON","MO","63090"
834724,"725 WEST MEMORIAL ROAD","BENSENVILLE","IL","60106"
834725,"725 WEST NORTH ST","FOSTORIA","OH","44830"
834726,"725 WEST RUHL ROAD","PALATINE","IL","60074"
834727,"725 WEST STREET","EMPORIA","KS","66801"
834728,"725 WESTOVER RESERVE BLVD","WINDERMERE","FL","34786"
834729,"725 WHTECHURCH WAY","NEWMAN","CA","95360"
834730,"725 WILDWOOD FALLS CT","REDMOND","OR","97756"
834731,"725 WINDING BROOK TRAIL","LITTLE SUAMICO","WI","54141"
834732,"725 WOOD DRIVE","BROOKSVILLE","FL","34601"
834733,"725 WOODSVIEW LN","KIMBERLY","WI","54136"
834734,"725 XENIA","DELANO","CA","93215"
834735,"725 YARMOUTH STREET","NORFOLK","VA","23510"
834736,"725 YELLOW BRICK ROAD","BONNEAU","SC","29431"
834737,"725","KENNESAW","GA","30152"
834738,"7250 AGEE HOLLOW ROAD","SILVER POINT","TN","38582"
834739,"7250 APRIL COURT","MORROW","GA","30260"
834740,"7250 BALSON AVENUE","UNIVERSITY CITY","MO","63130"
834741,"7250 BROOKS MILL ROAD","WIRTZ","VA","24184"
834742,"7250 BUNAL DRIVE","ROME","NY","13440"
834743,"7250 DEERING COURT","DOUGLASVILLE","GA","30134"
834744,"7250 DIETRICK HILL RD","PHILO","OH","43771"
834745,"7250 DORCHESTER WOODS LANE","HANOVER","MD","21076"
834746,"7250 E CORTEZ RD","SCOTTSDALE","AZ","85260"
834747,"7250 E PIONEER LANE","PRESCOTT VALLEY","AZ","86314"
834748,"7250 E SHOREWOOD DRIVE","WASILLA","AK","99654"
834749,"7250 GOLFVIEW CT","YORKVILLE","IL","60560"
834750,"7250 MEADOW LANE","MISSOULA","MT","59808"
834751,"7250 MESA COLLEGE DR K-204","SAN DIEGO","CA","92111"
834752,"7250 MONACO STREET","COMMERCE CITY","CO","80022"
834753,"7250 N MERSINGTON","GLADSTONE","MO","64119"
834754,"7250 NATIVE DANCER PLACE","RENO","NV","89502"
834755,"7250 NATURAL BRIDGE ROAD","SAINT LOUIS","MO","63121"
834756,"7250 NICHOLS LANE RD","JOHNSTOWN","OH","43031"
834757,"7250 NICHOLS LN RD","JOHNSTOWN","OH","43031"
834758,"7250 NICHOLS LN","JOHNSTOWN","OH","43031"
834759,"7250 NORMANDY PLACE","ST. LOUIS","MO","63121"
834760,"7250 PERKINS RD","BATON ROUGE","LA","70808"
834761,"7250 RACHEL","YPSILANTI","MI","48197"
834762,"7250 REDWOOD BLV SUITE 300","NOVATO","CA","94945"
834763,"7250 S DURANGO DRIVE STE 130 250","LAS VEGAS","NV","89113"
834764,"7250 S SOUTH SHORE DRIVE STE703","CHICAGO","IL","60649"
834765,"7250 SANDCASTLE LANE","LINDEN","NC","28356"
834766,"7250 SW 13 ST","MIAMI","FL","33144"
834767,"7250 VALLEY VIEW ROAD","BROOKINGS","SD","57006"
834768,"7250 VIA CAPRI","LA JOLLA","CA","92037"
834769,"7250 VIRGINIA CT","FRANKFORT","IL","60423"
834770,"7250 W 157TH STREET","ORLAND PARK","IL","60462"
834771,"7250 WILLIS AVENUE","VAN NUYS","CA","91405"
834772,"7250 YUMA LANE NORTH","MAPLE GROVE,","MN","55311"
834773,"72504 618 AVE","TESUMSEH","NE","68450"
834774,"7251 ALLMAN DR APT 102","ANNANDALE","VA","22003"
834775,"7251 BAGPIPE DRIVE","EDEN PRAIRIE","MN","55346"
834776,"7251 BLACKMON RD","COLUMBUS","GA","31909"
834777,"7251 BRENTWOOD BLVD","BRENTWOOD","CA","94513"
834778,"7251 BROWNS VALLEY ROAD","VACAVILLE","CA","95688"
834779,"7251 CALM SUNSET","COLUMBIA","MD","21045"
834780,"7251 CARACARA","HOUSTON","TX","77040"
834781,"7251 CEMETERY ROAD","CURRAN","MI","48728"
834782,"7251 CHAMPLAIN","CHICAGO","IL","60619"
834783,"7251 CHELSEA HARBOUR DRIVE","ORLANDO","FL","32829"
834784,"7251 CHRISTOPHER DRIVE","ST LOUIS","MO","63129"
834785,"7251 E MOODY RD","OAKTOWN","IN","47561"
834786,"7251 GALILEE ROAD  SUITE 165","R0SEVILLE","CA","95678"
834787,"7251 GHADBAN COURT","MANASSAS","VA","20111"
834788,"7251 GOLDENROD CT","OOLTEWAH","TN","37363"
834789,"7251 LYNCH ROAD","SEBASTOPOL","CA","95472"
834790,"7251 MAD RIVER RD","DAYTON","OH","45459"
834791,"7251 N 2000TH ST","PALESTINE","IL","62451"
834792,"7251 N COUNTY ROAD 33","TIFFIN","OH","44883"
834793,"7251 NOAH CT","SPARKS","NV","89436"
834794,"7251 NW 40TH ST","CHIEFLAND","FL","32626"
834795,"7251 NW 5TH ST","PLANTATION","FL","33317"
834796,"7251 PASO ROBLES AVE","VAN NUYS","CA","91406"
834797,"7251 PEBBLE CT S","MOBILE","AL","36695"
834798,"7251 PETER PAN AV","SAN DIEGO","CA","92114"
834799,"7251 PETER PAN","SAN DIEGO","CA","92114"
834800,"7251 RD 93","BRIDGEPORT","NE","69336"
834801,"7251 ROPER ROAD","TRUSSVILLE","AL","35173"
834802,"7251 ROUTE 36","LEEPER","PA","16233"
834803,"7251 S SNOWDEN ROAD","LIBERTY","IN","47353"
834804,"7251 S SOUTH SHORE DR 14B","CHICAGO","IL","60649"
834805,"7251 S SOUTHSHORE DRIVE NO 19C","CHICAGO","IL","60649"
834806,"7251 SEARLE ROAD","RIPON","WI","54971"
834807,"7251 TURNING LEAF PL","RANCHO CUCAMONGA","CA","91701"
834808,"7251 VIA GENOVA","DELRAY BEACH","FL","33446"
834809,"7251 W CHARLESTON BLVD","LAS VEGAS","NV","89117"
834810,"7251 W LAKE MEAD SUITE 220","LAS VEGAS","NV","89052"
834811,"7251 W LAKE MEAD SUITE 220","LAS VEGAS","NV","89128"
834812,"7251 W LAKE MEAD SUITE 300","LAS VEGAS","NV","89128"
834813,"7251 WAYNE AVENUE","MIAMI BEACH","FL","33141"
834814,"7251 WEST STATE ROAD 46","ELLETTSVILLE","IN","47429"
834815,"7251 WINTERBROOK LANE","CORDOVA","TN","38018"
834816,"7252 BRIDGEVIEW DR","WESLEY CHAPEL","FL","33545"
834817,"7252 CALM SUNSET","COLUMBIA","MD","21046"
834818,"7252 CANA","GRAND PRAIRIE","TX","75054"
834819,"7252 COACH LIGHT RD","DALLAS","TX","75237"
834820,"7252 CR 3207","LONE OAK","TX","75453"
834821,"7252 DERBY AVENUE","BAXTER","IA","50028"
834822,"7252 DEVON ST","PHILADELPHIA","PA","19119"
834823,"7252 GARDEN VALLEY RD","ROSEBURG","OR","97471"
834824,"7252 HWY 70 S UNIT 103","NASHVILLE","TN","37221"
834825,"7252 KEILER COURT","DUBLIN","OH","43017"
834826,"7252 MATHEWS DRIVE","FRANKFORT","IL","60423"
834827,"7252 MAXWELL","WARREN","MI","48091"
834828,"7252 NEWLING LANE","MEMPHIS","TN","38125"
834829,"7252 S GLENRIDGE DR","BOISE","ID","83709"
834830,"7252 S RIDGELAND","CHICAGO","IL","60649"
834831,"7252 SANTEELAH WAY","Antioch","TN","37013"
834832,"7252 SQUIRE CIR","MIDDLETON","WI","53562"
834833,"7252 WEST EVERETT AVENUE","CHICAGO","IL","60631"
834834,"72525 243RD ST","DASSEL","MN","55325"
834835,"7253 ALMERTA AVE","LAS VEGAS","NV","89178"
834836,"7253 ANCHORAGE DRIVE","MAUMEE","OH","43537"
834837,"7253 ATTACHE WAY","RIVERDALE","GA","30296"
834838,"7253 BERKSHIRE DOWN DR","RALEIGH","NC","27616"
834839,"7253 BOLEYN DRIVE APT 7","CINCINNATI","OH","45239"
834840,"7253 E 112TH ST S","BIXBY","OK","74008"
834841,"7253 EMMA COURT","DOUGLASSVILLE","GA","30134"
834842,"7253 FOWLER ROAD","HORTON","MI","49246"
834843,"7253 MARINERS LANDING DRIVE","FAYETTEVILLE","NC","28306"
834844,"7253 PRINCESS PLACE","MADDOX","GA","30296"
834845,"7253 S 87TH EAST AVENUE APT 303","TULSA","OK","74133"
834846,"7253 S RUBACABA ST","WASILLA","AK","99623"
834847,"7253 SHEBA RD","FORT MILL","SC","29715"
834848,"7253 SOUTH MAY STREET","CHICAGO","IL","60621"
834849,"7253 SWAN POINT WAY","COLUMBIA","MD","21045"
834850,"7253 VIAR AVE","SAN DIEGO","CA","92120"
834851,"7253 W NICOLET AVE","GLENDALE","AZ","85303"
834852,"7253 WATSON RD PMB 2014","SAINT LOUIS","MO","63119"
834853,"7253 WATSON RD UNIT 1111","SAINT LOUIS","MO","63119"
834854,"7253 WATSON ROAD PMB 12","SAINT LOUIS","MO","63119"
834855,"7253 WINDRIDGE WAY","BROWNSBURG","IN","46112"
834856,"72530 MASHLAN ROAD","ASHLAND","WI","54806"
834857,"7254 BIDDICK","NEW ALBANY","OH","43054"
834858,"7254 BURKES GARDEN RD","TAZEWELL","VA","24651"
834859,"7254 CASTELL BLVD","BELLEVILLE","MI","48111"
834860,"7254 MISTY HARBOR COURT","STONE MOUNTAIN","GA","30087"
834861,"7254 WEATHERSTONE CIRCLE NORTHWEST","ROCHESTER","MN","55901"
834862,"7255 AARONWAY DRIVE","WEST BLOOMFIELD","MI","48324"
834863,"7255 BRINGLE FERRY ROAD","SALISBURY","NC","28146"
834864,"7255 BRITTANY WAY","DOUGLASVILLE","GA","30134"
834865,"7255 CORPORATE DRIVE APT 510","HOUSTON","TX","77036"
834866,"7255 DELL RD","MOSIER","OR","97040"
834867,"7255 E SNYDER ROAD  UNIT 8205","TUCSON","AZ","85750"
834868,"7255 E SYNDER ROAD UNIT 8102","TUCSON","AZ","85750"
834869,"7255 FM 1010","CLEVELAND","TX","77327"
834870,"7255 FRONTERA","GRAND PRAIRIE","TX","75054"
834871,"7255 GERMANTOWN TRAIL","MEMPHIS","TN","38125"
834872,"7255 GOLDEN WINGS RD SUITE 2","JACKSONVILLE","FL","32244"
834873,"7255 HOMESTEAD ROAD","MORGANTOWN","IN","46160"
834874,"7255 LEE HIGHWAY APT 703","HIXSON","TN","37343"
834875,"7255 LEE HWY APT 807","CHATTANOOGA","TN","37421"
834876,"7255 LEE HWY APT 815","CHATTANOOGA","TN","37421"
834877,"7255 LEE HWY","CHATTANOOGA","TN","37421"
834878,"7255 NOTRE DAME","IRVING","TX","75063"
834879,"7255 OLD SANA FE TRAIL","SANTA FE","NM","87505"
834880,"7255 OLD SANTA FE TRAIL","SANTA FE","NM","87505"
834881,"7255 PEARLY HEATH ROAD","COLORADO SPRINGS","CO","80908"
834882,"7255 PINE ISLAND DR NE","COMSTOCK PARK","MI","49321"
834883,"7255 REMSEN ST","NORFOLK","VA","23505"
834884,"7255 S SWAN HILL DR","WEST JORDAN","UT","84081"
834885,"7255 S YATES","CHICAGO","IL","60649"
834886,"7255 SHEA ROAD","COTTRELLVILLE","MI","48039"
834887,"7255 STANDARD DRIVE SUITE E","HANOVER","MD","21076"
834888,"7255 STATE ROUTE 31","CICERO","NY","13039"
834889,"7255 SW ALPINE DR","BEAVERTON","OR","97008"
834890,"7255 TOCCOA CIRCLE","UNION CITY","GA","30291"
834891,"7255 WICZER","WHITEHALL","MI","49461"
834892,"72550 OLD FARM TR","ARMADA","MI","48005"
834893,"7256 BOLEYN DRIVE","CINCINNATI","OH","45239"
834894,"7256 E CAPRICE AVENUE","BATON ROUGE","LA","70811"
834895,"7256 ESSEX DRIVE","YPSILANTI","MI","48197"
834896,"7256 HAWKSNEST BLVD","ORLANDO","FL","32835"
834897,"7256 HWY 162","HOLLYWOOD","SC","29449"
834898,"7256 HWY 225 S","CHATSWORTH","GA","30705"
834899,"7256 LAMPORT RD","UPPER DARBY","PA","19082"
834900,"7256 MAIN ST","BANGOR","PA","18013"
834901,"7256 S DORCHESTER","CHICAGO","IL","60619"
834902,"7256 S PIPPIN DR","SALTLAKE","UT","84106"
834903,"7256 W 2200 S","LA CROSSE","IN","46348"
834904,"7257 102ND LANE","SEMINOLE","FL","33772"
834905,"7257 ANGELA DR","JACKSONVILLE","FL","32222"
834906,"7257 BRIGHT AVE","COCOA","FL","32927"
834907,"7257 CAT TAIL CREEK DRIVE","COLORADO SPRINGS","CO","80923"
834908,"7257 CREEKS BEND CT","WEST BLOOMFIELD","MI","48322"
834909,"7257 E 24TH LN","YUMA","AZ","85365"
834910,"7257 E GARFIELD ST","SCOTTSDALE","AZ","85257"
834911,"7257 FULTON DR NW STE 59 PMB 234","CANTON","OH","44718"
834912,"7257 GREYLOCK AVENUE","RIVERSIDE","CA","92504"
834913,"7257 JACKSON ARCH DRIVE","MECHANICSVILLE","VA","23111"
834914,"7257 JACKSON STREET","PARAMOUNT","CA","90723"
834915,"7257 MACINTOSH LANE","SALT LAKE CITY","UT","84121"
834916,"7257 N MAPLE AVE STE 110","FRESNO","CA","93720"
834917,"7257 N MAPLE STE 110","FRESNO","CA","93720"
834918,"7257 NORTHWEST HWY","FAIRVIEW","TN","37062"
834919,"7257 RAWLINS SQUARE","INDIANAPOLIS","IN","46260"
834920,"7257 RAWLINS SQUARE","INIDIANAPOLIS","IN","46260"
834921,"7257 SIMSBURY DRIVE","WEST BLOOMFIELD","MI","48322"
834922,"7257 SOUTH ORA COURT","GREENBELT","MD","20770"
834923,"7257 TOWNSEND DR","ROMULUS","MI","48174"
834924,"7257 TRAVIS ROAD","GREENWOOD","IN","46143"
834925,"7257 TURNER LAKE ROAD","COVINGTON","GA","30014"
834926,"7257 W ST CATHERINE AVENUE","LAVEEN","AZ","85339"
834927,"7257 WILDFLOWER WALK","WINSTON","GA","30187"
834928,"72575 SOLANUS DRIVE","BRUCE TOWNSHIP","MI","48065"
834929,"7258 AZALEA DRIVE","RUTHER GLEN","VA","22546"
834930,"7258 BOGEY LANE","MILTON","FL","32570"
834931,"7258 BRIDGEPORT COURT","AUSTELL","GA","30168"
834932,"7258 DEEGAN STREET","ENGLEWOOD","FL","34224"
834933,"7258 E FILLMORE ST","PORT ORCHARD","WA","98366"
834934,"7258 LAMPORT RD","UPPER DARBY","PA","19082"
834935,"7258 MOSS RIDGE RD","PARKER","TX","75002"
834936,"7258 OXFORDSHIRE AVENUE","JACKSONVILLE","FL","32219"
834937,"7258 PONTO DR","CARLSBAD","CA","92011"
834938,"7258 RICHARDSON ROAD","MORGANTOWN","IN","46160"
834939,"7258 S HARVARD AVENUE","CHICAGO","IL","60621"
834940,"7258 S WASHTENAW","CHICAGO","IL","60629"
834941,"7258 SHALKOP STREET","PHILADELPHIA","PA","19128"
834942,"7258 WOODMILL CT","AVON","IN","46123"
834943,"72585 MIDDLE FORK LN","BATES","OR","97817"
834944,"7259 162ND LANE","INDIANOLA","IA","50125"
834945,"7259 BLENHEIM LN","MEMPHIS","TN","38125"
834946,"7259 BRIELLA DRIVE","BOYNTON BEACH","FL","33437"
834947,"7259 CR 331","ABILENE","TX","79601"
834948,"7259 HILLROSE STREET","TUJUNGA","CA","91042"
834949,"7259 JORDAN AVE APT 15","CANOGA PARK","CA","91303"
834950,"7259 KENNY LANE","DALLAS","TX","75230"
834951,"7259 PAUTLER RD","EVANSVILLE","IL","62242"
834952,"7259 S CRANDON AVE","CHICAGO","IL","60649"
834953,"7259 SURFBIRD CIRCLE","CARLSBAD","CA","92011"
834954,"7259 W QUAIL AVE","GLENDALE","AZ","85308"
834955,"7259 WELLFORD LANE","GLOUCESTER","VA","23061"
834956,"7259 WILLOW CREEK DR","YPSILANTI","MI","48197"
834957,"726 10TH ST","TELL CITY","IN","47586"
834958,"726 11TH ST SE","WASHINGTON","DC","20003"
834959,"726 14TH AVE","SEATTLE","WA","98122"
834960,"726 14TH STREET APT 3","SAN FRANCISCO","CA","94114"
834961,"726 35TH AVE","SEATTLE","WA","98122"
834962,"726 7TH ST S","SHELBY","MT","59474"
834963,"726 7TH STREET","ASTORIA","OR","97103"
834964,"726 95TH AVE","NAPLES","FL","34108"
834965,"726 AENEAS VALLEY ROAD","TONASKET","WA","98855"
834966,"726 ALLENDALE ST","SANTA FE","NM","87505"
834967,"726 AMSTERDAM AVENUE 3C","NEW YORK","NY","10025"
834968,"726 ARDMORE STREET","DEARBORN HTS","MI","48127"
834969,"726 AVENUE P","BROOKLYN","NY","11223"
834970,"726 BARNESON AVENUE","SAN MATEO","CA","94402"
834971,"726 BELLE MEADE BLVD","GRETNA","LA","70056"
834972,"726 BERG ROAD","ONTARIO","NY","14519"
834973,"726 BERGEN STREET","MADISON","WI","53714"
834974,"726 BERKELEY TERRACE","CANTON","GA","30115"
834975,"726 BLACK COLT DRIVE","MURFREESBORO","TN","37130"
834976,"726 BLUE OAK BLVD","SAN MARCOS","TX","78666"
834977,"726 BODE CIRCLE APT 211","HOFFMAN ESTATES","IL","60169"
834978,"726 BREEZE HILL RD","ASHEBORO","NC","27203"
834979,"726 BRICK LANE","SEDRO WOOLLEY","WA","98284"
834980,"726 BROADWAY RM 627","NEW YORK","NY","10003"
834981,"726 BROOKLINE STREET SW","ATLANTA","GA","30310"
834982,"726 BROOKLINE","ATLANTA","GA","30310"
834983,"726 BROTHERTON LANE","ST LOUIS","MO","63135"
834984,"726 BROTHERTON LANE","ST. LOUIS","MO","63136"
834985,"726 BROWNING RD","CENTRAL","SC","29630"
834986,"726 BUTLER AVE","NEW CASTLE","PA","16101"
834987,"726 CATHERINE STREET","KEY WEST","FL","33040"
834988,"726 CELESTE","ATLANTA","GA","30331"
834989,"726 CENTER ST","MASON","MI","48854"
834990,"726 CHARLEMANE BLVD","NAPLES","FL","34112"
834991,"726 CHARLES STREET","LA CROSSE","WI","54603"
834992,"726 CHERRY STREET","WHEATON","IL","60187"
834993,"726 CLARK AVE","ST LOUIS","MO","63119"
834994,"726 CLARK STREET","ROCKY MOUNT","NC","27801"
834995,"726 COLEMA PLACE","WESTFIELD","NJ","07090"
834996,"726 COLUMBIA","HELENA","AR","72342"
834997,"726 COUNTRY PLACE DRIVE","PEARL","MS","39208"
834998,"726 COUNTY LINE ROAD","TYNER","NC","27980"
834999,"726 COUNTY ROAD 48","SLOCOMB","AL","36375"
835000,"726 COUNTY STREET","NEW BEDFORD","MA","02740"
