"ID","Address","City","State","Zip"
15501,"101 NORTH PARK STREET STE 220","TRAVERSE CITY","MI","49684"
15502,"101 NORTH RAILROAD STREET","PATOKA","IL","62875"
15503,"101 NORTH RIDGE STREET","JONESVILLE","NC","28642"
15504,"101 NORTH SCOTT","ELMO","MO","64445"
15505,"101 NORTH SHORE ROAD","GRAY","ME","04039"
15506,"101 NORTH STAR ST NW","CARROLLTON","OH","44615"
15507,"101 NORTH THIRD STREET","IRONTON","OH","45638"
15508,"101 NORTH UNION STREET","MONTGOMERY","AL","36130"
15509,"101 NORTH WOLFE STREET APT 254","BALTIMORE","MD","21231"
15510,"101 NORTHCREST STREET","RIPLEY","TN","38063"
15511,"101 NORTHWESTERN PARKWAY","LOUISVILLE","KY","40212"
15512,"101 NORTHWOOD AVENUE","SILVER SPRING","MD","20901"
15513,"101 NORTHWOODS DRIVE","WHITE HOUSE","TN","37188"
15514,"101 NW 1ST STREET","EVANSVILLE","IN","47708"
15515,"101 NW 23RD COURT","GRIMES","IA","50111"
15516,"101 NW 341 RD","WARRENSBURG","MO","64093"
15517,"101 NW 47TH STREET","MIAMI","FL","33127"
15518,"101 NW 63RD STREET","OKLAHOMA CITY","OK","73116"
15519,"101 NW 73RD ST","BREMERTON","WA","98311"
15520,"101 NW 75TH STREET SUITE 1","GAINESVILLE","FL","32607"
15521,"101 NW FOURTH STREET ONS003","EVANSVILLE","IN","47708"
15522,"101 NW FOURTH STREET","EVANSVILLE","IN","47708"
15523,"101 NWCR 0017","CORSICANA","TX","75110"
15524,"101 OAK KNOLL DRIVE","OAKWOOD","OH","45419"
15525,"101 OAK LEAF WAY","PEARL","MS","39208"
15526,"101 OAK ST N BOX 811","LESTER PRAIRIE","MN","55354"
15527,"101 OAK ST","PORTLAND","IN","47371"
15528,"101 OAKAWANA TRAIL","BLUE RIDGE","GA","30513"
15529,"101 OAKFORD CIRCLE","WAYNE","PA","19087"
15530,"101 OAKHURST AVE","BLUEFIELD","WV","24701"
15531,"101 OAKLAND ST","ENGLEWOOD","NJ","07631"
15532,"101 OAKLAND WAY","FOUNTAIN INN","SC","29644"
15533,"101 OAKMONT DRIVE","LA PLACE","LA","70068"
15534,"101 OAKRIDGE CIRCLE","OAK CREEK","CO","80467"
15535,"101 OAKRIDGE LN","HARDIN","IL","62047"
15536,"101 OBERON PLACE","MACON","GA","31210"
15537,"101 OCEAN GATE DRIVE","ATLANTIC BEACH","FL","32233"
15538,"101 OCEAN PARKWAY 1G","BROOKLYN","NY","11218"
15539,"101 OCEAN PARKWAY APT 5G","BROOKLYN","NY","11218"
15540,"101 OGDEN STREET","SARASOTA","FL","34242"
15541,"101 OKLAHOMA DRIVE","DARLINGTON","SC","29532"
15542,"101 OLD HOUSE WAY","SIMPSONVILLE","SC","29681"
15543,"101 OLD MAIN STREET","BRADENTON","FL","34205"
15544,"101 OLD MAMARONECK ROAD","WHITE PLAINS","NY","10605"
15545,"101 OLD NISKAYUNA RD","ALBANY","NY","12211"
15546,"101 OLD PARIS MOUNTAIN ROAD","GREENVILLE","SC","29609"
15547,"101 OLD SETTLER RD","KYLE","TX","78640"
15548,"101 OLD SHORT HILLS ROAD PH 2","WEST ORANGE","NJ","07052"
15549,"101 OLD STONE WAY","WEYMOUTH","MA","02189"
15550,"101 OLIVE STREET","HAUGHTON","LA","71037"
15551,"101 ONONDAGO TRAIL","MEDFORD","NJ","08055"
15552,"101 ONONDOGA TRAIL","MEDFORD LAKES","NJ","08055"
15553,"101 OPEN RANGE LN","SIMPSONVILLE","SC","29681"
15554,"101 ORANGE STREET APT 210","NEW HAVEN","CT","06510"
15555,"101 ORANGE STREET","STAMFORD","CT","06902"
15556,"101 ORCHARD AVE","KINGWOOD","WV","26537"
15557,"101 ORCHARD CT","ROCKY MOUNT","NC","27804"
15558,"101 ORCHARD LANE","ALEXANDRIA","KY","41001"
15559,"101 ORCHARD PARK BLVD","ROCHESTER","NY","14609"
15560,"101 ORCHARD ROAD","CUMBERLAND","ME","04021"
15561,"101 ORION COVE","KYLE","TX","78640"
15562,"101 ORO FINO","RED RIVER","NM","87558"
15563,"101 OSAGE RD","BRIGHTON","IL","62012"
15564,"101 OSPREY WAY","NEWPORT NEWS","VA","23608"
15565,"101 OVERLAND AVE","DUQUESNE","PA","15110"
15566,"101 OVERLOOK DR APT 2C","SALISBURY","MD","21804"
15567,"101 OWENS ST","DES LACS","ND","58733"
15568,"101 OXFORD COURT","PEACHTREE CITY","GA","30269"
15569,"101 OXFORD LN","LAFAYETTE","LA","70506"
15570,"101 OXFORD PL APT 21","HIGH POINT","NC","27262"
15571,"101 OXFORD STREET","BRIDGEPORT","CT","06606"
15572,"101 OYSTER BAY RD","SWANSBORO","NC","28584"
15573,"101 PACE STREET","GREENVILLE","SC","29609"
15574,"101 PACIFICA SUITE 270","IRVINE","CA","92618"
15575,"101 PACKARD RD","STOW","MA","01775"
15576,"101 PALAFOX PLACE SUITE 1710","PENSACOLA","FL","32502"
15577,"101 PALAFOX PLACE","PENSACOLA","FL","32502"
15578,"101 PALCO STREET","BARDSTOWN","KY","40004"
15579,"101 PANSY LN","KISSIMMEE","FL","34759"
15580,"101 PANTHER PATH","LIBERTY HILL","TX","78642"
15581,"101 PARADE POINT","ROCKWALL","TX","75032"
15582,"101 PARAMOUNT","IRVINE","CA","92620"
15583,"101 PARIS","LANSING","MI","48911"
15584,"101 PARK AVE STE 1300","OKLAHOMA CITY","OK","73102"
15585,"101 PARK AVENUE APT C","KINSTON","NC","28501"
15586,"101 PARK AVENUE","NEW YORK","NY","10178"
15587,"101 PARK DR","ATMORE","AL","36502"
15588,"101 PARK LANE CIRCLE","LOCKPORT","NY","14094"
15589,"101 PARK ST","WOODBINE","IA","51579"
15590,"101 PARKCANYON LANE","CARY","NC","27519"
15591,"101 PARKER STREET","MORRISON","TN","37357"
15592,"101 PARKLANE BLVD 102","SUGAR LAND","TX","77478"
15593,"101 PARKSHORE DR UNIT 138","FOLSOM","CA","95630"
15594,"101 PARKSIDE LANE","DINGMANS FERRY","PA","18328"
15595,"101 PARKVINE CIRCLE","CARY","NC","27519"
15596,"101 PARKWAY DRIVE","LAFAYETTE","LA","70508"
15597,"101 PARKWAY","WHITE HALL","AR","71602"
15598,"101 PARLOCK CT","IRMO","SC","29063"
15599,"101 PARMA AVE","NEW CASTLE","DE","19720"
15600,"101 PARQUE CIRCLE","GEORGETOWN","TX","78626"
15601,"101 PATTERSON STREET","LAFAYETTE","LA","70501"
15602,"101 PATTON BLVD","NEW HYDE PARK","NY","11040"
15603,"101 PAUL WITTKE DR","HEALDSBURG","CA","95448"
15604,"101 PAULDING DRIVE","CHAPPAQUA","NY","10514"
15605,"101 PEACEFUL LN","CONVERSE","TX","78109"
15606,"101 PEACH TREE ST","FULTON","KY","42041"
15607,"101 PEARL STREET","HARTFORD","CT","06103"
15608,"101 PEBBLE COURT","CHAPEL HILL","NC","27514"
15609,"101 PEBBLE","GATESVILLE","TX","76528"
15610,"101 PELICAN DR SE","MOSES LAKE","WA","98837"
15611,"101 PELICAN DR","VALLEJO","CA","94589"
15612,"101 PEPPERHILL LANE","GREENWOOD","SC","29649"
15613,"101 PEREZ DRIVE","NEWARK","NJ","07103"
15614,"101 PETRONIA STREET","KEY WEST","FL","33040"
15615,"101 PHEASANT RUN LANE","LANCASTER","NY","14086"
15616,"101 PHELPS AVE","NORTH ADAMS","MA","01247"
15617,"101 PHYLLIS DR","GLEN BURNIE","MD","21060"
15618,"101 PHYLLIS DRIVE","BENSON","NC","27504"
15619,"101 PIERCE STREET","MABANK","TX","75156"
15620,"101 PILGRIMS VILLAGE DRIVE SUITE 40","CUMMING","GA","30040"
15621,"101 PIN CHERRY ROAD","BISMARK","AR","71913"
15622,"101 PINE COVE ST","BEAUFORT","SC","29902"
15623,"101 PINE FOREST DR 28G","MAUMELLE","AR","72113"
15624,"101 PINE KNOLL COURT","EATONTON","GA","31024"
15625,"101 PINE RIDGE II","CLIFTON PARK","NY","12065"
15626,"101 PINE ST","ST MARYS","GA","31558"
15627,"101 PINE STREET","BOONVILLE","NC","27011"
15628,"101 PINE STREET","SONORA","CA","95370"
15629,"101 PINE TREE LANE","FREEBURG","IL","62243"
15630,"101 PINECREST DRIVE","DAHLONEGA","GA","30533"
15631,"101 PINES EDGE DRIVE","NORTHAMPTON","MA","01060"
15632,"101 PINESHADOW DR","GOOSE CREEK","SC","29445"
15633,"101 PINETOP CIRCLE E","FAIRHOPE","AL","36532"
15634,"101 PINETREE DRIVE","GRANVILLE","OH","43023"
15635,"101 PINKERTON DRIVE","BEAVER","PA","15009"
15636,"101 PINNACLE PLACE","SMYRNA","TN","37167"
15637,"101 PIRATE LANE","MELBOURNE","FL","32901"
15638,"101 PISTOL CREEK DRIVE","MONUMENT","CO","80132"
15639,"101 PLAZA REAL SOUTH-SUITE 416","BOCA RATON","FL","33432"
15640,"101 PLAZA REAL SOUTH","BOCA RATON","FL","33432"
15641,"101 POINTER DRIVE","ANGIER","NC","27501"
15642,"101 POLK STREET - 203","SAN FRANCISCO","CA","94102"
15643,"101 PONDVIEW CIRCLE","BELCHERTOWN","MA","01007"
15644,"101 POPLAR ST","MONTGOMERY","AL","36113"
15645,"101 POPLAR STREET","DEPUE","IL","61322"
15646,"101 PRAIRIE VIEW CT","BELMONT","NC","28012"
15647,"101 PRESERVE PARKWAY","BALL GROUND","GA","30107"
15648,"101 PRIMROSE BOULEVARD","KYLE","TX","78640"
15649,"101 PRIMROSE LANE","WAGGAMAN","LA","70094"
15650,"101 PRINCETON AVE","EGG HARBOR TWP","NJ","08234"
15651,"101 PRISCILLA CT","MANKATO","MN","56001"
15652,"101 PROMENADE AVE UNIT 337","WAYZATA","MN","55391"
15653,"101 PROSPECT AVE 6","HACKENSACK","NJ","07601"
15654,"101 PROSPECT PARK SW APT 3C","BROOKLYN","NY","11218"
15655,"101 PROSPECTIVE 5N","HACKENSACK","NJ","07601"
15656,"101 PROSPERITY CIRCLE","LAFAYETTE","LA","70508"
15657,"101 PROSPET AVENUE","IRVINGTON","NJ","07111"
15658,"101 PROVIDENCE LANE","LANSDALE","PA","19446"
15659,"101 PUFFER AVE","SWANSEA","MA","02777"
15660,"101 PUGLIESES WAY 2ND FLOOR","DELRAY BEACH","FL","33444"
15661,"101 PUMA DRIVE","WEST MONROE","LA","71291"
15662,"101 QUAIL OAKS CIRCLE","GROVELND","FL","34736"
15663,"101 RACE ST APT 210","CATASAUQUA","PA","18032"
15664,"101 RAIL ROAD PLAZA","BAYSHORE","NY","11706"
15665,"101 RAILWAY AVE","PORTAL","ND","58772"
15666,"101 RAINBOW DRIVE","GADSDEN","AL","35901"
15667,"101 RAMOS ST","VACAVILLE","CA","95688"
15668,"101 RAMPART WAY-APT 101","EAST LANSING","MI","48823"
15669,"101 RANDOLPH MASSEY ROAD","ALAMO","TN","38001"
15670,"101 RANGER RD","GREELEY","PA","18425"
15671,"101 RASPBERRY COURT","MELVILLE","NY","11747"
15672,"101 READING COURT","LADSON","SC","29456"
15673,"101 RED CYPRESS DRIVE","GOOSE CREEK","SC","29445"
15674,"101 RED FOX ROAD","MILLERSVILLE","PA","17551"
15675,"101 RED ST","RICHLAND","MS","39218"
15676,"101 RED STAR ROAD","GREENFIELD PARK","NY","12435"
15677,"101 REGENCY COURT","WARNER ROBINS","GA","31088"
15678,"101 REILLYWOOD AVE","HADDONFIELD","NJ","08033"
15679,"101 RESERVOIR RD","BROUSSARD","LA","70518"
15680,"101 RESOLUTE ST","ROCHESTER","NY","14621"
15681,"101 REYNARD DRIVE","MILFORD","NJ","08848"
15682,"101 REYNOLDS AVE","MONT ALTO","PA","17237"
15683,"101 RHETT CT","ELKTON","MD","21921"
15684,"101 RICE BENT WAY STE 1","COLUMBIA","SC","29229"
15685,"101 RICHFIELD LANE","COLCHESTER","VT","05446"
15686,"101 RIDGE CIRCLE","BRANDON","MS","39047"
15687,"101 RIDGEDALE ROAD","FAIRFIELD","CT","06824"
15688,"101 RIPLEY COURT","SUMMERVILLE","SC","29483"
15689,"101 RIVENDALE DR","COLUMBIA","SC","29229"
15690,"101 RIVER BRIDGE WAY","HUNTSVILLE","AL","35811"
15691,"101 RIVER CHASE ROAD","NEW MARKET","AL","35761"
15692,"101 RIVER HOUSE PL APT 2328","BATON ROUGE","LA","70802"
15693,"101 RIVER HOUSE PLACE APT 2115","BATON ROUGE","LA","70802"
15694,"101 RIVER RD","MARIETTA","OH","45750"
15695,"101 RIVER ROAD","ALLENSTOWN","NH","03275"
15696,"101 RIVER VIEW COURT","HAMPTON","GA","30228"
15697,"101 RIVERBOAT ROW","NEWPORT","OH","41071"
15698,"101 RIVERDALE LANE","LOCUST GROVE","VA","22508"
15699,"101 RIVERFRONT BLVD SUITE 120","BRADENTON","FL","34205"
15700,"101 RIVERHOUSE PLACE  APT 1225","BATON ROUGE","LA","70802"
15701,"101 RIVERSIDE COURT","DECATUR","IN","46733"
15702,"101 RIVERVIEW CIRCLE","SALINE","MI","48176"
15703,"101 RIVERVIEW DR","BLAIR","NE","68008"
15704,"101 RIVERWOOD DR","FRANKLIN","TN","37069"
15705,"101 ROBIE ST","BUFFALO","NY","14214"
15706,"101 ROBINSON WALK APT B","BRISTOL","TN","37620"
15707,"101 ROCK CLIFF CT UNIT 4","LOUISVILLE","KY","40218"
15708,"101 ROCK HAVEN ROAD","CARRBORO","NC","27510"
15709,"101 ROCK SQUIRREL","SAN ANTONIO","TX","78231"
15710,"101 ROCKMONT ROAD","GREENVILLE","SC","29615"
15711,"101 ROCKRIMMON RD","BELLEFONTE","PA","16823"
15712,"101 RODALE STREET","DAVENPORT","FL","33837"
15713,"101 RODEO DRIVE","SPRING CREEK","PA","16436"
15714,"101 RONDANE  PL","WILLIAMSBURG","VA","23188"
15715,"101 ROOSEVELT DRIVE","DOTHAN","AL","36301"
15716,"101 ROPE FERRY ROAD","WATERFORD","CT","06385"
15717,"101 ROSALYNN COURT","RALEIGH","NC","27610"
15718,"101 ROSE ANN CT","EASLEY","SC","29642"
15719,"101 ROSE AVE","HURON","OH","44839"
15720,"101 ROSEBUD ST","BALDWIN","LA","70538"
15721,"101 ROSEBUD","YERINGTON","NV","89447"
15722,"101 ROSEVIEW DRIVE","GRANVILLE","OH","43023"
15723,"101 ROUTE 130 S SUITE 10","CINNAMINSON","NJ","08077"
15724,"101 ROWAN CT","MANAHAWKIN","NJ","08050"
15725,"101 ROYAL DR APT404","MADISON","AL","35758"
15726,"101 ROYALL AVE","ELROY","WI","53929"
15727,"101 RUGBY LANE","SOUTH WINDSOR","CT","06074"
15728,"101 RUMFORD ST","WATERBURY","CT","06704"
15729,"101 RUSSELL STREET","WINTERS","CA","95694"
15730,"101 RUSTIC","GARLAND","TX","75040"
15731,"101 RUSTLE ROAD","JORDAN","MN","55352"
15732,"101 RUTGERS PL APT1","RIVERS EDGE","NJ","07661"
15733,"101 RUTHWOOD DR","LAFAYETTE","LA","70503"
15734,"101 RUTLEDGE AVE APT D","CHARLESTON","SC","29401"
15735,"101 RYERSON ROAD","WARWICK","NY","10990"
15736,"101 S  2ND STREET","KIMBALLTON","IA","51543"
15737,"101 S 108TH AVENUE","OMAHA","NE","68154"
15738,"101 S 10TH STREET","RICHMOND","IN","47374"
15739,"101 S 17 TH ST","SAN JOSE","CA","95112"
15740,"101 S 19TH STREET","TERRE HAUTE","IN","47807"
15741,"101 S 2ND ST","KIMBALLTON","IA","51543"
15742,"101 S 39TH ST APT G201","PHILADELPHIA","PA","19104"
15743,"101 S 3RD AVE STE 275","GRAND JUNCTION","CO","81501"
15744,"101 S 5TH STREET","MONTEVIDEO","MN","56265"
15745,"101 S 6TH ST","CARLTON","OR","97111"
15746,"101 S 9TH ST","RUPERT","ID","83350"
15747,"101 S ARLINGTON AVE","BALTIMORE","MD","21223"
15748,"101 S BANK STREET","ONEIDA","TN","37841"
15749,"101 S BROOKSIDE DR","OAK HARBOR","OH","43449"
15750,"101 S CALDWELL ST","MANOR","TX","78653"
15751,"101 S CALIFORNIA AVENUE STE D-100C","PALO ALTO","CA","94306"
15752,"101 S CHARLES ST","BEECHER CITY","IL","62414"
15753,"101 S CLINTON AVE","DALLAS","TX","75208"
15754,"101 S CONGRESS AVE","BOYNTON BEACH","FL","33426"
15755,"101 S Coombs St Suite A","Napa","CA","94559"
15756,"101 S COOMBS ST SUITE A","NAPA","CA","94559"
15757,"101 S COREY ST","MOORELAND","IN","47360"
15758,"101 S COUNTRY CLUB RD E1","MUSKOGEE","OK","74403"
15759,"101 S DALLAS ST SUITE 100","ENNIS","TX","75119"
15760,"101 S EOLA DR APT 214","ORLANDO","FL","32801"
15761,"101 S EOLA DRIVE UNIT 1121","ORLANDO","FL","32801"
15762,"101 S EULA DRIVE UNIT 514","ORLANDO","FL","32801"
15763,"101 S FIFTH ST STE 2500","LOUISVILLE","KY","40202"
15764,"101 S FIFTH ST SUITE 2500 PNC TOWER","LOUISVILLE","KY","40202"
15765,"101 S FRANKLIN AVENUE","MARGATE","NJ","08402"
15766,"101 S GARLAND AVE STE 108","ORLANDO","FL","32801"
15767,"101 S GARLAND AVE","ORLANDO","FL","32801"
15768,"101 S GARLAND SUITE 108","ORLANDO","FL","32801"
15769,"101 S GEORGE ST PO BOX 509","YORK","PA","17405"
15770,"101 S GILMORE","BAZINE","KS","67516"
15771,"101 S GREENFIELD ROAD","GILBERT","AZ","85296"
15772,"101 S GREGG ST","COLUMBIA","SC","29205"
15773,"101 S HANLEY RD STE 1310","CLAYTON","MO","63105"
15774,"101 S HILMAR","WEINERT","TX","76388"
15775,"101 S HOLLIE","DEQUINCY","LA","70633"
15776,"101 S IZARD","FORREST CITY","AR","72335"
15777,"101 S JACOB LANE","WINTERS","TX","79567"
15778,"101 S JIM WRIGHT FREEWAY SUITE 200","FORT WORTH","TX","76108"
15779,"101 S JOLIET CIRCLE","AURORA","CO","80012"
15780,"101 S LA CANADA DR SUITE 17","GREEN VALLEY","AZ","85614"
15781,"101 S LA CANADA SUITE 54","GREEN VALLEY","AZ","85614"
15782,"101 S LAUBER LANE","DERBY","KS","67037"
15783,"101 S MAIN ST STE 14","NEW CASTLE","IN","47362"
15784,"101 S MAIN ST","CRAIG","MO","64437"
15785,"101 S MAIN ST","DELEVAN","NY","14042"
15786,"101 S MAIN ST","GROVER HILL","OH","45849"
15787,"101 S MAIN","NOBLE","OK","73068"
15788,"101 S MOSHANNON AVE","SNOW SHOE","PA","16874"
15789,"101 S NELSON ST","HAHIRA","GA","31632"
15790,"101 S PALMETTO AVE STE 2","DAYTONA BEACH","FL","32114"
15791,"101 S PENMAN ROAD","JACKSONVILLE BEACH","FL","32250"
15792,"101 S PLAZA PLACE","ATLANTIC CITY","NJ","08401"
15793,"101 S POPLAR AVE","BROKEN ARROW","OK","74012"
15794,"101 S PROSPECT","SILOAM SPRINGS","AR","72761"
15795,"101 S QUEEN ST","MARTINSBURG","WV","25401"
15796,"101 S RAILROAD ST","MYERSTOWN","PA","17067"
15797,"101 S RAINBOW BLVD STE 20","LAS VEGAS","NV","89145"
15798,"101 S RED HILL RD","MARTINSBURG","WV","25401"
15799,"101 S RIVER ST RM 201","ENTERPRISE","OR","97828"
15800,"101 S RUCKER","ROLLA","MO","65401"
15801,"101 S SANTA FE AVE","FOUNTAIN","CO","80817"
15802,"101 S SUMMIT","ARKANSAS CITY","KS","67005"
15803,"101 S THIRD STREET","WACO","TX","76701"
15804,"101 S TOPANGA CANYON BLVD 1705","TOPANGA","CA","90290"
15805,"101 S TRYON STREET 27TH FLOOR","CHARLOTTE","NC","28280"
15806,"101 S TWIN CREEK DRIVE APT 1305","KILLEEN","TX","76543"
15807,"101 S UNIVERSITY ST","GUIDE ROCK","NE","68942"
15808,"101 S VICTORIA AVE APT 1","VENTNOR","NJ","08406"
15809,"101 S WALNUT STREET","MILFORD","DE","19963"
15810,"101 S WALTON ST STE 113","DALLAS","TX","75226"
15811,"101 S WASHINGTON ST","LAKE CITY","MN","55041"
15812,"101 S WASHINGTON ST","MARION","IN","46952"
15813,"101 S WELCOME SLOUGH RD","CATHLAMET","WA","98612"
15814,"101 S WHITING STREET APT 603","ALEXANDRIA","VA","22304"
15815,"101 SABIN","KALAMAZOO","MI","49006"
15816,"101 SAINT FRANCIS RD","EUFAULA","AL","36027"
15817,"101 SAINT PAUL LANE","CEDAR CREEK","TX","78612"
15818,"101 SALEM RD","TWP OF WASHINGTON","NJ","07676"
15819,"101 SALIENT LANE","MOUNT JULIET","TN","37122"
15820,"101 SALT MARSH LANE","GROVELAND","FL","34736"
15821,"101 SALT MARSH LN","GROVELAND","FL","34736"
15822,"101 SAM BLACK RD","MIDLAND","NC","28107"
15823,"101 SAN LUCAS","BELEN","NM","87002"
15824,"101 SANRO RD","LAFAYETTE","LA","70507"
15825,"101 SANTEE TRAIL","CLEMSON","SC","29631"
15826,"101 SARATOGA DR","GREENVILLE","SC","29650"
15827,"101 SASSAFRAS LANE","MILTON","DE","19968"
15828,"101 SAVANNAH LOOP","MOUNTAIN VIEW","CA","94043"
15829,"101 SCARBOROUGH COURT","ELLENWOOD","GA","30294"
15830,"101 SCARBOROUGH DRIVE","GREER","SC","29650"
15831,"101 SCENIC DR","VICKSBURG","MS","39183"
15832,"101 SCENIC HILLS DR","LA VERNIA","TX","78121"
15833,"101 SCHOOL HOUSE LANE","WILLIAMSBURG","VA","23188"
15834,"101 SCHOOL ST","COMSTOCK PARK","MI","49321"
15835,"101 SCHOOL STREET","CAMBRIDGE","MA","02139"
15836,"101 SCOTCH PINE DRIVE","MONETA","VA","24121"
15837,"101 SCOTLOW WAY","MORRISVILLE","NC","27560"
15838,"101 SCOTT STREET","ELMO","MO","64445"
15839,"101 SE 130TH","PORTLAND","OR","97233"
15840,"101 SE 3RD ST","PENLETON","OR","97801"
15841,"101 SE 74TH","OAK ISLAND","NC","28465"
15842,"101 SE COURT STREET","MARION","SC","29571"
15843,"101 SE FOURTH STREET","SNOW HILL","NC","28580"
15844,"101 SEA GULL LANE","MIDWAY","KY","40347"
15845,"101 SEA ISLAND","PONTE VERDA","FL","32082"
15846,"101 SEABREEZE BLVD APT 308","DAYTONA BEACH","FL","32118"
15847,"101 SEAHORSE CT","MIDWAY","KY","40347"
15848,"101 SEASIDE AVE UNIT B","STAMFORD","CT","06902"
15849,"101 SECOND AVE","ROCHESTER","TX","79544"
15850,"101 SEFORD DRIVE","SAN ANTONIO","TX","78209"
15851,"101 SEGRES RD","KINGSTREE","SC","29556"
15852,"101 SELMA ST","NORRISTOWN","PA","19401"
15853,"101 SEMINOLE CANYON DR","GEORGETOWN","TX","78628"
15854,"101 SEMINOLE LANE","LONGVIEW","TX","75601"
15855,"101 SENA WAY","RICHMOND","KY","40475"
15856,"101 SENECA ROAD","RICHMOND","VA","23226"
15857,"101 SERENDIPITY COVE","HOT SPRINGS","AR","71913"
15858,"101 SETTLERS TRACE APT 2214","LAFAYETTE","LA","70508"
15859,"101 SEWALLS FALLS ROAD","CONCORD","NH","03301"
15860,"101 SEXTON STREET","STRUTHERS","OH","44471"
15861,"101 SHADY ACRES LN TRLR 11","BRENHAM","TX","77833"
15862,"101 SHADY CREEK CT","GREER","SC","29650"
15863,"101 SHEARWATER CT E APPT 66","JERSEY CITY","NJ","07305"
15864,"101 SHEFFIELD CIRCLE","CHAPEL HILL","NC","27517"
15865,"101 SHELL DR STE 270","WATSONVILLE","CA","95076"
15866,"101 SHELLEY HILL ROAD","CLINTON CORNERS","NY","12514"
15867,"101 SHEPHERD LANE","SHADY VALLEY","TN","37688"
15868,"101 SHEPHERD WAY NO 306","POOLER","GA","31322"
15869,"101 SHERBROOKE WAY","GRIFFIN","GA","30223"
15870,"101 SHERBURNE ST","MANCHESTER","NH","03104"
15871,"101 SHERIDAN","MUSKEGON","MI","49442"
15872,"101 SHERMAN PLACE","JERSEY CITY","NJ","07307"
15873,"101 SHERWOOD FARM LANE","ORLANDO","FL","32825"
15874,"101 SHERWOOD ROAD","ROME","GA","30165"
15875,"101 SHIRLEY LANE","PENDLETON","IN","46064"
15876,"101 SHOALS POINT","EATONTON","GA","31024"
15877,"101 SILK TREE LN","ROUND ROCK","TX","78664"
15878,"101 SILVER AVE","GLASSBOR0","NJ","08028"
15879,"101 SILVER AVE","GLASSBORO","NJ","08028"
15880,"101 SIMPLICITY ACRES","MIDDLESEX","VT","05602"
15881,"101 SIOUX CIRCLE","EAGLE PASS","TX","78852"
15882,"101 SKIPPER COURT","ST. MARYS","GA","31558"
15883,"101 SKYLINE RIDGE","LOS GATOS","CA","95033"
15884,"101 SLADE AVENUE","WEST SENECA","NY","14224"
15885,"101 SMITH RD","LANDRUM","SC","29356"
15886,"101 SMITH STREET","LOWELL","MA","01851"
15887,"101 SMITHFIELD ST","PITTSBURGH","PA","15222"
15888,"101 SMOKE RISE DRIVE","WARREN","NJ","07059"
15889,"101 SOUTH  HANOVER 7M","LEXINGTON","KY","40502"
15890,"101 SOUTH 1ST STREET","NAZARETH","TX","79063"
15891,"101 SOUTH 200 EAST SUITE 700","SALT LAKE CITY","UT","84111"
15892,"101 SOUTH 3RD STREET","AUGUSTA","AR","72006"
15893,"101 SOUTH 4TH STREET","CAMPBELL","CA","95008"
15894,"101 SOUTH 5TH STREET APT 1309","MINNEAPOLIS","MN","55402"
15895,"101 SOUTH 8TH STREET UNIT 5A","BROOKLYN","NY","11211"
15896,"101 SOUTH A ST","SPRINGFIELD","OR","97477"
15897,"101 SOUTH BANKS","CALDWELL","TX","77836"
15898,"101 SOUTH BOYD","RINCON","GA","31326"
15899,"101 SOUTH BROADWAY","FOREST CITY","NC","28043"
15900,"101 SOUTH BROADWAY","NYACK","NY","10960"
15901,"101 SOUTH CLEARSTONE CT","EASLEY","SC","29640"
15902,"101 SOUTH CONREY ST","KNOXVILLE","IA","50138"
15903,"101 SOUTH COURTENAY PARKWAY","MERRITT ISLAND","FL","32952"
15904,"101 SOUTH CT","WINCHESTER","KY","40391"
15905,"101 SOUTH ELM STREET","GREENSBORO","NC","27401"
15906,"101 SOUTH EOLA DRIVE APT 618","ORLANDO","FL","32810"
15907,"101 SOUTH FIFTH STREET","PAOLA","KS","66071"
15908,"101 SOUTH FRANKLIN STREET","RED LION","PA","17356"
15909,"101 SOUTH GARLAND AVENUE SUITE 108","ORLANDO","FL","32801"
15910,"101 SOUTH GILBERT STREET","CLEVELAND","OK","74020"
15911,"101 SOUTH HANLEY ROAD SUITE 600","SAINT LOUIS","MO","63105"
15912,"101 SOUTH JONES STREET","BARNEVELD","WI","53507"
15913,"101 SOUTH KRAEMER BLVD","PLACENTIA","CA","92870"
15914,"101 SOUTH LANCASTER STREET","ANNVILLE","PA","17003"
15915,"101 SOUTH MAIN STREET","LYNDONVILLE","NY","14098"
15916,"101 SOUTH MAIN STREET","SWAINSBORO","GA","30401"
15917,"101 SOUTH MAIN","TEMPLE","TX","76501"
15918,"101 SOUTH MOUNT STREET","FAIRFIELD","TX","75840"
15919,"101 SOUTH PARKVIEW","TRUMANN","AR","72472"
15920,"101 SOUTH REID STREET SUITE 307","SIOUX FALLS","SD","57103"
15921,"101 SOUTH ROCKINGHAM AVE","LOS ANGELES","CA","90049"
15922,"101 SOUTH ROSE","PARK RIDGE","IL","60068"
15923,"101 SOUTH SHAKER ROAD","HARVARD","MA","01451"
15924,"101 SOUTH SHORE RD","NORTHFIELD","NJ","08225"
15925,"101 SOUTH ST","CAMBRIDGE","WI","53523"
15926,"101 SOUTH STREET","SAUSALITO","CA","94965"
15927,"101 SOUTH UNION STREET","WINONA","MS","38967"
15928,"101 SOUTH WHITING ST","ALEXANDRIA","VA","22304"
15929,"101 SOUTHBROOK DRIVE","GUYTON","GA","31312"
15930,"101 SOUTHEAST OCEAN BLVD SUITE 203","STUART","FL","34994"
15931,"101 SOUTHERN OAKS LANE","BLACKSHEAR","GA","31516"
15932,"101 SOUTHERN PARKWAY","RIDGEWOOD","NJ","07450"
15933,"101 SOUTHFIELD AVENUE","STAMFORD","CT","06901"
15934,"101 SOUTHRIDGE DRIVE","VERONA","KY","41092"
15935,"101 SPARTAN WAY","EAST SYRACUSE","NY","13057"
15936,"101 SPRING BRANCH DR","KYLE","TX","78640"
15937,"101 SPRING MEADOW LANE","KERRVILLE","TX","78028"
15938,"101 SPRING ST","ALTAMONTE SPRINGS","FL","32701"
15939,"101 SPRINGFIELD DR","SELLERSVILLE","PA","18960"
15940,"101 SPRINGHURST ST","BEDFORD HILLS","NY","10507"
15941,"101 SPRUCE VALLEY DRIVE","PITTSBURGH","PA","15229"
15942,"101 SPURGEON RD","WEST MONROE","LA","71291"
15943,"101 ST FELIX ST","BROOKLYN","NY","11217"
15944,"101 ST GEORGE BLVD  10Q","SAVANNAH","GA","31419"
15945,"101 ST GEORGE BLVD APT 9I","SAVANNAH","GA","31419"
15946,"101 ST HELENS ST","SAINT HELENS","OR","97051"
15947,"101 ST MATTHEWS LANE","SPARTANBURG","SC","29301"
15948,"101 STARK RD","TUNKHANNOCK","PA","18657"
15949,"101 STARLING CT","BOX ELDER","SD","57719"
15950,"101 STATE LINE ST","VALLEY SPRINGS","SD","57068"
15951,"101 STATION LANDING SUITE 2100","MEDFORD","MA","02155"
15952,"101 STEFFY LANE","RAMONA","CA","92065"
15953,"101 STELLA ROAD","BELLINGHAM","MA","02038"
15954,"101 STENGAR LANE","ROSEBURG","OR","97471"
15955,"101 STEVENS PLACE","SYRACUSE","NY","13210"
15956,"101 STILL HILL ROAD","HAMDEN","CT","06518"
15957,"101 STILL WILD LANE","ELGIN","SC","29045"
15958,"101 STILLWATER DR","WINTERVILLE","GA","30683"
15959,"101 STONE CIRCLE DRIVE","TRYON","NC","28782"
15960,"101 STONE RIVER RD","HUNTSVILLE","AL","35811"
15961,"101 STONERIDGE DR","GAFFNEY","SC","29341"
15962,"101 STRASSLE DRIVE","WHITE HOUSE","TN","37188"
15963,"101 STRATFORD DRIVE","LAFAYETTE","LA","70503"
15964,"101 STRATMORE CIRCLE","BOSSIER CITY","LA","71111"
15965,"101 STRAWS POINT ROAD","RYE","NH","03870"
15966,"101 STRETCH CT","FRANKFORT","KY","40601"
15967,"101 SUBURBAN DRIVE","ELKTON","MD","21921"
15968,"101 SUFFOLK CT","GARDEN CITY","KS","67846"
15969,"101 SUITE B WOODCHASE PARK DRIVE","CLINTON","MS","39213"
15970,"101 SULLIVAN DRIVE","PUTNEY","VT","05346"
15971,"101 SUMBURST DR","FAIRBORN","OH","45324"
15972,"101 SUMMER HOUSE LANE","YORK","PA","17408"
15973,"101 SUMMERSHADE COURT","HARVEST","AL","35749"
15974,"101 SUMMIT AVE UNIT 508","PARK RIDGE","IL","60068"
15975,"101 SUMMIT AVE","FORT WORTH","TX","76102"
15976,"101 SUMMIT LANE APT H2","BALA CYNWYD","PA","19027"
15977,"101 SUMMIT VIEW","VICTORIA","TX","77904"
15978,"101 SUNCREST PL","DIVIDE","CO","80814"
15979,"101 SUNCREST PLACE","DIVIDE","CO","80814"
15980,"101 SUNDEW COURT","ALLENTOWN","PA","18104"
15981,"101 SUNFLOWER ST","LAKE JACKSON","TX","77566"
15982,"101 SUNNY DALE DRIVE","GREER","SC","29651"
15983,"101 SUNNY RIDGE","COUNCIL BLUFFS","IA","51503"
15984,"101 SUNSET DRIVE","LODI","WI","53555"
15985,"101 SUPREME COURT DRIVE","LAFAYETTE","LA","70503"
15986,"101 SURREY LANE","COLONIA","NJ","07067"
15987,"101 SURREY PLACE","PERRY","GA","31069"
15988,"101 SURREY RD","ELKINS PARK","PA","19027"
15989,"101 SUSAN CAROL","SAN ANTONIO","TX","78216"
15990,"101 SUSOBEL PLACE","WOODSTOCK","GA","30188"
15991,"101 SUTHERLAND DR","RADFORD","VA","24141"
15992,"101 SW 117TH AVE","PEMBROKE PINES","FL","33025"
15993,"101 SW 117TH AVE","PEMBROKE PNES","FL","33025"
15994,"101 SW 119TH ST  UNIT 204","BURIEN","WA","98146"
15995,"101 SWAN CT","SPRINGTOWN","TX","76082"
15996,"101 SWANN TRAIL","CLAYTON","NC","27527"
15997,"101 SWEET BRIAR TRAIL","STATESBORO","GA","30461"
15998,"101 SWIFT CURRENTS","AUSTIN","TX","78746"
15999,"101 SYCAMORE STREET","BROCKTON","MA","02301"
16000,"101 SYDNEY WAY","ELIZABETH CITY","NC","27909"
