"ID","Address","City","State","Zip"
974501,"PO BOX 161355","ATLANTA","GA","30321"
974502,"PO BOX 16136","ATLANTA","GA","30321"
974503,"PO BOX 1614","ALBANY","TX","76430"
974504,"PO BOX 1614","COLUMBUS","NM","88029"
974505,"PO BOX 1614","CYPRESS","TX","77410"
974506,"PO BOX 1614","FORT DEFIANCE","AZ","86504"
974507,"PO BOX 1614","JACKSONVILLE","OR","97530"
974508,"PO BOX 1614","MACKINAC ISLAND","MI","49757"
974509,"PO BOX 161422","FORT WORTH","TX","76161"
974510,"PO BOX 161422","FORT WORTH","TX","76244"
974511,"PO BOX 16143","SAN JUAN","PR","00908"
974512,"PO BOX 1615","BONNERS FERRY","ID","83805"
974513,"PO BOX 1615","MIDDLEBURG","VA","20118"
974514,"PO BOX 161582","MIAMI","FL","33116"
974515,"PO BOX 1616","BOULDER","CO","80306"
974516,"PO BOX 1616","LYTLE","TX","78052"
974517,"PO BOX 1616","RINCON","PR","00677"
974518,"PO BOX 1616","SANDPOINT","ID","83864"
974519,"PO BOX 1616","TELLURIDE","CO","81435"
974520,"PO BOX 16161","SAN SIMON","AZ","85632"
974521,"PO BOX 161677","BIG SKY","MT","59716"
974522,"PO BOX 161691","ALTAMONTE SPRINGS","FL","32716"
974523,"PO BOX 161697","BIG SKY","MT","59716"
974524,"PO BOX 1617","SMITHFIELD","NC","27577"
974525,"PO BOX 161711","BIG SKY","MT","59716"
974526,"PO BOX 16174","WILMINGTON","NC","28408"
974527,"PO BOX 1618","EL CERRITO","CA","94530"
974528,"PO BOX 1618","WYTHEVILLE","VA","24382"
974529,"PO BOX 161807","ATLANTA","GA","30321"
974530,"PO BOX 16184","CHARLOTTE","NC","28297"
974531,"PO BOX 161843","ATLANTA","GA","30304"
974532,"PO BOX 1619","MOAB","UT","84532"
974533,"PO BOX 16192","TWO RIVERS","AK","99716"
974534,"PO BOX 16194","LUBBOCK","TX","79490"
974535,"PO BOX 161965","BIG SKY","MT","59716"
974536,"PO BOX 161984","AUSTIN","TX","78716"
974537,"PO BOX 162-0020-","KAREN",NA,NA
974538,"PO BOX 162","ADAIR","OK","74330"
974539,"PO BOX 162","ALMA","NE","68920"
974540,"PO BOX 162","BENNETT","CO","80102"
974541,"PO BOX 162","BLUE LAKE","CA","95525"
974542,"PO BOX 162","BOTKINS","OH","45306"
974543,"PO BOX 162","CAPON BRIDGE","WV","26711"
974544,"PO BOX 162","CHIMACUM","WA","98325"
974545,"PO BOX 162","CHRISTINE","TX","78012"
974546,"PO BOX 162","CLEVELAND","AL","35049"
974547,"PO BOX 162","DIXON","MO","65459"
974548,"PO BOX 162","DOYLE","CA","96109"
974549,"PO BOX 162","DYERSBURG","TN","38025"
974550,"PO BOX 162","EGNAR","CO","81325"
974551,"PO BOX 162","EPHRAIM","UT","84627"
974552,"PO BOX 162","ESPARTO","CA","95627"
974553,"PO BOX 162","GUY","AR","72061"
974554,"PO BOX 162","HEGINS","PA","17938"
974555,"PO BOX 162","HIGHGATE","VT","05488"
974556,"PO BOX 162","JEFFERSON","ME","04348"
974557,"PO BOX 162","KREAMER","PA","17833"
974558,"PO BOX 162","LA MESA","NM","88044"
974559,"PO BOX 162","LANCASTER","TX","75146"
974560,"PO BOX 162","MIMS","FL","32754"
974561,"PO BOX 162","MINNEOLA","KS","67865"
974562,"PO BOX 162","NEW HAMPTON","NH","03256"
974563,"PO BOX 162","ORIENT","NY","11957"
974564,"PO BOX 162","OWINGS MILLS","MD","21117"
974565,"PO BOX 162","PETERSBURG","IL","62675"
974566,"PO BOX 162","ROSE","OK","74364"
974567,"PO BOX 162","SELINSGROVE","PA","17870"
974568,"PO BOX 162","SOMERVILLE","AL","35670"
974569,"PO BOX 162","STANLEY","WI","54768"
974570,"PO BOX 162","STATE PARK","SC","29147"
974571,"PO BOX 162","STROUDSBURG","OR","18327"
974572,"PO BOX 162","STROUDSBURG","PA","18327"
974573,"PO BOX 162","STROUDSBURG","PA","18360"
974574,"PO BOX 162","TOMALES","CA","94971"
974575,"PO BOX 162","VENUS","TX","76084"
974576,"PO BOX 162","WAITSBURG","WA","99361"
974577,"PO BOX 162","WARDENSVILLE","WV","26851"
974578,"PO BOX 162","WAYNESVILLE","NC","28786"
974579,"PO BOX 162","WINTHROP","ME","04364"
974580,"PO BOX 162","WISDOM","MT","59761"
974581,"PO BOX 1620 NIXA","NIXA","MO","65714"
974582,"PO BOX 1620","LAS CRUCES","NM","88004"
974583,"PO BOX 1620","MIXA","MO","65714"
974584,"PO BOX 1620","TRINTIY","TX","75862"
974585,"PO BOX 162036","ATLANTA","GA","30321"
974586,"PO BOX 1621 245 WESTCHESTER AVE","PORTCHESTER","NY","10502"
974587,"PO BOX 1621 245 WESTCHESTER AVENUE","PORTCHESTER","NY","10502"
974588,"PO BOX 1621","ALBRIGHTSVILLE","PA","18210"
974589,"PO BOX 1621","BASTROP","TX","78602"
974590,"PO BOX 1621","BRENHAM","TX","77834"
974591,"PO BOX 1621","HARLAN","KY","40831"
974592,"PO BOX 1621","L",NA,NA
974593,"PO BOX 1621","LONG BEACH","WA","98631"
974594,"PO BOX 1621","NORCROSS","GA","30071"
974595,"PO BOX 1621","PLACERVILLE","CA","95667"
974596,"PO BOX 1621","SHEPHERDSTOWN","WV","25443"
974597,"PO BOX 16213","SUGAR LAND","TX","77496"
974598,"PO BOX 162170","ATLANTA","GA","30321"
974599,"PO BOX 1622","ATASCADERO","CA","93422"
974600,"PO BOX 1622","ATASCADERO","CA","93423"
974601,"PO BOX 1622","ELLICOTTVILLE","NY","14731"
974602,"PO BOX 1622","HONOLULU","HI","96806"
974603,"PO BOX 1622","SAN JUAN CAPISTRANO","CA","92693"
974604,"PO BOX 1623","FRISCO","TX","75034"
974605,"PO BOX 1623","GREENVILLE","SC","29602"
974606,"PO BOX 1623","NEDERLAND","CO","80466"
974607,"PO BOX 162312","ATLANTA","GA","30321"
974608,"PO BOX 162315","FORT WORTH","TX","76161"
974609,"PO BOX 16232","CHARLOTTE","NC","28297"
974610,"PO BOX 16233","ATLANTA","GA","30321"
974611,"PO BOX 1624","ARCHER CITY","TX","76351"
974612,"PO BOX 1624","GONZALES","CA","93926"
974613,"PO BOX 1624","TWIN FALLS","ID","83403"
974614,"PO BOX 1625","BATTLE MOUNTAIN","NV","89820"
974615,"PO BOX 1625","NASHUA","NH","03061"
974616,"PO BOX 1625","NORTH PLATTE","NE","69103"
974617,"PO BOX 1625","PACIFIC PALISADES","CA","90272"
974618,"PO BOX 1625","SEDONA","AZ","86339"
974619,"PO BOX 162534","ALTAMONTE SPRINGS","FL","32746"
974620,"PO BOX 1626","FREEDOM","CA","95019"
974621,"PO BOX 1626","KEAAU","HI","96749"
974622,"PO BOX 162686","ATLANTA","GA","30321"
974623,"PO BOX 1627","BIGFORK","MT","59911"
974624,"PO BOX 1627","DAWSONVILLE","GA","30534"
974625,"PO BOX 16272","DULUTH","MN","55816"
974626,"PO BOX 16275","BOISE","ID","83715"
974627,"PO BOX 162799","ALTAMONTE SPRINGS","FL","32716"
974628,"PO BOX 162799","ALTMONTE SPRINGS","FL","32716"
974629,"PO BOX 1628","TOPOCK","AZ","86436"
974630,"PO BOX 1628","WAITSFIELD","VT","05673"
974631,"PO BOX 1629","FREDERICK","MD","21702"
974632,"PO BOX 1629","STANTON","TX","79782"
974633,"PO BOX 163","ARIVACA","AZ","85601"
974634,"PO BOX 163","AUSTIN","IN","47102"
974635,"PO BOX 163","BINGER","OK","73009"
974636,"PO BOX 163","BOYDTON","VA","23917"
974637,"PO BOX 163","CHESWOLD","FL","19936"
974638,"PO BOX 163","CLAY","WV","25043"
974639,"PO BOX 163","CLIMAX SPRINGS","MO","65324"
974640,"PO BOX 163","DODGE","TX","77334"
974641,"PO BOX 163","EKALAKA","MT","59324"
974642,"PO BOX 163","FAIR OAKS","CA","95628"
974643,"PO BOX 163","GLEN DALE","WV","26038"
974644,"PO BOX 163","HASKELL","TX","79521"
974645,"PO BOX 163","HEBRON","CT","06248"
974646,"PO BOX 163","HOOD RIVER","OR","97031"
974647,"PO BOX 163","KENTFIELD","CA","94914"
974648,"PO BOX 163","KIMBALL","WV","24853"
974649,"PO BOX 163","KUALAPUU","HI","06757"
974650,"PO BOX 163","LAKE TOXAWAY","NC","28747"
974651,"PO BOX 163","LIME SPRINGS","IA","52155"
974652,"PO BOX 163","LINGLE","WY","82223"
974653,"PO BOX 163","LONG CREEK","OR","97856"
974654,"PO BOX 163","MADILL","OK","73446"
974655,"PO BOX 163","MCGRAW","NY","13101"
974656,"PO BOX 163","NIAGARA FALLS","NY","14301"
974657,"PO BOX 163","PLEDGER","TX","77468"
974658,"PO BOX 163","RHOME","TX","76078"
974659,"PO BOX 163","RIFLE","CO","81650"
974660,"PO BOX 163","ROCHESTER","WA","98579"
974661,"PO BOX 163","SAN ANTONIO","PR","00690"
974662,"PO BOX 163","SCHENEVUS","NY","12155"
974663,"PO BOX 163","SPERRY","OK","74073"
974664,"PO BOX 163","UNION","OR","97883"
974665,"PO BOX 163","WALFORD","IA","52351"
974666,"PO BOX 163","WILLIAMSTOWN","NJ","08094"
974667,"PO BOX 163","WINSTON","GA","30187"
974668,"PO BOX 1630","EAST HAMPTON","NY","11937"
974669,"PO BOX 1630","MISSOULA","MT","59806"
974670,"PO BOX 1630","NEW YORK","NY","10027"
974671,"PO BOX 1630","ROCKDALE","TX","76567"
974672,"PO BOX 16300","FERNANDINA BEACH","FL","32035"
974673,"PO BOX 163004","FORT WORTH","TX","76161"
974674,"PO BOX 16301","FORT WORTH","TX","76162"
974675,"PO BOX 16303","NORTH HOLLYWOOD","CA","91615"
974676,"PO BOX 16307","SAN DIEGO","CA","92176"
974677,"PO BOX 1631","DAVIS","CA","95617"
974678,"PO BOX 1631","DEERFIELD BEACH","FL","33442"
974679,"PO BOX 1631","LAKE FOREST","CA","92609"
974680,"PO BOX 1631","MIDLOTHIAN","TX","76065"
974681,"PO BOX 1631","RAPID CITY","SD","57709"
974682,"PO BOX 1631","WALDPORT","OR","97394"
974683,"PO BOX 16310","LOUISVILLE","KY","40256"
974684,"PO BOX 163123","ALTAMONTE SPRINGS","FL","32716"
974685,"PO BOX 1632","COLUMBIA","MD","21044"
974686,"PO BOX 16322","CLEARWATER","FL","33763"
974687,"PO BOX 16327","CHICAGO","IL","60616"
974688,"PO BOX 1633","COLUMBIA","MD","21044"
974689,"PO BOX 1633","ESTES PARK","CO","80517"
974690,"PO BOX 1633","KODIAK","AK","99615"
974691,"PO BOX 1633","LIBBY","MT","59923"
974692,"PO BOX 1633","MCCALL","ID","83638"
974693,"PO BOX 1633","ONALASKA","TX","77360"
974694,"PO BOX 1633","TRAVERSE CITY","MI","49685"
974695,"PO BOX 16334","MOBILE","AL","36616"
974696,"PO BOX 16334","SEATTLE","WA","98116"
974697,"PO BOX 163396","SACRAMENTO","CA","95816"
974698,"PO BOX 1634","COLORADO CITY","AZ","86021"
974699,"PO BOX 1634","INDIAN TRAIL","NC","28079"
974700,"PO BOX 1634","KINGSLAND","TX","78639"
974701,"PO BOX 1634","PROSSER","WA","99350"
974702,"PO BOX 1634","RED OAK","TX","75154"
974703,"PO BOX 163456","MIAMI","FL","33116"
974704,"PO BOX 16346","TAMPA","FL","33687"
974705,"PO BOX 1635","ENGLEWOOD","CO","80150"
974706,"PO BOX 1635","FRIENDSWOOD","TX","77549"
974707,"PO BOX 1635","HILLSBORO","TX","76645"
974708,"PO BOX 1635","PATERSON","NJ","07503"
974709,"PO BOX 1635","ROYAL OAK","MI","48068"
974710,"PO BOX 163512","COLUMBUS","OH","43216"
974711,"PO BOX 16357","WICHITA","KS","67216"
974712,"PO BOX 1636","BOUNTIFUL","UT","84011"
974713,"PO BOX 1636","CHEROKEE","NC","28719"
974714,"PO BOX 163653","AUSTIN","TX","78716"
974715,"PO BOX 1637","KOLOA","HI","96756"
974716,"PO BOX 16375","TALLAHASEE","FL","32317"
974717,"PO BOX 16375","TALLAHASSSEE","FL","32317"
974718,"PO BOX 16375","TALLAHSSEE","FL","32317"
974719,"PO BOX 163761","AUSTIN","TX","78716"
974720,"PO BOX 1638","ELLICOTT CITY","MD","21041"
974721,"PO BOX 163803","AUSTIN","TX","78716"
974722,"PO BOX 16393","SUGAR LAND","TX","77496"
974723,"PO BOX 163941","FORT WORTH","TX","76161"
974724,"PO BOX 164","ANDREWS","SC","29510"
974725,"PO BOX 164","BAPTISTOWN","NJ","08803"
974726,"PO BOX 164","BARRETT","MN","56311"
974727,"PO BOX 164","BATH","NH","03740"
974728,"PO BOX 164","BELLE","MO","65013"
974729,"PO BOX 164","BILLERICA","MA","01821"
974730,"PO BOX 164","BUNA","TX","77612"
974731,"PO BOX 164","CANTWELL","AK","99729"
974732,"PO BOX 164","CLAFLIN","KS","67525"
974733,"PO BOX 164","CORA","WY","82925"
974734,"PO BOX 164","FARMERSBURG","IN","47850"
974735,"PO BOX 164","FLYNN","TX","77855"
974736,"PO BOX 164","FORD","WA","99013"
974737,"PO BOX 164","FORT PECK","MT","59223"
974738,"PO BOX 164","GLOUCESTER","VA","23061"
974739,"PO BOX 164","GRAND MOUND","IA","52751"
974740,"PO BOX 164","GRANT PARK","IL","60940"
974741,"PO BOX 164","GREENTOWN","PA","18426"
974742,"PO BOX 164","HANA","HI","96713"
974743,"PO BOX 164","HERON LAKE","MN","56137"
974744,"PO BOX 164","HOMEWORTH","OH","44634"
974745,"PO BOX 164","KENAI","AK","99611"
974746,"PO BOX 164","LEONARD","TX","75452"
974747,"PO BOX 164","LEXINGTON","MA","02420"
974748,"PO BOX 164","MADISON","WV","25130"
974749,"PO BOX 164","MERCER","PA","16137"
974750,"PO BOX 164","NEW HAVEN","WV","25265"
974751,"PO BOX 164","PAAUILO","HI","96776"
974752,"PO BOX 164","POINT ARENA","CA","95468"
974753,"PO BOX 164","PULLMAN","MI","49450"
974754,"PO BOX 164","ROCKAWAY BEACH","OR","97136"
974755,"PO BOX 164","SCOTTSDALE","AZ","85252"
974756,"PO BOX 164","SINCLAIR","WY","82301"
974757,"PO BOX 164","SPINDALE","NC","28160"
974758,"PO BOX 164","STURGEON BAY","WI","54235"
974759,"PO BOX 164","SUMMITVILLE","NY","12781"
974760,"PO BOX 164","TUCKER","AR","72168"
974761,"PO BOX 164","W FALMOUTH","MA","02574"
974762,"PO BOX 164","WESTOVER","PA","16692"
974763,"PO BOX 164","WILLARD","NY","14588"
974764,"PO BOX 164","WOLF POINT","MT","59201"
974765,"PO BOX 1640","BUELLTON","CA","93427"
974766,"PO BOX 16402","PLANTATION","FL","33318"
974767,"PO BOX 16404","SUGAR LAND","TX","77479"
974768,"PO BOX 1641","CARBONDALE","CO","81623"
974769,"PO BOX 1641","CULLOWHEE","NC","28723"
974770,"PO BOX 1641","GAYLORD","MI","49734"
974771,"PO BOX 1641","PINEDALE","WY","82941"
974772,"PO BOX 16411","KANSAS CITY","MO","64112"
974773,"PO BOX 164120","LITTLE ROCK","AR","72216"
974774,"PO BOX 1642","MANSFIELD","TX","76063"
974775,"PO BOX 1642","MARRERO","LA","70073"
974776,"PO BOX 1642","SPRINGERVILLE","AZ","85938"
974777,"PO BOX 1642","WILMINGTON","NC","28402"
974778,"PO BOX 16423","LOUISVILLE","KY","40256"
974779,"PO BOX 16423","TAMPA","FL","33687"
974780,"PO BOX 164232","COLUMBUS","OH","43213"
974781,"PO BOX 16424","CHESAPEAKE","VA","23322"
974782,"PO BOX 16424","FERNANDINA BEACH","FL","32035"
974783,"PO BOX 164271","LITTLE ROCK","AR","72216"
974784,"PO BOX 1643","BLUFFTON","SC","29910"
974785,"PO BOX 1643","COLUMBUS","IN","47202"
974786,"PO BOX 1643","MARSHALL","TX","75671"
974787,"PO BOX 164350","AUSTIN","TX","78716"
974788,"PO BOX 16436","TAMPA","FL","33687"
974789,"PO BOX 16438","GALVESTON","TX","77552"
974790,"PO BOX 1644","BISBEE","AZ","85603"
974791,"PO BOX 1644","FORT WORTH","TX","76101"
974792,"PO BOX 1644","WHITEFISH","MT","59937"
974793,"PO BOX 16447","SUGAR LAND","TX","77496"
974794,"PO BOX 1645","AUGUSTA","GA","30903"
974795,"PO BOX 1645","FOUNTAIN INN","SC","29644"
974796,"PO BOX 1645","PECOS","TX","79772"
974797,"PO BOX 1645","PORT SALERNO","FL","34992"
974798,"PO BOX 1645","RANCHOS DE TAOS","NM","87557"
974799,"PO BOX 1645","VOORHEES","NJ","08043"
974800,"PO BOX 1645","WOODLAND","CA","95776"
974801,"PO BOX 16452","TALLAHASSEE","FL","32317"
974802,"PO BOX 1646","ALICE","TX","78333"
974803,"PO BOX 1646","BLOOMFIELD","NM","87413"
974804,"PO BOX 1646","HAINES","AK","99827"
974805,"PO BOX 1646","HOMER","AK","99603"
974806,"PO BOX 1646","PORT ANGELES","WA","98362"
974807,"PO BOX 1646","PORT ANGLES","WA","98362"
974808,"PO BOX 16462","GREENVILLE","SC","29606"
974809,"PO BOX 16462","MILWAUKEE","WI","53216"
974810,"PO BOX 16462","WEST PALM BEACH","FL","33416"
974811,"PO BOX 16464","MILWAUKEE","WI","53216"
974812,"PO BOX 1647","ANAHEIM","CA","92805"
974813,"PO BOX 1647","BOZEMAN","MT","59771"
974814,"PO BOX 1647","ELKO","NV","89803"
974815,"PO BOX 1647","TROY","NY","12181"
974816,"PO BOX 1648","HIRAM","GA","30141"
974817,"PO BOX 1648","WINTON","CA","95388"
974818,"PO BOX 1649","LINCOLNTON","NC","28093"
974819,"PO BOX 1649","TUSTIN","CA","92781"
974820,"PO BOX 16491","CHARLOTTE","NC","28297"
974821,"PO BOX 16493","TALLAHASSEE","FL","32317"
974822,"PO BOX 165  611 MAPLE","TILDEN","IL","62292"
974823,"PO BOX 165","CLUNE","PA","15727"
974824,"PO BOX 165","CRANFILLS GAP","TX","76637"
974825,"PO BOX 165","CUERO","TX","77954"
974826,"PO BOX 165","DEER PARK","CA","94576"
974827,"PO BOX 165","GLENN","CA","95943"
974828,"PO BOX 165","GRAND MARAIS","MI","49839"
974829,"PO BOX 165","GURDON","AR","71743"
974830,"PO BOX 165","HASTINGS","PA","16646"
974831,"PO BOX 165","JUNIOR","WV","26275"
974832,"PO BOX 165","MASTONTOWN","WV","26542"
974833,"PO BOX 165","MILLBRAE","CA","94030"
974834,"PO BOX 165","NORTH UXBRIDGE","MA","01538"
974835,"PO BOX 165","ORANGE","VA","22960"
974836,"PO BOX 165","OTTSVILLE","PA","18942"
974837,"PO BOX 165","PALMER","AK","99645"
974838,"PO BOX 165","PARLIN","CO","81239"
974839,"PO BOX 165","POINT ROBERTS","WA","98281"
974840,"PO BOX 165","REMSEN","NY","13438"
974841,"PO BOX 165","ROCKAWAY BEACH","OR","97136"
974842,"PO BOX 165","SAN JUAN BAUTISTA","CA","95045"
974843,"PO BOX 165","SATSOP","WA","98583"
974844,"PO BOX 165","ST FRANCIS","SD","57572"
974845,"PO BOX 165","TELLICO PLAINS","TN","37385"
974846,"PO BOX 165","TOUCHET","WA","99360"
974847,"PO BOX 165","TULIA","TX","79088"
974848,"PO BOX 1650","ALAMEDA","CA","94501"
974849,"PO BOX 1650","MARICOPA","AZ","85139"
974850,"PO BOX 1650","SOAP LAKE","WA","98851"
974851,"PO BOX 16502","JACKSON","MS","39236"
974852,"PO BOX 1651","BESSEMER","AL","35021"
974853,"PO BOX 1651","BRENTWOOD","TN","37024"
974854,"PO BOX 1651","BREWSTER","WA","98812"
974855,"PO BOX 1651","SANDPOINT","ID","83864"
974856,"PO BOX 16517","BRISTOL","VA","24209"
974857,"PO BOX 1652","IDAHO SPRINGS","CO","80452"
974858,"PO BOX 1652","MARION","IL","62959"
974859,"PO BOX 1652","MIDDLETOWN","CT","06457"
974860,"PO BOX 1652","PALMETTO","FL","34220"
974861,"PO BOX 1652","RUIDOSO DOWNS","NM","88346"
974862,"PO BOX 1652","WHITE PLAINS","MD","20695"
974863,"PO BOX 1653","BAYFIELD","CO","81122"
974864,"PO BOX 1653","BROWNSVILLE","TN","38012"
974865,"PO BOX 1653","MENDOCINO","CA","95460"
974866,"PO BOX 1653","RAWLINS","WY","82301"
974867,"PO BOX 1653","SACO","ME","04072"
974868,"PO BOX 16535","SUGAR LAND","TX","77496"
974869,"PO BOX 1654","EAGLE","CO","81631"
974870,"PO BOX 1654","GEORGE WEST","TX","78022"
974871,"PO BOX 1654","GLENDALE","CA","91209"
974872,"PO BOX 1654","KAPAAU","HI","96755"
974873,"PO BOX 1654","LAKE DALLAS","TX","75065"
974874,"PO BOX 1654","SEARCY","AR","72143"
974875,"PO BOX 16540","CHARLOTTE","NC","28297"
974876,"PO BOX 16544","CHAPEL HILL","NC","27516"
974877,"PO BOX 16545","CHICAGO","IL","60616"
974878,"PO BOX 16547","SOUTH LAKE TAHOE","CA","96151"
974879,"PO BOX 16549","CHARLOTTE","NC","28297"
974880,"PO BOX 1655","DUVALL","WA","98019"
974881,"PO BOX 16551","MILWAUKEE","WI","53216"
974882,"PO BOX 1656","FONTANA","CA","92334"
974883,"PO BOX 1656","GAFFNEY","SC","29342"
974884,"PO BOX 1656","MANATI","PR","00674"
974885,"PO BOX 16562","CHICAGO","IL","60616"
974886,"PO BOX 1657","ELIZABETHTOWN","KY","42702"
974887,"PO BOX 1657","FAIRBURN","GA","30213"
974888,"PO BOX 1657","FORTSON","GA","31808"
974889,"PO BOX 1657","FREDERIKSTED","VI","00841"
974890,"PO BOX 16575","TALLAHASSEE","FL","32317"
974891,"PO BOX 16575","TAMPA","FL","33687"
974892,"PO BOX 1658","VISTA","CA","92085"
974893,"PO BOX 165882","IRVING","TX","75016"
974894,"PO BOX 1659","HEALDSBURG","CA","95448"
974895,"PO BOX 1659","PORT TOWNSEND","WA","98368"
974896,"PO BOX 1659","ROBERSONVILLE","NC","27871"
974897,"PO BOX 1659","SOMERSET","KY","42502"
974898,"PO BOX 16591","SAN DIEGO","CA","92176"
974899,"PO BOX 16595","MILWAUKEE","WI","53216"
974900,"PO BOX 166","ALPINE","AL","35014"
974901,"PO BOX 166","CLEVERDALE","NY","12820"
974902,"PO BOX 166","CRAIG","AK","99921"
974903,"PO BOX 166","DAYTON","TN","37321"
974904,"PO BOX 166","DELANO","MN","55328"
974905,"PO BOX 166","FORT ASHBY","WV","26719"
974906,"PO BOX 166","GARRETT PARK","MD","20896"
974907,"PO BOX 166","GREEN LANE","PA","18054"
974908,"PO BOX 166","HOOLEHUA","HI","96729"
974909,"PO BOX 166","HYDE PARK","PA","15641"
974910,"PO BOX 166","JOSEPH","OR","97846"
974911,"PO BOX 166","KOUTS","IN","46347"
974912,"PO BOX 166","LAKEVIEW","OR","97630"
974913,"PO BOX 166","MARTINSVILLE","VA","24114"
974914,"PO BOX 166","MESOPOTAMIA","OH","44439"
974915,"PO BOX 166","MONTICELLO","GA","31064"
974916,"PO BOX 166","PARIS","ID","83261"
974917,"PO BOX 166","ROCKLIN","CA","95677"
974918,"PO BOX 166","SMITH","NV","89430"
974919,"PO BOX 166","THOMASTON","GA","30286"
974920,"PO BOX 1660","HOOD RIVER","OR","97031"
974921,"PO BOX 1660","PITTSBORO","NC","27312"
974922,"PO BOX 166061","LITTLE ROCK","AR","72216"
974923,"PO BOX 1661","ALBANY","LA","70711"
974924,"PO BOX 1661","BROOKFIELD","WI","53008"
974925,"PO BOX 1661","IDAHO FALLS","ID","83403"
974926,"PO BOX 1661","LEVITTOWN","PA","19058"
974927,"PO BOX 1661","OMAK","WA","98841"
974928,"PO BOX 1661","Rosamond","CA","93560"
974929,"PO BOX 1661","ROSAMOND","CA","93560"
974930,"PO BOX 1661","THREE RIVERS","TX","78071"
974931,"PO BOX 16612","CHAPEL HILL","NC","27516"
974932,"PO BOX 166131","IRVING","TX","75016"
974933,"PO BOX 16614","LAS CRUCES","NM","88004"
974934,"PO BOX 16615","RAYTOWN","MO","64133"
974935,"PO BOX 1662","LEAGUE CITY","TX","77574"
974936,"PO BOX 1662","ROSWELL","GA","30077"
974937,"PO BOX 1662","TAPPAHANNOCK","VA","22560"
974938,"PO BOX 1662","VANCOUVER","WA","98668"
974939,"PO BOX 1663 M888","LOS ALAMOS","NM","87545"
974940,"PO BOX 1663","BUNA","TX","75956"
974941,"PO BOX 1663","BUNA","TX","77612"
974942,"PO BOX 1663","CALERA","AL","35040"
974943,"PO BOX 1663","LOS ALAMOS","VA","87545"
974944,"PO BOX 1663","SANTA YNEZ","CA","93460"
974945,"PO BOX 1663","STONE MOUNTAIN","GA","30086"
974946,"PO BOX 1663","SUTHERLIN","OR","97479"
974947,"PO BOX 16633","MILWAUKEE","WI","53216"
974948,"PO BOX 1664","AIEA","HI","96701"
974949,"PO BOX 1664","NEWPORT","OR","97365"
974950,"PO BOX 1664","SOMERSET","KY","42501"
974951,"PO BOX 16641","ST. LOUIS PARK","MN","55416"
974952,"PO BOX 166431","LITTLE ROCK","AR","72216"
974953,"PO BOX 166444","LITTLE ROCK","AR","72216"
974954,"PO BOX 16645","MILWAUKEE","WI","53216"
974955,"PO BOX 16646","WASHINGTON","DC","20041"
974956,"PO BOX 1665","FAIRFIELD","IA","52556"
974957,"PO BOX 1665","ROLLA","MO","65402"
974958,"PO BOX 16653","ASHEVILLE","NC","28816"
974959,"PO BOX 1666","BUNA","TX","77612"
974960,"PO BOX 1666","CORDOVA","AK","99574"
974961,"PO BOX 1666","HONOKAA","HI","96727"
974962,"PO BOX 1666","SHIPROCK","NM","87420"
974963,"PO BOX 166648","LITTLE ROCK","AR","72216"
974964,"PO BOX 1667","BONNERS FERRY","ID","83805"
974965,"PO BOX 1667","CRYSTAL BEACH","TX","77650"
974966,"PO BOX 1667","GENTRY","AR","72734"
974967,"PO BOX 1667","PINE RIDGE","SD","57770"
974968,"PO BOX 1667","ROYAL OAK","MI","48073"
974969,"PO BOX 1667","SANTA ROSA BEACH","FL","32459"
974970,"PO BOX 1668","EUREKA","MT","59917"
974971,"PO BOX 1668","HAYDEN","CO","81639"
974972,"PO BOX 1668","WASHINGTON","MO","63090"
974973,"PO BOX 1668","WILSON","WY","83014"
974974,"PO BOX 16683","FERNANDINA BEACH","FL","32035"
974975,"PO BOX 16689","CHARLOTTE","NC","28297"
974976,"PO BOX 1669","FAJARDO","PR","00738"
974977,"PO BOX 16690","PLANTATION","FL","33313"
974978,"PO BOX 16692","BRISTOL","VA","24209"
974979,"PO BOX 167 / 202 W MADISON","CHRISMAN","IL","61924"
974980,"PO BOX 167 SAINT JUST","TRUJILLO ALTO","PR","00978"
974981,"PO BOX 167","BARRE","VT","05641"
974982,"PO BOX 167","BEDFORD HILLS","NY","10507"
974983,"PO BOX 167","DEER PARK","NY","11729"
974984,"PO BOX 167","EAST SPENCER","NC","28039"
974985,"PO BOX 167","EBEN JUNCTION","MI","49825"
974986,"PO BOX 167","ERIE","MI","48133"
974987,"PO BOX 167","GLEN ALPINE","NC","28628"
974988,"PO BOX 167","JAYTON","TX","79528"
974989,"PO BOX 167","JOHNSON CITY","NY","13790"
974990,"PO BOX 167","KINCAID","IL","62540"
974991,"PO BOX 167","LAKE WACCAMAW","NC","28450"
974992,"PO BOX 167","MANSFIELD","LA","71052"
974993,"PO BOX 167","MCCALL","ID","83638"
974994,"PO BOX 167","MT VERNON","SD","57363"
974995,"PO BOX 167","OVERTON","NV","89040"
974996,"PO BOX 167","PORT ELIZABETH","NJ","08348"
974997,"PO BOX 167","PUKWANA","SD","57370"
974998,"PO BOX 167","ROSEBUD","MO","63091"
974999,"PO BOX 167","SANDYVILLE","OH","44671"
975000,"PO BOX 167","SHAW","MS","38773"
