"ID","Address","City","State","Zip"
90001,"117 E DRAKE ST","WHITE OAK","TX","75693"
90002,"117 E EDGEFIELD","LONGVIEW","TX","75602"
90003,"117 E ELIZABETH AVE","BETHLEHEM","PA","18018"
90004,"117 E ELM DR","ORANGE CITY","FL","32763"
90005,"117 E FRANKLIN AVENUE","NEW CASTLE","DE","19720"
90006,"117 E GLOHAVEN PL","SIMPSONVILLE","SC","29681"
90007,"117 E IVY ST","FALLBROOK","CA","92028"
90008,"117 E LAFAYETTE ST","JACKSON","TN","38301"
90009,"117 E LINCOLN ST","NEGAUNEE","MI","49866"
90010,"117 E LOUISA ST 726","SEATLE","WA","98102"
90011,"117 E LOUISA ST 726","SEATTLE","WA","98102"
90012,"117 E LOUISA ST PMB 273","SEATTLE","WA","98102"
90013,"117 E LOUISA ST PMB 433","SEATTLE","WA","98102"
90014,"117 E LOUISA ST SUITE 172","SEATTLE","WA","98102"
90015,"117 E LOUISA ST","SEATTLE","WA","98102"
90016,"117 E MAIN ST","LOUISVILLE","OH","44641"
90017,"117 E MAIN STREET","MUNCIE","IN","47305"
90018,"117 E MAIN","MOORE","OK","73160"
90019,"117 E MAIN","MUNCIE","IN","47305"
90020,"117 E MAULDIN ST","ANDERSON","SC","29621"
90021,"117 E MAXWELL ST","LAKELAND","FL","33803"
90022,"117 E MILLER","FALFURRIAS","TX","78355"
90023,"117 E MURTAUGH LAKE DR","MIDDLETON","ID","83644"
90024,"117 E NORTHWEST HWY STE B","BARRINGTON","IL","60010"
90025,"117 E PITT ST","TARBORO","NC","27886"
90026,"117 E PLUM ST","THORNTOWN","IN","46071"
90027,"117 E PRIVE CIRCLE","DELRAY BEACH","FL","33405"
90028,"117 E SONOMA STREET","STOCKTON","CA","95204"
90029,"117 E SPRING ST","STRAWBERRY POINT","IA","52076"
90030,"117 E TIMBERLANE","ALVIN","TX","77511"
90031,"117 E UPSAL ST","PHILADELPHIA","PA","19119"
90032,"117 E WALNUT ST","TITUSVILLE","PA","16354"
90033,"117 E WEBER RD","COLUMBUS","OH","43202"
90034,"117 E WHITE PINE DRIVE","MOYOCK","NC","27958"
90035,"117 EAGLE RIDGE RD","JOPLIN","MO","64804"
90036,"117 EAGLES BLUFF BOULEVARD","BULLARD","TX","75757"
90037,"117 EAST 57TH ST APT 27H","NEW YORK","NY","10022"
90038,"117 EAST 77TH ST","NEW YORD","NY","10075"
90039,"117 EAST A STREET","RAINIER","OR","97048"
90040,"117 EAST BROADWAY STREET","PRINCETON","IN","47670"
90041,"117 EAST BROADWAY","PORTLAND","TX","78374"
90042,"117 EAST BROADWAY","PRINCETON","IN","47670"
90043,"117 EAST CLEARVIEW CEMETERY","BASTROP","TX","78602"
90044,"117 EAST FRANKLIN AVENUE","NEW CASTLE","DE","19720"
90045,"117 EAST GLOHAVEN PLACE","SIMPSONVILLE","SC","29681"
90046,"117 EAST H AVENUE","NORTH LITTLE ROCK","AR","72116"
90047,"117 EAST HICKORY AVENUE","HOLLY SPRINGS","NC","27540"
90048,"117 EAST LAKE AVE SUITE C1","AUBURNDALE","FL","33823"
90049,"117 EAST LOUISA STREET","SEATTLE","WA","98102"
90050,"117 EAST MADISON STREET 621","BOLTON","MS","39041"
90051,"117 EAST MAIN ST","BOYCE","VA","22620"
90052,"117 EAST MAIN ST","MANTON","MI","49663"
90053,"117 EAST MAIN STREET","RIPON","CA","95366"
90054,"117 EAST OLD MILL TRAIL","ANTIOCH","IL","60002"
90055,"117 EAST PIEDMONT ST","KEYSER","WV","26726"
90056,"117 EAST SHEFFIELD AVE","ENGLEWOOD","NJ","07631"
90057,"117 EAST SOUTHERN ST","SUTHERLAND","IA","51058"
90058,"117 EAST STONEYBOOK ROAD","BENSON","NC","27504"
90059,"117 EAST UPSAL ST","PHILADELPHIA","PA","19119"
90060,"117 EAST WALNUT STREET","TITUSVILLE","PA","16354"
90061,"117 EAST WYCHE ST","WHITEVILLE","NC","28472"
90062,"117 EASTERN PARKWAY","NEWARK","NJ","07106"
90063,"117 EASTWOOD DRIVE","GREENTOWN","PA","18426"
90064,"117 ECHO DRIVE","CLARK'S SUMMIT","PA","18411"
90065,"117 ECHO SPRINGS DR","FRANKFORT","KY","40601"
90066,"117 EDGEFIELD DRIVE","DOWNINGTOWN","PA","19335"
90067,"117 EDIAH ROAD","SPIRIT LAKE","ID","83869"
90068,"117 EDISON AVE","ALAMOSA","CO","81101"
90069,"117 EL CAPITAN DRIVE","ISLAMORADA","FL","33036"
90070,"117 ELISA LANDI DRIVE","KINGSTON","NY","12401"
90071,"117 ELM ST","AMERY","WI","54001"
90072,"117 ELM STREET","MONTPELIER","VT","05602"
90073,"117 ELM STREET","MOUNT STERLING","KY","40353"
90074,"117 ELM STREET","SOMERVILLE","MA","02144"
90075,"117 ELMORE DR","DALTON","MA","01226"
90076,"117 ELMORE RD","WORCHESTER","VT","05682"
90077,"117 ELMSFORD STREET","DURHAM","NC","27703"
90078,"117 ENGLEWOOD RD","GOOSE CREEK","SC","29445"
90079,"117 ENGLEWOOD RD","UPPER DARBY","PA","19082"
90080,"117 ENTERPRISE DR","MADISON HEIGHTS","VA","24572"
90081,"117 EQUESTRIAN TRAIL","ROCKWALL","TX","75087"
90082,"117 ERIKSON HALL","LEXINGTON","KY","40506"
90083,"117 ESCOTT RD","KINGSLAND","GA","31548"
90084,"117 ESSEX AVENUE","MONTCLAIR","NJ","07042"
90085,"117 ESTATE DRIVE","JERICHO","NY","11753"
90086,"117 ESTHER ST","MICHIGAN CITY","IN","46360"
90087,"117 EUCLID STREET","ATH","TN","37303"
90088,"117 EUTAW STREET","EAST BOSTON","MA","02128"
90089,"117 EVANS DRIVE","FORT COLLINS","CO","80524"
90090,"117 EVANS STREET","MORGANTON","NC","28655"
90091,"117 EVERHILL","PEACHTREE CITY","GA","30269"
90092,"117 F WEST JULIA MARTAIN DRIVE","BOZEMAN","MT","59725"
90093,"117 FACHER COURT","LOS GATOS","CA","95030"
90094,"117 FAIRFIELD DR","SAINT MARYS","GA","31558"
90095,"117 FAIRLANE DRIVE","JOLIET","IL","60434"
90096,"117 FAIRLANE DRIVE","JOLIET","IL","60435"
90097,"117 FAIRVIEW ROAD","CHAGRIN FALLS","OH","44022"
90098,"117 FARM STREET","ITHACA","NY","14850"
90099,"117 FELLSWOOD DR","LIVINGSTON","NJ","07039"
90100,"117 FERNWOOD TERRANCE","LINDON","NJ","07036"
90101,"117 FIELDCREST APT 303","ANN ARBOR","MI","48103"
90102,"117 FIELDCREST ST  APT 303","ANN ARBOR","MI","48103"
90103,"117 FILLEY RD","HADDAM","CT","06438"
90104,"117 FISHER RD","HAZLEHURST","GA","31539"
90105,"117 FLINTROCK","DEL RIO","TX","78840"
90106,"117 FLORENCE AVE","IRVINGTON","NJ","07111"
90107,"117 FORE ROAD","MASON","TN","38049"
90108,"117 FOREST DRIVE","CARL JUNCTION","MO","64834"
90109,"117 FOREST ST","WHITMAN","MA","02382"
90110,"117 FOREST STREET","DANVERS","MA","01923"
90111,"117 FORESTDALE AVE","GLEN BURNIE","MD","21794"
90112,"117 FORT STEPHENSON PLACE","LOOKOUT MOUNTAIN","TN","37350"
90113,"117 FOUNTAIN SCHOOL ROAD","KEYSER","WV","26726"
90114,"117 FOXWOOD DRIVE","JERICHO","NY","11753"
90115,"117 FRANKLIN CT","VENUS","TX","76084"
90116,"117 FRANKLIN STREET","OWEGO","NY","13827"
90117,"117 FRASER ROAD","VALENCIA","PA","16059"
90118,"117 FREEMAN STREET","SADLER","TX","76264"
90119,"117 FREHOLD COURT","CARY","NC","27519"
90120,"117 FRENEAU AVENUE","MATAWAN","NJ","07747"
90121,"117 FRIPP LANE","SUMMERVILLE","SC","29483"
90122,"117 FRONTIER TRL","KALISPELL","MT","59901"
90123,"117 FT MEADOW DR","HUDSON","MA","01749"
90124,"117 GANDER PATH","MANKATO","MN","56001"
90125,"117 GARDNER AVE","MADISON","TN","37115"
90126,"117 GARFIELD AVE","MORROW","OH","45152"
90127,"117 GARFIELD ST APT 3","ASHLAND","OR","97520"
90128,"117 GARNETT PL","EVANSTON","IL","60201"
90129,"117 GARRIS RD","DOWNINGTOWN","PA","19335"
90130,"117 GAYLA DR","JONESBORO","LA","71251"
90131,"117 GENE COURT","BRUNSWICK","GA","31525"
90132,"117 GETTYS FARM ROAD","GAFFNEY","SC","29341"
90133,"117 GILLESPIE LANE","ELGIN","TX","78621"
90134,"117 GIMLIN ROAD","POMEROY","WA","99347"
90135,"117 GLENBROOK DRIVE","CRANBERRY TOWNSHIP","PA","16066"
90136,"117 GLENN RD","ARDMORE","PA","19003"
90137,"117 GLENROCK RD","NORFOLK","VA","23502"
90138,"117 GLEZEN LANE","WAYLAND","MA","01778"
90139,"117 GLOUCESTER DR","MIDWAY","GA","31320"
90140,"117 GOLD MINE ROAD","FOSTER","RI","02825"
90141,"117 GOLDEN WAY","TIFTON","GA","31794"
90142,"117 GOLDENWOOD DR","SLIDELL","LA","70461"
90143,"117 GOOD HOLLOW RD","TAFT","TN","38488"
90144,"117 GOOSE POND","STAFFORD","VA","22555"
90145,"117 GRANADA CT","LONGMONT","CO","80504"
90146,"117 GRANBEERRY ST","HUMBLE","TX","77338"
90147,"117 GRANBERRY ST","HUMBLE","TX","77338"
90148,"117 GRANDVIEW TERRACE","AMHERST","VA","24521"
90149,"117 GRANITE DR","GEORGETOWN","TX","78626"
90150,"117 GRANT CIR","BELLEFONTE","PA","16823"
90151,"117 GREEN POINT ROAD","NORTH HERO","VT","05474"
90152,"117 GREEN STREET","LOCUST GROVE","VA","22508"
90153,"117 GREENBRIAR CT","CLEVELAND","OH","44143"
90154,"117 GUNSTON CT","CHAPEL HILL","NC","27514"
90155,"117 HACKETT HOLLOW LANE","PLEASANT SHADE","TN","37145"
90156,"117 HALIFAX CIRCLE","ORANGEBURG","SC","29115"
90157,"117 HALIFAX PLACE","LEESBURG","VA","20175"
90158,"117 HALL DRIVE","GALLION","AL","36742"
90159,"117 HALSEY ROAD","YONKERS","NY","10710"
90160,"117 HAMPTON COURT","BLOOMINGTON","IN","47408"
90161,"117 HANBURY LANE","STATESVILLE","NC","28625"
90162,"117 HARDING AVE","FEASTERVILLE","PA","19053"
90163,"117 HARPERS WAY","FREDERICK","MD","21072"
90164,"117 HAYDEN ST","BUFFALO","NY","14210"
90165,"117 HAYNES ROAD","AVON","CT","06001"
90166,"117 HAZELHURST AVE","NORTH SYRACUSE","NY","13212"
90167,"117 HEATFIELD STREET","EL PASO","TX","79901"
90168,"117 HELLER HILL RD","BLAIRSTOWN","NJ","07825"
90169,"117 HENRY STREET","BROOKLYN","NY","11575"
90170,"117 HENSLEY ST STE 1","JBSA LACKLAND","TX","78236"
90171,"117 HERDMAN ROAD","SAUGERTIES","NY","12477"
90172,"117 HERITAGE WAY","WEST PALM BEACH","FL","33407"
90173,"117 HERMITAGE ROAD","GREENVILLE","SC","29615"
90174,"117 HERMITAGE WOOD DR","HERMITAGE","TN","37076"
90175,"117 HERON CT","HARVE DE GRACE","MD","21078"
90176,"117 HICKORY HILL LANE","NEWINGTON","CT","06111"
90177,"117 HIDDEN VALLEY RD","ROGERSVILLE","TN","37857"
90178,"117 HIDDEN VALLEY ST","CHERRYVILLE","NC","28021"
90179,"117 HIGH ROAD","HAMILTON","MT","59840"
90180,"117 HIGH STREET UNIT 3","IPSWICH","MA","01938"
90181,"117 HIGH STREET","BALTIC","CT","06330"
90182,"117 HIGHLAND AVE","EDDISON","NJ","08817"
90183,"117 HIGHWAY 34","NEVIS","MN","56467"
90184,"117 HILLVIEW AVE","BRONSTON","KY","42518"
90185,"117 HISTORY LANE","SUMMERVILLE","SC","29485"
90186,"117 HOLLIE DRIVE","RED OAK","TX","75154"
90187,"117 HOLLY ROAD","LOUISVILLE","KY","40222"
90188,"117 HOLLY STREET","WAXAHACHIE","TX","75165"
90189,"117 HONEYSUCKLE LANE","FLORENCE","SC","29506"
90190,"117 HONOR WAY","MADISON","AL","35758"
90191,"117 HORIZON VIEW DRIVE","EAST GREENBUSH","NY","12061"
90192,"117 HORSEGUARDS AVE","BOSSIER CITY","LA","71111"
90193,"117 HOUSTON","BORGER","TX","79007"
90194,"117 HOWARD STREET","NORTHBOROUGH","MA","01532"
90195,"117 HOWERTON WAY SE","ILWACO","WA","98624"
90196,"117 HOYLE LANE","SEVERNA PARK","MD","21146"
90197,"117 HOYT LANE","GUILFORD","CT","06437"
90198,"117 HULL STREET","BROOKLYN","NY","11233"
90199,"117 HUNTER AVENUE","WESTVILLE","NJ","08093"
90200,"117 HUNTER BROWN ROAD","HUNTSVILLE","AL","35806"
90201,"117 HUNTER STREET","LYONS STATION","PA","19536"
90202,"117 HURLEY RD","JACKSON SPRINGS","NC","27281"
90203,"117 HUXLEY ROAD SUITE B-3","KNOXVILLE","TN","37922"
90204,"117 IAN CT","STEPHENS CITY","VA","22655"
90205,"117 ICHABOD TRAIL","LONGWOOD","FL","32750"
90206,"117 INDIGO CHASE","COLUMBIA","SC","29229"
90207,"117 INSLEE AVE","SAN ANTONIO","TX","78209"
90208,"117 IRVING LANE","GEORGETOWN","KY","40324"
90209,"117 IVY LANE","TENAFLY","NJ","07670"
90210,"117 JAMESTOWN WAY CIR","SCRANTON","PA","18504"
90211,"117 JANETTE DR","KYLE","TX","78640"
90212,"117 JASPER POINT DR","HOLLY SPRINGS","NC","27540"
90213,"117 JAY STREET","CHITTENANGO","NY","13037"
90214,"117 JEFFERSON PLACE","TOTOWA","NJ","07512"
90215,"117 JENKINS ST","WHEELERSBURG","OH","45694"
90216,"117 JESSICA LANE","POLLACK","ID","83547"
90217,"117 JIM COMBS TRAIL","JEFF","KY","41751"
90218,"117 JOCELYN LANE","MOORESVILLE","NC","28117"
90219,"117 JOHN  ST","APT 3","RI","02865"
90220,"117 JOHNSON AVE","SHANNON","MS","38868"
90221,"117 JONES STREET","MONTGOMERY","AL","36104"
90222,"117 JOSEPHINE AVE","WAKEENEY","KS","67672"
90223,"117 JOURNEYS WAY END","FRIDAY HARBOR","WA","98250"
90224,"117 JOYMAR CIRCLE","ST CLOUND","MN","56301"
90225,"117 JULIET CIRCLE","CARY","NC","27513"
90226,"117 JUNELL STREET","ELIZABETHTOWN","KY","42701"
90227,"117 KAREN STREET","SUMMERSVILLE","WV","26651"
90228,"117 KARLYN DRIVE","NEW CASTLE","DE","19720"
90229,"117 KAYLIN COURT","PERRY","GA","31047"
90230,"117 KENNEDY DRIVE","HERTFORD","NC","27944"
90231,"117 KENSINGTON DRIVE","SMITHVILLE","NJ","08205"
90232,"117 KETAY DR S","E NORTHPORT","NY","11731"
90233,"117 KIIONIONI PLACE","HONOLULU","HI","96816"
90234,"117 KILLDEER LANE","FAIRPORT","NY","14450"
90235,"117 KIMBERWICKE CT","CRANBERRY TWP","PA","16066"
90236,"117 KING CT","GRASS VALLEY","CA","95945"
90237,"117 KING HILL ROAD","MURPHYSBORO","IL","62966"
90238,"117 KING STREET TRLR 8","HENDERSON","NV","89011"
90239,"117 KINGFIELD ROAD","PHILADELPHIA","PA","19115"
90240,"117 KIRAM TERRACE SW","ATLANTA","GA","30331"
90241,"117 KIRVEN AVE","WAXAHACHIE","TX","75165"
90242,"117 KIVELA","NEGAUNEE","MI","49866"
90243,"117 KNOLLWOOD ST","LUFKIN","TX","75904"
90244,"117 LACKAWANNA AVE","DUPONT","PA","18641"
90245,"117 LACONIA ST","LEXINGTON","MA","02420"
90246,"117 LAGOON AVE","MELBOURNE","FL","32901"
90247,"117 LAKESHORE DR","KELLEYS ISLADN","OH","43438"
90248,"117 LAKESHORE DR","KELLEYS ISLAND","OH","43438"
90249,"117 LAMPLIGHTER DRIVE","MORGANTOWN","WV","26543"
90250,"117 LAND STONE CIRCLE","IRMO","SC","29063"
90251,"117 LAPEYROLERIE LN","EDGARD","LA","70049"
90252,"117 LARIAT CIRCLE","EVANS","GA","30809"
90253,"117 LARIAT TRAIL","OVILLA","TX","75154"
90254,"117 LARKIN LANE APT 4","GREENVILLE","NC","27834"
90255,"117 LAUIRE PL","WATERBURY","CT","06704"
90256,"117 LAUREL CREEK","SHERMAN","TX","75092"
90257,"117 LAWENCE AVE","SAINT LOUIS","MO","63135"
90258,"117 LAZY HOLLOW","LEAGUE CITY","TX","77573"
90259,"117 LEAH DRIVE","CLAYTON","NC","27520"
90260,"117 LEE ROAD 182","OPELIKA","AL","36804"
90261,"117 LEEWARD COURT","KURE BEACH","NC","28449"
90262,"117 LEONARD PLACE","KNOXVILLE","TN","37917"
90263,"117 LESTER STREET","CHRISTIANSBURG","VA","24073"
90264,"117 LEXINGTON STREET","BURLINGTON","MA","01803"
90265,"117 LIGON DRIVE","SHELBYVILLE","TN",NA
90266,"117 LILAC AVENUE","PITTSBURGH","PA","15229"
90267,"117 LILLIPUT LN","CEDAR FALLS","IA","50613"
90268,"117 LINCOLN TERRACE   UNIT 1","LEOMINSTER","MA","01453"
90269,"117 LINDBURG AVENUE","FAYETTEVILLE","WV","25840"
90270,"117 LINMAR DRIVE","STROUDSBURG","PA","18360"
90271,"117 LIPMAN STREET","SUMMERVILLE","SC","29483"
90272,"117 LITTLE ROUND TOP DR","FRIENDSVILLE","MD","21531"
90273,"117 LOACH DRIVE","ROSSVILLE","GA","30741"
90274,"117 LOCHMERE LANE","SALEM","WV","26426"
90275,"117 LOCHWOOD CIRCLE","YUKON","OK","73099"
90276,"117 LOCKTOWN FLEMINGTON ROAD","FLEMINGTON","NJ","08822"
90277,"117 LOCUST GROVE","VERSAILLES","KY","40383"
90278,"117 LONDON WAY","LITHIA SPRINGS","GA","30122"
90279,"117 LONG DRIVE","REPUBLIC","MO","65738"
90280,"117 LONG POND LANE","STATEN ISLAND","NY","10304"
90281,"117 LONGVIEW DR","CHRISTIANSBURG","VA","24073"
90282,"117 LOVE LANE","WOODSTOCK","GA","30188"
90283,"117 LOVERS LN NE","MILLEDEVILLE","GA","31061"
90284,"117 LOWELL AVE","PROVIDENCE","RI","02909"
90285,"117 LOWER SAGE CR RD","STANFORD","MT","59479"
90286,"117 LUCE STREET","LOWELL","MA","01852"
90287,"117 LUDLOW STREET B2","NEW YORK","NY","10002"
90288,"117 LUNDY STREET","COLUMBUS","OH","43215"
90289,"117 LYNNVIEW DR","AMERICUS","GA","31709"
90290,"117 LYONS ROAD","RUSH","NY","14543"
90291,"117 MACKEY DRIVE","ELIZABETH CITY","NC","27909"
90292,"117 MACKIE LANE","LOUISVILLE","KY","40214"
90293,"117 MACON COURT","CALERA","AL","35040"
90294,"117 MADISON AVENUE","SAN MATEO","CA","94402"
90295,"117 MAGNOLIA DRIVE","CENTRAL CITY","KY","42330"
90296,"117 MAIN ST","FREEMANSBURG","PA","18017"
90297,"117 MAIN ST","GREENFIELD","MA","01301"
90298,"117 MAIN STREET","FREEMANSBURG","PA","18017"
90299,"117 MAIN STREET","NORFOLK","MA","02056"
90300,"117 MANNING RD","GREENWOOD","SC","29649"
90301,"117 MAPLE LAND","NORTH SYRACUSE","NY","13212"
90302,"117 MAPLE ST","BELMONT","MA","02478"
90303,"117 MAPLEWOOD DRIVE","IRWIN","PA","15642"
90304,"117 MARINE AVENUE B","MANHATTAN BEACH","CA","90266"
90305,"117 MARION DR","PLAINSBORO","NJ","08536"
90306,"117 MARISCO WAY","JACKSONVILLE","FL","32220"
90307,"117 MARK TWAIN CT","MT. HOLLY","NC","28120"
90308,"117 MARLIN","MCDADE","TX","78650"
90309,"117 MARON ROAD","HATFIELD","PA","19440"
90310,"117 MARSH ROAD","PELHAM","NH","03076"
90311,"117 MARSHALL AVENUE","SANDUSKY","OH","44870"
90312,"117 MARSHALL AVENUE17 MARSHALL AVEN","SANDUSKY","OH","44870"
90313,"117 MARSHIA AVE","NORTH SYRACUSE","NY","13212"
90314,"117 MARY GALE ROAD","MANNILIUS","NY","13104"
90315,"117 MARYLAND AVE","PAWTUCKET","RI","02860"
90316,"117 MATTHEWS DR","ELIZABETH CITY","NC","27909"
90317,"117 MAYWOOD STREET","PITTSBURGH","PA","15214"
90318,"117 MCELHATTAN RD","KNOX","PA","16232"
90319,"117 MCGOWAN MANDALAY ROAD","HOUMA","LA","70360"
90320,"117 MCGREGOR ST","LAGRANGE","GA","30241"
90321,"117 MCMANN AVE","PITTSBURGH","PA","15205"
90322,"117 MEADOW GREEN DRIVE","MIFFLINBURG","PA","17844"
90323,"117 MEADOWBROOK BLVD","FOND DU LAC","WI","54935"
90324,"117 MEADOWS DRIVE","LOGANVILLE","GA","30052"
90325,"117 MEADOWVIEW DR","NEW BERN","NC","28562"
90326,"117 MEANDERING WAY","DEL RIO","TX","78840"
90327,"117 MEIGS STREET APT 1","ROCHESTER","NY","14607"
90328,"117 MELISSA DRIVE","ROCKY MOUNT","NC","27886"
90329,"117 MELLON AVE","PATTON","PA","16668"
90330,"117 MELVILLE AVENUE","LAKEWOOD","NJ","08701"
90331,"117 MEMORY LN","CARPENTERSVILLE","IL","60110"
90332,"117 MEREDITH AVE","NEDROW","NY","13120"
90333,"117 MERLIN STREET","OPELIKA","AL","36801"
90334,"117 MIKE SHUMANS DRIVE","BAXLEY","GA","31513"
90335,"117 MIKE SHUMANS DRVIE","BAXLEY","GA","31513"
90336,"117 MILDRED AVE","COLLINGDALE","PA","19023"
90337,"117 MILDRED AVENUE","COLLINGDALE","PA","19023"
90338,"117 MILL RD","ROCHESTER","NY","14626"
90339,"117 MILLER WAY","FOLSOM","CA","95630"
90340,"117 MILLSFORD DRIVE","MADISON","AL","35758"
90341,"117 MILROY LANE","MOORESVILLE","NC","28115"
90342,"117 MIMOSA DRIVE","CHESTER","IL","62233"
90343,"117 MISSION AVENUE","CASHMERE","WA","98815"
90344,"117 MISSISSIPPI AVE SE","WASHINGTON","DC","20032"
90345,"117 MITCHELL STREET","PROVIDENCE","RI","02907"
90346,"117 MOATS LN","SUPERIOR","MT","59872"
90347,"117 MOCKINGBIRD HILL LANE","POWELL","TN","37849"
90348,"117 MONROE DRIVE","HORSEHEADS","NY","14845"
90349,"117 MOORE LANE","KITTANNING","PA","16201"
90350,"117 MOORMAN DR","MADISON HEIGHTS","VA","24572"
90351,"117 MORRIS AVE","SCRANTON","PA","18504"
90352,"117 MOUNT ZION EAST RD","BUCHANAN","GA","30113"
90353,"117 MOUNTAIN VALLEY ST","GEORGETOWN","TX","78628"
90354,"117 MURPHY HALL U KANSAS","LAWRENCE","KS","66045"
90355,"117 N 1ST","TROY","KS","66087"
90356,"117 N 2ND AVE","COATESVILLE","PA","19320"
90357,"117 N 2ND STREET STE 202","PADUCAH","KY","42001"
90358,"117 N 4TH","CHOUTEAU","OK","74337"
90359,"117 N 5TH ST APT 203","LAFAYETTE","IN","47901"
90360,"117 N ARDEN BLVD","LOS ANGELES","CA","90004"
90361,"117 N ASPEN ST","ASPEN","CO","81611"
90362,"117 N BROADWAY","SILOAM SPRINGS","AR","72761"
90363,"117 N CEDAR ST","PALATINE","IL","60067"
90364,"117 N CENTER ST","STATESVILLE","NC","28677"
90365,"117 N CHRISTINA STREET","UNION","MO","63084"
90366,"117 N CONCHO","COLEMAN","TX","76834"
90367,"117 N DECKER AVE","DAYTON","OH","45417"
90368,"117 N DEVILLIERS STREET","PENSACOLA","FL","32501"
90369,"117 N FIRST ST SUITE 111","ANN ARBOR","MI","48104"
90370,"117 N GALE DR","BEVERLY HILLS","CA","90211"
90371,"117 N H ST","COTTAGE GROVE","OR","97424"
90372,"117 N HICKORY ST","FOUNTAIN HILL","AR","71642"
90373,"117 N HILLS DR","MCMINNVILLE","TN","37110"
90374,"117 N MAIN ST","MONTICELLO","KY","42633"
90375,"117 N MAIN ST","SOMERSET","KY","42501"
90376,"117 N MAIN STREET","MIDDLEBURY","IN","46540"
90377,"117 N MAIN STREET","NEWTON","MS","39345"
90378,"117 N MAIN STREET","SOMERSET","KY","42501"
90379,"117 N MAIN","PAULDING","OH","45879"
90380,"117 N MOUNTAIN AVENUE UNIT A","MONROVIA","CA","91016"
90381,"117 N PALMER STREET","HOUSTON","TX","77003"
90382,"117 N REED","JOLIET","IL","60435"
90383,"117 N RICHARDSON DR","SOMERSET","KY","42501"
90384,"117 N RIVER RD","FLETCHER","NC","28372"
90385,"117 N RIVER RD","FLETCHER","NC","28732"
90386,"117 N ROSE AVE","ADDISON","IL","60101"
90387,"117 N SACATON ST STE 102","CASA GRANDE","AZ","85122"
90388,"117 N SANDERSON","ELSBERRY","MO","63343"
90389,"117 N TOLL","SCOTIA","NY","12302"
90390,"117 N WESTERN AVE","PEORIA","IL","61604"
90391,"117 NATCHAUG DRIVE","MERIDEN","CT","06450"
90392,"117 NATIVE CIRCLE","LANCASTER","TX","75146"
90393,"117 NE 48TH ST","MIAMI","FL","33137"
90394,"117 NE CLARK AVENUE  APT 35","BATTLE GROUND","WA","98604"
90395,"117 NECTAR TERR","LANCASTER","PA","17602"
90396,"117 NESTLEBROOKE DR","DAWSONVILLE","GA","30534"
90397,"117 NESTLEWOOD LN","GRAPEVINE","TX","76051"
90398,"117 NEWFOUND HARBOR ROAD","BIG PINE KEY","FL","33043"
90399,"117 NEWPORT WAY","LITTLE EGG HARBOR","NJ","08087"
90400,"117 NORTH ALVIN ST","BASTROP","LA","71220"
90401,"117 NORTH COBBLESTONE DR","ORANGE","CA","92869"
90402,"117 NORTH CODY ROAD","LECLAIRE","IA","52753"
90403,"117 NORTH COUGER DRIVE","ARCHBALD","PA","18403"
90404,"117 NORTH COUNTRY ROAD","SMITHTOWN",NA,NA
90405,"117 NORTH HOWARD","NEW FRANKLIN","MO","65274"
90406,"117 NORTH MAIN STREET","SOUDERTON","PA","18964"
90407,"117 NORTH MARKET ST","OPELOUSAS","LA","70570"
90408,"117 NORTH MAYWOOD","CLEARWATER","FL","33765"
90409,"117 NORTH MERIDIAN STREET","LEBANON","IN","46052"
90410,"117 NORTH MOODUS ROAD","MOODUS","CT","06469"
90411,"117 NORTH OXFORD WALK","BROOKLYN","NY","11205"
90412,"117 NORTH RENO ST APT 9","LOS ANGELES","CA","90026"
90413,"117 NORTH SUN ARBOR TER APT 1278","SALT LAKE CITY","UT","84116"
90414,"117 NORTH UNION STREET","NATCHEZ","MS","39120"
90415,"117 NORTH WATER STREET","GEORGETOWN","KY","40324"
90416,"117 NORTHGATE DR","CANTON","MS","39046"
90417,"117 NORTHRUP DRIVE","ERIE","CO","80516"
90418,"117 NORTHTOWN COVE","STOCKBRIDGE","GA","30281"
90419,"117 NUGGET STREET","MOXEE","WA","98936"
90420,"117 NW 12TH TERRACE","GAINESVILLE","FL","32601"
90421,"117 NW 43ST","BOCA RATON","FL","33431"
90422,"117 NW BASSEL ROAD","VANCOUVER","WA","98685"
90423,"117 NW TRINITY PL APT 35","PORTLAND","OR","97209"
90424,"117 O C HUNTER ROAD","CANTON","MS","39046"
90425,"117 OAK HILL DRIVE","ARCADIA","MO","63621"
90426,"117 OAK KNOLL CIR","BOERNE","TX","78006"
90427,"117 OAK RIDGE CIRCLE","GEORGETOWN","TX","78628"
90428,"117 OAK ST APT B","SCRANTON","PA","18508"
90429,"117 OAKRIDGE AVENUE APT D","DONALDSONVILLE","LA","70341"
90430,"117 OARSMAN CROSSING","ST MARYS","GA","31558"
90431,"117 OASMAN CROSSING","ST MARYS","GA","31558"
90432,"117 ODY ST","BIRMINGHAM","AL","35209"
90433,"117 OHIO AVE","MADISON","WI","53704"
90434,"117 OLD CADIZ RD","FLUSHING","OH","43977"
90435,"117 OLD CUMMING DRIVE","CANTON","GA","30115"
90436,"117 OLD EVANS ROAD","GARNER","NC","27529"
90437,"117 OLD EVANS ROAD","GARNER","NC","27610"
90438,"117 OLD FARM RD","RIVERHEAD","NY","11901"
90439,"117 OLD FRAZIER MILL LANE","BUTLER","PA","16002"
90440,"117 OLD HAWKINSVILLE ROAD","BONAIRE","GA","31005"
90441,"117 OLD STAGE RD","ESSEX JCT","VT","05452"
90442,"117 OLD WEST MOUNTAIN ROAD","RIDGEFIELD","CT","06877"
90443,"117 OLDE JAMESTOWNE CT APT 4E","WILLIAMSBURG","VA","23185"
90444,"117 OLIVER LANE","DURHAM","NC","27713"
90445,"117 OMEGA CIRCLE","WERNERSVILLE","PA","19565"
90446,"117 ONYX COURT","OREGON","WI","53575"
90447,"117 ORIOLE DR","BLUE RIDGE","GA","30513"
90448,"117 OSCEOLA LANE","JUPITER","FL","33458"
90449,"117 OVERBRANCH DR","COLUMBIA","SC","29223"
90450,"117 OVERBRANCH DRIVE","COLUMBIA","SC","29223"
90451,"117 OVERBROOK PLACE","STOCKBRIDGE","GA","30281"
90452,"117 OWENS ST","MARKED TREE","AR","72365"
90453,"117 OXBOW MARINA DRIVE","ISLETON","CA","95641"
90454,"117 PACIFIC STREET UNIT 102","SANTA MONICA","CA","90405"
90455,"117 PALMER PL","RICHMOND HILL","GA","31324"
90456,"117 PARK PLACE","RICHMOND","CA","94801"
90457,"117 PARK VIEW","POTH","TX","78147"
90458,"117 PARKVILLE AVE","BROOKLYN","NY","11230"
90459,"117 PARKWAY LN","CANNON FALLS","MN","55009"
90460,"117 PARRIS LANE APT G3","EASTON","MD","21601"
90461,"117 PARRIS LN APT H2","EASTON","MD","21601"
90462,"117 PATRICKS COVE","CALHOUN","LA","71255"
90463,"117 PATS WAY","SPRINGVILLE","AL","35146"
90464,"117 PEACEFUL DR","CARENCRO","LA","70520"
90465,"117 PEACHWOOD DRIVE","LEWISBURG","PA","17837"
90466,"117 PEARL AVE","NEWPORT BEACH","CA","92662"
90467,"117 PEBBLE BEACH COURT","GEORGETOWN","KY","40324"
90468,"117 PEEL LANE","NEWARK","DE","19702"
90469,"117 PEGGY LANE","CRESCENT CITY","FL","32112"
90470,"117 PEMBROKE LANE","CHAPIN","SC","29036"
90471,"117 PENINSULA DRIVE","BRANDON","MS","39047"
90472,"117 PERRY ST","LOWELL","MA","01852"
90473,"117 PHEASANT","LAKE IN THE HILLES","IL","60156"
90474,"117 PICKWICK CIRCLE","PALMYRA","PA","17078"
90475,"117 PINE BAY DRIVE","JACKSON","MS","39206"
90476,"117 PINE LANE","FOLSOM","WV","26348"
90477,"117 PINE ST","LINCOLN","IL","62656"
90478,"117 PINE STREET","DEER PARK","NY","11729"
90479,"117 PINE WOOD ROAD","N. STONINGTON","CT","06359"
90480,"117 PINE WOODS RD","N. STONINGTON","RI","06359"
90481,"117 PINE","GIBSON CITY","IL","60936"
90482,"117 PINETAIL DRIVE","WINDSOR","NC","27983"
90483,"117 PINTAIL DRIVE","CLUTE","TX","77531"
90484,"117 PLANTATION DR","WARNER ROBINS","GA","31088"
90485,"117 PLEASANT STREET SE B18M","MINNEAPOLIS","MN","55455"
90486,"117 PLEASANT VIEW RD","BLOOMFIELD","KY","40008"
90487,"117 PLEASANTVILLE RD","NEW VERNON","NJ","07976"
90488,"117 PLUM ST","SPRINGDALE","AR","72764"
90489,"117 PLUMOSA CT","HARLIGEN","TX","78552"
90490,"117 PLYMPTON STREET","WALTHAM","MA","02451"
90491,"117 POCAHONTAS STREET","FRANKLIN","VA","23851"
90492,"117 POINTE DRIVE","VALENCIA","PA","16059"
90493,"117 POND STREET","WEST DENNIS","MA","02670"
90494,"117 POPE DR","WAMPUM","PA","16157"
90495,"117 POPLAR ST","CARTERET","NJ","07008"
90496,"117 POPLAR STREET","ROSELLE","NJ","07203"
90497,"117 POWE STREET","MORGANTON","NC","28655"
90498,"117 PRATER DRIVE","PIKEVILLE","KY","41501"
90499,"117 PRIEST HOLLOW ROAD","RUSSELL","PA","16345"
90500,"117 PROVIDENCE DR","WINCHESTER","VA","22602"
