"ID","Address","City","State","Zip"
986501,"PO BOX 402","LINDSBORG","KS","67456"
986502,"PO BOX 402","MANILLA","IA","51454"
986503,"PO BOX 402","PAPAIKOU","HI","96781"
986504,"PO BOX 402","POWELLSVILLE","NC","27967"
986505,"PO BOX 402","ST HELENA","CA","94574"
986506,"PO BOX 402","TRUMANSBURG","NY","14886"
986507,"PO BOX 402","YAMPA","CO","80483"
986508,"PO BOX 4020","KILLEEN","TX","76540"
986509,"PO BOX 40202","PORTLAND","OR","97240"
986510,"PO BOX 40213","MOBILE","AL","36640"
986511,"PO BOX 40216","PASADENA","CA","91114"
986512,"PO BOX 4022","CAROLINA","PR","00984"
986513,"PO BOX 4022","LANTANA","FL","33462"
986514,"PO BOX 40226","MEMPHIS","TN","38174"
986515,"PO BOX 4024","CLOVIS","CA","93613"
986516,"PO BOX 40273","PHOENIX","AZ","85067"
986517,"PO BOX 40278","SAN ANTONIO","TX","78229"
986518,"PO BOX 4028","JOLIET","IL","60434"
986519,"PO BOX 4029","FRANKFORT","KY","40604"
986520,"PO BOX 40293","GRAND JUNCTION","CO","81504"
986521,"PO BOX 40294","INDIANAPOLIS","IN","46240"
986522,"PO BOX 402965","HESPERIA","CA","92340"
986523,"PO BOX 40298","SAINT PAUL","MN","55104"
986524,"PO BOX 403","BROADUS","MT","59317"
986525,"PO BOX 403","CEDAR HILL","TX","75106"
986526,"PO BOX 403","DANIELSON","CT","06239"
986527,"PO BOX 403","EDGEWATER","FL","32132"
986528,"PO BOX 403","FORNEY","TX","75126"
986529,"PO BOX 403","GALATIA","IL","62935"
986530,"PO BOX 403","GEORGE WEST","TX","78022"
986531,"PO BOX 403","GLENHAM","NY","12527"
986532,"PO BOX 403","HAMSHIRE","TX","77622"
986533,"PO BOX 403","HARDINSBURG","KY","40143"
986534,"PO BOX 403","IRONTON","OH","45638"
986535,"PO BOX 403","LIBBY","MT","59923"
986536,"PO BOX 403","LIVE OAK","CA","95953"
986537,"PO BOX 403","MAZON","IL","60444"
986538,"PO BOX 403","NAPOLEON","OH","43545"
986539,"PO BOX 403","PARIS","TX","75477"
986540,"PO BOX 403","REPUBLIC","WA","99166"
986541,"PO BOX 403","RIDGECREST","CA","93566"
986542,"PO BOX 403","ROXTON","TX","75477"
986543,"PO BOX 403","RUSSELL SPRINGS","KY","42642"
986544,"PO BOX 403","SAINT MATTHEWS","SC","29135"
986545,"PO BOX 403","SIDNEY","MT","59270"
986546,"PO BOX 403","SKAGWAY","AK","99840"
986547,"PO BOX 403","TIMBERLAKE","SD","57656"
986548,"PO BOX 403","TROY","IL","83871"
986549,"PO BOX 4030","DOWLING PARK","FL","32064"
986550,"PO BOX 4031","DES PLAINES","ID","60016"
986551,"PO BOX 40314","RALEIGH","NC","27604"
986552,"PO BOX 4032","MUSKEGON","MI","49444"
986553,"PO BOX 4032","VALDOSTA","GA","31604"
986554,"PO BOX 40321","ALBUQUERQUE","NM","87196"
986555,"PO BOX 40327","MEMPHIS","TN","38174"
986556,"PO BOX 40342","DENVER","CO","80204"
986557,"PO BOX 4036","BERGHEIM","TX","78004"
986558,"PO BOX 4037","MIDWAY","KY","40347"
986559,"PO BOX 4038","BUENA VISTA","CO","81211"
986560,"PO BOX 40382","CINCINNATI","OH","45240"
986561,"PO BOX 40383","MEMPHIS","TN","38174"
986562,"PO BOX 4039","SONORA","CA","95370"
986563,"PO BOX 4039","SUNLAND","CA","91041"
986564,"PO BOX 40395","REDFORD","MI","48239"
986565,"PO BOX 404","BADGER","IA","50516"
986566,"PO BOX 404","BENHAM","KY","40807"
986567,"PO BOX 404","BISBEE","AZ","85603"
986568,"PO BOX 404","CHARDON","OH","44024"
986569,"PO BOX 404","ELIZABETHVILLE","PA","17023"
986570,"PO BOX 404","GENEVA","AL","36340"
986571,"PO BOX 404","ITTA BENA","MS","38941"
986572,"PO BOX 404","KAPOWSIN","WA","98344"
986573,"PO BOX 404","MOUNTAIN VIEW","HI","96771"
986574,"PO BOX 404","NENANA","AK","99760"
986575,"PO BOX 404","OWLS HEAD","ME","04854"
986576,"PO BOX 404","SAN JOAQUIN","CA","93660"
986577,"PO BOX 404","SANFORD","FL","32772"
986578,"PO BOX 404","SHELDON","SC","29941"
986579,"PO BOX 404","SUMMERLAND","CA","93067"
986580,"PO BOX 404","TIFFIN","OH","44883"
986581,"PO BOX 4040","MIDWAY","KY","40347"
986582,"PO BOX 4042","PAHRUMP","NV","89041"
986583,"PO BOX 4042","WOODLAND PARK","CO","80866"
986584,"PO BOX 40427","SAN FRANCISCO","CA","94140"
986585,"PO BOX 4043","HAMMOND","LA","70404"
986586,"PO BOX 4043","TAMPA","FL","33677"
986587,"PO BOX 4044","RANCHO CUCAMONGA","CA","91729"
986588,"PO BOX 40440","FORT WORTH","TX","76140"
986589,"PO BOX 40443","REDFORD","MI","48240"
986590,"PO BOX 4045","KETCHUM","ID","83340"
986591,"PO BOX 4045","MCCALL","ID","83638"
986592,"PO BOX 4046","GREENVILLE","MS","38704"
986593,"PO BOX 4046","PAGE","AZ","86040"
986594,"PO BOX 40475","PHOENIX","AZ","85067"
986595,"PO BOX 40475","PROVIDENCE","RI","02904"
986596,"PO BOX 40478","DENVER","CO","80204"
986597,"PO BOX 40487","SAN FRANCISCO","CA","94140"
986598,"PO BOX 40488","SAN ANTONIO","TX","78229"
986599,"PO BOX 40493","TUCSON","AZ","85717"
986600,"PO BOX 405","AURORA","UT","84620"
986601,"PO BOX 405","CHATHAM","VA","24531"
986602,"PO BOX 405","ENCAMPMENT","WY","82325"
986603,"PO BOX 405","GILA","NM","88038"
986604,"PO BOX 405","HARTFORD CITY","IN","47348"
986605,"PO BOX 405","HUGO","CO","80821"
986606,"PO BOX 405","ITALY","TX","76651"
986607,"PO BOX 405","MARICOPA","AZ","85138"
986608,"PO BOX 405","MARMORA","NJ","08223"
986609,"PO BOX 405","MEADOW BRIDGE","WV","25976"
986610,"PO BOX 405","MOSES LAKE","WA","98837"
986611,"PO BOX 405","PROSSER","WA","99350"
986612,"PO BOX 405","RUTLAND","MA","01543"
986613,"PO BOX 405","SCOOBA","MS","39358"
986614,"PO BOX 40506","REDFORD","MI","48240"
986615,"PO BOX 40506","ST PAUL","MN","55104"
986616,"PO BOX 4051","PANORAMA CITY","CA","91412"
986617,"PO BOX 4052","JIM THORPE","PA","18229"
986618,"PO BOX 4054","CARMEL","IN","46082"
986619,"PO BOX 4054","YAKIMA","WA","98904"
986620,"PO BOX 4056","BURBANK","CA","91503"
986621,"PO BOX 40566","FORT WORTH","TX","76140"
986622,"PO BOX 406","ANMOORE","WV","26323"
986623,"PO BOX 406","BRIGHTWOOD","OR","97011"
986624,"PO BOX 406","CAMDENTON","MO","65020"
986625,"PO BOX 406","CHESTERFIELD","NJ","08515"
986626,"PO BOX 406","CONCORD","VA","24538"
986627,"PO BOX 406","FRANKLINTON","NC","27525"
986628,"PO BOX 406","GEARY","OK","73040"
986629,"PO BOX 406","HANSVILLE","WA","98340"
986630,"PO BOX 406","KINGSTREE","SC","29556"
986631,"PO BOX 406","LOLITA","TX","77971"
986632,"PO BOX 406","LYNCH","KY","40855"
986633,"PO BOX 406","MAMMOTH SPRING","AR","72554"
986634,"PO BOX 406","MONTELLO","WI","53949"
986635,"PO BOX 406","MOORESTOWN","NJ","08057"
986636,"PO BOX 406","MUENSTER","TX","76252"
986637,"PO BOX 406","PHOENIX","AZ","85001"
986638,"PO BOX 406","RAVENNA","OH","44266"
986639,"PO BOX 406","RICHMOND","VA","23218"
986640,"PO BOX 406","ROWLETT","TX","75030"
986641,"PO BOX 406","WEST LEBANON","IN","47991"
986642,"PO BOX 4061","WHITEFISH","MT","59937"
986643,"PO BOX 4062","ENGLEWOOD","CO","80155"
986644,"PO BOX 40624","BELLEVUE","WA","98015"
986645,"PO BOX 4063","FRANKFORT","KY","40604"
986646,"PO BOX 4063","SPARKS","NV","89432"
986647,"PO BOX 40641","FAYETTEVILLE","NC","28309"
986648,"PO BOX 40655","NORTH CHARLESTON","SC","29423"
986649,"PO BOX 4066","RANCHO CUCAMONGA","CA","91729"
986650,"PO BOX 40662","RALEIGH","NC","27629"
986651,"PO BOX 4067","HUNTINGTON","NY","11743"
986652,"PO BOX 4068","PALMER","AK","99645"
986653,"PO BOX 4068","TRUCKEE","CA","96160"
986654,"PO BOX 40681","MOBILE","AL","36640"
986655,"PO BOX 407","ABSAROKEE","MT","59001"
986656,"PO BOX 407","FOSSIL","OR","97830"
986657,"PO BOX 407","GALVESTON","IN","46932"
986658,"PO BOX 407","KENNETH","MO","63857"
986659,"PO BOX 407","LITHIA","FL","33547"
986660,"PO BOX 407","MERIDIANVILLE","AL","35759"
986661,"PO BOX 407","PLACIDA","FL","33946"
986662,"PO BOX 407","RUNGE","TX","78151"
986663,"PO BOX 407","SAN SEBASTIAN","PR","00685"
986664,"PO BOX 407","WEST UNION","SC","29696"
986665,"PO BOX 407","WILDERVILLE","OR","97543"
986666,"PO BOX 4070","SALINAS","CA","93912"
986667,"PO BOX 4071","OAK PARK","IL","60303"
986668,"PO BOX 4071","SARGENT","TX","77404"
986669,"PO BOX 4072","LEXINGTON","KY","40544"
986670,"PO BOX 40725","INDIANAPOLIS","IN","46240"
986671,"PO BOX 4074","BLUE JAY","CA","92317"
986672,"PO BOX 4074","PIKEVILLE","KY","41502"
986673,"PO BOX 40744","PROVIDENCE","RI","02904"
986674,"PO BOX 4075","MCCALL","ID","83638"
986675,"PO BOX 40758","PHILADELPHIA","PA","19107"
986676,"PO BOX 4076","PHILADELPHIA","PA","19118"
986677,"PO BOX 40765","BATON ROUGE","LA","70835"
986678,"PO BOX 4079","GULFPORT","MS","39501"
986679,"PO BOX 408","AURORA","OR","97002"
986680,"PO BOX 408","BOULDER","CO","80306"
986681,"PO BOX 408","CLAYTON","DE","19938"
986682,"PO BOX 408","GARDEN VALLEY","CA","95633"
986683,"PO BOX 408","GODLEY","TX","76044"
986684,"PO BOX 408","GRESHAM","OR","97030"
986685,"PO BOX 408","GYPSUM","CO","81637"
986686,"PO BOX 408","LIBERTY","TX","77575"
986687,"PO BOX 408","LITTLE ELM","TX","75068"
986688,"PO BOX 408","MOUNTAIN VIEW","AR","72560"
986689,"PO BOX 408","MT VIEW","AR","72560"
986690,"PO BOX 408","PRAIRIE DU CHEIN","WI","53821"
986691,"PO BOX 408","YREKA","CA","96097"
986692,"PO BOX 4080","PALOS VERDES","CA","90274"
986693,"PO BOX 40801","FORT WORTH","TX","76140"
986694,"PO BOX 40821","RALEIGH","NC","27629"
986695,"PO BOX 4083","COPEY","OH","44321"
986696,"PO BOX 4083","COPLEY","OH","44321"
986697,"PO BOX 4084","LINDENWOLD","NJ","08021"
986698,"PO BOX 4085","BERGHEIM","TX","78004"
986699,"PO BOX 4085","VISALIA","CA","93278"
986700,"PO BOX 40853","AUSTIN","TX","78704"
986701,"PO BOX 4087","FT PIERCE","FL","34948"
986702,"PO BOX 40878","SAN FRANCISCO","CA","94140"
986703,"PO BOX 408902","CHICAGO","IL","60640"
986704,"PO BOX 409","CANTON","MS","39046"
986705,"PO BOX 409","COLLINSVILLE","TX","76233"
986706,"PO BOX 409","HOLUALOA","HI","96725"
986707,"PO BOX 409","KURTIS TOWN","HI","96760"
986708,"PO BOX 409","LUCERNE VALLEY","CA","92356"
986709,"PO BOX 409","MAYTOWN","PA","17550"
986710,"PO BOX 409","OSTERVILLE","MA","02655"
986711,"PO BOX 409","READVILLE","MA","02137"
986712,"PO BOX 409","ROSELLE","NJ","07203"
986713,"PO BOX 40903","EUGENE","OR","97404"
986714,"PO BOX 4092","VINEYARD HAVEN","MA","02568"
986715,"PO BOX 4097","VISALIA","CA","93278"
986716,"PO BOX 40970","INDIANAPOLIS","IN","46240"
986717,"PO BOX 41","ACAMPO","CA","95220"
986718,"PO BOX 41","AHOSKIE","NC","27910"
986719,"PO BOX 41","BEN WHEELER","TX","75754"
986720,"PO BOX 41","CORTE MADERA","CA","94976"
986721,"PO BOX 41","DARROUZETT","TX","79024"
986722,"PO BOX 41","DENALI PARK","AK","99755"
986723,"PO BOX 41","GRENADA","CA","96038"
986724,"PO BOX 41","GUTHRIE","OK","73044"
986725,"PO BOX 41","HANA","HI","96713"
986726,"PO BOX 41","HENDERSON","MN","56044"
986727,"PO BOX 41","HINDSVILLE","AR","72738"
986728,"PO BOX 41","KINGS MOUNTAIN","NC","28086"
986729,"PO BOX 41","LINCOLN","VA","20160"
986730,"PO BOX 41","LIVE OAK","FL","32064"
986731,"PO BOX 41","MANNSVILLE","OK","73447"
986732,"PO BOX 41","MONUMENT BEACH","MA","02553"
986733,"PO BOX 41","MT HOOD","OR","97041"
986734,"PO BOX 41","MUSE","PA","15350"
986735,"PO BOX 41","OAKLEY","UT","84055"
986736,"PO BOX 41","OAKMAN","AL","35501"
986737,"PO BOX 41","POUND RIDGE","NY","10576"
986738,"PO BOX 41","SHADY SIDE","MD","20764"
986739,"PO BOX 41","SILVERADO","CA","92676"
986740,"PO BOX 41","SILVERDO","CA","92676"
986741,"PO BOX 41","SILVERTHORNE","CO","80498"
986742,"PO BOX 41","SLATYFORK","WV","26291"
986743,"PO BOX 41","STONY CREEK","VA","23882"
986744,"PO BOX 41","SUNFLOWER","MS","38778"
986745,"PO BOX 41","WALNUTPORT","PA","18088"
986746,"PO BOX 41","WESTMINSTER STATION","VT","05159"
986747,"PO BOX 41","WHITTEMORE","MI","48770"
986748,"PO BOX 41","WINTHROP","ME","04364"
986749,"PO BOX 41","ZWOLLE","LA","71486"
986750,"PO BOX 410","DEKALB","MS","39358"
986751,"PO BOX 410","LAKE WINOLA","PA","18625"
986752,"PO BOX 410","PERU","NY","12972"
986753,"PO BOX 4100","MANTECA","CA","95337"
986754,"PO BOX 41015","AUSTIN","TX","78704"
986755,"PO BOX 410164","SAN FRANCISCO","CA","94141"
986756,"PO BOX 41018","AUSTIN","TX","78704"
986757,"PO BOX 4102","CRISTO BUTTE","CO","81224"
986758,"PO BOX 41022","WASHINGTON","DC","20018"
986759,"PO BOX 41023","LUBBOCK","TX","79409"
986760,"PO BOX 41026","TUCSON","AZ","85717"
986761,"PO BOX 41031","EUGENE","OR","97404"
986762,"PO BOX 41031","EUGNE","OR","97404"
986763,"PO BOX 4104","HOMER","AK","99603"
986764,"PO BOX 41042","DES MOINES","IA","50311"
986765,"PO BOX 410477","ST LOUIS","MO","63141"
986766,"PO BOX 4105","PASO ROBLES","CA","93447"
986767,"PO BOX 4105","SLIDELL","LA","70459"
986768,"PO BOX 410648","CREVE COEUR","MO","63141"
986769,"PO BOX 4107","ESTES PARK","CO","80517"
986770,"PO BOX 410702","KANSAS CITY","MO","64141"
986771,"PO BOX 410832","ST LOUIS","MO","63141"
986772,"PO BOX 4109","BAYAMON","PR","00959"
986773,"PO BOX 410934","SUNTREE","FL","32934"
986774,"PO BOX 411","ARIEL","WA","98603"
986775,"PO BOX 411","AZUSA","CA","91702"
986776,"PO BOX 411","BUFFALO","NY","14215"
986777,"PO BOX 411","CAPON BRIDGE","PA","26711"
986778,"PO BOX 411","CLARISSA","MN","56440"
986779,"PO BOX 411","COLLINSVILLE","IL","62234"
986780,"PO BOX 411","CONCORDIA","MO","64020"
986781,"PO BOX 411","COPALIS BEACH","WA","98535"
986782,"PO BOX 411","CRESTLINE","CA","92325"
986783,"PO BOX 411","FITCHBURG","MA","01420"
986784,"PO BOX 411","FITZGERALD","GA","31750"
986785,"PO BOX 411","FORT ASHBY","WV","26719"
986786,"PO BOX 411","LAKE CITY","FL","32056"
986787,"PO BOX 411","LAKEMORE","OH","44250"
986788,"PO BOX 411","MACCLESFIELD","NC","27852"
986789,"PO BOX 411","NEHALEM,","OR","97131"
986790,"PO BOX 411","NEW VERNON","NJ","07976"
986791,"PO BOX 411","ONEIDA","NY","13421"
986792,"PO BOX 411","RED LODGE","MT","59068"
986793,"PO BOX 411","RURAL HALL","NC","27045"
986794,"PO BOX 411","SHAW ISLAND","WA","98286"
986795,"PO BOX 411","WATERVILLE","NY","13480"
986796,"PO BOX 411","WHARTON","TX","77488"
986797,"PO BOX 411021","DALLAS","TX","75241"
986798,"PO BOX 41117","TUCSON","AZ","85717"
986799,"PO BOX 411338","DALLAS","TX","75241"
986800,"PO BOX 411387","DALLAS","TX","75241"
986801,"PO BOX 4114","BRANDON","MS","39047"
986802,"PO BOX 4114","CLIFTON","NJ","07012"
986803,"PO BOX 4114","OMAHA","NE","68104"
986804,"PO BOX 411549","DALLAS","TX","75241"
986805,"PO BOX 4116","BASALT","CO","81621"
986806,"PO BOX 411613","CRAIGSHILL PARK",NA,NA
986807,"PO BOX 41163","RALEIGH","NC","27529"
986808,"PO BOX 41163","RALEIGH","NC","27629"
986809,"PO BOX 41182","JACKSONVILLE","FL","32203"
986810,"PO BOX 4119","CHINLE","AZ","86503"
986811,"PO BOX 412","ALAMOGORDO","NM","88311"
986812,"PO BOX 412","AVERILL PARK","NY","12018"
986813,"PO BOX 412","CHINA","TX","77613"
986814,"PO BOX 412","EDEN","TX","76837"
986815,"PO BOX 412","EMPIRE","CO","80438"
986816,"PO BOX 412","ENGLEWOOD","NJ","07631"
986817,"PO BOX 412","ETNA","CA","96014"
986818,"PO BOX 412","FORT THOMPSON","SD","57339"
986819,"PO BOX 412","GORDONSVILLE","TN","38563"
986820,"PO BOX 412","HIGHLAND","MI","48357"
986821,"PO BOX 412","HOLICONG","PA","18928"
986822,"PO BOX 412","INDEPENDENCE","OR","97351"
986823,"PO BOX 412","IRONTON","MO","63650"
986824,"PO BOX 412","ISLE OF PALMS","SC","29451"
986825,"PO BOX 412","KAILUA","HI","96734"
986826,"PO BOX 412","LAKE CITY","CO","81235"
986827,"PO BOX 412","LAURINBURG","NC","28353"
986828,"PO BOX 412","LELAND","MI","49654"
986829,"PO BOX 412","LONG BEACH","WA","98631"
986830,"PO BOX 412","MARENISCO","MI","49947"
986831,"PO BOX 412","MARION","IL","62959"
986832,"PO BOX 412","MARLTON","NJ","08053"
986833,"PO BOX 412","MIDDLEBURG","VA","20118"
986834,"PO BOX 412","NAALEHU","HI","96772"
986835,"PO BOX 412","NEW BROCKTON","AL","36351"
986836,"PO BOX 412","NEW YORK","NY","10028"
986837,"PO BOX 412","NORTH HAMPTON","NH","03862"
986838,"PO BOX 412","PALMYRA","NJ","08065"
986839,"PO BOX 412","PULLMAN","WA","99163"
986840,"PO BOX 412","RIDGE","MD","20680"
986841,"PO BOX 412","ROGUE RIVER","OR","97537"
986842,"PO BOX 412","ROYERSFORD","PA","19468"
986843,"PO BOX 412","SALLEY","SC","29137"
986844,"PO BOX 412","SOLON SPRINGS","WI","54873"
986845,"PO BOX 412","ST MARYS","OH","45885"
986846,"PO BOX 412","SYRACUSE","OH","45779"
986847,"PO BOX 412","THOMPSON FALLS","MT","59873"
986848,"PO BOX 412","TRENTON","MO","64683"
986849,"PO BOX 412","TROY","KS","66087"
986850,"PO BOX 412","VEGA","TX","79092"
986851,"PO BOX 412","WASHBURN","ND","58577"
986852,"PO BOX 412","WEST PITTSBURG","PA","16160"
986853,"PO BOX 41202","MEMPHIS","TN","38174"
986854,"PO BOX 41203","BALTIMORE","MD","21203"
986855,"PO BOX 4121","CLEARLAKE","CA","95422"
986856,"PO BOX 41211","SAN JUAN","PR","00940"
986857,"PO BOX 41212","EUGENE","OR","97404"
986858,"PO BOX 412190","CHICAGO","IL","60641"
986859,"PO BOX 4122","ESTES PARK","CO","80517"
986860,"PO BOX 4123 / 2020 5TH STREET","DAVIS","CA","95616"
986861,"PO BOX 4123","BELLEVUE","PA","15202"
986862,"PO BOX 412751","KANSAS CITY","MO","64141"
986863,"PO BOX 41282","EUGENE","OR","97404"
986864,"PO BOX 4129","PAGO PAGO","AS","96799"
986865,"PO BOX 413","ALEXANDRIA","OH","43001"
986866,"PO BOX 413","BOYERTOWN","PA","19512"
986867,"PO BOX 413","CANNON BEAC","OR","97110"
986868,"PO BOX 413","CANTON","NC","28716"
986869,"PO BOX 413","CEDAR GROVE","WV","25039"
986870,"PO BOX 413","CHESTER","NH","03036"
986871,"PO BOX 413","DRYDEN","MI","48428"
986872,"PO BOX 413","ESTER","AK","99725"
986873,"PO BOX 413","HAHNVILLE","LA","70057"
986874,"PO BOX 413","HAINES FALLS","NY","12436"
986875,"PO BOX 413","HILLSVILLE","PA","16132"
986876,"PO BOX 413","HOUSTON","TX","77001"
986877,"PO BOX 413","MILLIGAN COLLEGE","TN","37682"
986878,"PO BOX 413","MILWAUKEE","WI","53201"
986879,"PO BOX 413","MOUNT HERMON","CA","95041"
986880,"PO BOX 413","ODESSA","FL","33556"
986881,"PO BOX 413","PEWAMO","MI","48873"
986882,"PO BOX 413","POTEET","TX","78065"
986883,"PO BOX 413","ROBBINSVILLE","NC","28771"
986884,"PO BOX 413","ROZET","WY","82727"
986885,"PO BOX 413","SABINAL","TX","78881"
986886,"PO BOX 413","SPANISH FORK","UT","84660"
986887,"PO BOX 413","STRAWN","TX","76475"
986888,"PO BOX 413","WALNUT RIDGE","AR","72476"
986889,"PO BOX 4130","CLEARWATER","FL","33758"
986890,"PO BOX 4130","MIDLOTHIAN","VA","23112"
986891,"PO BOX 4131","BRANDON","FL","33509"
986892,"PO BOX 4131","FAIRFAX","VA","22038"
986893,"PO BOX 4132","MIAMI LAKES","FL","33014"
986894,"PO BOX 41323","MESA","AZ","85274"
986895,"PO BOX 4135","RIO RICO","AZ","85648"
986896,"PO BOX 41352","BATON ROUGE","LA","70835"
986897,"PO BOX 4136","PLANT CITY","FL","33563"
986898,"PO BOX 4137","WHEATON","IL","60189"
986899,"PO BOX 4138","BROOKHAVEN","MS","39603"
986900,"PO BOX 41391","AUSTIN","TX","78704"
986901,"PO BOX 414","BARTON","VT","05822"
986902,"PO BOX 414","BIG SANDY","TX","75755"
986903,"PO BOX 414","BOYNE FALLS","MI","49713"
986904,"PO BOX 414","BUIES CREEK","NC","27506"
986905,"PO BOX 414","CRUMPTON","MD","21628"
986906,"PO BOX 414","DANA","IN","47847"
986907,"PO BOX 414","DEWEY","OK","74029"
986908,"PO BOX 414","FOREST PARK","GA","30298"
986909,"PO BOX 414","HAZELWOOD","MO","63042"
986910,"PO BOX 414","HILLBURN","NY","10931"
986911,"PO BOX 414","JUDSON","TX","75660"
986912,"PO BOX 414","LOUISE","TX","77455"
986913,"PO BOX 414","MARSHALL","NC","28753"
986914,"PO BOX 414","MEGARGEL","TX","76370"
986915,"PO BOX 414","RITTMAN","OH","44270"
986916,"PO BOX 414","SULLY","IA","50251"
986917,"PO BOX 414","TATE","GA","30177"
986918,"PO BOX 414","VICTORIA","KS","67671"
986919,"PO BOX 414","WAIMEA","HI","96796"
986920,"PO BOX 414","WALDO","FL","32694"
986921,"PO BOX 414","WARDENSVILLE","WV","26851"
986922,"PO BOX 414","WESTBROOK","ME","04098"
986923,"PO BOX 4141 CRS","ROCK HILL","SC","29732"
986924,"PO BOX 4141","FAIRVIEW","NM","87533"
986925,"PO BOX 4142","CARLSBAD","CA","92018"
986926,"PO BOX 4143","FREDERICK","MD","21701"
986927,"PO BOX 4143","SCOTTSDALE","AZ","85261"
986928,"PO BOX 4145","FLORENCE","SC","29501"
986929,"PO BOX 41463","RALEIGH","NC","27629"
986930,"PO BOX 41464","DES MOINES","IA","50311"
986931,"PO BOX 41472","MEMPHIS","TN","38174"
986932,"PO BOX 415 371 NW KANAKA CREEK","STEVENSON","WA","98648"
986933,"PO BOX 415","ALABASTER","AL","35007"
986934,"PO BOX 415","BUCKLEY","WA","98321"
986935,"PO BOX 415","DE WITT","AR","72042"
986936,"PO BOX 415","DRACUT","MA","01826"
986937,"PO BOX 415","EAST SETAUKET","NY","11733"
986938,"PO BOX 415","FRANKFORT","AP","40602"
986939,"PO BOX 415","FRANKFORT","KY","40602"
986940,"PO BOX 415","HAMMOND","WI","54015"
986941,"PO BOX 415","LA GRANGE","KY","40031"
986942,"PO BOX 415","LEBANON","IN","46052"
986943,"PO BOX 415","LONE STAR","TX","75668"
986944,"PO BOX 415","MATHIS","TX","78368"
986945,"PO BOX 415","MINERAL WELLS","TX","76068"
986946,"PO BOX 415","OZARK","AR","72949"
986947,"PO BOX 415","PERKINSTON","MS","39573"
986948,"PO BOX 415","PRAIRIE LEA","TX","78661"
986949,"PO BOX 415","RANCHOS DE TAOS","NM","87557"
986950,"PO BOX 415","TALKEETNA","AK","99676"
986951,"PO BOX 415","TORRINGTON","CT","06790"
986952,"PO BOX 415","TWIN VALLEY","MN","56584"
986953,"PO BOX 415","WAUNA","WA","98395"
986954,"PO BOX 415","WINDSOR","CO","80550"
986955,"PO BOX 4150","BRANDON","FL","33509"
986956,"PO BOX 4152","AVON","CO","81620"
986957,"PO BOX 4152","SOUTH COLBY","WA","98384"
986958,"PO BOX 41532","RALEIGH","NC","27629"
986959,"PO BOX 4154","VINEYARD HAVEN","MA","02568"
986960,"PO BOX 41550","WASHINGTON DC","DC","20018"
986961,"PO BOX 4156","FOSTER CITY","CA","94404"
986962,"PO BOX 415880","MIAMI BEACH","FL","33141"
986963,"PO BOX 41592","MEMPHIS","TN","38174"
986964,"PO BOX 416","ATHOL","ID","83801"
986965,"PO BOX 416","BIRCH RIVER","WV","26610"
986966,"PO BOX 416","BLACK EARTH","WI","53515"
986967,"PO BOX 416","BRENTWOOD","CA","94513"
986968,"PO BOX 416","CEDAR CITY","UT","84721"
986969,"PO BOX 416","CONWAY","SC","29528"
986970,"PO BOX 416","DELTA JUNCTION","AK","99737"
986971,"PO BOX 416","DEVINE","TX","78016"
986972,"PO BOX 416","DUBLIN","NC","28332"
986973,"PO BOX 416","FLIPPIN","AR","72634"
986974,"PO BOX 416","HANSVILLE","WA","98340"
986975,"PO BOX 416","STANFIELD","OR","97875"
986976,"PO BOX 416","YOUNGSVILLE","NC","27596"
986977,"PO BOX 4160","BUENA VISTA","CO","81211"
986978,"PO BOX 4160","SANTA FE","NM","87502"
986979,"PO BOX 41613","EUGENE","OR","97404"
986980,"PO BOX 4162","ABILENE","TX","79608"
986981,"PO BOX 4162","ARLINGTON","VA","22204"
986982,"PO BOX 4162","BETHLEHEM","PA","18018"
986983,"PO BOX 4162","GARY","IN","46404"
986984,"PO BOX 4162","GREENSBORO","NC","27404"
986985,"PO BOX 4162","RIVERSIDE","CA","92514"
986986,"PO BOX 4164","RANCHO CUCAMONGA","CA","91729"
986987,"PO BOX 41655","TUCSON","AZ","85717"
986988,"PO BOX 416623","MIAMI","FL","33141"
986989,"PO BOX 41678","HOUSTON","TX","77040"
986990,"PO BOX 4168","DANA POINT","CA","92629"
986991,"PO BOX 4169","MARTINSVILLE","VA","24112"
986992,"PO BOX 417","ABBEVILLE","MS","38601"
986993,"PO BOX 417","BEDMINSTER","NJ","07921"
986994,"PO BOX 417","Carrollton","AL","35466"
986995,"PO BOX 417","DERBY","VT","05829"
986996,"PO BOX 417","HOOLEHUA","HI","96729"
986997,"PO BOX 417","KEAAU","HI","96749"
986998,"PO BOX 417","LORENA","TX","76655"
986999,"PO BOX 417","MCDADE","TX","78650"
987000,"PO BOX 417","NEWARK","TX","76071"
