"ID","Address","City","State","Zip"
388501,"2387 SCHOOL ST","CULLOKEA","TN","38451"
388502,"2387 SCHOOL STREET","CULLEOKA","TN","38451"
388503,"2387 STARFALL CIRCLE","LA VERNE","CA","91750"
388504,"2387 SUWANEE POINTE DRIVE","LAWERNCEVILLE","GA","30043"
388505,"2387 VINTAGE DRIVE","COLORADO SPRINGS","CO","80920"
388506,"2387 WEST 68TH STREET  SUITE 303","HIALEAH","FL","33016"
388507,"2387 WEST 68TH STREET SUITE 303","HIALEAH","FL","33016"
388508,"2387 WEST CHURCH STREET","ORLANDO","FL","32805"
388509,"2387 WEST PEKIN RD","SPRINGBORO","OH","45066"
388510,"23870 S BARD RD","ESTACADA","OR","97023"
388511,"23873 NE SR 16","RAIFORD","FL","32083"
388512,"23873 RIVER MANOR BLVD","ELKHART","IN","46516"
388513,"23874 EARL DR","WRIGHT CITY","MO","63390"
388514,"23875 NW 188 AVENUE","HIGH SPRINGS","FL","32643"
388515,"23875 SW DEWBERRY","SHERWOOD","OR","97140"
388516,"23875 SW FARMINGTON RD","BEAVERTON","OR","97007"
388517,"23875 W STATE RT 65","GRAND RAPIDS","OH","43522"
388518,"23878 BUNKERHILL","MICLINTON TOWNSHIP","MI","48035"
388519,"23879 HIGHWAY 98","BOONVILLE","MO","65233"
388520,"2387E DUNWOODY XING","DUNWOODY","GA","30338"
388521,"2388 270TH","GUTHRIE CENTER","IA","50115"
388522,"2388 ARROWWOOD","ANN ARBOR","MI","48105"
388523,"2388 BROOK PARK TRAIL","SNELLVILLE","GA","30039"
388524,"2388 CAPSTONE","ROCKY MOUNT","NC","27804"
388525,"2388 EAST SHORE LANE","CULVER","IN","46511"
388526,"2388 FOREST HILL DR","HARRISBURG","PA","17112"
388527,"2388 FOREST HILLS DRIVE","HARRISBURGH","PA","17112"
388528,"2388 GOOD LUCK ROAD","MAIDENS","VA","23102"
388529,"2388 HOWARD AVE","MEDFORD","OR","97501"
388530,"2388 LAMBERT DRIVE","ASHEBORO","NC","27205"
388531,"2388 LAUREL ST","SAN JUAN","PR","00913"
388532,"2388 LIBERTY WAY","VIRGINIA BEACH","VA","23456"
388533,"2388 MOUNTAIN AVE","SAN BERNARDINO","CA","92404"
388534,"2388 MURPHYTOWN RD","WALKER","WV","26180"
388535,"2388 N WOODBRIDGE RD","WHEELER","MI","48662"
388536,"2388 NATUREWOOD DR","OAKDALE","CA","95361"
388537,"2388 RUMLEY RD","LESLIE","AR","72645"
388538,"2388 S COUNTY RD 450 W","COATESVILLE","IN","46121"
388539,"2388 SOUTH 4500 WEST","OGDEN","UT","84401"
388540,"2388 VALENCIA","SPARKS","NV","89434"
388541,"2388 WILLINGHURST DR","GERMANTOWN","TN","38139"
388542,"2388 WOODFIELD CIRCLE","LEXINGTON","KY","40515"
388543,"2388 WOODLAND POND LANE","HERNDON","VA","20171"
388544,"23880 PURITAN RD","EUCLID","OH","44123"
388545,"23881 STATE HIGHWAY 49 WEST","JEFFERSON","TX","75657"
388546,"23882 MONROE ST","ARMADA","MI","48005"
388547,"23883 SANDLEWOOD","DENHAM SRPINGS","LA","70726"
388548,"23885 SNOW RD","HILLMAN","MI","49746"
388549,"23889 EDINBURGH ST","SOUTHFIELD","MI","48033"
388550,"2389 255TH AVE","FORT MADISON","IA","52627"
388551,"2389 30TH AVENUE","SAN FRANCISCO","CA","94116"
388552,"2389 79TH AVENUE","BATON ROUGE","LA","70807"
388553,"2389 BATES AVENUE","EUSTIS","FL","32726"
388554,"2389 BELL COURT APT 35","MEDFORD","OR","97504"
388555,"2389 BOHEMIAN HWY","OCCIDENTAL","CA","95465"
388556,"2389 BRENNER AVE E","MAPLEWOOD","MN","55109"
388557,"2389 CENTRE STREET","WEST ROXBURY","MA","02132"
388558,"2389 CHANNING AVE","SCOTCH PLAINS","NJ","07076"
388559,"2389 COLLETTSVILLE RD","LENOIR","NC","28645"
388560,"2389 CORBIN AVE","NEW BRITAIN","CT","06053"
388561,"2389 CRUGER AVE APT 5J","BRONX","NY","10467"
388562,"2389 CYPRESS DR","WOODBURY","MN","55125"
388563,"2389 CYPRESS DRIVE","WOODBURY","MN","55125"
388564,"2389 DUNWOODY VILLANGE LN","DUNWOODY","GA","30338"
388565,"2389 DUNWOODY XING C","ATLANTA","GA","30338"
388566,"2389 EAST 2450TH ROAD","MARSEILLES","IL","61341"
388567,"2389 EL MOLINO AVE","ALTADENA","CA","91001"
388568,"2389 EVENINGSONG DR","LITTLE ELM","TX","75068"
388569,"2389 FERNVIEW DRIVE","ORANGE PARK","FL","32065"
388570,"2389 HIGHWAY 179","COVINGTON","TN","38019"
388571,"2389 ISLAND HIGHWAY","CHARLOTTE","MI","48813"
388572,"2389 KY RT 469","REDBUSH","KY","41219"
388573,"2389 LEXINGTON VILLAGE LN","COLORADO SPRINGS CO","CO","80916"
388574,"2389 LOBACH DRIVE","MECHANICSBURG","PA","17055"
388575,"2389 LOGUE ST","N. BELLMORE","NY","11710"
388576,"2389 MAIN ST STE 100","GLASTONBURY","CT","06033"
388577,"2389 MAIN ST STE 100","GLASTONBURY","CT",NA
388578,"2389 MAIN STREET SUITE 100","GLASTONBURY","CT","06033"
388579,"2389 MIDWAY RD SUITE B","CARROLLTON","TX","75006"
388580,"2389 N MIDWAY ROAD","CLINTON","MS","39056"
388581,"2389 NW 160 TERR","PEMBROKE PINES","FL","33028"
388582,"2389 RAMONA ST","PALO ALTO","CA","94301"
388583,"2389 SE 14TH STREET","HOMESTEAD","FL","33035"
388584,"2389 SHERWOOD RD","BEXLEY","OH","43209"
388585,"2389 SOUTH PONTE VEDRA BOULEVARD","PONTE VEDRA BEACH","FL","32082"
388586,"2389 SPRING WHEAT RD","EAST WENATCHEE","WA","98802"
388587,"2389 VAN LEUNENE DRIVE","CINCINNATI","OH","45239"
388588,"2389 VICTORIA CIRCLE","ALPINE","CA","91901"
388589,"2389 WATKINS RD","BATTLE CREEK","MI","49015"
388590,"23890 COPPER HILL DR SUITE 254","VALENCIA","CA","91354"
388591,"23890 COPPER HILL DRIVE 204","VALENCIA","CA","91354"
388592,"23890 COPPER HILL DRIVE UNIT 204","VALENCIA","CA","91354"
388593,"23890 GENESEE VILLAGE RD","GOLDEN","CO","80401"
388594,"23890 JEFFERSON POINT ROAD","KINGSTON","WA","98346"
388595,"23894 S 230 RD","HENRYETTA","OK","74437"
388596,"23894 SW PACIFIC HWY","SHERWOOD","OR","97140"
388597,"23895 DRAKE ROAD","FARMINGTON","MI","48335"
388598,"23897 281ST AVE","LE CLAIRE","IA","52753"
388599,"23897 ROCKSIDE ROAD","BEDFORD HEIGHTS","OH","44146"
388600,"23897 SW SANDERS TERRACE","SHERWOOD","OR","97140"
388601,"238B KIPU ROAD","LIHUE","HI","96766"
388602,"239  HILLSDALE DRIVE","CLAYTON","NC","27527"
388603,"239 12TH PL NE 1","WASHINGTON","DC","20002"
388604,"239 301 BLVD EAST","BRADENTON","FL","34208"
388605,"239 3RD AVE S F8","SOUTH SAINT PAUL","MN","55075"
388606,"239 40TH STREET","IRVINGTON","NJ","07111"
388607,"239 9TH AVE APT 2A","NEW YORK","NY","10001"
388608,"239 A SOUTH 8TH AVE","HIGHLAND PARK","NJ","08904"
388609,"239 ALLSTON ST","CAMBRIDGE","MA","02139"
388610,"239 ALPHONSE STREET","ROCHESTER","NY","14621"
388611,"239 ALPINE DRIVE","PACKWOOD","WA","98361"
388612,"239 AMOS WA NW","BEMIDJI","MN","56601"
388613,"239 AMOS WAY NW","BEMIDJI","MN","56601"
388614,"239 ANNANDALE RD","BILLINGS","MT","59105"
388615,"239 ANTOINETTE DRIVE","ENDICOTT","NY","13760"
388616,"239 ARROWOOD WAY","BASKING RIDGE","NJ","07920"
388617,"239 ARTERIAL HOSTOS AVE STE 402","SAN JUAN","PR","00918"
388618,"239 AUTUMN WINDS TRAIL","HOUSE SPRINGS","MO","63051"
388619,"239 AUTUMN WINDS TRAIL","LABARQUE CREEK","MO","63051"
388620,"239 AZALIA DRIVE","EAST PALO ALTO","CA","94303"
388621,"239 BADGER AVENUE","NEWARK","NJ","07108"
388622,"239 BAINBRIDGE CIRCLE","D","GA","30132"
388623,"239 BALDWIN ST","OCONTO","WI","54153"
388624,"239 BALDWIN STREET","GAITHERSBURG","MD","20878"
388625,"239 BANKER STREET UNIT 4H","BROOKLYN","NY","11222"
388626,"239 BARTHOLOMEW HILL ROAD","GOSHEN","CT","06756"
388627,"239 BEACH CITY RD APT 3133","HILTON HEAD ISLAND","SC","29926"
388628,"239 BEGONIA DRIVE","PAHOKEE","FL","33476"
388629,"239 BEGONIA DRIVE","WEST PALM BEACH","FL","33476"
388630,"239 BELMONT PLACE","MUNSTER","IN","46321"
388631,"239 BERGEN STREET UNIT B","NEWARK","NJ","07103"
388632,"239 BETTS ROAD","ORINGTON","ME","04474"
388633,"239 BETTS ROAD","ORRINGTON","ME","04401"
388634,"239 BIRCHWOOD PARK DR","JERICHO","NY","11545"
388635,"239 BLUE LAKE","HUFFMAN","TX","77336"
388636,"239 BRANNAN STREET 7C","SAN FRANCISCO","CA","94107"
388637,"239 BRENTWOOD DR","NORTH TONAWANDA","NY","14120"
388638,"239 BRINDLE RD","DOBSON","NC","27017"
388639,"239 BROAD STREET","PORTSMOUTH","NH","03801"
388640,"239 BROADWAY","FALL RIVERS","MA","02721"
388641,"239 BROMLEY DRIVE","EASTSOUND","WA","98245"
388642,"239 BRUSH MOUNTAIN ROAD","HOLLIDAYSBURG","PA","16648"
388643,"239 BRYANT AVENUE","SYRACUSE","NY","13204"
388644,"239 BUCKLAND CR","LITTLE RCOK","AR","72223"
388645,"239 BUSINESS CENTER DRIVE","PAWLEYS ISLAND","SC","29585"
388646,"239 CAROLINA DRIVE","TIFTON","GA","31794"
388647,"239 CASSADY STREET","VALLEJO","CA","94590"
388648,"239 CATE HARBOUR LOOP APT 106","BRADENTON","FL","34212"
388649,"239 CAUSEWAY RD","BRIDGETON","NJ","08302"
388650,"239 CEDAR LANE","COVINGTON","GA","30014"
388651,"239 CENTER ST","AUBURN","CA","95603"
388652,"239 CENTRAL AVE","DEER PARK","NY","11729"
388653,"239 CENTRAL STREET","GEORGETOWN","MA","01833"
388654,"239 CENTRAL STREET","GEORGETOWN","MA","01883"
388655,"239 CEVAR VALLEY BLVD","GRAY","TN","37615"
388656,"239 CHANTICLEER","EL PASO","TX","79915"
388657,"239 CHATTAROY DRIVE","CHARLOTTE","NC","28214"
388658,"239 CHESTNUT HILL DR","OFALLON","MO","63368"
388659,"239 CIRCLE DRIVE EAST","ST. AUGUSTINE","FL","32084"
388660,"239 CLEVELAND AVE EXT","MARIETTA","SC","29661"
388661,"239 CLIFTON PLACE","BROOKLYN","NY","11216"
388662,"239 COBURG CT","BOILING SPRINGS","SC","29316"
388663,"239 COLDSPRINGS DR","HARVEST","AL","35749"
388664,"239 COMMONWEALTH AVE APT 24","BOSTON","MA","02116"
388665,"239 CONEN ST","EDISON","NJ","08220"
388666,"239 COUNTY RD 299","SARGENT","TX","77414"
388667,"239 COUNTY ROAD 820","HEIDELBERG","MS","39439"
388668,"239 COUNTY ROAD 848","LOGAN","AL","35098"
388669,"239 CR 147","QUITMAN","MS","39355"
388670,"239 CR 1482","BOGATA","TX","75417"
388671,"239 CRESCENT AVENUE","BUFFALO","NY","14214"
388672,"239 CRESCENT LANE S","CLIFF SIDE PARK","NJ","07010"
388673,"239 CRESCENT PINES DRIVE","VERONA","PA","15147"
388674,"239 CROFT WAY","MT JULIET","TN","37122"
388675,"239 CUNARD STREET","FULTON","OH","43321"
388676,"239 CYPRESS STREET","COVINA","CA","91723"
388677,"239 D HUNTINGTON  DRIVE","LAKEWOOD","NJ","08701"
388678,"239 DAHILL ROAD","BROOKLYN","NY","11218"
388679,"239 DALE DRIVE","SILVER SPRING","MD","20910"
388680,"239 DANIEL BOONE DRIVE","BARBOURVILLE","KY","40906"
388681,"239 DEER COVE LANE","LUTZ","FL","33548"
388682,"239 DOOM PEAK RD","LINDEN","VA","22642"
388683,"239 E 14TH AVE","EUGENE","OR","97401"
388684,"239 E BUFFALO BLUFF RD  NO 147","SATSUMA","FL","32189"
388685,"239 E CORAL GABLES","PHOENIX","AZ","85022"
388686,"239 E HARRIS STREET","OGDEN","UT","84401"
388687,"239 E HIGH","REDKEY","IN","47373"
388688,"239 E JESSUP RD","ROSEDALE","IN","47874"
388689,"239 E KIMBERLY","REPUBLIC","MO","65738"
388690,"239 E MAIN ST","HERMISTON","OR","97838"
388691,"239 E PUTNAM ABE 3","COS COB","CT","06807"
388692,"239 E QUEENS DR","WILLIAMSBURG","VA","23185"
388693,"239 E SCOTT ST","PORT HUENEME","CA","93041"
388694,"239 EAST 23RD STREET","BROOKLYN","NY","11226"
388695,"239 EAST 49TH STREET","SAVANNAH","GA","31405"
388696,"239 EAST 79TH STREET APT 15K","NEW YORK","NY","10075"
388697,"239 EAST 79TH STREET APT 4H","NEW YORK","NY","10075"
388698,"239 EAST 81ST STREET APT 3A","NEW YORK","NY","10028"
388699,"239 EAST ALLEGAN STREET","OTSEGO","MI","49078"
388700,"239 EAST AVENUE R4","PALMDALE","CA","93550"
388701,"239 EAST GAIL WAY","WASHINGTON","UT","84780"
388702,"239 EAST PARK AVENUE","AMBLER","PA","19002"
388703,"239 EAST ST","LEXINGTON","MA","02420"
388704,"239 EAST TIMONIUM ROAD","TIMONIUM","MD","21093"
388705,"239 EDENFIELD AVE","WATERTOWN","MA","02472"
388706,"239 EMERSON ST APT 18","HOUSTON","TX","77006"
388707,"239 ENGLAND DRIVE","O'FALLON","MO","63366"
388708,"239 FARMER BUSH RD","EAST STROUSBURG","PA","18301"
388709,"239 FERN","LIVINGSTON","TX","77351"
388710,"239 FLORENCE ROAD","HARRINGTON PARK","NJ","07640"
388711,"239 FM 3186","ONALASKA","TX","77360"
388712,"239 FORESIDE ROAD","FALMOUTH","ME","04105"
388713,"239 FORSYTH ROAD","HAVELOCK","NC","28532"
388714,"239 FOURTH AVE SUITE1401 -312","PITTSBURGH","PA","15222"
388715,"239 FOURTH AVENUE SUITE 1602","PITTSBURGH","PA","15222"
388716,"239 FOURTH AVENUE SUITE 1602","PITTSURGH","PA","15222"
388717,"239 GARRISON ROAD","GARDENDALE","AL","35071"
388718,"239 GENESEE ST","CAYUGA","NY","13034"
388719,"239 GLEN OAKS","HURRICANE","WV","25526"
388720,"239 GLENDALE ROAD","UPPER DARBY","PA","19082"
388721,"239 GLENWOOD AVE","BUFFALO","NY","14208"
388722,"239 GLENWOOD AVENUE","EAST ORANGE","NJ","07017"
388723,"239 GRAFTON STEET","BROOKLYN","NY","11212"
388724,"239 GRAFTON STREET","BROOKLYN","NY","11212"
388725,"239 GRANT STREET SE","ATLANTA","GA","30312"
388726,"239 GREAT NECK ROAD","GREAT NECK","NY","11021"
388727,"239 GREENMOOR","IRVINE","CA","92614"
388728,"239 GREENWOOD AVE","GLENWOOD","IL","60425"
388729,"239 GROUSE LANE","LEWISBURG","PA","17837"
388730,"239 HALL STREET","RAYNHAM","MA","02767"
388731,"239 HAMPTON STREET","ROCK HILL","SC","29730"
388732,"239 HAPPY HOME RD","TYNER","NC","27980"
388733,"239 HARRISON TOWN RD","MANSON","NC","27553"
388734,"239 HARRISON TOWN RD","MASON","NC","27553"
388735,"239 HEATHER DRIVE","WEST BEND","WI","53095"
388736,"239 HENDERSON TANYAED ROAD","PITTSBORO","NC","27312"
388737,"239 HERITAGE AVENUE","EUGENE","OR","97404"
388738,"239 HERRON COVE RD","WEAVERVILLE","NC","28787"
388739,"239 HIGH HILL RD","DARTMOUTH","MA","02747"
388740,"239 HIGH PLACE","JACKSON","OH","45640"
388741,"239 HIGHLAND DR NW","CEDAR RAPIDS","IA","52405"
388742,"239 HIGHWAY","SAN ANTONIO","TX","78219"
388743,"239 HOLIDAY LANE","WINTER SPRINGS","FL","32708"
388744,"239 HOMELAND RD","MATTESON","IL","60443"
388745,"239 HOOKER AVE","POUGHKEEPSIE","NY","12603"
388746,"239 HOPKINS BLVD","BILOXI","MS","39530"
388747,"239 HUBER CLAY RD","WARRENVILLE","SC","29851"
388748,"239 IRVINGTON DR","SAN ANTONIO","TX","78209"
388749,"239 JUANITA COURT","SANTA ROSA","CA","95401"
388750,"239 KILEA PLACE","WAHIAWA","HI","96786"
388751,"239 KINGSTON STREET SOUTH","ST. PETERSBURG","FL","33711"
388752,"239 KINGSTON","SAINT PETERSBURG","FL","33711"
388753,"239 KNOLL ROAD 12","SAN MARCOS","CA","92069"
388754,"239 KREUTZBERG RD","BOERNE","TX","78006"
388755,"239 LA NORMANDY DR","LOUISVILLE","KY","40223"
388756,"239 LAIDLAW AVE","JERSEY CITY","NJ","07306"
388757,"239 LAKE POINTE CIRCLE","MIDDLE ISLAND","NY","11953"
388758,"239 LAKEVIEW DR","WHITEWATER","WI","53190"
388759,"239 LAKEVIEW DRIVE","SITKA","AK","99835"
388760,"239 LARKSPUR RD","COLUMBIA","SC","29212"
388761,"239 LAUREL RD","GREENE","NY","13778"
388762,"239 LEGION RD","BLOOMSBURG","PA","17815"
388763,"239 LINCOLN LANE","HAMILTON","MT","59840"
388764,"239 LINDEN AVENUE","BUFFALO","NY","14216"
388765,"239 LOCKSLEY PLACE","FOREST","VA","24551"
388766,"239 LOCUST GROVE CT 2","HARRISBURG","PA","17109"
388767,"239 LOCUST ST","NEW MARTINSVILLE","WV","26155"
388768,"239 LONGVIEW AVE","GREEN BAY","WI","54301"
388769,"239 MADISON AVE","ST MICHAELS","MD","21663"
388770,"239 MAGIE AVENUE","ROSELLE PARK","NJ","07204"
388771,"239 MALLARD DR","CARROLLTON","GA","30116"
388772,"239 MANGUM CLOSE ROAD","PERRY","FL","32347"
388773,"239 MAPLE AVE","DENMARK","SC","29042"
388774,"239 MARE POND PLACE","HAMPSTEAD","NC","28443"
388775,"239 MARVIN STREE T","HOLBROOK","NY","11741"
388776,"239 MCKEE ST","FLORAL PARK","NY","11001"
388777,"239 MCMILLAN CT UNIT 101","CORTLAND","IL","60112"
388778,"239 MEADOW LANE DRIVE","ELMORE","AL","36025"
388779,"239 MEADOW VIEW PARKWAY","ERIE","CO","80516"
388780,"239 MIDDLE ROAD","ACUSHNET","MA","02743"
388781,"239 MILLCREEK WAY","TOOELE","UT","84074"
388782,"239 MIZELL","DUNCANVILLE","TX","75116"
388783,"239 MONMOUTH STREET","GLOUCESTER CITY","NJ","08030"
388784,"239 MONTEBELLO CIRCLE APT B","CHARLOTTESVILLE","VA","22904"
388785,"239 MORELAND WAY","HAPEVILLE","GA","30354"
388786,"239 MURRAY AVENUE","LARCHMONT","NY","10538"
388787,"239 N 11TH STREET","FORT DODGE","IA","50501"
388788,"239 N 9TH ST W325","BROOKLYN","NY","11211"
388789,"239 N ALLEGHENY STREET","BELLEFONTE","PA","16823"
388790,"239 N KELLOGG AVE","SANTA BARBARA","CA","93111"
388791,"239 N SHERWOOD ST","FORT COLLINS","CO","80521"
388792,"239 NANCY ST","GRAND JUNCTION","CO","81503"
388793,"239 NE BROAD STREET","SOUTHERN PINES","NC","28387"
388794,"239 NORTH 11TH STREET","FORT DODGE","IA","50501"
388795,"239 NORTH 8TH STREET","INDIANA","PA","15701"
388796,"239 NORTH 9TH ST APT W415","BROOKLYN","NY","11211"
388797,"239 NORTH LAUREL STREET","MANHEIM","PA","17545"
388798,"239 NORTH PERKINS FERRY RD TRLR 99","LAKE CHARLES","LA","70611"
388799,"239 NORTH TERRY HILL ROAD","CARMEL","NY","10512"
388800,"239 NORTHERN BOULEVARD","AMSTERDAM","NY","12010"
388801,"239 NORTHWEST PASSAGE LANE","MANHATTAN","MT","59741"
388802,"239 NORTHWIND DR","VALPARAISO","IN","46385"
388803,"239 NOTTINGHAM RD","SPRINGFIELD","IL","62704"
388804,"239 NW 21ST STREET","NEWPORT","OR","97365"
388805,"239 OAK MANOR PL","PITTSBURGH","PA","15235"
388806,"239 OAK ST","BROCKTON","MA","02301"
388807,"239 OAKLAND VALLEY ROAD","CUDDEBACKVILLE","NY","12729"
388808,"239 OAKWOOD CT","ARROYO GRANDE","CA","93420"
388809,"239 OHIO STREET","HICKSVILLE","NY","11501"
388810,"239 OLD COLUMBIA RD","DICKSON","TN","37055"
388811,"239 OLD OAK LANE","WAITEVILLE","WY","24984"
388812,"239 OWL CREEK ROAD","BOULDER","CO","80302"
388813,"239 OXFORD AVENUE APT REAR","BUFFALO","NY","14209"
388814,"239 PARKSIDE LOOP","CHEHALIS","WA","98532"
388815,"239 PEACHTREE CIRCLE APT B","WARNER ROBINS","GA","31088"
388816,"239 PECAN STREET","EVERGREEN","AL","36401"
388817,"239 PERSHING AVE","ROSELLE PARK","NJ","07204"
388818,"239 PERSHING BLVD","BASTROP","TX","78602"
388819,"239 PICKETT HOLLOW ROAD","TAZEWELL","VA","24651"
388820,"239 PINELLI DRIVE","PISCATAWAY","NJ","08854"
388821,"239 POND STREET","WINCHESTER","MA","01890"
388822,"239 POPLAR FORK ROAD","SCOTT DEPOT","WV","25560"
388823,"239 POWERS COVE","MARIETTA","GA","30067"
388824,"239 RAVENCREST ROAD","YORKTOWN HEIGHTS","NY","10598"
388825,"239 RED ROSE CIRCLE","ORLANDO","FL","32835"
388826,"239 REGENT RD","HARRISBURG","PA","17112"
388827,"239 REISINGER AVENUE","DAYTON","OH","45417"
388828,"239 RESERVE CT","SAN MARCOS","CA","92078"
388829,"239 RIBERA DR UNIT B","SANTA BARBARA","CA","93111"
388830,"239 RIDGE ROAD","FARMINGTON","NH","03835"
388831,"239 RIVER OAKS DR","HUNTSVILLE","AL","35758"
388832,"239 RIVER STREET","HARTSVILLE","TN","37074"
388833,"239 ROAD 6RT","CODY","WY","82414"
388834,"239 ROCK RD","GREER","SC","29651"
388835,"239 ROCKPORT DRIVE","TROY","MO","63379"
388836,"239 ROCKY RIDGE ROAD","COCOLALLA","ID","83813"
388837,"239 ROSS NEELY ROAD","ALBERTVILLE","AL","35951"
388838,"239 ROUTE 22 EAST - SUITE 307","GREEN BROOK","NJ","08812"
388839,"239 S FAYETTEVILLE ST","LIBERTY","NC","27298"
388840,"239 S GREENWOOD AVE","KANKAKEE","IL","60901"
388841,"239 S LA CIENEGA BLVD SUITE 207","BEVERLY HILLS","CA","90211"
388842,"239 S LAKE ST","S AMHERST","OH","44001"
388843,"239 S MAIN ST STE 100","CEDAR CITY","UT","84720"
388844,"239 S MATANZAS BLVD","ST AUGUSTINE","FL","32080"
388845,"239 S NORTHINGTON STREET","PRATTVILLE","AL","36067"
388846,"239 S QUEEN CIRCLE","MAIZE","KS","67101"
388847,"239 S SAN LUIS REY TRL","CASA GRANDE","AZ","85194"
388848,"239 SE QUAIL RIDGE LOOP","BARTLESVILLE","OK","74006"
388849,"239 SEA LAVENDER LANE","SUMMERVILLE","SC","29486"
388850,"239 SHAORELAND CIRCLE","WILLOWICK","OH","44095"
388851,"239 SHAW DRIVE","ACWORTH","GA","30102"
388852,"239 SHERIDAN ROAD","EL PASO","TX","79906"
388853,"239 SKILLMAN ST","BROOKLYN","NY","11205"
388854,"239 SLANE CHAPEL ROAD","REEDS SPRING","MO","65737"
388855,"239 SOMEREST","STANSBURY PARK","UT","84074"
388856,"239 SONOMA VALLEY CIRCLE","ORLANDO","FL","32835"
388857,"239 SOUTH 5TH ST  SUITE 1011","LOUISVILLE","KY","40202"
388858,"239 SOUTH COURT STREET","MEDINA","OH","44256"
388859,"239 SOUTH ELM STREET","KIMBERLY","WI","54136"
388860,"239 SOUTH HALE STREET","PALATINE","IL","60067"
388861,"239 SOUTH LN","WEST WINDSOR","NJ","08550"
388862,"239 SOUTH VINE STREET","MOUNT CARMEL","PA","17851"
388863,"239 SOUTHOLME","SAN ANTONIO","TX","78204"
388864,"239 SPRING CIRCLE","ATHENS","GA","30601"
388865,"239 ST JOHN ST","MT PLEASANT MILLS","PA","17853"
388866,"239 STATE ST","PRESQUE ISLE","ME","04769"
388867,"239 STERLING AVE","PROVIDENCE","RI","02908"
388868,"239 STERLING ROAD","LANCASTER","MA","01523"
388869,"239 SUN UP RANCH RD","SEDONA","AZ","86351"
388870,"239 SUN VALLEY COURT","RIPON","CA","95366"
388871,"239 SUNNY RIDGE RD","HARRISON","NY","10528"
388872,"239 SUPERIOR ST","NEWTON FALLS","OH","44444"
388873,"239 SURL MT TIRZAH RD","TIMBERLAKE","NC","27583"
388874,"239 SW 194TH PL","NORMANDY PARK","WA","98166"
388875,"239 SW COUNTY RD BB","WARRENSBURG","MO","64093"
388876,"239 SWEET CANE TRAL","GRAYSON","GA","30017"
388877,"239 SWEET CANE TRL","GRAYSON","GA","30017"
388878,"239 SYCAMORE DRIVE","LANCASTER","SC","29720"
388879,"239 TAPPAN STREET","BROOKLINE","MA","02445"
388880,"239 THORNE WOOD LN","HAMPTON","GA","30228"
388881,"239 THORNROSE AVE","STAUNTON","VA","24401"
388882,"239 TIMBER BAY DR","TRINITY","TX","75862"
388883,"239 TOULON DR","ST LOUIS","MO","63129"
388884,"239 TRUMAN WAY","DOWNINGTOWN","PA","19335"
388885,"239 TRUMBULL AVE","YOUNGSTOWN","OH","44505"
388886,"239 TYLER BROOKS DR","WILLIAMSBURG","VA","23185"
388887,"239 UPPER RAINBOW RIDGE","BOONE","NC","28607"
388888,"239 VALLEY ST","BROCKTON","PA","17925"
388889,"239 W 116TH STREET 3A","NEW YORK","NY","10026"
388890,"239 W 116TH STREET 3C","NEW YORK","NY","10026"
388891,"239 W 260TH STREET","BRONX","NY","10471"
388892,"239 W 26TH ST APT 2W","NEW YORK","NY","10001"
388893,"239 W 520 N","OREM","UT","84057"
388894,"239 W BIROS LN","ROUND LAKE","IL","60073"
388895,"239 W MAIN STREET","RICHMOND","KY","40475"
388896,"239 W RITTENHOUSE ST","PHILADELPHIA","PA","19144"
388897,"239 W SEYMOUR ST","PHILADELPHIA","PA","19144"
388898,"239 W SHASTA AVE","CHICO","CA","95973"
388899,"239 W THOMPSON RD","PAYSON","AZ","85541"
388900,"239 WALKER ST","ATLANTA","GA","30135"
388901,"239 WALKER ST","ATLANTA","GA","30313"
388902,"239 WALKER STREET","ATLANTA","GA","30313"
388903,"239 WALNUT AVE","SANTA CRUZ","CA","95060"
388904,"239 WASHINGTON ST","GENEVA","NY","14456"
388905,"239 WEIR STREET","HEMPSTEAD","NY","11550"
388906,"239 WEST 123RD STREET","NEW YORK","NY","10027"
388907,"239 WEST 145TH ST","NEW YORK","MD","21114"
388908,"239 WEST 19TH STREET","NEW YORK","NY","10011"
388909,"239 WEST 3RD STREET","READLYN","IA","50668"
388910,"239 WEST BENSON STREET","DECATUR","GA","30030"
388911,"239 WEST BETHEL DRIVE","MADISON HEIGHTS","VA","24572"
388912,"239 WEST ELLA J GILMORE ST","APOPKA","FL","32703"
388913,"239 WEST WARREN ST","DUNMORE","PA","18512"
388914,"239 WESTEND RD","LANDAFF","NH","03585"
388915,"239 WESTFIELD RD","CRESTVIEW","FL","32539"
388916,"239 WHITMOOR FOREST CT","WELDON SPRINGS","MO","63304"
388917,"239 WILTSHIRE LANE","SEVERNA PARK","MD","21146"
388918,"239 WINDHAM DRIVE","EX","PA","19341"
388919,"239 WINDHAM DRIVE","EXTON","PA","19341"
388920,"239 WINDING LANE","LAGRANGE","NC","28551"
388921,"239 WINDY HILL CIRCLE","LEBANON","VA","24266"
388922,"239 WINDY HILL ROAD","BAXLEY","GA","31513"
388923,"239 WINSOR ST","ELKHORN","WI","53121"
388924,"239 WOODBERY DR","ORANGEBURG","SC","29115"
388925,"239 WOODLAKE DRIVE","HOLLAND","PA","18966"
388926,"239 WOODLAWN DRIVE","MARIETTA","GA","30067"
388927,"239 WORCESTER ROAD","HOLLIS","NH","03049"
388928,"239 WYNNS FERRY RD","DOVER","TN","37058"
388929,"239 YUCATAN DR","ZACHARY","LA","70791"
388930,"239-03 147TH RD","ROSEDALE","NY","11422"
388931,"239-12-149TH AVE","ROSEDALE","NY","11422"
388932,"239-49 148TH ROAD","ROSEDALE","NY","11422"
388933,"239-70A OAK PARK DRIVE","DOUGLASTON","NY","11362"
388934,"239","MOUNTLAKE TERRACE","WA","98043"
388935,"2390   SECOND AVE APT 15 G","NEW YORK","NY","10035"
388936,"2390 2ND AVE","NY","NY","10035"
388937,"2390 30TH STREET SUITE 219","CLEVELAND","OH","44115"
388938,"2390 3RD ST","CUMBERLAND","WI","54829"
388939,"2390 ARAPAHO RD","FORT MOHAVE","IA","86426"
388940,"2390 AUSTIN ST","LEAGUE CITY","TX","77573"
388941,"2390 AUSTIN STREET","LEAGUE CITY","TX","77573"
388942,"2390 BANKS RD","LAKE WALES","FL","33898"
388943,"2390 BATCHTOWN RD","HARDIN","IL","62047"
388944,"2390 BEECHY CREEK ROAD","WALLINGFORD","KY","41093"
388945,"2390 BLACK OAK STREET","TURLOCK","CA","95382"
388946,"2390 C LAS POSAS ROAD 257","CAMARILLO","CA","93010"
388947,"2390 CAMP CREEK ROAD","CAMP CREEK","WV","25820"
388948,"2390 CARDINAL LN","PALM BEACH GARDENS","FL","33410"
388949,"2390 CARRIAGE LANE","DECATUR","IL","62526"
388950,"2390 COOLEY PLACE","PASADENA","CA","91104"
388951,"2390 CR 44","HALLETTSVILLE","TX","77964"
388952,"2390 CRENSHAW BLVD SUITE 182","TORRANCE","CA","90501"
388953,"2390 CRENSHAW BLVD SUITE 182","TORRANCE","CA","90505"
388954,"2390 CRENSHAW BLVD SUITE E103","TORRANCE","CA","90501"
388955,"2390 CRENSHAW BLVD/ 130","TORRANCE","CA","90501"
388956,"2390 DEVOY AVENUE","MEMPHIS","TN","38108"
388957,"2390 E ASBURY AVE APT 206","DENVER","CO","80210"
388958,"2390 E CAMELBACK RD SUITE 130","PHOENIX","AZ","85018"
388959,"2390 E CAMELBACK RD SUITE 130","PHOENIX","AZ","85284"
388960,"2390 E CAMELBACK RD SUITE 130","PHONEIX","AZ","85016"
388961,"2390 ELMHURST BLVD NW","KENNESAW","GA","30152"
388962,"2390 ERIN DRIVE","SPARKS","NV","89434"
388963,"2390 FAIRBURN RD LOT 213","DOUGLASVIILLE","GA","30135"
388964,"2390 FAIRBURN RD LOT 213","DOUGLASVILLE","GA","30135"
388965,"2390 FAIRBURN RD LOT 26","DOUGLASVILLE","GA","30135"
388966,"2390 FAIRBURN RD","DOUGLASVILLE","GA","30135"
388967,"2390 JORDAN DR","CORTLANDT MANOR","NY","10567"
388968,"2390 LOCKWOOD AVENUE","WEBSTER CITY","IA","50595"
388969,"2390 MANOR OAK COURT","BUFORD","GA","30519"
388970,"2390 MANOR OAK CT","BUFORD","GA","30519"
388971,"2390 MAPLE DR","JACKSON","MI","49203"
388972,"2390 MARKET STREET","DAYTON","TN","37321"
388973,"2390 MEADOW FALLS LN","DULUTH","GA","30097"
388974,"2390 N ALMA SCHOOL RD STE 115","CHANDLER","AZ","85224"
388975,"2390 N GETTYS CK RD","BLOOMINGTON","IN","47408"
388976,"2390 NW 139 STREET","OPA LOCKA","FL","33054"
388977,"2390 NW 38 STREET","BOCA RATON","FL","33431"
388978,"2390 OCONNER AVE","REDDING","CA","96001"
388979,"2390 PEACE PORTAL DRIVE","BLAINE","WA","98230"
388980,"2390 QUAIL RIDGE RD","AMMON","ID","83406"
388981,"2390 QUEENSWOOD CIRCLE","KISSIMMEE","FL","34743"
388982,"2390 RIX MILLS RD","NEW CONCORD","OH","43762"
388983,"2390 RUTH AVE","HOLLAND","MH","49424"
388984,"2390 S TROY STREET","AURORA","CO","80014"
388985,"2390 SAND LAKE RD","LONGWOOF","FL","32779"
388986,"2390 SONOMA VALLEY CIRCLE","ORLANDO","FL","32835"
388987,"2390 STATE STREET","ANN ARBOR","MI","48104"
388988,"2390 STATE STREET","HAMDEN","CT","06517"
388989,"2390 SULLIVAN LN","FRANKFORT","KY","40601"
388990,"2390 TAMIAMI TRAIL N SUITE 202","NAPLES","FL","34103"
388991,"2390 TIERRA DRIVE","LOS OSOS","CA","93402"
388992,"2390 W 2100 S","SYRACUSE","UT","84075"
388993,"2390 WAGNER STREET","STRASBURG","CO","80136"
388994,"2390 WALNUT","RENO","NV","89502"
388995,"2390 WATT ST","RENO","NV","89509"
388996,"2390 WEISENBERGER MILL RD","MIDWAY","KY","40347"
388997,"2390 WICKLIFFE","COLUMBUS","OH","43221"
388998,"2390-C  LAS POSAS RD  STE 115","CAMARILLO","CA","93010"
388999,"2390-C LAS POSAS ROAD  SUITE 515","CAMARILLO","CA","93010"
389000,"23900 ARMADA CENTER ROAD","ARMADA","MI","48005"
