"ID","Address","City","State","Zip"
369501,"2261 BROOKHOLLOW PLZ DR STE 210","ARLINGTON","TX","76006"
369502,"2261 BROOKHOLLW PLZ DR STE 210","ARLINGTON","TX","76006"
369503,"2261 BROOKRIDGE TRAIL","SANFORD","FL","32773"
369504,"2261 CAMINITO CABALA","LA JOLLA","CA","92037"
369505,"2261 CANTERBURY LANE","MELBOURNE","FL","32935"
369506,"2261 CANTERBURY LANE","PALM BAY","FL","32909"
369507,"2261 CHESTNUT ST","DANVILLE","CA","94526"
369508,"2261 COLFAX AVE","COLUMBUS","OH","43227"
369509,"2261 COSTARIDES ST","M","AL","36617"
369510,"2261 CRANE","WATERFORD","MI","48329"
369511,"2261 E CAMERON BRIDGE ROAD","BOZEMAN","MT","59718"
369512,"2261 ELDERS MILL","SENOIA","GA","30276"
369513,"2261 ELLINGTON GAIT DRIVE","CLARKSVILLE","TN","37043"
369514,"2261 FLORENCE STREET","CANON CITY","CO","81212"
369515,"2261 HANNAH WAY SOUTH","DUNEDIN","FL","34698"
369516,"2261 HEDGEROW RD UNIT-E","COLUMBUS","OH","43220"
369517,"2261 HERMITAGE CT","INDIANAPOLIS","IN","46224"
369518,"2261 HUASNA ROAD","ARROYO GRANDE","CA","93420"
369519,"2261 HUGHES AVE SUITE 133","JBSA LACKLAND","TX","78236"
369520,"2261 KAMM AVENUE","KINGSBURG","CA","93631"
369521,"2261 KENNEDY BLVD APT 3","BAYONNE","NJ","07002"
369522,"2261 L ROAD","GRAND JUNCTION","CO","81505"
369523,"2261 LAKESIDE TERR","EUSTIS","FL","32726"
369524,"2261 LAWRENCE RD","CLOVER","SC","29710"
369525,"2261 LOCKWOOD LAKE CIRCLE WEST","SARASOTA","FL","34234"
369526,"2261 MAIN STREET","FORT MYERS","FL","33901"
369527,"2261 MARKET ST UNIT 455-A","SAN FRANCISCO","CA","94114"
369528,"2261 MARKET STREET - 170A","SAN FRANCISCO","CA","94114"
369529,"2261 MARKET STREET 317","SAN FRANCISCO","CA","94114"
369530,"2261 MARKET STREET NUMBER 404A","SAN FRANCISCO","CA","94114"
369531,"2261 MARKET STREET SUITE 142","SAN FRANCISCO","CA","94114"
369532,"2261 MUELLER DRIVE APT 302","WINSTON SALEM","NC","27106"
369533,"2261 NE 38TH DRIVE","GRESHAM","OR","97030"
369534,"2261 NICHOLS","TRENTON","MI","48183"
369535,"2261 NORTH PARK DR SUITE 112","KINGWOOD","TX","77339"
369536,"2261 NORTHPARK DRIVE  117","KINGWOOD","TX","77339"
369537,"2261 NORTHPARK DRIVE 117","KINGWOOD","TX","77339"
369538,"2261 NORTHPARK DRIVE 407","KINGWOOD","TX","77339"
369539,"2261 NORTHPARK DRIVE NO 113","KINGWOOD","TX","77339"
369540,"2261 NUTMEG AVENUE","WASHINGTON","IA","52353"
369541,"2261 NW 58TH STREET","MIAMI","FL","33142"
369542,"2261 OLD GARDINER RD SUITE 110","SEQUIM","WA","98382"
369543,"2261 OXON RUN DRIVE","TEMPLE HILLS","MD","20748"
369544,"2261 POCOSIN CT","JACKSONVILLE","FL","32246"
369545,"2261 RITTER PLACE","ESCONDIDO","CA","92029"
369546,"2261 SE WILLOWDALE LANE","PRINEVILLE","OR","97754"
369547,"2261 SHORESIDE DRIVE","BERTHOUD","CO","80513"
369548,"2261 SILVER LEAF DRIVE APT 8","MEMPHIS","TN","38134"
369549,"2261 SOUTH REDWOOD ROAD","SALT LAKE CITY","UT","84119"
369550,"2261 TALMADGE RD STE 383","LOVEJOY","GA","30228"
369551,"2261 TALMADGE ROAD - POB 644","LOVEJOY","GA","30250"
369552,"2261 TALMADGE ROAD UNIT 706","LOVEJOY","GA","30250"
369553,"2261 THOMAS JEFFERSON RD","FOREST","VA","24551"
369554,"2261 TIMBER COVE","GREENVILLE","MS","38701"
369555,"2261 VANESSA DR","BIRMINGHAM","AL","35242"
369556,"2261 VILLA VERDE RD","ESCONDIDO","CA","92029"
369557,"2261 W 115TH ST","CHICAGO","IL","60653"
369558,"2261 W RAMSEY DR","DECATUR","IL","62526"
369559,"2261 W WOODBINE","DECATUR","IL","62526"
369560,"2261 YELLOW PINE COURT","ORANGE PARK","FL","32073"
369561,"2261-A STEPPING STONES WAY","COLORADO SPRINGS","CO","80904"
369562,"22610 CLAIRWOOD","ST CLAIR SHORES","MI","48080"
369563,"22610 E ONTARIO DR UNIT 201","AURORA","CO","80016"
369564,"22610 HWY 63","BLOOMFIELD","IA","52537"
369565,"22610 MAPLE COURT","HAZEL PARK","MI","48030"
369566,"22610 TWO LAKES DR","TOMBALL","TX","77375"
369567,"22610 W 49TH TERR","SHAWNEE","KS","66226"
369568,"22611 BRAESIDE CIR APT 105","FARMINGTON HILLS","MI","48335"
369569,"22611 NICHOLAS AVE","EUCLID","OH","44123"
369570,"22611 STRAWBERRY COURT APT 207","NOVI","MI","48375"
369571,"22611 TINDAYA","MISSION VIEJO","CA","92692"
369572,"22612 COUNTY RD 455","HOWEY IN THE HILLS","FL","34737"
369573,"22613 PLEASANT DRIVE UNIT 13","RICHTON PARK","IL","60471"
369574,"22614 BROADWAY AVE","CLARKSBURG","MD","20871"
369575,"22614 PLUM CREEK DR","SAUK VILLAGE","IL","60411"
369576,"22614 SCATTERSVILLE GAP TERRACE","ASHBURN","VA","20148"
369577,"22614 VALLEY BROOK CT","HAYWARD","CA","94541"
369578,"22615 FRANCIS STREET","ST CLAIR SHORES","MI","48082"
369579,"22615 MARTIN ST","SALIDA","CO","81201"
369580,"22615 THOMSON","CLINTON TOWNSHIP","MI","48035"
369581,"22615 WINDBOURNE","TOMBALL","TX","77375"
369582,"22615 WINDOURNE","TOMBALL","TX","77375"
369583,"22616 LILY PAD LANE","FRANKFORT","IL","60423"
369584,"22616 MANOR","SAINT CLAIR SHORES","MI","48081"
369585,"22616 SHALLOW SPRING COURT","KATY","TX","77494"
369586,"22616 W ARLINGTON RD","ARLINGTON","KS","67514"
369587,"22616 ZALTANA ST","CHATSWORTH","CA","91311"
369588,"22616 ZALTANA STREET","CHATSWORTH","CA","91311"
369589,"22617 AVENMAR DR","LEONARDTOWN","MD","20650"
369590,"22617 NE 209TH AVE","BATTLE GROUND","WA","98604"
369591,"22617 SUMMER LANE","NOVI","MI","48374"
369592,"22618 BIRCH POINT DR","KATY","TX","77450"
369593,"22618 FIGUEROA ST APT 12","CARSON","CA","90745"
369594,"22618 MEADOWGATE DRIVE","SPRING","TX","77373"
369595,"22619 PACIFIC COAST HIGHWAY STE 2A","MALIBU","CA","90265"
369596,"22619 SUNSET GLEN LANE","SPRING","TX","77373"
369597,"2262 250TH ST","GUTHRIE CENTER","IA","50115"
369598,"2262 AMERICANA DR","ROSEVILLE","CA","95747"
369599,"2262 BERRYHILL ST","HARRISBURG","PA","17104"
369600,"2262 BICKEL CHURCH ROAD NE","BALTIMORE","OH","43105"
369601,"2262 BOXSTER WAY","LAS CRUCES","NM","88001"
369602,"2262 BURCH CIR NE","BROOKHAVEN","GA","30319"
369603,"2262 CAMINO RAMON","SAN RAMON","CA","94583"
369604,"2262 CUTLER STREET","SIMI VALLEY","CA","93065"
369605,"2262 E STRAUSS ST","MERIDIAN","ID","83646"
369606,"2262 E TOMAHAWK DR","GILBERT","AZ","85298"
369607,"2262 EAST 7TH STREET","BROOKLYN","NY","11223"
369608,"2262 FREEMANSBURG AVE","Easton","PA","18042"
369609,"2262 GLENVIEW DR","FREEPORT","IL","61032"
369610,"2262 GREENS LN","SPANISH FORK","UT","84660"
369611,"2262 HWY 139","MONROE","LA","71203"
369612,"2262 JACKSON DR","ARNOLD","MO","63010"
369613,"2262 LOMBARDY","CORPUS CHRISTI","TX","78418"
369614,"2262 LOW COUNTRY BLVD","LELAND","NC","28451"
369615,"2262 MIDDLETOWN DRIVE","CAMPBELL","CA","95008"
369616,"2262 MORGAN DR","AUBURN","AL","36830"
369617,"2262 N MAPLE AVE","ASHVILLE","NY","14710"
369618,"2262 N OLD US HIGHWAY 31","46975","IN","46975"
369619,"2262 NW 103 STREET","MIAMI","FL","33147"
369620,"2262 NW INDEPENDENCE HWY","ALBANY","OR","97321"
369621,"2262 PHILBECK CROSSROADS","SKIPWITH","VA","23968"
369622,"2262 PLAINFIELD PLACE","OXNARD","CA","93036"
369623,"2262 RIDGE ROAD","ATLANTA","GA","30317"
369624,"2262 RIDING CROP WAY","BALTIMORE","AL","21244"
369625,"2262 ROCK VIEW GLEN","ESCONDIDO","CA","92026"
369626,"2262 ROME DR UNIT A","INDIANAPOLIS","IN","46228"
369627,"2262 S 1650 E","SAINT GEORGE","UT","84790"
369628,"2262 SARVIS FORK ROAD","SANDYVILLE","WV","25275"
369629,"2262 SE FLANDERS ROAD","PORT SAINT LUCIE","FL","34952"
369630,"2262 SILVER LACE PL","MANTECA","CA","95337"
369631,"2262 SINGERLY RD","ELKTON","MD","21921"
369632,"2262 SOUTH TWP ROAD 159","TIFFIN","OH","44883"
369633,"2262 SOUTHERN WOODS DR","CORDOVA","TN","38016"
369634,"2262 SPRINGDALE CENTER RD","MOUNT HOREB","WI","53572"
369635,"2262 STONE WHEEL DR APRT F","RESTON","VA","20191"
369636,"2262 SW 18TH STREET","MIAMI","FL","33145"
369637,"2262 TARRAGON LANE","FORT COLLINS","CO","80521"
369638,"2262 TRIESTE DR","HIGH RIDGE","MO","63049"
369639,"2262 W 300 S","TIPTON","IN","46072"
369640,"2262 W 750 N","HURRICANE","UT","84737"
369641,"2262 WAKEFIELD LANE","ALLEN","TX","75013"
369642,"2262","LOMBARDY","TX","78418"
369643,"22620 HWY 9 SE UNIT B","WOODINVILLE","WA","98072"
369644,"22620 OCEAN AVENUE NO 15","TORRANCE","CA","90505"
369645,"22620 OLD VAUGHAN ROAD","DINWIDDIE","VA","23841"
369646,"22621 FAST COURT","BAKERSFIELD","CA","93314"
369647,"22621 FAST CT","BAKERSFIELD","CA","93314"
369648,"22621 GAYCREST AVE","TORRANCE","CA","90505"
369649,"22621 NE 114TH ST","REDMOND","WA","98053"
369650,"22621 RIDGEWAY AVENUE","RICHTON PARK","IL","60471"
369651,"22621 SOUTH MAIN STREET","ETTRICK","WI","54627"
369652,"22621 YEAGER ROAD","MONROE","WA","98272"
369653,"22621","HOYLE CIRCLE","NC","28364"
369654,"22622 SW 65TH AVENUE","BOCA RATON","FL","33428"
369655,"22623 37TH AVE SE","BOTHELL","WA","98021"
369656,"22623 44TH DRIVE SE","BOTHELL","WA","98021"
369657,"22624 43RD DR DE","BOTHELL","WA","98021"
369658,"22624 MISSION DR","RICHTON PARK","IL","60471"
369659,"22624 MISSION DRIVE","RICHTON PARK","IL","60471"
369660,"22624 ZION PKWY NW","OAK GROVE","MN","55005"
369661,"22625 BLUE BIRD LANE","POTEAU","OK","74953"
369662,"22625 BUCK ALLEN DR","MARYSVILLE","OH","43040"
369663,"22625 CLAIRWOOD AVE","ST CLAIR SHORES","MI","48080"
369664,"22625 K STREET","SANTA MARGARITA","CA","93453"
369665,"22625 NE 26TH COURT","SAMMAMISH","WA","98074"
369666,"22625 VINEYARD CIRCLE","MATTAWAN","MI","49071"
369667,"22625 WESTCHESTER ROAD","SHAKER HEIGHTS","OH","44122"
369668,"22626 38TH DR SE  BOTHELL","BOTHELL","WA","98021"
369669,"22626 HUTCHINSON ROAD","LOS GATOS","CA","95033"
369670,"22626 MAXINE STREET","ST. CLAIR SHORES","MI","48080"
369671,"22627 CAPITOL LANDING","KATY","TX","77449"
369672,"22627 CAROLINA","ST CLAIR SHORES","MI","48081"
369673,"22627 NE ALDER CREST DR UNIT 201","REDMOND","WA","98053"
369674,"22627 NE ALDER CREST DRIVE UNIT 201","REDMOND","WA","98053"
369675,"22627 PEACH TREE LANE","ROCKY RIVER","OH","44116"
369676,"22627 PETRIZZI LN","KATY","TX","77449"
369677,"22627 RADNOR LANE","MORENO VALLEY","CA","92557"
369678,"22628 PARROTTS FERRY ROAD","COLUMBIA","CA","95310"
369679,"22628 PAUL REVERE DRIVE","CALABASAS","CA","91302"
369680,"22629 W 143RD","PLAINFIELD","IL","60544"
369681,"2263 36TH STREET","ALLEGAN","MI","49010"
369682,"2263 ASHLAN AVE","CLOVIS","CA","93611"
369683,"2263 BAR HARBOR DR","FORT COLLINS","CO","80524"
369684,"2263 BELLWETHER LANE","FORT COLLINS","CO","80521"
369685,"2263 BRISBANE CT","MEBANE","NC","27302"
369686,"2263 CAMP CREEK RD","LANCASTER","SC","29720"
369687,"2263 CASS RD","TRAVERSE CITY","MI","49684"
369688,"2263 CLARK STREET","WOODFORD","WI","53599"
369689,"2263 CROHN DRIVE","SANTA ROSA","CA","95404"
369690,"2263 EARLY STREET","GREEN BAY","WI","54304"
369691,"2263 FALCON CREST CT","KRONENWETTER","WI","54455"
369692,"2263 FLATIRON WAY","SAN DIEGO","CA","92078"
369693,"2263 LAS CANOAS ROAD","SANTA BARBARA","CA","93105"
369694,"2263 LAVISTA COURT NE","ATLANTA","GA","30324"
369695,"2263 LAVISTA CT NE","ATLANTA","GA","30324"
369696,"2263 LOWER RIVER RD NW","CHARLESTON","TN","37310"
369697,"2263 MARION POND","WOODSTOCK","MD","21163"
369698,"2263 N HOBART BLVD","LOS ANGELES","CA","90027"
369699,"2263 N LINDEN AVE","TRINIDAD","CO","81082"
369700,"2263 N TREKELL RD LOT 174","CASA GRANDE","AZ","85122"
369701,"2263 NW BOCA RATON BLVD STE207","BOCA RATON","FL","33431"
369702,"2263 OLD DICEY ROAD","WEATHERFORD","TX","76085"
369703,"2263 OREGON CT","ST LOUIS PARK","MN","55426"
369704,"2263 PIKEWOOD LANE","AUSTELL","GA","30106"
369705,"2263 PINEVIEW DRIVE","VALDOSTA","GA","31602"
369706,"2263 PRISCILLA STREET","SAINT PAUL","MN","55108"
369707,"2263 RIDGE ROAD","COLUMBUS","MS","39705"
369708,"2263 RIVERVIEW COURT","BULLHEAD CITY","AZ","86442"
369709,"2263 SONORA DR","ARNOLD","MO","63010"
369710,"2263 STRAZA CT","DECATUR","IL","62526"
369711,"2263 SUN VALLEY RD","CHULA VISTA","CA","91915"
369712,"2263 SW 12 ST","MIAMI","FL","33135"
369713,"2263 SW 37TH AVE APT 528","MIAMI","FL","33145"
369714,"2263 SW 37TH AVE UNIT 418","MIAMI","FL","33145"
369715,"2263 SW 37TH AVENUE NUMBER 5","MIAMI","FL","33145"
369716,"2263 SW DANFORTH CIRCLE","PALM CITY","FL","34990"
369717,"2263 TIEBOUT AVENUE   APT 1A","BRONX","NY","10457"
369718,"2263 TOWNE PARK DRIVE","HUNTSVILLE","AL","35803"
369719,"2263 W 190TH STREET","TORRANCE","CA","90504"
369720,"2263 W AUGUSTA DRIVE","DUNLAP","IL","61525"
369721,"2263 W STATE ROAD 54","BLOOMFIELD","IN","47424"
369722,"2263 WALLER RD","VERONA","KY","41092"
369723,"2263 WEST NEW HAVEN AVENUE","WEST MELBOURNE","FL","32904"
369724,"2263 YORK DRIVE 149","WOODBRIDGE","VA","22191"
369725,"22630 NE HIDDEN SPRINGS RD","DUNDEE","OR","97115"
369726,"22630 NOTTINGHAM LANE","SOUTHFIELD","MI","48033"
369727,"22630 SOUTH HARRISON APT 3208","SPRING HILL","KS","66083"
369728,"22630 SUNNYSIDE","ST. CLAIR SHORES","MI","48080"
369729,"22630 WESTBROOK CINCO LN","KATY","TX","77450"
369730,"22631 285TH AVE","STARBUCK","MN","56381"
369731,"22631 770TH AVE","ALBERT LEA","MN","56007"
369732,"22631 COLONIAL PARKWAY APT 3108","KATY","TX","77449"
369733,"22631 CONFIDENCE RD","TWAIN HARTE","CA","95383"
369734,"22631 FM 2920","HOCKLEY","TX","77447"
369735,"22631 NORTH HIGHWAY 71","WINSLOW","AR","72959"
369736,"22631 PACIFIC COAST HWY SUITE 900","MALIBU","CA","90265"
369737,"22631 ROBBINS ROAD","ASTATULA","FL","34705"
369738,"22632 BLUE FIN TRAIL","BOCA RATON","FL","33428"
369739,"22632 CANYON CLUB DR","CANYON LAKE","CA","92587"
369740,"22632 GOLDEN SPRINGS DR STE 340","DIAMOND BAR","CA","91765"
369741,"22632 GOLDEN SPRINGS DR STE 350","DIAMOND BAR","CA","91765"
369742,"22632 MARBELLA AVE","CARSON","CA","90745"
369743,"22632 NORTH HANCE BLVD","PHOENIX","AZ","85027"
369744,"22632 PARKVIEW DRIVE","RICHTON PARK","IL","60471"
369745,"22632 SE 14TH PL","SAMMAMISH,","WA","98075"
369746,"22632 SW 109 AVE CT","MIAMI","FL","33170"
369747,"22632 SWEET JEN TER","ASHBURN","VA","20148"
369748,"22633 POINT CREEK RD","KIEL","WI","53042"
369749,"22634 TIVOLI LANE","ASHBURN","VA","20148"
369750,"22635 OAK CANYON RD","SALINAS","CA","93908"
369751,"22636 DAVIS DRIVE SUITE 175","STERLING","VA","20164"
369752,"22636 FAIRWAY VIEW DRIVE","ZACHARY","LA","70791"
369753,"22636 FOX TRAIL LN","PLAINFIELD","IL","60544"
369754,"22636 GLENN DR 106","STERLING","VA","20164"
369755,"22637 MAXINE ST","ST CLAIR SHORES","MI","48080"
369756,"22637 SE 271ST ST","MAPLE VALLEY","WA","98038"
369757,"22638 ALEXADRINE","DEARBORN","MI","48124"
369758,"22638 BLUE BIRD LANE","POTEAU","OK","74953"
369759,"22638 POINTE DRIVE","SAINT CLAIR SHORES","MI","48081"
369760,"22639 DOUGLAS RD","SHAKER HEIGHTS","OH","44122"
369761,"22639 E 1130 RD","BESSIE","OK","73622"
369762,"22639 EUCLID AVE","EUCLID","OH","44117"
369763,"22639 GUILLOTINE","VONORMY","TX","78073"
369764,"22639 NE ALDER CREST DR UNIT 203","REDMOND","WA","98053"
369765,"2263A 1ST STREET","CULLODEN","WV","25510"
369766,"2264 74TH ST","BLAIRSTOWN","IA","52209"
369767,"2264 77TH AVE","BATON ROUGE","LA","70807"
369768,"2264 BAYHILL DRIVE","MELBOURNE","FL","32940"
369769,"2264 BERRYHILL ST","HARRISBURG","PA","17104"
369770,"2264 BEVANS CIRCLE","REDWING","MN","55066"
369771,"2264 CEDAR CIR","BLAIR","NE","68008"
369772,"2264 COLLEEN COURT","DECATUR","GA","30032"
369773,"2264 DOGWOOD LANE","KINSTON","NC","28504"
369774,"2264 E 900 S","STAR CITY","IN","46985"
369775,"2264 E EDGEWOOD AVE","MESA","AZ","85204"
369776,"2264 E OLD SHAKOPEE RD","BLOOMINGTON","MN","55425"
369777,"2264 E76TH ST","CLEVELAND","OH","44103"
369778,"2264 EAST 85TH STREET","CLEVELAND","OH","44106"
369779,"2264 EAST KELSO AVE","FRESNO","CA","93720"
369780,"2264 EDGEWOOD COVE","MEMPHIS","TN","38104"
369781,"2264 FELLOWS WAY","MONTROSE","CO","81401"
369782,"2264 FORESTGLADE DRIVE","STONE MOUNTAIN","GA","30087"
369783,"2264 GENERAL COLLINS","NEW ORLEANS","LA","70114"
369784,"2264 GRAND AVE","BRONX","NY","10453"
369785,"2264 I YTURRALDE ST","CALEXICO","CA","92231"
369786,"2264 JERICHO ROAD APT C4","MONTGOMERY","IL","60538"
369787,"2264 JUSTUS LANE APT 2309","FORT WORTH","TX","76177"
369788,"2264 KINGS MILL ROAD","OAKMAN","AL","35579"
369789,"2264 MAJESTIC DRIVE WEST","COLUMBUS","OH","43232"
369790,"2264 MALLARD DR","WALNUT CREEK","CA","94597"
369791,"2264 MOHALA WAY","HONOLULU","HI","96822"
369792,"2264 N 51 STREET","PHILADELPHIA","PA","19131"
369793,"2264 N STALLMAN RD","SUTTONS BAY","MI","49682"
369794,"2264 OIL RIDGE RD","SISTERSVILLE","WV","26175"
369795,"2264 S KANSAS AVE","LIBERAL","KS","67901"
369796,"2264 SAN ANSELINE AVE 4","LONG BEACH","CA","90815"
369797,"2264 SE LYNCH RD","SHELTON","WA","98584"
369798,"2264 SEAHURST DR","LAS VEGAS","NV","89142"
369799,"2264 SPRINGFLOWER DRIVE","CLEARWATER","FL","33763"
369800,"2264 SPRUCEWOOD CT","AUSTINTOWN","OH","44515"
369801,"2264 STIEBER ST","WESTLAND","MI","48186"
369802,"2264 TRISTRAM RD","CHATTANOOGA","TN","37421"
369803,"2264 UNIVERSITY AVE","SACRAMENTO","CA","95825"
369804,"2264 W 24TH STREET","LOS ANGELES","CA","90018"
369805,"2264 YORK AVE","MEMPIHS","TN","38104"
369806,"2264 ZANE GREY LANE","PENSACOLA","FL","32534"
369807,"22640 BLUE TEAL DRIVE","CANYON LAKE","CA","92587"
369808,"22640 S HICKEY COURT","ZACHARY","LA","70791"
369809,"22640 SOUTH HICKEY COURT","ZACHARY","LA","70791"
369810,"22640 TIMBER RIDGE DRIVE","DENHAM SPRINGS","LA","70726"
369811,"22641 CALIFORNIA","SAINT CLAIR SHORES","MI","48080"
369812,"22641 COPPER HILL DR NUMBER 81","SAUGUS","CA","91350"
369813,"22642 AMY DRIVE","RICHTON PARK","IL","60471"
369814,"22642 SE 59TH PLACE","HAWTHORNE","FL","32640"
369815,"22643 128TH PLACE","KENT","WA","98031"
369816,"22643 CR 70","EATON","CO","80615"
369817,"22643 SE 271ST ST","MAPLE VALLEY","WA","98038"
369818,"22644 BYRON STREET","HAYWARD","CA","94541"
369819,"22644 HAZEL LN","RAPID CITY","SD","57702"
369820,"22645 ALEXANDRINE","DEARBORN","MI","48124"
369821,"22645 HAZELTINE","MISSION VIEJO","CA","92692"
369822,"22645 HWY W","MILAN","MO","63556"
369823,"22645 QUINN ROAD","CLINTOWN TOWNSHIP","MI","48035"
369824,"22645 SWEET JEN TERRACE","ASHBURN","VA","20148"
369825,"22645 W 30TH ST N","HASKELL","OK","74436"
369826,"22646 LEEWIN","DETROIT","MI","48219"
369827,"22646 PLYMOUTH","REDFORD","MI","48239"
369828,"22647 HAZEL LANE","RAPID CITY","SD","57702"
369829,"22647 NORTH HIGHWAY 71","WINSLOW","AR","72959"
369830,"22647 SPENCER AVE","SAUK VILLAGE","IL","60411"
369831,"22647 VENTURA BLVD 416","WOODLAND HILLS","CA","91364"
369832,"22647 VENTURA BLVD 531","WOODLAND HILLS","CA","91364"
369833,"22648 TANAGER","GRAND TERRACE","CA","92313"
369834,"22649 BALTAR ST","WEST HILLS","CA","91304"
369835,"22649 BOYD RD","CARTHAGE","NY","13619"
369836,"22649 MARSH WREN DR","LAND O LAKES","FL","34639"
369837,"22649 MARSH WREN DRIVE","LAND  O LAKES","FL","34639"
369838,"22649 MARSH WREN DRIVE","LAND O LAKES","FL","34639"
369839,"22649 PHILOMONT RIDGE COURT","ASHBURN","VA","20148"
369840,"2264C SAND CANYON","CHEWELAH","WA","99109"
369841,"2265 119TH PL","BLUE ISLAND","IL","60406"
369842,"2265 151ST LN NW","ANDOVER","MN","55304"
369843,"2265 5TH AVENUE","NEW YORK","NY","10037"
369844,"2265 ALLEY CORNER ROAD","CLAYTON","DE","19938"
369845,"2265 BACK BONE ROAD","SPARTA","TN","38583"
369846,"2265 BARRY CT","EASTON","PA","18040"
369847,"2265 BEVERLY CIRCLE","ORACLE","AZ","85623"
369848,"2265 CHARLESTON DR","STATE COLLEGE","PA","16801"
369849,"2265 CHIMNEY WALK DR","SUWANEE","GA","30024"
369850,"2265 COLLINS ROAD","CRESCENT CITY","CA","95531"
369851,"2265 COUNTY ROAD 16","RAYLAND","OH","43943"
369852,"2265 CREEL RD","ATLANTA","GA","30349"
369853,"2265 DEEP GAP ROAD","BRYSON CITY","NC","28713"
369854,"2265 DELVERTON RD","DUNWOODY","GA","30338"
369855,"2265 DODSON ROAD","WINFIELD","AL","35594"
369856,"2265 E MEADOW DR","SPRINGFIELD","MO","65804"
369857,"2265 E MURRAY HOLLADAY ROAD","HOLLADAY","UT","84117"
369858,"2265 EAST 28TH STREET","BROOKLYN","NY","11229"
369859,"2265 EAST 3900 SOUTH","SALT LAKE CITY","UT","84111"
369860,"2265 EMERALD ST","SAN DIEGO","CA","92109"
369861,"2265 FERNDALE TERRACE","FERNDALE","WA","98248"
369862,"2265 FIFTH AVE","NEW YORK","NY","10037"
369863,"2265 GEORGES LANE","PHILADELPHIA","PA","19131"
369864,"2265 GLEN EAGLES","RENO","NV","89523"
369865,"2265 INDEPENDENCE","MILLINGTON","TN","38053"
369866,"2265 KUMPULA DRIVE","DELTONA","FL","32738"
369867,"2265 LAKE ROYALE DR","RIVERDALE","GA","30296"
369868,"2265 LEATHERWOOD FORD ROAD","JAMESTOWN","TN","38556"
369869,"2265 LEXINGTON LANE","CUMMING","GA","30040"
369870,"2265 LIVERNOIS ROAD SUITE 350","TROY","MI","48083"
369871,"2265 LONGFELLOW","DETROIT","MI","48206"
369872,"2265 LONGSPUR LOOP","LINCOLN","CA","95648"
369873,"2265 LUCADO WAY","KNOXVILLE","TN","37923"
369874,"2265 LUCADO WAY","KNOXVVILLE","TN","37923"
369875,"2265 MARSHALLTOWN BLVD","MARSHALLTOWN","IA","50158"
369876,"2265 MCKINLEY ST","UBLY","MI","48475"
369877,"2265 N 100TH RD","WELLSVILLE","KS","66092"
369878,"2265 N KENWOOD DR","INDIANAPOLIS","IN","46222"
369879,"2265 N KENWOOD DRIVE","INDIANAPOLIS","IN","46222"
369880,"2265 OAK SHADOW CT","OVIEDO","FL","32766"
369881,"2265 OAKHILLS CIRCLE APT 168","PITTSBURG","CA","94565"
369882,"2265 OLD SALEM ROAD SE","CONYERS","GA","30013"
369883,"2265 ORION LAKE DRIVE","NAVARRE","FL","32566"
369884,"2265 PARKLAND LOOP N","LAKELAND","FL","33801"
369885,"2265 PERRY BLVD NW","ATLANTA","GA","30318"
369886,"2265 PINE MEADOW AVE","MELBOURNE","FL","32904"
369887,"2265 RIDGEDALE ROAD NE","ATLANTA","GA","30317"
369888,"2265 RIPLING WAY N","INDIANAPOLIS","IN","46260"
369889,"2265 ROBIN DRIVE","NAPLES","FL","34117"
369890,"2265 ROSWELL RD","MARIETTA","GA","30062"
369891,"2265 ROSWELL ROAD  SUITE 100","MARIETTA","GA","30062"
369892,"2265 ROSWELL ROAD SUITE 100","MARIETTA","GA","30062"
369893,"2265 RYDER ST","BROOKLYN","NY","11234"
369894,"2265 S BASCOM AVE APT 52","SAN JOSE","CA","95008"
369895,"2265 S BEVERLEY GLEN BLVD SUITE 204","LOS ANGELES","CA","90064"
369896,"2265 S LIVER IOS SUITE 710","TROY","MI","48083"
369897,"2265 SEDGWICK AVE A1","BRONX","NY","10469"
369898,"2265 SHERIFF DRIVE","FORKS TOWNSHIP","PA","18040"
369899,"2265 SIERRA VERDE RD","IRVINE","CA","92603"
369900,"2265 SQUAK MTN LOOP SW","ISSAQUAH","WA","98026"
369901,"2265 ST RT 105","GRAYLAND","WA","98547"
369902,"2265 SUNLIT ANN LANE","SANTA ROSA","CA","95403"
369903,"2265 W PECAN RD","PHOENIX","AZ","85041"
369904,"2265 WEST BEACH BLVD","GULF SHORES","AL","36542"
369905,"2265 WICK ST","WARREN","OH","44484"
369906,"2265 WILDFLOWER CT","STAYTON","OR","97383"
369907,"2265 WILLOW POND BLVD","SYLVANIA","OH","43560"
369908,"22650 CHEROKEE DRIVE","BULLARD","TX","75757"
369909,"22650 CONSTANCE ST","DETROIT","MI","48239"
369910,"22651 MOSSY ROCK DR","HAYWARD","CA","94541"
369911,"22652 SW 65TH TERRACE","BOCA RATON","FL","33428"
369912,"22654 IRONSTONE COVE","MCCALLA","AL","35212"
369913,"22655 CHAGRIN BLVD STE 416","BEACHWOOD","OH","44122"
369914,"22655 SW SCHOLLS FERRY RD","HILLSBORO","OR","97123"
369915,"22655 WEST MAIN STREET","ARMADA","MI","48005"
369916,"22656 SHORE CENTER DRIVE","EUCLID","OH","44123"
369917,"22656 WILDWOOD ST","ST CLAIR SHORES","MI","48081"
369918,"22657 NE ALDER CREST DR APT 202","REDMOND","WA","98053"
369919,"22657 NE ALDER CREST DRIVE APT 202","REDMOND","WA","98053"
369920,"22657 SW PINEHURST CT","SHERWOOD","OR","97140"
369921,"22658 VISTAWOOD WAY","BOCA RATON","FL","33428"
369922,"2266 5TH AVENUE","NEW YORK","NY","10037"
369923,"2266 5TH AVENUS","NEW YORK","NY","10037"
369924,"2266 ALBATROSS STREET  UNIT A","SAN DIEGO","CA","92101"
369925,"2266 BATH AVE UNIT 3008","BROOKLYN","NY","11214"
369926,"2266 BELFAST RD","LINCOLNVILLE","ME","04849"
369927,"2266 CITRUS VALLEY CIRCLE","PALM HARBOR","FL","34683"
369928,"2266 CONCORD COURT","SPRINGFIELD","IL","62704"
369929,"2266 DANFORTH","HAMTRAMCK","MI","48212"
369930,"2266 DORIS DRIVE","DECATUR","GA","30034"
369931,"2266 EAST RD","MOBILE","AL","36693"
369932,"2266 FREDERICK DOUGLAS BLVD  APT 1A","NEW YORK","NY","10027"
369933,"2266 GARDEN SQUARE PTH","SPRING","TX","77386"
369934,"2266 HAMPDEN PLACE","BRONX","NY","10468"
369935,"2266 HIGHTOWER ROAD","SIDNEY","AR","72577"
369936,"2266 HIGHWAY 26 NO 3","LANSING","IA","52151"
369937,"2266 LUSARDI","SAN JOSE","CA","95148"
369938,"2266 MABELLE AVE","EUREKA","CA","95503"
369939,"2266 MIDWICK DR","ALTADENA","CA","91001"
369940,"2266 NORTH CR 25 EAST","PAOLI","IN","47454"
369941,"2266 OKADA COURT","ORLANDO","FL","32818"
369942,"2266 RED MAPLE LANE","AURORA","IL","60502"
369943,"2266 ROCKEFELLER","GENEVA","IL","60134"
369944,"2266 S SYENE ROAD","FITCHBURG","WI","53711"
369945,"2266 SAINT PAUL RD","SUMMERTON","SC","29148"
369946,"2266 SAND ROAD","MARSHALLTOWN","IA","50158"
369947,"2266 SW 8TH STREET","MIAMI","FL","33131"
369948,"2266 SW 8TH STREET","MIAMI","FL","33135"
369949,"2266 TROOST AVE","TULSA","OK","74114"
369950,"2266 W 10455 S","SOUTH JORDAN","UT","84095"
369951,"2266 WEST MANOR AVE","POLAND","OH","44514"
369952,"2266 WEST MANOR AVENUE","POLAND","OH","44514"
369953,"2266 WEST WALTON BLVD","WATERFORD","MI","48329"
369954,"22660 SE NAOMI DR","DAMASCUS","OR","97089"
369955,"22661 SILVER DOLLAR ST","CORONA","CA","92883"
369956,"22662 TAYLORSTOWN HUNT CT","ASHBURN","VA","20148"
369957,"22663 BLUFFVIEW DR","ATHENS","AL","35613"
369958,"22663 HOAGLAND RD","CANYON","TX","79015"
369959,"22665 OAK STREET","JEROME","MO","65529"
369960,"22665 SUNBURY COURT EAST APT 2","COLUMBUS","OH","43219"
369961,"22666 HIRSTEIN ROAD","MORTON","IL","61550"
369962,"22667 MASON COURT","SAUGUS","CA","91350"
369963,"22668 MAPLE GROVE ROAD","UNION CITY","PA","16438"
369964,"2267 129TH AVE NORTH WEST","COON RAPIDS","MN","55448"
369965,"2267 6TH AVE N","ST PETERSBURG","FL","33713"
369966,"2267 BENNINGTON DR","Vallejo","CA","94591"
369967,"2267 BLACKBERRY LANE","CONWAY","AR","72034"
369968,"2267 BURGUNDY TERRACE","ST PETERSBURG","FL","33714"
369969,"2267 CANDLEWOOD DRIVE","DAYTON","OH","45419"
369970,"2267 CASHER COURT","DECATUR","GA","30034"
369971,"2267 CLEARVIEW DR","EAST STROUDSBURG","PA","18302"
369972,"2267 E SHAWNEE DRIVE","N ST. PAUL","MN","55109"
369973,"2267 HANCE BRIDGE RD","VINELAND","NJ","08088"
369974,"2267 HAVANA TRL","THE VILLAGES","FL","32162"
369975,"2267 HILLSIDE AVE","ST. PAUL","MN",NA
369976,"2267 KELMSCOTT CT","WESTLAKE VILLAGE","CA","91361"
369977,"2267 MOSS AVENUE","LOS ANGELES","CA","90065"
369978,"2267 NASH COURT","MAHWAH","NJ","07430"
369979,"2267 NEW CLINTON RD","MACON","GA","31217"
369980,"2267 NORTH STAR RD","DULUTH","MN","55804"
369981,"2267 OAKMAN","DETROIT","MI","48238"
369982,"2267 RANBURN DR","GARY","IN","46408"
369983,"2267 RANBURN DR","HAMMOND","IN","46323"
369984,"2267 RHINEHILL DRIVE SE","ATLANTA","GA","30315"
369985,"2267 SPURR ROAD","LEXINGTON","KY","40511"
369986,"2267 STONEFISH DR","WINDSOR","CO","80550"
369987,"2267 WOODVIEW RD","ALPENA","MI","49707"
369988,"2267 ZELMERE STREET","ZACHARY","LA","70791"
369989,"22670 TIMBER RIDGE DR","DEHHAM SPRINGS","LA","70726"
369990,"22670 TIMBER RIGDE  DR","DENHAM SPRINGS","LA","70726"
369991,"22670 TRILLIUM DR","NOVI","MI","48375"
369992,"22671 HORSESHOE RD","SHERRILL","IA","52073"
369993,"22671 OAK VIEW DR","TAYLOR","MI","48180"
369994,"22673 460TH AVENUE","SANBORN","MN","56083"
369995,"22674 MAPLE AVE","FARMINGTON","MI","48336"
369996,"22674 WEST PIMA ST","BUCKEYE","AZ","85326"
369997,"22675 NE ALDER CREST DR UNIT 203","REDMOND","WA","98053"
369998,"22675 NE ALDER CREST DRIVE UNIT 204","REDMOND","WA","98053"
369999,"22677 BRETINGHAM","MACOMB","MI","48044"
370000,"22679 BELLBROOK","SOUTHFIELD","MI","48034"
