"ID","Address","City","State","Zip"
574001,"387 MAUDE HELEN STREET","ORLANDO","FL","32703"
574002,"387 MILLSTONE ROAD","MILLSTONE","NJ","08510"
574003,"387 MT ISRAEL ROAD","CENTER SANDWICH","NH","03227"
574004,"387 N 2ND AVENUE UNIT 2C","PHOENIX","AZ","85003"
574005,"387 N 5TH STREET","TIMPSON","TX","75975"
574006,"387 NAYMUT ST","MENASHA","WI","54952"
574007,"387 NEW LOOP","JERSEY CITY","NJ","07302"
574008,"387 NORTH CHESTNUT","WAHOO","NE","68066"
574009,"387 PARK AVE S FL 5","NEW YORK","NY","10016"
574010,"387 PASSAIC AVENUE","NUTLEY","NJ","07110"
574011,"387 PLAINFIELD STREET","PROVIDENCE","RI","02909"
574012,"387 PLYMOUTH","BUFFALO","NY","14213"
574013,"387 PRATT DRIVE SE UNIT 602","ATLANTA","GA","30315"
574014,"387 PRYOR DRIVE","MALVERN","AR","72104"
574015,"387 PURCHASE STREET","EASTON","MA","02375"
574016,"387 RALPH MCGILL BLVD NE UNIT B","ATLANTA","GA","30312"
574017,"387 RANKIN FERGUSON RD","PELAHATCHIE","MS","39145"
574018,"387 S 200 E PO BOX 86","EMERY","UT","84522"
574019,"387 S CAMINO HOLGADO","GREEN VALLEY","AZ","85614"
574020,"387 S HWY 18","LAWNDALE","NC","28090"
574021,"387 S KRAMERIA STREET","DENVER","CO","80224"
574022,"387 SHAW RD","SHELBYVILLE","TN","37160"
574023,"387 SILVER RIDGE DRIVE","COPLEY","OH","44321"
574024,"387 SNOQUALMIE PL","LA CONNER","WA","98257"
574025,"387 SODBUSTER RD","FLOWEREE","MT","59440"
574026,"387 SUMNER ST APT 2","EAST BOSTON","MA","02128"
574027,"387 SUNFLOWER DRIVE","VINTON","VA","24179"
574028,"387 SUTTON STREET","YORKVILLE","IL","60560"
574029,"387 TEETS RD","FRIENDSVILLE","MD","21531"
574030,"387 W POPPYFIELDS","ALTADENA","CA","91001"
574031,"387 W STATE ST APT 1","SHARON","PA","16146"
574032,"387 WESTERN AVE","CAMBRIDGE","MA","02139"
574033,"387 WHITE OAK LANE","GRAND ISLAND","NY","14072"
574034,"3870 3RD AVE","SACRAMENTO","CA","95817"
574035,"3870 68TH AVE NE","NAPLES","FL","34120"
574036,"3870 BELLEVUE RD","LESLIE","MI","49251"
574037,"3870 CENTRAL VALE DRIVE","HOOD RIVER","OR","97031"
574038,"3870 CRENSHAW BLVD  STE 226","LOS ANGELES","CA","90008"
574039,"3870 CRENSHAW SUITE 221","LOS ANGELES","CA","90008"
574040,"3870 E BIGGS RD","ASHLAND","MO","65010"
574041,"3870 E FLAMINGO RD STE A2-133","LAS VEGAS","NV","89121"
574042,"3870 E FLAMINGO RD STE A2","LAS VEGAS","NV","89121"
574043,"3870 EAST BLVD","LOS ANGELES","CA","90066"
574044,"3870 EAST EVELYN","SLC","UT","84124"
574045,"3870 GRAND AVE","CLAREMONT","CA","91711"
574046,"3870 HIGHCREST DRIVE","BRIGHTON","MI","48116"
574047,"3870 HOPE HAVEN DRIVE","FLORISSANT","MO","63033"
574048,"3870 HOPEWELL RD","WENTZVILLE","MO","63385"
574049,"3870 KRUGER RAND COVE","SANFORD","FL","32771"
574050,"3870 LA SIERRA AVE 1081","RIVERSIDE","CA","92505"
574051,"3870 LA SIERRA AVE 265","RIVERSIDE","CA","92505"
574052,"3870 LA SIERRA AVE","RIVERSIDE","CA","92505"
574053,"3870 LA SIERRA AVENUE 376","RIVERSIDE","CA","92505"
574054,"3870 LA SIERRA AVENUE NUMBER 309","RIVERSIDE","CA","92505"
574055,"3870 LA SIERRA AVENUE SUITE 376","RIVERSIDE","CA","92505"
574056,"3870 LEAFY WAY","MIAMI","FL","33133"
574057,"3870 MIDDLEBELT ROAD","INKSTER","MI","48141"
574058,"3870 MILITARY DR","RAYMOND","MS","39154"
574059,"3870 MISSISSIPPI RD","SAULSBURY","TN","38067"
574060,"3870 N ROBIN DRIVE","PRESCOTT VALLEY","AZ","86314"
574061,"3870 N TONTO","GOLDEN VALLEY","AZ","86413"
574062,"3870 NORTH HWY A1A","VERO BEACH","FL","34949"
574063,"3870 NW 6TH STREET","LAUDERHILL","FL","33311"
574064,"3870 NW 8TH PLACE","LAUDERHILL","FL","33311"
574065,"3870 NW 8TH STREET","LAUDERHILL","FL","33311"
574066,"3870 OZARK STREET","BATON ROUGE","LA","70805"
574067,"3870 PARTRIDGE AVE","MANLY","IA","50456"
574068,"3870 PEACHTREE IND BLVD STE 340-313","DULUTH","GA","30096"
574069,"3870 PEACHTREE IND BLVD STE340NO119","DULUTH","GA","30096"
574070,"3870 PONTE AVENUE APARTMENT 670","ADDISON","TX","75001"
574071,"3870 QUARTZ STREET","GILBERT","AZ","85297"
574072,"3870 RUSSELL CT","BARTLETT","TN","38135"
574073,"3870 S BRIDAL VAIL DRIVE","GILBERT","AZ","85297"
574074,"3870 S QUARTZ ST","GILBERT","AZ","85297"
574075,"3870 S QUARTZ STREET","GILBERT","AZ","85297"
574076,"3870 SACRAMENTO","SAN FRANCISCO","CA","94118"
574077,"3870 SALEM BOTTOM RD","WESTMINSTER","MD","21157"
574078,"3870 SOUTH ORANGE BLOSSOM TRAIL","KISSIMMEE","FL","34746"
574079,"3870 SOUTH QUARTZ STREET","GILBERT","AZ","85297"
574080,"3870 ST ANDREWS DRIVE","MOUNT PLEASANT","MI","48858"
574081,"3870 TUCKER RD","ALBA","MI","49611"
574082,"3870 WEST 242ND STREET","TORRANCE","CA","90505"
574083,"3870 WINDHURST DR","LILBURN","GA","30047"
574084,"3870 WOLF CREEK CIRCLE SW","ATLANTA","GA","30331"
574085,"3870 YOSEMITE AVE S","SAINT LOUIS PARK","MN","55416"
574086,"3870 YOSEMITE AVE S","ST LOUIS PARK","MN","55416"
574087,"38700 FRENCH FIELD WAY","CRAWFORD","CO","81415"
574088,"38701 MOORE DRIVE","FREMONT","CA","94536"
574089,"38704 EDGEWOOD CIR","DENHAM SPRINGS","LA","70706"
574090,"38704 MULLERS LN","PONCHATOULA","LA","70454"
574091,"38705 BIG SPRINGS ROAD","RUSH","CO","80833"
574092,"38706 NW 14TH AVENUE","WA","WA","98674"
574093,"38706 NW 14TH AVENUE","WOODLAND","WA","98674"
574094,"38706 SIENNA CT","PALMDALE","CA","93552"
574095,"38706 TRITICUM LANE","LOVETTSVILLE","VA","20180"
574096,"38707 9TH STREET EAST","PALMDALE","CA","93550"
574097,"38708 LILACVIEW AVE","PALMDALE","CA","93550"
574098,"3871 12TH AVENUE SOUTH","ST PETERSBURG","FL","33711"
574099,"3871 1ST AVENUE SW","NAPLES","FL","34117"
574100,"3871 63RD STREET E","INVER GROVE HEIGHTS","MN","55076"
574101,"3871 APPIAN STREET","PLEASANTON","CA","94588"
574102,"3871 BRITTANY COURT","ROCKY MOUNT","NC","27803"
574103,"3871 BUTCH CASSIDY TRAIL","CHEYENNE","WY","82009"
574104,"3871 COVENTRY VALLEY DR","WATERFORD","MI","48829"
574105,"3871 DANBURY WAY","FAIRFIELD","CA","94533"
574106,"3871 DECOTO ROAD","FREMONT","CA","94555"
574107,"3871 DEWBERRY LANE","PROSPER","TX","75078"
574108,"3871 DUNHAVEN","DALLAS","TX","75220"
574109,"3871 HADCOCK RD","BRUNSWICK","OH","44212"
574110,"3871 HIGHWAY 100","LYLES","TN","37098"
574111,"3871 HIGHWAY 19E","ELIZABETHTON","TN","37643"
574112,"3871 HWY 100","LYLES","TN","37098"
574113,"3871 INNSBROOK DRIVE","MEMPHIS","TN","38115"
574114,"3871 LEEWARD SLOPES COVE","LAKELAND","TN","38002"
574115,"3871 LISBON CT","DENEVR","CO","80249"
574116,"3871 MCELRIE COVE","BARTLETT","TN","38133"
574117,"3871 MONTICELLO STREET","DOUGLASVILLE","GA","30135"
574118,"3871 N ADAMS RD","BLOOMFIELD HILLS","MI","48304"
574119,"3871 N GREENBRIER ROAD","LONG BEACH","CA","90808"
574120,"3871 N W 5 COURT","LAUDERHILL","FL","33311"
574121,"3871 NORTH 35TH STREET UNIT 104","MILWAUKEE","WI","53219"
574122,"3871 PIEDMONT AVE","OAKLAND","CA","94611"
574123,"3871 PINEWOOD TER","FALLS CHURCH","VA","22041"
574124,"3871 REDWINE RD","ATLANTA","GA","30344"
574125,"3871 REDWINE ROAD APT 2303","ATLANTA","GA","30344"
574126,"3871 ROSEMARY","SALT LAKE CITY","UT","84120"
574127,"3871 SMITH KRAMER ST NE","HARTVILLE","OH","44632"
574128,"3871 STOCKDALE DRIVE","VADNAIS HEIGHTS","MN","55127"
574129,"3871 SW 52ND AVE APT 201","PEMBROKE PARK","FL","33023"
574130,"3871 VILLA ROSE LN","ORLANDO","FL","32808"
574131,"3871 WEST LEWISPORT DRIVE","WEST JORDAN","UT","84084"
574132,"3871 WOODMAN DR","TROY","MI","48084"
574133,"3871 YORK STREET","SCOTTSVILLE","KS","67420"
574134,"38710 20TH AVE","DENNISON","MN","55018"
574135,"38711 YUCCA TREE ST","PALMDALE","CA","93551"
574136,"38713 TIERRA SUBIDA 200","PALMDALE","CA","93551"
574137,"38713 TIERRA SUBIDA AVE 200-245","PALMDALE","CA","93551"
574138,"38713 TIERRA SUBIDA AVE NUM 264","PALMDALE","CA","93551"
574139,"38713 TIERRA SUBIDA AVE STE 200-111","PALMDALE","CA","93551"
574140,"38713 TIERRA SUBIDA AVE STE 200","PALMDALE","CA","93551"
574141,"38713 TIERRA SUBIDA AVE SUITE 654","PALMDALE","CA","93551"
574142,"38713 TIERRA SUBIDA AVE UNIT 645","PALMDALE","CA","93551"
574143,"38713 TIERRA SUBIDA","PALMDALE","CA","93551"
574144,"38714 FIRST CREEK DR","LEBANON","OR","97355"
574145,"38715 DESERT FLOWER DRIVE","PALMDALE","CA","93551"
574146,"38716 TEMPE","ROMULUS","MI","48174"
574147,"3872  22ND STREET","SAN FRANCISCO","CA","94114"
574148,"3872 BEES CREEK RD","RIDGELAND","SC","29936"
574149,"3872 BRIGHTON CREEK CIRCLE","TYLER","TX","75707"
574150,"3872 FM 537","FLORESVILLE","TX","78114"
574151,"3872 FOLIAGE DRIVE","WINSTON-SALEM","NC","27101"
574152,"3872 GREEN VALLEY ROAD","HUNTINGTON","WV","25701"
574153,"3872 HOGMIRE ROAD","AVON","NY","14414"
574154,"3872 LAKE MEAD DRIVE","FREMONT","CA","94555"
574155,"3872 LONG BRANCH LANE","CLERMONT","FL","32712"
574156,"3872 MEADOW PARK LANE","TORRENCE","CA","90505"
574157,"3872 N 58TH BLVD","MILWAUKEE","WI","53216"
574158,"3872 RIVIERA CIRCLE","BONITA SPRINGS","FL","34134"
574159,"3872 SCHREINER ROAD","SPRING GREEN","WI","53588"
574160,"3872 SUNSET LANE","NORTHBROOK","IL","60062"
574161,"3872 THOROUGHBRED TRAIL","FORT WORTH","TX","76123"
574162,"3872 WAKE CIRCLE","NORFOLK","VA","23513"
574163,"3872 WIERSMA","CEDAR SPRINGS","MI","49319"
574164,"3872 WINDSOR GATE RD","VA BEACH","VA","23452"
574165,"3872 WOLCOTT COURT","FLORRISANT","MO","63034"
574166,"3872 WOLCOTT","FLORISSANT","MO","63034"
574167,"3872","CORAL SPRINGS","FL","33065"
574168,"38722 11TH STREET EAST APT 8","PALMDALE","CA","93535"
574169,"38724 HIGHWAY 126","JEMEZ SPRINGS","NM","87025"
574170,"38726 AVENEL CT","WILLOUGHBY","OH","44094"
574171,"3873 BIRD HEIGHTS","ADDIS","LA","70710"
574172,"3873 GALA LOOP","BELLINGHAM","WA","98226"
574173,"3873 GLEN HAVEN RD","ST. JOSEPH","MI","49085"
574174,"3873 GOLDEN SPIKE LANE","GREEN BAY","WI","54313"
574175,"3873 JUSTICE CIRCLE","IMMOKALEE","FL","34142"
574176,"3873 LANDMARK DRIVE","DOUGLASVILLE","GA","30135"
574177,"3873 LOIS RD E","SANGER","TX","76266"
574178,"3873 N 2000 E","FILER","ID","83328"
574179,"3873 N BROADWAY AVE","SPRINGFIELD","MO","65803"
574180,"3873 N RICE RD","TAHLEQUAH","OK","74464"
574181,"3873 OAK STREET","JACKSONVILLE","FL","32205"
574182,"3873 RUSH MENDON RD","MENDON","NY","14506"
574183,"3873 S ARNO AVE","MERIDIAN","ID","83642"
574184,"3873 S HAVENHURST DR","TUCSON","AZ","85730"
574185,"3873 SANGRE DE CRISTO","LAS VEGAS","NV","89118"
574186,"3873 ST RT 292 SOUTH","ZANESFIELD","OH","43360"
574187,"3873 SUMMER GROVE WAY N","JACKSONVILLE","FL","32257"
574188,"3873 TIMBERWOLF TR","LINO LAKES","MN","55038"
574189,"38730 SKY CANYON DR SUITE A","MURRIETA","CA","92563"
574190,"38731 NORTH CRESTED QUAIL RUN","CAREFREE","AZ","85377"
574191,"38733 LANCASTER","LIVONIA","MI","48154"
574192,"38735 RODEO DRIVE","ROMULUS","MI","48174"
574193,"38736 ALMADEN PL","FREMONT","CA","94536"
574194,"38739 MOUNT GILEAD ROAD","LEESBURG","VA","20175"
574195,"3874  18TH  ST","SAN  FRANCISCO","CA","94114"
574196,"3874 9TH STREET UNIT 302","WASHINGTON DC","DC","20032"
574197,"3874 BACK MOUNTAIN ROAD","WINCHESTER","VA","22602"
574198,"3874 GENTIAN BLVD","COLUMBUS","GA","31907"
574199,"3874 GLENWOOD LP SE","SALEM","OR","97317"
574200,"3874 HWY 51","CANTON","MS","39046"
574201,"3874 IMLAY CITY ROAD","ATTICA","MI","48412"
574202,"3874 KY RT 3379","HAROLD","KY","41635"
574203,"3874 N BROADWAY APT 10","BOULDER","CO","80304"
574204,"3874 NW 202 STRRET","MIAMI GARDENS","FL","33055"
574205,"3874 PRESCOTT","HAMTRAMCK","MI","48212"
574206,"3874 S HOBART BLVD","LOS ANGELES","CA","90062"
574207,"3874 S ROCK CITY RD","RIDOTT","IL","61067"
574208,"3874 SALLY LANE","OCEANSIDE","NY","11572"
574209,"3874 SANDLEWOOD DR","OKEMOS","MI","48864"
574210,"3874 SUNSET COVE DR","PORT ORANGE","FL","32129"
574211,"3874 SW CHERIBON ST","PORT SAINT LUCIE","FL","34953"
574212,"3874 W 31ST ST","CLEVELAND","OH","44109"
574213,"3874 WOOD HOLLOW DRIVE APT 404","EULESS","TX","76040"
574214,"3874 WYOMING","ST LOUIS","MO","63116"
574215,"38740 TAPPAN-SCIO RD","SCIO","OH","43988"
574216,"38741 CAROLSIDE AVENUE","PALMDALE","CA","93550"
574217,"38745 FLANDERS DR","SOLON","OH","44139"
574218,"38745 FLANDERS","SOLON","OH","44139"
574219,"38748 HUGHESVILLE RD","LEESBURG","VA","20175"
574220,"38749 AMBERWOOD DRIVE","AVON","OH","44011"
574221,"38749 PALO COLORADO RD","CARMEL","CA","93923"
574222,"3875 89TH STREET E","INVER GROVE HEIGHTS","MN","55076"
574223,"3875 BELLEAU WOOD DR APT 6","LEXINGTON","KY","40517"
574224,"3875 BLAINE RD","POPLAR GROVE","IL","61065"
574225,"3875 BOMAR LN","PINEWOOD","SC","29125"
574226,"3875 CENTER AVE","SANTA BARBARA","CA","93110"
574227,"3875 CHIMNEY RIDGE CT","ELLENWOOD","GA","30294"
574228,"3875 COCOPLUM CIR","COCONUT CREEK","FL","33063"
574229,"3875 CONNECTICUT STREET","SAINT LOUIS","MO","63116"
574230,"3875 DOGWOOD AVE SE","ALBANY","OR","97322"
574231,"3875 FLORIDA STREET APT 3","SAN DIEGO","CA","92104"
574232,"3875 GADWALL ROAD","GAHHANNA","OH","43230"
574233,"3875 GEIST ROAD- SUITE E- BOX 478","FAIRBANKS","AK","99709"
574234,"3875 GRAHAM ISLAND RD","WEST SACRAMENTO","CA","95691"
574235,"3875 GRAND OAKS BLVD","OAKLAND","MI","48363"
574236,"3875 HIDDEN COVE CIRCLE","LEWIS CENTER","OH","43035"
574237,"3875 HIGH GREEN DRIVE","MARIETTA","GA","30068"
574238,"3875 HIGHGROVE DR","DALLAS","TX","75220"
574239,"3875 HOLDEN DRIVE","ANN ARBOR","MI","48103"
574240,"3875 HURD CREEK WAY","SAN BERNARDINO","CA","92407"
574241,"3875 HWY 64 NE","GEORGETOWN","IN","47122"
574242,"3875 JENNINGS CREEK","WHITLEYVILLE","TN","38588"
574243,"3875 MAJESTIC PALM WAY","DELRAY","FL","33445"
574244,"3875 MAPPLEWOOD DRIVE","SEAFORD","NY","11783"
574245,"3875 MINGO ROAD","HEATH SPRINGS","SC","29058"
574246,"3875 MONT DRIVE","MEDFORD","OR","97504"
574247,"3875 MOUNTAIN ROAD","GLEN ALLEN","VA","23060"
574248,"3875 N BUSINESS CENTER DRIVE","TUCSON","AZ","85705"
574249,"3875 NW 77TH AVE","SUNRISE","FL","33351"
574250,"3875 OAK STREET","CINCINNATI","OH","45227"
574251,"3875 PANAMERICAN BLVD","NORTHPORT","FL","34287"
574252,"3875 PINEWOOD COURT","CUMMING","GA","30041"
574253,"3875 PONTE AVENUE 916","ADDISON","TX","75001"
574254,"3875 POWDER SPRINGS RD STE C","POWDER SPRINGS","GA","30127"
574255,"3875 POWDER SPRINGS RD","POWDER SPRINGS","GA","30127"
574256,"3875 POWDER SPRINGS RD","POWER SPRINGS","GA","30127"
574257,"3875 RAINBOW DRIVE","ISLAND PARK","ID","83429"
574258,"3875 RIPPLE LEAF CIRCLE","HOOVER","AL","35216"
574259,"3875 S 40TH RD","DUNNEGAN","MO","65640"
574260,"3875 S 45 E","IDAHO FALLS","ID","83406"
574261,"3875 SOCIAL BAND RD","CAMPBELLSVILLE","KY","42718"
574262,"3875 STADIUM WAY DEPT 3901","OGDEN","UT","84408"
574263,"3875 STATE ROUTE 132","CLARKSVILLE","OH","45113"
574264,"3875 TAMARRON CIRCLE APT 102","MEMPHIS","TN","38125"
574265,"3875 THE ASCENT NE","BROOKHAVEN","GA","30319"
574266,"3875 TOWER BEACH RD","PINCONNING","MI","48650"
574267,"3875 W 8620 S","WEST JORDAN","UT","84088"
574268,"3875 W COUNTY ROAD 250 N","GREENCASTLE","IN","46135"
574269,"3875 W SUDBURY CT","BELLBROOK","OH","45305"
574270,"3875 WAGON TRAIL RD","REXBURG","ID","83440"
574271,"3875 WEST HORRY AVENUE","MADISON","FL","32340"
574272,"3875 WOODCROFT DRIVE","DISPUTANTA","VA","23842"
574273,"3875 WORDSWORTH","MEMPHIS","TN","38128"
574274,"3875","ALBANY","OR","97322"
574275,"38751 GRENNADA","LIVONIA","MI","48157"
574276,"38753 COLLINS LANE","LEBANON","OR","97355"
574277,"38754 ROAD 12","KINGSBURG","CA","93631"
574278,"38755 170TH ST","REDFIELD","SD","57469"
574279,"38755 VIA VISTA GRANDE","MURRIETA","CA","92562"
574280,"38757 JASPER LOWELL RD","FALL CREEK","OR","97438"
574281,"38758 CHARLESWORTH DRIVE","CATHEDRAL CITY","CA","92234"
574282,"38758 VINELAND STREET","CHERRY VALLEY","CA","92223"
574283,"3876 9TH ST STE 101","WASHINGTON","DC","20032"
574284,"3876 9TH STREET SE 101","WASHINGTON","DC","20032"
574285,"3876 9TH STREET STE 101","WASHINGTON","DC","20032"
574286,"3876 AUSTIN CIR 23","DECATUR","GA","30032"
574287,"3876 GAFFNEY LOOP","TALLAHASSEE","FL","32303"
574288,"3876 JORDAN ROAD","GREER","SC","29651"
574289,"3876 MOUNT ALBERTINE AVE","SAN DIEGO","CA","92111"
574290,"3876 NORTHSIDE DR APT 1003","MACON","GA","31210"
574291,"3876 NORTHSIDE DRIVE APT 1201","MACON","GA","31210"
574292,"3876 RIDGEVIEW CIR","JORDAN","MN","55352"
574293,"3876 ROSEDALE STREET","HOUSTON","TX","77004"
574294,"3876 SOUTH CREEK DRIVE","ROCHESTER","MI","48306"
574295,"3876 SUNNYSIDE","RIVERSIDE","CA","92506"
574296,"3876 SWALLOW TRL NE","MARIETTA","GA","30066"
574297,"3876 WINDY HOLLOW WAY","MASON","OH","45040"
574298,"38763 N OAKCREST LANE","WADSWORTH","IL","60083"
574299,"38765 FLANDERS DRIVE","SOLON","OH","44139"
574300,"38765 VINELAND ST","CHERRY VALLEY","CA","92223"
574301,"38766 BOCA CT","WATERFORD","VA","20197"
574302,"3877 13TH STREET","MICCO","FL","32976"
574303,"3877 38TH STREET STE A","SAN DIEGO","CA","92105"
574304,"3877 A WALNUT BLVD","BRENTWOOD","CA","94513"
574305,"3877 AUPOONUI PL","ANAHOLA","HI","96703"
574306,"3877 BRIGHT LEAF CT","JACKSONVILLE","FL","32246"
574307,"3877 BROWN FARM DR","HAMILTON","OH","45013"
574308,"3877 CARO CT","DOUGLASVILLE","GA","30291"
574309,"3877 CHANCERY LANE","VIRGINIA BEACH","VA","23462"
574310,"3877 COUNTY LINE ROAD","HINESVILLE","GA","31313"
574311,"3877 COUNTY ROUTE 57","OSWEGO","NY","13126"
574312,"3877 CROOKED CREEK","OKEMOS","MI","48864"
574313,"3877 DELHI OVERLOOK STREET","ANN ARBOR","MI","48103"
574314,"3877 EAST 123RD","CLEVELAND","OH","44105"
574315,"3877 EAST RIVER RD","GRAND ISLAND","NY","14072"
574316,"3877 FAVERSHAM","UNIVERSITY","OH","44118"
574317,"3877 GAINE DRIVE","CLARKSVILLE","TN","37040"
574318,"3877 HIDDEN FORREST DR","DORR","MI","49323"
574319,"3877 KENWAY BOULEVARD","UNIONTOWN","OH","44685"
574320,"3877 KIMBALL LANE","STOCKTON","CA","95206"
574321,"3877 LAKE BREEZE DR","ISLAND PARK","ID","83429"
574322,"3877 MAKEOVER COURT","ATLANTA","GA","30349"
574323,"3877 PARWOOD RD","BLYTHE","GA","30805"
574324,"3877 PERSIMMON CIRCLE","FAIRFAX","VA","22031"
574325,"3877 ROCKY MOUNT RD","GREENVILLE","GA","30222"
574326,"3877 SOUTH LEAWOOD","SPRINGFIELD","MO","65807"
574327,"3877 TIMBERLINE WAY","BIRMINGHAM","AL","35243"
574328,"3877 TIMBERLINE WAY","VESTAVIA HILLS","AL","35243"
574329,"3877 TURTLE RUN BLVD APT 2211","CORAL SPRINGS","FL","33067"
574330,"3877 UPPER MOUNTAIN ROAD","SANBORN","NY","14132"
574331,"3877 W VINCENNES TRAIL","SALEM","IN","47167"
574332,"38770 AVENIDA LA CRESTA","MURRIETA","CA","92562"
574333,"38771 STILLWATER COMMON","FREMONT","CA","94536"
574334,"38772 MELGROVE LANE","AVON","OH","44011"
574335,"38775 BUTTERNUT RIDGE RD APT 103","ELYRIA","OH","44035"
574336,"3878 BOYER RIDGE DRIVE","CANAL WINCHESTER","OH","43110"
574337,"3878 CARDINAL TER","FREMONT","CA","94555"
574338,"3878 CHESTNUT AVE","CONCORD","CA","94519"
574339,"3878 CONNECTICUT","ST. LOUIS","MO","63116"
574340,"3878 DEERCREEK DRIVE","POWDER SPRINGS","GA","30127"
574341,"3878 E 99TH CIRCLE","THORNTON","CO","80229"
574342,"3878 JOSHUS CIR","LEXINGTON","KY","40514"
574343,"3878 LANDGRAF COVE","DECATUR","GA","30034"
574344,"3878 N BROOKEVILLE RD","FORRESTON","IL","61030"
574345,"3878 N JASMINE DR","LAKE CHARLES","LA","70605"
574346,"3878 NORTH 67TH","MILWAUKEE","WI","53216"
574347,"3878 RICHARD AVE","GROVE CITY","OH","43123"
574348,"3878 SOUTH JASMINE STREET","DENVER","CO","80237"
574349,"3878 STILES PLACE","STOCKTON","CA","95204"
574350,"3878 W MAIN ST","GRAY","LA","70359"
574351,"38782 DUTCHMANS KNOLL DRIVE","LOVETTSVILLE","VA","20180"
574352,"38785 JUNIPER TREE RD","PALMDALE","CA","93551"
574353,"38788 MEADOWLAWN","WAYNE","MI","48184"
574354,"3879 ALBERS PLACE COURT","FLORISSANT","MO","63034"
574355,"3879 BATESVILLE BLVD","BATESVILLE","AR","72501"
574356,"3879 BUFFALO DRIVE","MERINO","CO","80741"
574357,"3879 CEDAR ST 15","RIVERSIDE","CA","92501"
574358,"3879 CLAYTON AVE","LOS ANGELES","CA","90027"
574359,"3879 DOWDELL ST","FORT WORTH","TX","76119"
574360,"3879 E 120TH AVENUE   SUITE 160","THORNTON","CO","80233"
574361,"3879 EAST 120TH AVENUE NO 175","THORNTON","CO","80233"
574362,"3879 KEILY DRIVE","SEAFORD","NY","11783"
574363,"3879 KENNEDY CIRCLE","COCOA","FL","32926"
574364,"3879 LUNN DRIVE","NASHVILLE","TN","37218"
574365,"3879 MARILYN DRIVE","RICHTON PARK","IL","60407"
574366,"3879 N PAINTED TRAIL","KINGMAN","AZ","86409"
574367,"3879 N ROW AVE","ZACHARY","LA","70791"
574368,"3879 NW 92 AVE","SUNRISE","FL","33351"
574369,"3879 QUARTZITE LN","SAN BERNARDINO","CA","92407"
574370,"3879 SE HERON GLEN WAY","MILWAUKIE","OR","97267"
574371,"3879 STATE ROUTE 93","IRONTON","OH","45638"
574372,"3879 THURGOOD MARSHALL HWY","KINGSTREE","SC","29556"
574373,"3879 UU AVE","CHELSEA","IA","52215"
574374,"3879","KINGMAN","AZ","86409"
574375,"38790 ELNA WAY","CATHEDRAL CITY","CA","92234"
574376,"38792 MILLWOOD DRIVE","WOODLAKE","CA","93286"
574377,"38797 OLD BACKBOARD RD","LAPORTE","MN","56461"
574378,"388 ABBY CIRCLE","GREENVILLE","SC","29607"
574379,"388 ARBOGAST LANE","MORGANTOWN","WV","26508"
574380,"388 BAILEY PL","COLUMBUS","OH","43235"
574381,"388 BASS STREET","ATLANTA","GA","30310"
574382,"388 BAYBRIDGE DR","COLUMBIA","SC","29229"
574383,"388 BEALE ST APARTMENT 1015","SAN FRANCISCO","CA","94158"
574384,"388 BEALE ST APT 713","SAN FRANCISCO","CA","94105"
574385,"388 BEALE STREET APT 513","SAN FRANCISCO","CA","94105"
574386,"388 BEDFORD AVE","UNIONDALE","NY","11553"
574387,"388 BELLEVILLE AVENUE","BLOOMFIELD","NJ","07003"
574388,"388 BENNIE CAMP ROAD","DUNLAP","TN","37327"
574389,"388 BENSON AVENUE","MEADVILLE","PA","16335"
574390,"388 BORTZ ROAD","SALTSBURG","PA","15681"
574391,"388 BOUSH STREET UNIT 215","NORFOLK","VA","23510"
574392,"388 BRIDGE ST APT PH53B","BROOKLYN","NY","11201"
574393,"388 BRIDGE STREET APT 19C","BROOKLYN","NY","11201"
574394,"388 BRIDGE STREET","BROOKLYN","NY","11201"
574395,"388 BULLSBORO DR 247","NEWNAN","GA","30263"
574396,"388 BURRIS RD","BRUCETON MILLS","WV","26525"
574397,"388 CAMPBELL AVENUE","HOMER CITY","PA","15748"
574398,"388 CARPET DR","ATMORE","AL","36502"
574399,"388 CEDAR HILL ROAD NW","AMANDA","OH","43102"
574400,"388 CENTRAL STREET","ROWLEY","MA","01969"
574401,"388 CLARK DR","CIRCLEVILLE","OH","43113"
574402,"388 CLIFTON AVENUE","NEWARK","NJ","07104"
574403,"388 COLE HILL ROAD","MORRISVILLE","VT","05661"
574404,"388 CORDELL AVENUE","WOODBRIDGE","VA","22193"
574405,"388 COUNTY ROAD 37A","IRONTON","MO","63650"
574406,"388 COUNTY ROUTE 41","HUDSON FALLS","NY","12839"
574407,"388 COVERDALE ROAD","NORTH SALT LAKE","UT","84054"
574408,"388 CRANDON AVE","CALUMET CITY","ID","60409"
574409,"388 DAVIS LAKE RD","LAPEER","MI","48446"
574410,"388 DELLA WALK","LILBURN","GA","30047"
574411,"388 DEREK WAY","BOZEMAN","MT","59718"
574412,"388 DORSEY AVENUE","MORGANTOWN","WV","26501"
574413,"388 DOUGLAS EDWARD DRIVE","OCOEE","FL","34761"
574414,"388 DOUGLAS EDWARD DRIVE","OCOEE","PA","34761"
574415,"388 E 600 N","LA PORTE","IN","46350"
574416,"388 E MOUNTAIN BERRY DR","DRAPER","UT","84020"
574417,"388 E WILBUR RD 103","THOUSAND OAKS","CA","91360"
574418,"388 EAST DIVISION ROAD","VALPARAISO","IN","46383"
574419,"388 ELDER LN","WINNETKA","IL","60093"
574420,"388 FRANK FLEER RD","LEXINGTON","NC","27292"
574421,"388 FT SUMPTER CIRCLE","TUSCALOOSA","AL","35406"
574422,"388 FULLERS CIRCLE","PICKERINGTON","OH","43147"
574423,"388 GOLFVIEW ROAD UNIT F","NORTH PALM BCH","FL","33408"
574424,"388 GRASSFLAT ANENUE","MORRISDALE","PA","16858"
574425,"388 GRAVATT DRIVE","BERKELEY","CA","94705"
574426,"388 GREEN HARBOR ROAD","OLD HICKORY","TN","37138"
574427,"388 GROFF ST NW","CONCORD","NC","28207"
574428,"388 HICKORY HILL ROAD","CHAGRIN FALLS","OH","44022"
574429,"388 HIGH TIDE DRIVE","SAINT AUGUSTINE","FL","32080"
574430,"388 HITCHITIE ROAD","SEALE","AL","36875"
574431,"388 HIWOOD AVE","MUNROE FALLS","OH","44262"
574432,"388 HOMESTEAD LANE","GASSVILLE","AR","72635"
574433,"388 HORSESHOE FARM RD","PEMBROKE","VA","24136"
574434,"388 INDIAN RD","PIEDMONT","CA","94610"
574435,"388 JACKS PASTURE ROAD","PAGOSA SPRINGS","CO","81147"
574436,"388 JAMISON AVE","ORANGEBURG","SC","29115"
574437,"388 JULIUSTOWN ROAD B34","JULIUSTOWN","NJ","08042"
574438,"388 JULIUSTOWN ROAD","JULIUSTOWN","NJ","08042"
574439,"388 KHARTOUM ST","SALEM,","OR","97306"
574440,"388 KILLIAN CT","MATTHEWS","NC","28104"
574441,"388 LAKEVIEW DR","SOUTH CHINA","ME","04358"
574442,"388 LEON DRIVE","FORT ASHBY","WV","26719"
574443,"388 MADURO STREET","WINDSOR","CA","95492"
574444,"388 MAIN ST","WEST SENECA","NY","14224"
574445,"388 MANCINI CT","HENDERSON","NV","89014"
574446,"388 MANHATTAN AVENUE APT 2A","NEW YORK","NY","10026"
574447,"388 MARKET ST STE 1300","SAN FRANCISCO","CA","94111"
574448,"388 MARKET STREET  SUITE 1300","SAN FRANCISCO","CA","94111"
574449,"388 MARKET STREET SUITE 1300","SAN FRANCISCO","CA","94110"
574450,"388 MEDFORD ST APT 1","SOMERVILLE","MA","02145"
574451,"388 MIDWOOD ST","BROOKLYN","NY","11225"
574452,"388 MONTCLAIR","GLEN ELLYN","IL","60137"
574453,"388 MORGAN CREEK CT NW","KENNESAW","GA","30144"
574454,"388 MORRISON AVENUE","HIGHTSTOWN","NJ","08520"
574455,"388 N WEST CROWN POINT ROAD","WINTER GARDEN","FL","34787"
574456,"388 NECKAR AVENUE","STATEN ISLAND","NY","10304"
574457,"388 NORTH 33RD STREET","SAN JOSE","CA","95133"
574458,"388 NORTH MAIN ST","SHARON","MA","02067"
574459,"388 NW 621","CENTERVIEW","MO","64019"
574460,"388 OAKWOOD DRIVE","WYCKOFF","NJ","07481"
574461,"388 OCEAN AVE APT 308","REVERE","MA","02151"
574462,"388 PAGE ST","SAN FRANCISCO","CA","94102"
574463,"388 PEARL ST APT 16F","NEW YORK","NY","10038"
574464,"388 PLEASANT MEADOW BLVD UNIT C","CUYAHOGA FALLS","OH","44224"
574465,"388 POWDERHOUSE ROAD","VESTAL","NY","13850"
574466,"388 RAVINE PARK DRIVE","LAKE FOREST","IL","60045"
574467,"388 REESE RD","BELLEFONT","PA","16823"
574468,"388 RINEHART RD","WALLACE","WV","26448"
574469,"388 RIVER CHASE BLVD","GEORGETOWN","TX","78628"
574470,"388 RIVER OAKS RIVER","MILFORD","MI","48381"
574471,"388 RIVERBEND DRIVE","BERMUDA RUN","NC","27006"
574472,"388 ROBERT BLVD","SLIDELL","LA","70458"
574473,"388 S BON AIR","YOUNGSTOWN","OH","44509"
574474,"388 S EAST ST","SHEFFIELD","IL","61361"
574475,"388 S MAIN STREET","PIMA","AZ","85543"
574476,"388 S MARINE DRIVE SUITE 301","TAMUNING","GU","96913"
574477,"388 SANTA CLARA AVE UNIT 203","OAKLAND","CA","94610"
574478,"388 SANTANA ROW APT 2213","SAN JOSE","CA","95128"
574479,"388 SENECA RD","HORNELL","NY","14843"
574480,"388 SHAFFER RD","DENISON","TX","75020"
574481,"388 SHEPHERD LANE","TROY","VA","22974"
574482,"388 SIMON DRIVE","HARTFORD","WI","53207"
574483,"388 SOUTH ASH","KUNA","ID","83634"
574484,"388 STATE ROUTE 85 E","CENTERTOWN","KY","42328"
574485,"388 STATE ST SUITE 600","SALEM","OR","97301"
574486,"388 STEEPLE LANE","CHESTERFIELD","MO","63005"
574487,"388 SUNSET DR","STANARDSVILLE","VA","22973"
574488,"388 SW OAK ST","WILLAMINA","OR","97396"
574489,"388 SW QUAIL HEIGHTS TERRACE","LAKE CITY","FL","32025"
574490,"388 SWANSON RD","TRYONE","GA","30290"
574491,"388 SWANSON RD","TYRONE","GA","30290"
574492,"388 THREE HAVENS DR NE","ALEXANDRIA","MN","56308"
574493,"388 TREE SWALLOW DRIVE","PENSACOLA","FL","32503"
574494,"388 VENTURA AVE","PALO ALTO","CA","94306"
574495,"388 VOSE STREET","WOONSOCKET","RI","02895"
574496,"388 W WALDO","GROVELAND","FL","34736"
574497,"388 WEST WASHINGTON ST","HANSON","MA","02341"
574498,"388 WESTERN AVENUE D4","HENNIKER","NH","03242"
574499,"388 WILLOW CREEK LANE","MOCKSVILLE","NC","27028"
574500,"388 YPAO ROAD","TAMUNING","GU","96913"
