"ID","Address","City","State","Zip"
984001,"PO BOX 332","ACME","MI","49610"
984002,"PO BOX 332","BANDERA","TX","78003"
984003,"PO BOX 332","BRANDON","MS","39043"
984004,"PO BOX 332","CALLAHAN","FL","32011"
984005,"PO BOX 332","COHASSET","MN","55721"
984006,"PO BOX 332","COOL","CA","95614"
984007,"PO BOX 332","CULPEPER","VA","22701"
984008,"PO BOX 332","GRASS VALLEY","CA","95945"
984009,"PO BOX 332","HAMER","SC","29547"
984010,"PO BOX 332","HORNITOS","CA","95325"
984011,"PO BOX 332","HORSE CAVE","KY","42749"
984012,"PO BOX 332","KIHEI","HI","96753"
984013,"PO BOX 332","KING SALMON","AK","99613"
984014,"PO BOX 332","LEWISTON","MI","49756"
984015,"PO BOX 332","ROBERSONVILLE","NC","27871"
984016,"PO BOX 332","SAVANNAH","GA","31402"
984017,"PO BOX 332","SMILEY","TX","78159"
984018,"PO BOX 332","SODUS","NY","14551"
984019,"PO BOX 332","SUTTON","MA","01590"
984020,"PO BOX 332","VENETA","OR","97487"
984021,"PO BOX 332","WAYNE","PA","19087"
984022,"PO BOX 3321","TUBAC","AZ","85646"
984023,"PO BOX 33243","RALEIGH","NC","27636"
984024,"PO BOX 332483","MURFREESBORO","TN","37133"
984025,"PO BOX 33249","INDIANAPOLIS","IN","46203"
984026,"PO BOX 3325","SUGAR LAND","TX","77487"
984027,"PO BOX 3326","BOYNTON BEACH","FL","33434"
984028,"PO BOX 33278","JBLM","WA","98433"
984029,"PO BOX 3329","MEMPHIS","TN","38173"
984030,"PO BOX 33292","SAN DIEGO","CA","92163"
984031,"PO BOX 333","ABSAROKEE","MT","59001"
984032,"PO BOX 333","ACADEMY","TX","76554"
984033,"PO BOX 333","CABOT","AR","72023"
984034,"PO BOX 333","CALEDONIA","MS","39740"
984035,"PO BOX 333","CARLISLE","MA","01741"
984036,"PO BOX 333","CLARK FORK","ID","83811"
984037,"PO BOX 333","CLARKDALE","AZ","86324"
984038,"PO BOX 333","DEBEQUE","CO","81630"
984039,"PO BOX 333","DOUBLE SPRINGS","AL","35553"
984040,"PO BOX 333","EAGLES MERE","PA","17731"
984041,"PO BOX 333","GUADALUPITA","NM","87722"
984042,"PO BOX 333","HAKALAU","HI","96710"
984043,"PO BOX 333","HARLETON","TX","75651"
984044,"PO BOX 333","INDIANA","PA","15701"
984045,"PO BOX 333","IRVINGTON","NY","10533"
984046,"PO BOX 333","JEFFERSON","WI","53549"
984047,"PO BOX 333","KNOXVILLE","TN","37901"
984048,"PO BOX 333","MEDFORD","WI","54451"
984049,"PO BOX 333","MIDDLEBRANCH","OH","44652"
984050,"PO BOX 333","MONROVIA","IN","46157"
984051,"PO BOX 333","NEWFANE","VT","05345"
984052,"PO BOX 333","NEWFIELDS","AZ","03856"
984053,"PO BOX 333","NEWFIELDS","NH","03856"
984054,"PO BOX 333","ORCAS","WA","98289"
984055,"PO BOX 333","PINETOPS","NC","27864"
984056,"PO BOX 333","PORTSMOUTH","OH","45662"
984057,"PO BOX 333","REYNOLDSVILLE","WV","26422"
984058,"PO BOX 333","SHARON SPRINGS","NY","13459"
984059,"PO BOX 333","SULPHUR","OK","73086"
984060,"PO BOX 333","THREE OAKS","MI","49128"
984061,"PO BOX 333","VERADALE","WA","99037"
984062,"PO BOX 333","WATKINS GLEN","NY","14891"
984063,"PO BOX 333","WEST FALMOUTH","MA","02574"
984064,"PO BOX 333","WINCHESTER","VA","22604"
984065,"PO BOX 333","WOODSTOCK","NY","12498"
984066,"PO BOX 3330","MCCALL","ID","83638"
984067,"PO BOX 3331","KNOXVILLE","TN","37927"
984068,"PO BOX 3331","SHELTON","WA","98584"
984069,"PO BOX 3331","VANCOUVER","WA","98668"
984070,"PO BOX 33315","RIVERSIDE","CA","92519"
984071,"PO BOX 3332","ATLANTA","GA","30302"
984072,"PO BOX 3332","RIVERSIDE","CA","91730"
984073,"PO BOX 33324","SAN ANTONIO","TX","78265"
984074,"PO BOX 3333","ANN ARBOR","MI","48106"
984075,"PO BOX 3333","MONTROSE","CO","81402"
984076,"PO BOX 3333","SAN DIEGO","CA","92163"
984077,"PO BOX 3334","BURLINGTON","NC","27215"
984078,"PO BOX 3335","CLOVIS","CA","93613"
984079,"PO BOX 3335","HOMER","AK","99603"
984080,"PO BOX 3335","LA CROSSE","WI","54601"
984081,"PO BOX 3335","VALDEZ","AK","99686"
984082,"PO BOX 33353","CHARLOTTE","NC",NA
984083,"PO BOX 3336","DULUTH","MN","55803"
984084,"PO BOX 3336","KALAMAZOO","MI","49003"
984085,"PO BOX 3337","MATTHEWS","NC","28106"
984086,"PO BOX 33372","INDIALANTIC","FL","32903"
984087,"PO BOX 33391","FORT WORTH","TX","76162"
984088,"PO BOX 334","BOXFORD","MA","01921"
984089,"PO BOX 334","DEER HARBOR","WA","98243"
984090,"PO BOX 334","EAGLE","NE","68347"
984091,"PO BOX 334","ETHEL","WA","98542"
984092,"PO BOX 334","GAIL","TX","79738"
984093,"PO BOX 334","GILA","NM","88038"
984094,"PO BOX 334","GRAND CANYON","AZ","86023"
984095,"PO BOX 334","HOOD RIVER","OR","97031"
984096,"PO BOX 334","Joelton","TN","37080"
984097,"PO BOX 334","JUNCTION CITY","OR","97448"
984098,"PO BOX 334","LADYSMITH","WI","54848"
984099,"PO BOX 334","LAKE BUTLER","FL","32054"
984100,"PO BOX 334","LOOP","TX","79342"
984101,"PO BOX 334","MADISON","WV","25130"
984102,"PO BOX 334","MEGARGEL","TX","76370"
984103,"PO BOX 334","MONTEAGLE","TN","37356"
984104,"PO BOX 334","NASHVILLE","TN","37080"
984105,"PO BOX 334","NEW VERNON","NJ","07976"
984106,"PO BOX 334","PARADISE","MI","49768"
984107,"PO BOX 334","PATEROS","WA","98846"
984108,"PO BOX 334","PERRY HALL","MD","21128"
984109,"PO BOX 334","PIGEON FALLS","WI","54760"
984110,"PO BOX 334","PRESHO","SD","57568"
984111,"PO BOX 334","ROXIE","MS","39661"
984112,"PO BOX 334","ROYCE CITY","TX","75126"
984113,"PO BOX 334","SALYERSVILLE","KY","41465"
984114,"PO BOX 334","SOPER","OK","74759"
984115,"PO BOX 334","WHITE HOUSE","TN","37188"
984116,"PO BOX 3341","BELLAIRE","TX","77402"
984117,"PO BOX 334128","PONCE","PR","00753"
984118,"PO BOX 3342","VISTA","CA","92085"
984119,"PO BOX 3344","ALLIANCE","OH","44601"
984120,"PO BOX 3344","FARMINGTON","NM","87499"
984121,"PO BOX 33446","LAS VEGAS","NV","89133"
984122,"PO BOX 33458","JUNEAU","AK","99803"
984123,"PO BOX 3346","BATESVILLE","AR","72501"
984124,"PO BOX 3347","FORNEY","TX","75126"
984125,"PO BOX 3348","PARKER","CO","80134"
984126,"PO BOX 3349","PALMER","AK","99645"
984127,"PO BOX 33494","TULSA","OK","74153"
984128,"PO BOX 335 DURHAM ROAD","FAIR PLAY","SC","29643"
984129,"PO BOX 335","CARLISLE","IN","47838"
984130,"PO BOX 335","CLINTON","SC","29325"
984131,"PO BOX 335","CYPRESS","TX","77410"
984132,"PO BOX 335","DECATUR","TN","37322"
984133,"PO BOX 335","DURAND","IL","61024"
984134,"PO BOX 335","HALEIWA","HI","96712"
984135,"PO BOX 335","KIELER","WI","53812"
984136,"PO BOX 335","MEDFORD","OR","97501"
984137,"PO BOX 335","MONT VERNON","NH","03057"
984138,"PO BOX 335","MYRTLE POINT","OR","97458"
984139,"PO BOX 335","PLANKINTON","SD","57368"
984140,"PO BOX 335","PUUNENE","HI","96784"
984141,"PO BOX 335","RUTH","NV","89319"
984142,"PO BOX 335","SALEM","WI","53168"
984143,"PO BOX 335","STRATTANVILLE","PA","16258"
984144,"PO BOX 335","WEST FRIENDSHIP","MD","21794"
984145,"PO BOX 335","WHITE MARSH","MD","21162"
984146,"PO BOX 335","YELLOW JACKET","CO","81335"
984147,"PO BOX 3350","BATESVILLE","AR","72503"
984148,"PO BOX 3351","BRANDON","FL","33509"
984149,"PO BOX 3351","FREDERIKSTED","VI","00841"
984150,"PO BOX 3351","QUINCY","IL","62305"
984151,"PO BOX 3351","SANTA ROSA","CA","95402"
984152,"PO BOX 33515","INDIANAPOLIS","IN","46203"
984153,"PO BOX 335268","NORTH LAS VEGAS","NV","89033"
984154,"PO BOX 3353","DECATUR","GA","30031"
984155,"PO BOX 3353","SOLDOTNA","AK","99669"
984156,"PO BOX 3354","BREWER","ME","04412"
984157,"PO BOX 3356","CHERRY HILL","NJ","08034"
984158,"PO BOX 3356","FREEPORT","TX","77542"
984159,"PO BOX 335628","NORTH LAS  VEGAS","NV","89033"
984160,"PO BOX 3357","MAYAGUEZ","PR","00681"
984161,"PO BOX 3357","OAKLAND","CA","94609"
984162,"PO BOX 33571","WRIGHT PATTERSON AFB","OH","45433"
984163,"PO BOX 33580","SEATTLE","WA","98133"
984164,"PO BOX 335886","LAS VEGAS","NV","89031"
984165,"PO BOX 3359","GRAND RAPIDS","MI","49501"
984166,"PO BOX 3359","WESTPORT","MA","02790"
984167,"PO BOX 336","AVILA BEACH","CA","93424"
984168,"PO BOX 336","BAYAMON","PR","00960"
984169,"PO BOX 336","BONNYMAN","KY","41719"
984170,"PO BOX 336","CAGUAS","PR","00726"
984171,"PO BOX 336","CAMDEN","AL","36726"
984172,"PO BOX 336","CENTER OSSIPEE","NH","03814"
984173,"PO BOX 336","CIRCLE","MT","59215"
984174,"PO BOX 336","COKATO","MN","55321"
984175,"PO BOX 336","COLDEN","NY","14033"
984176,"PO BOX 336","CONWAY","WA","98238"
984177,"PO BOX 336","CROTON-ON-HUDSON","NY","10520"
984178,"PO BOX 336","DEFUNIAK SPRINGS","FL","32435"
984179,"PO BOX 336","FREDERICK","CO","80530"
984180,"PO BOX 336","FRIENDSWOOD","TX","77549"
984181,"PO BOX 336","HALLOCK","MN","56728"
984182,"PO BOX 336","HONOKAA","HI","96727"
984183,"PO BOX 336","JANESVILLE","CA","96114"
984184,"PO BOX 336","LIVINGSTON","AL","35470"
984185,"PO BOX 336","PFLUGERVILLE","TX","78660"
984186,"PO BOX 336","RUTHER GLEN","VA","22546"
984187,"PO BOX 336","SAN MARCOS","TX","78667"
984188,"PO BOX 336","SOUTH PARIS","ME","04251"
984189,"PO BOX 336","SUNDANCE","WY","82729"
984190,"PO BOX 336","TOA ALTA","PR","00954"
984191,"PO BOX 336","TOENSHEND","VT","05353"
984192,"PO BOX 336","TORRINGTON","WY","82240"
984193,"PO BOX 336","WILLISTON PARK","NY","11596"
984194,"PO BOX 3362","CHINLE","AZ","86503"
984195,"PO BOX 3362","FREEDOM","CA","95019"
984196,"PO BOX 3363","CHAPEL HIL","NC","27515"
984197,"PO BOX 3363","CHAPEL HILL","NC","27515"
984198,"PO BOX 3363","LEAGUE CITY","TX","77574"
984199,"PO BOX 3363","NAPA","CA","94558"
984200,"PO BOX 3363","PAGO PAGO","AS","96799"
984201,"PO BOX 3364","LAFAYETTE","LA","70502"
984202,"PO BOX 3365","ALPINE","WY","83128"
984203,"PO BOX 3366","BRECKENRIDGE","CO","80424"
984204,"PO BOX 336771","GREELEY","CO","80633"
984205,"PO BOX 3368","CORPUS CHRISTI","TX","78463"
984206,"PO BOX 33682","AMARILLO","TX","79120"
984207,"PO BOX 33686","RENO","NV","89533"
984208,"PO BOX 33696","JUNEAU","AK","99803"
984209,"PO BOX 337","BRANDON","WI","53919"
984210,"PO BOX 337","CAPON SPRINGS","WV","26823"
984211,"PO BOX 337","CHOKIO","MN","56221"
984212,"PO BOX 337","COLCHESTER","VT","05446"
984213,"PO BOX 337","COLUMBUS","MT","59019"
984214,"PO BOX 337","CRIPPLE CREEK","CO","80813"
984215,"PO BOX 337","DORSET","VT","05251"
984216,"PO BOX 337","EATONVILLE","WA","98328"
984217,"PO BOX 337","FARWELL","TX","79325"
984218,"PO BOX 337","FREMONT","NC","27830"
984219,"PO BOX 337","GENOA","IL","60135"
984220,"PO BOX 337","HAVRE","MT","59501"
984221,"PO BOX 337","JACKPOT","NV","89825"
984222,"PO BOX 337","JASPER","AR","72641"
984223,"PO BOX 337","MEDORA","IN","47260"
984224,"PO BOX 337","MONTESANO","WA","98563"
984225,"PO BOX 337","POLK","PA","16342"
984226,"PO BOX 337","PORT SANILAC","MI","48469"
984227,"PO BOX 337","ROWENA","TX","76875"
984228,"PO BOX 337","SCHROON LAKE","NY","12870"
984229,"PO BOX 337","SUMMERFIELD","FL","34492"
984230,"PO BOX 337","TALIHINA","OK","74571"
984231,"PO BOX 33708","NORTHGLENN","CO","80233"
984232,"PO BOX 3372","CORDOVA","TN","38388"
984233,"PO BOX 3372","HOUSTON","TX","77253"
984234,"PO BOX 3372","THOUSAND OAKS","CA","91359"
984235,"PO BOX 33735","DECATUR","GA","30033"
984236,"PO BOX 3374","SOUTHFIELD","MI","48037"
984237,"PO BOX 3375","MINOT","ND","58702"
984238,"PO BOX 3375","PEACHTREE CITY","GA","30269"
984239,"PO BOX 3376","FREDERICKSBURG","TX","78624"
984240,"PO BOX 3376","MCKINNEY","TX","75070"
984241,"PO BOX 3376","MONTGOMERY","AL","36109"
984242,"PO BOX 3377","VALDEZ","AK","99686"
984243,"PO BOX 337722","GREELEY","CO","80633"
984244,"PO BOX 33788","TACOMA","WA","98433"
984245,"PO BOX 338","BEVERLY HILLS","CA","90213"
984246,"PO BOX 338","DAYTON","VA","22821"
984247,"PO BOX 338","FLOWERY BRANCH","GA","30542"
984248,"PO BOX 338","GLENHAM","NY","12527"
984249,"PO BOX 338","GRANBY","CO","80446"
984250,"PO BOX 338","KOSSE","TX","76653"
984251,"PO BOX 338","MESENA","GA","30819"
984252,"PO BOX 338","NEW CUYAMA","CA","93254"
984253,"PO BOX 338","OAKHURST","TX","77359"
984254,"PO BOX 338","PALMERTON","PA","18071"
984255,"PO BOX 338","SHEPHERD","TX","77371"
984256,"PO BOX 338","THONOTOSASSA","FL","33592"
984257,"PO BOX 338","WATERPROOF","LA","71375"
984258,"PO BOX 338","YOUNG","AZ","85554"
984259,"PO BOX 3381","INDIAN WELLS","AZ","86031"
984260,"PO BOX 33814","DAYTON","OH","45433"
984261,"PO BOX 3382","IDYLLWILD","CA","92549"
984262,"PO BOX 3382","PASO ROBLESQ","CA","93446"
984263,"PO BOX 3383","ALPINE","WY","83128"
984264,"PO BOX 3385","TEXARKANA","TX","75504"
984265,"PO BOX 3386","BIG BEAR CITY","CA","92314"
984266,"PO BOX 3386","HAMPTON","VA","23663"
984267,"PO BOX 3386","MEMPHIS","TN","38173"
984268,"PO BOX 3386","WRIGHTWOOD","CA","92397"
984269,"PO BOX 3387","FREMONT","CA","94539"
984270,"PO BOX 3388","IDYLLWILD","CA","92549"
984271,"PO BOX 3388","KINGSHILL","VI","00851"
984272,"PO BOX 33885","JUNEAU","AK","99803"
984273,"PO BOX 3389","SOUTHFIELD","MI","48037"
984274,"PO BOX 339","BAY CENTER","WA","98527"
984275,"PO BOX 339","BETHESDA","OH","43719"
984276,"PO BOX 339","COALFIELD","TN","37719"
984277,"PO BOX 339","ESPANOLA","NM","87532"
984278,"PO BOX 339","FAIRFIELD","ID","83327"
984279,"PO BOX 339","HOPKINTON","IA","52237"
984280,"PO BOX 339","HUNTINGTON","MA","01050"
984281,"PO BOX 339","JASPER","GA","30143"
984282,"PO BOX 339","KIRKLAND","WA","98093"
984283,"PO BOX 339","RICHLANDS","VA","24641"
984284,"PO BOX 339","SALLEY","SC","29137"
984285,"PO BOX 3390","SAN ANGELO","TX","76902"
984286,"PO BOX 3390","STATELINE","NV","89449"
984287,"PO BOX 3392","LEAGUE CITY","TX","77574"
984288,"PO BOX 3392","SHIPROCK","NM","87420"
984289,"PO BOX 3393","UNION","NJ","07083"
984290,"PO BOX 33932","LAS VEGAS","NV","89133"
984291,"PO BOX 3396","RAMONA","CA","92065"
984292,"PO BOX 3396","SANTA CRUZ","CA","95063"
984293,"PO BOX 33977","DENVER","CO","80233"
984294,"PO BOX 3398","PAGO PAGO","AS","96799"
984295,"PO BOX 34 MAMPONG AKWAPEN","GHANA WEST AFRICA",NA,NA
984296,"PO BOX 34","BAINVILLE","MT","59212"
984297,"PO BOX 34","BELLE PLAINE","KS","67013"
984298,"PO BOX 34","BETHANY","OK","73008"
984299,"PO BOX 34","BETHESDA","OH","43719"
984300,"PO BOX 34","BOALSBURG","PA","16827"
984301,"PO BOX 34","BODEGA","CA","94922"
984302,"PO BOX 34","CANISTOTA","SD","57030"
984303,"PO BOX 34","DELTA JUNCTION","AK","99737"
984304,"PO BOX 34","DENIO","NV","89404"
984305,"PO BOX 34","DOYLESTOWN","PA","18901"
984306,"PO BOX 34","FAITH","SD","57626"
984307,"PO BOX 34","FORT DICK","CA","95538"
984308,"PO BOX 34","GAIL","TX","79738"
984309,"PO BOX 34","GALLUP","NM","87305"
984310,"PO BOX 34","HARRISTOWN","IL","62537"
984311,"PO BOX 34","HUNGERFORD","TX","77448"
984312,"PO BOX 34","LAKE PLACID","FL","33862"
984313,"PO BOX 34","LOGANVILLE","PA","17342"
984314,"PO BOX 34","LOS ALAMOS","NM","87544"
984315,"PO BOX 34","LOVEVILLE","MD","20656"
984316,"PO BOX 34","MILLWOOD","VA","22646"
984317,"PO BOX 34","MORLEY","MO","63767"
984318,"PO BOX 34","OLD MISSION","MI","49673"
984319,"PO BOX 34","PINE RIDGE","SD","57770"
984320,"PO BOX 34","ROBINSON","IL","62454"
984321,"PO BOX 34","ROCHESTER","MN","55901"
984322,"PO BOX 34","ROCHESTER","VT","05767"
984323,"PO BOX 34","S","MN","55781"
984324,"PO BOX 34","SIDE LAKE","MN","55781"
984325,"PO BOX 34","SOUTH BOSTON","VA","24592"
984326,"PO BOX 34","SUMMER LAKE","OR","97640"
984327,"PO BOX 34","THORP","WA","98946"
984328,"PO BOX 34","VALLECITO","CA","95251"
984329,"PO BOX 34","VALRICO","FL","33595"
984330,"PO BOX 34","VEGA","TX","79092"
984331,"PO BOX 34","VIENNA","VA","22180"
984332,"PO BOX 34","WATERFORD","VA","20197"
984333,"PO BOX 340 103 SCHOOL ST","BELGRADE","MN","56312"
984334,"PO BOX 340","BATTLE GROUND","WA","98604"
984335,"PO BOX 340","BIG PINEY","WY","83113"
984336,"PO BOX 340","CHARLESTON","SC","29402"
984337,"PO BOX 340","CORTARO","AZ","85652"
984338,"PO BOX 340","CROSSETT","AR","71635"
984339,"PO BOX 340","CULPEPER","VA","22701"
984340,"PO BOX 340","LAVON","TX","75166"
984341,"PO BOX 340","MATAMORAS","PA","18336"
984342,"PO BOX 340","MERIDEN","NH","03770"
984343,"PO BOX 340","MOHALL","ND","58761"
984344,"PO BOX 340","MONTCLAIR","NJ","07042"
984345,"PO BOX 340","MONTEAGLE","TN","37356"
984346,"PO BOX 340","PINOLE","CA","94564"
984347,"PO BOX 340","SHOW LOW","AZ","85902"
984348,"PO BOX 340","STANFIELD","AZ","85172"
984349,"PO BOX 340","YONCALLA","OR","97499"
984350,"PO BOX 3400","RANCHO SANTA FE","CA","92067"
984351,"PO BOX 3400","RANCHO SANTA FE","CA","92101"
984352,"PO BOX 340004","SACRAMENTO","CA","95834"
984353,"PO BOX 34006","CHARLOTTE","NC","28234"
984354,"PO BOX 340175","TAMPA","FL","33694"
984355,"PO BOX 34025","KNOXVILLE","TN","37930"
984356,"PO BOX 34027","BETHESDA","MD","20827"
984357,"PO BOX 3403","SEAL BEACH","CA","90740"
984358,"PO BOX 340346","LAKEWAY","TX","78734"
984359,"PO BOX 3404","BALD HEAD ISLAND","NC","28461"
984360,"PO BOX 3404","FAIRVIEW","NM","87533"
984361,"PO BOX 3404","WRIGHTWOOD","CA","92397"
984362,"PO BOX 34045","TRUCKEE","CA","96160"
984363,"PO BOX 34051","LEXINGTON","KY","40588"
984364,"PO BOX 340616","MILWAUKEE","WI","53234"
984365,"PO BOX 340685","AUSTIN","TX","78734"
984366,"PO BOX 3407","MERCED","CA","95344"
984367,"PO BOX 340722","BROOKLYN","NY","11234"
984368,"PO BOX 340733","BROOKLYN","NY","11234"
984369,"PO BOX 3408","AVON","CO","81620"
984370,"PO BOX 340801","BROOKLYN","NY","11234"
984371,"PO BOX 34082","CHARLOTTE","NC","28234"
984372,"PO BOX 340832","DAYTON","OH","45434"
984373,"PO BOX 340865","SACRAMENTO","CA","95834"
984374,"PO BOX 340893","FT SAM HOUSTON","TX","78234"
984375,"PO BOX 3409","PAHRUMP","NV","89041"
984376,"PO BOX 341","BRICE","OH","43109"
984377,"PO BOX 341","BURGIN","KY","40310"
984378,"PO BOX 341","CAMDEN","ME","04843"
984379,"PO BOX 341","CIALES","PR","00638"
984380,"PO BOX 341","CIRCLE PINES","MN","55014"
984381,"PO BOX 341","LEAKEY","TX","78873"
984382,"PO BOX 341","LILESVILLE","NC","28091"
984383,"PO BOX 341","MENDOCINO","CA","95460"
984384,"PO BOX 341","PORT GIBSON","MS","39150"
984385,"PO BOX 341","SHIRLEY","IN","47384"
984386,"PO BOX 341","SPERRY","OK","74073"
984387,"PO BOX 341","TALKEETNA","AK","99676"
984388,"PO BOX 341","VEGA","TX","79092"
984389,"PO BOX 341033","JAMAICA","NY","11434"
984390,"PO BOX 341054","BEAVERCREEK","OH","45434"
984391,"PO BOX 3411","FREDERICKSBURG","TX","78624"
984392,"PO BOX 3411","WALLINGTON","NJ","07057"
984393,"PO BOX 341135","AUSTIN","TX","78734"
984394,"PO BOX 3412","IDYLLWILD","CA","92549"
984395,"PO BOX 341242","SACRAMENTO","CA","95834"
984396,"PO BOX 341325","MILWAUKEE","WI","53234"
984397,"PO BOX 34135","RENO","NV","89533"
984398,"PO BOX 341421","MEMPHIS","TN","38134"
984399,"PO BOX 3415","BIG BEAR CITY","CA","92314"
984400,"PO BOX 3415","QUARTZ HILL","CA","93586"
984401,"PO BOX 341582","BETHESDA","MD","20827"
984402,"PO BOX 3417","GRAND JUNCTION","CO","81502"
984403,"PO BOX 3417","NEW BERN","NC","28564"
984404,"PO BOX 34178","INDIALANTIC","FL","32903"
984405,"PO BOX 3418","MCDONOUGH","GA","30253"
984406,"PO BOX 34187","HOUSTON","TX","77234"
984407,"PO BOX 3419","ALEXANDRIA","VA","22302"
984408,"PO BOX 341931","AUSTIN","TX","78734"
984409,"PO BOX 34196","SAN DIEGO","CA","92163"
984410,"PO BOX 342 902 MARKET STREET","KISMET","KS","67859"
984411,"PO BOX 342","ABSAROKEE","MT","59001"
984412,"PO BOX 342","ASHLAND","KY","41105"
984413,"PO BOX 342","CAVE JUNCTION","OR","97523"
984414,"PO BOX 342","CHARLOTTE","TN","37036"
984415,"PO BOX 342","FLEMINGTON","WV","26347"
984416,"PO BOX 342","MANITOWISH WATERS","WI","54545"
984417,"PO BOX 342","MEBANE","NC","27302"
984418,"PO BOX 342","MILLIS","MA","02054"
984419,"PO BOX 342","MONROE","NC","28111"
984420,"PO BOX 342","MOULTON","TX","77975"
984421,"PO BOX 342","NAALEHU","HI","96772"
984422,"PO BOX 342","NEW WASHIGNTON","OH","44854"
984423,"PO BOX 342","PELHAM","AL","35124"
984424,"PO BOX 342","PILOT ROCK","OR","97868"
984425,"PO BOX 342","PINEOLA","NC","28604"
984426,"PO BOX 342","RICHTON","MS","39476"
984427,"PO BOX 342","ROCKFORD","IL","61105"
984428,"PO BOX 342","SANDUSKY","MI","48471"
984429,"PO BOX 342","SHANNON","GA","30172"
984430,"PO BOX 342","SOUTH ORANGE","NJ","07079"
984431,"PO BOX 342","SPEARMAN","TX","79081"
984432,"PO BOX 342","Spokane","WA","99210"
984433,"PO BOX 342","SPOKANE","WA","99210"
984434,"PO BOX 342","TENINO","WA","98589"
984435,"PO BOX 342","TITUSVILLE","NJ","08560"
984436,"PO BOX 342","TRIANGLE","VA","22172"
984437,"PO BOX 342","WELLBORN","TX","77881"
984438,"PO BOX 342","WELLSVILLE","OH","43968"
984439,"PO BOX 342","WILSONVILLE","OR","97070"
984440,"PO BOX 3420","SCOBEY","MT","59263"
984441,"PO BOX 3421","FRESNO","CA","93650"
984442,"PO BOX 34215","LITTLE ROCK","AR","72203"
984443,"PO BOX 342189","KAILUA","HI","96734"
984444,"PO BOX 3422","MCDONOUGH","GA","30253"
984445,"PO BOX 34223","OMAHA","NE","68134"
984446,"PO BOX 34223","PARMA","OH","44134"
984447,"PO BOX 342291","MEMPHIS","TN","38184"
984448,"PO BOX 3423","ARIZONA CITY","AZ","85123"
984449,"PO BOX 3423","PAGO PAGO","AS","96799"
984450,"PO BOX 3424","NEW HAVEN","CT","06511"
984451,"PO BOX 3426","SUMMERVILLE","SC","29484"
984452,"PO BOX 3428","MURRELLS INLET","SC","29576"
984453,"PO BOX 3428","SEMINOLE","FL","33775"
984454,"PO BOX 3429","SHAWNEE","VA","66203"
984455,"PO BOX 343","BARRE","VT","05461"
984456,"PO BOX 343","BOALSBURG","PA","16827"
984457,"PO BOX 343","BRYANTOWN","MD","20617"
984458,"PO BOX 343","CHINOOK","WA","98614"
984459,"PO BOX 343","CHISAGO CITY","MN","55013"
984460,"PO BOX 343","DAVIS","CA","95617"
984461,"PO BOX 343","DOUGLASVILLE,","GA","30133"
984462,"PO BOX 343","EDGEWOOD","IA","52042"
984463,"PO BOX 343","ENCAMPMENT","WY","82325"
984464,"PO BOX 343","GRAFORD","TX","76449"
984465,"PO BOX 343","GRANBY","CO","80446"
984466,"PO BOX 343","HANCOCK","MA","21750"
984467,"PO BOX 343","HAPPY CAMP","CA","96039"
984468,"PO BOX 343","JOHANNESBURG","MI","49751"
984469,"PO BOX 343","LAPEER","MI","48446"
984470,"PO BOX 343","LE ROY","MN","55951"
984471,"PO BOX 343","LEAGUE CITY","TX","77574"
984472,"PO BOX 343","MCALLEN","TX","78504"
984473,"PO BOX 343","MORRO BAY","CA","93443"
984474,"PO BOX 343","NARROWSBURG","NY","12764"
984475,"PO BOX 343","OAK BLUFFS","MA","02557"
984476,"PO BOX 343","OKANOGAN","WA","98840"
984477,"PO BOX 343","PFAFFTOWN","NC","27040"
984478,"PO BOX 343","RICHMOND","VT","05477"
984479,"PO BOX 343","SNOW HILL","NC","28580"
984480,"PO BOX 343","TCHULA","MS","39169"
984481,"PO BOX 343","UPPER LAKE","CA","95485"
984482,"PO BOX 343","VANCOUVER","WA","98666"
984483,"PO BOX 3431","UNION","NJ","07083"
984484,"PO BOX 3432","TEXARKANA","TX","75504"
984485,"PO BOX 3433","DELAND","FL","32721"
984486,"PO BOX 34334","BARTLETT","TN","38184"
984487,"PO BOX 3434","PAGO PAGO","AS","96799"
984488,"PO BOX 3434","SEDONA","AZ","86340"
984489,"PO BOX 34352","LOUISVILLE","KY","40232"
984490,"PO BOX 34357","PHILADELPHIA","PA","19101"
984491,"PO BOX 3437","NAPA","CA","94558"
984492,"PO BOX 3439","Visalia","CA","93277"
984493,"PO BOX 3439","VISALIA","CA","93278"
984494,"PO BOX 34392","LOUISVILLE","KY","40232"
984495,"PO BOX 34394","LITTLE ROCK","AR","72203"
984496,"PO BOX 344","ABBEVILLE","GA","31001"
984497,"PO BOX 344","BAY PINES","FL","33744"
984498,"PO BOX 344","CALLICOON","NY","12723"
984499,"PO BOX 344","CENTRAL","AZ","85531"
984500,"PO BOX 344","CLAY","AL","35048"
