"ID","Address","City","State","Zip"
272001,"1818 H ST NW","WASHINGTON","DC","20433"
272002,"1818 HERRICK AVE","GRAND RAPIDS","MI","49505"
272003,"1818 HIGHGROVE DRIVE","O'FALLON","MO","63366"
272004,"1818 HONEYSUCKLE WAY","AUGUSTA","GA","30813"
272005,"1818 HONEYSUCKLE WAY","AUGUSTA","GA","31088"
272006,"1818 INDIAN DR","ENID","OK","73703"
272007,"1818 INDIGO ROAD","LINCOLN","NE","68521"
272008,"1818 JAMESTOWN CIR","HOFFMAN ESTATES","IL","60169"
272009,"1818 KATYLAND DRIVE","KATY","TX","77493"
272010,"1818 LANSING COVE DRIVE","FRESNO","TX","77545"
272011,"1818 LANSING","FRESNO","TX","77545"
272012,"1818 LIBRARY ST STE 500","RESTON","VA","20190"
272013,"1818 LIBRARY STREET SUITE 500","RESTON","VA","20190"
272014,"1818 M STREET","ORD","NE","68862"
272015,"1818 MAIN STREET","HOLDEN","MA","01520"
272016,"1818 MAPLE AVENUE","FORT MYERS","FL","33901"
272017,"1818 MAPLE AVENUE","NORTHBROOK","IL","60062"
272018,"1818 MAPLEWOOD AVE","CORSICANA","TX","75110"
272019,"1818 MARKET ST STE 2920","PHILADELPHIA","PA","19103"
272020,"1818 MARKET ST STE 3300","PHILADELPHIA","PA","19103"
272021,"1818 MARKET STREET","PHILADELPHIA","PA","19103"
272022,"1818 MARKET","PHILADELPHIA","PA","19105"
272023,"1818 MARSON STREET","LEHIGH ACRES","FL","33972"
272024,"1818 MARTIN LUTHER KING AVE E","BRADENTON","FL","34208"
272025,"1818 MARYLAND AVENUE","ST PAUL","MN","55119"
272026,"1818 MEADOW LN","PEKIN","IL","61554"
272027,"1818 MEADOWCREST DRIVE","GARLAND","TX","75041"
272028,"1818 MERRY PLACE APT 206","WEST PALM BEACH","FL","33407"
272029,"1818 METZEROT RD APT 51","HYATTSVILLE","MD","20783"
272030,"1818 METZERROTT ROAD NO 33","ADELPHI","MD","20783"
272031,"1818 MLK BLVD 129","CHAPEL HILL","NC","27514"
272032,"1818 MLK JR BLVD SUITE 199","CHAPEL HILL","NC","27514"
272033,"1818 MOORE BLVD APT 221","DAVIS","CA","95618"
272034,"1818 MORENA STREET","NASHVILLE","TN","37208"
272035,"1818 N 30TH ST","RICHMOND","VA","23223"
272036,"1818 N CHURCH ST","PORTLAND","OR","97217"
272037,"1818 N TAYLOR ST","LITTLE ROCK","AR","72207"
272038,"1818 N TAYLOR STREET BOX 405","LITTLE ROCK","AR","72207"
272039,"1818 N TAYLOR SUITE B PMB 305","LITTLE ROCK","AR","72207"
272040,"1818 NEW YORK AVE NE","WASHINGTON","DC","20002"
272041,"1818 NEW YORK DRIVE","ALTADENA","CA","91001"
272042,"1818 NEWKIRK AVE APT C","BROOKLYN","NY","11226"
272043,"1818 NILES BUCHANAN ROAD","NILES","MI","49120"
272044,"1818 NORTH MILL STREET","CLEARFIELD","KY","40313"
272045,"1818 NORTH NATCHEZ","CHICAGO","IL","60707"
272046,"1818 NW 91 ST","MIAMI","FL","33147"
272047,"1818 NW 92ND PL","KANSAS CITY","MO","64155"
272048,"1818 OAKLAND AVE","CREST HILL","IL","60403"
272049,"1818 OLD LANTERN TRAIL","FORT WAYNE","IN","46845"
272050,"1818 OVERLOOK DRIVE","MOULTRIE","GA","31768"
272051,"1818 OVERTON RD","DALLAS","TX","75216"
272052,"1818 PASEO PENASCO","ROSEVILLE","CA","95747"
272053,"1818 POPE AVE","NORFOLK","VA","23509"
272054,"1818 POPE AVE","NORFOLK","VA","94503"
272055,"1818 Q LANE","OBERLIN","KS","67749"
272056,"1818 RAFT","ST LOUIS","MO","63133"
272057,"1818 RAMONA AVENUE APT 206","PASADENA","CA","91030"
272058,"1818 RED BUD CIRCLE","CARROLLTON","TX","75006"
272059,"1818 REDBUD CIRCLE","CARROLLTON","TX","76006"
272060,"1818 RESERVOIR RD","LITTLE ROCK","AR","72227"
272061,"1818 RICE COURT","ALLEN","TX","75013"
272062,"1818 ROBERTS STREET","VERNON","TX","76384"
272063,"1818 ROGERS ROAD APT3216","SAN ANTONIO","TX","78251"
272064,"1818 S 265TH PL","DES MOINES","WA","98198"
272065,"1818 S 72ND ST","OMAHA","NE","68124"
272066,"1818 S AUSTRALIAN AVENUE","WEST PALM BEACH","FL","33409"
272067,"1818 S ERVAY ST STE 203","DALLAS","TX","75215"
272068,"1818 S GLASGOW AVE","NAMPA","ID","83686"
272069,"1818 S HOME AVE","BERWYN","IL","60402"
272070,"1818 S MCELROY ST","CRANE","TX","79731"
272071,"1818 S WESTERN AVE STE 306","LOS ANGELES","CA","90006"
272072,"1818 SALEM CT","MERCED","CA","95348"
272073,"1818 SAN JOSE PLACE","FAIRFIELD","CA","94533"
272074,"1818 SARAH AVE","SPEARFISH","SD","57783"
272075,"1818 SE 24TH AVENUE","OWATONNA","MN","55060"
272076,"1818 SEAVY HEIGHT RD","COLUMBIA","TN","38401"
272077,"1818 SEEVERS AVE","DALLAS","TX","75216"
272078,"1818 SHEPHERD STREET NW","WASHINGTON","DC","20011"
272079,"1818 SKYLINE DRIVE  UNIT 31","WENATCHEE","WA","98801"
272080,"1818 SKYLINE","ROCHESTER HILLS","MI","48307"
272081,"1818 SMITH STREET","COLUMBIA","SC","29209"
272082,"1818 SMITH","LAPEER","MI","48446"
272083,"1818 SO AUSTRALIAN AVE SUITE 202","WEST PALM BEACH","FL","33409"
272084,"1818 SONGBIRD DRIVE","BILLINGS","MT","59101"
272085,"1818 SOUTHEAST CLINTON STREET","PORTLAND","OR","97202"
272086,"1818 SPRINGWOOD DR","MACON","GA","31211"
272087,"1818 ST NW","WASHINGTON","DC","20433"
272088,"1818 STERIGERE STREET","WEST NORRITON","PA","19403"
272089,"1818 SUNSET CROSSING","CEDAR HILL","TX","75104"
272090,"1818 SW 1 AV","MIAMI","FL","33129"
272091,"1818 SW 21ST STREET","FORT LAUDERDALE","FL","33315"
272092,"1818 SW C STREET","RICHMOND","IN","47374"
272093,"1818 SW COUNTY ROAD 138","FORT WHITE","FL","32038"
272094,"1818 SWEETSER AVENUE","EVANSVILLE","IN","47714"
272095,"1818 TATTENHALL DR","HOUSTON","TX","77018"
272096,"1818 TENTH STREET","WICHITA FALLS","TX","76301"
272097,"1818 THE WOODS DRIVE","JACKSONVILLE","FL","32246"
272098,"1818 THOMAS STREET","MARINETTE","WI","54143"
272099,"1818 VASSAR AVE STE 202","GLENDALE","CA","91204"
272100,"1818 W 235TH STREET","TORRANCE","CA","90501"
272101,"1818 W 2475 S","SYRACUSE","UT","84075"
272102,"1818 W 71ST STREET APT 107","LOS ANGELES","CA","90047"
272103,"1818 W 74TH STREET","CHICAGO","IL","60636"
272104,"1818 W 83RD ST","LOS ANGELES","CA","90047"
272105,"1818 W BEDFORD LOOP APT 7","FAYETTEVILLE","AR","72701"
272106,"1818 W CHASE AVE UNIT 3","CHICAGO","IL","60626"
272107,"1818 W JUNEAU AVE 224","MILWAUKEE","WI","53233"
272108,"1818 W JUNEAU AVE 321","MILWAUKEE","WI","53233"
272109,"1818 W JUNEAU AVE 420","MILWAUKEE","WI","53233"
272110,"1818 W JUNEAU AVE 425","MILWAUKEE","WI","53233"
272111,"1818 W PETERSON AVE APT 323","CHICAGO","IL","60660"
272112,"1818 W PORTOBELLO AVE","MESA","AZ","85202"
272113,"1818 W SPANISH BAY DRIVE","EAGLE","ID","83616"
272114,"1818 W THOMPSON ST","PHILADELPHIA","PA","19121"
272115,"1818 WASHINGTON STREET","EUGENE","OR","97401"
272116,"1818 WATCH HOUSE CIRCLE N","SEVERN","MD","21144"
272117,"1818 WEST 52ND STREET","CLEVELAND","OH","44102"
272118,"1818 WEST BLVD","RAPID CITY","SD","57701"
272119,"1818 WEST MADISON STREET","LOUISVILLE","KY","40203"
272120,"1818 WIESE GARDEN ROAD","MARSHALLTOWN","IA","50158"
272121,"1818 WILCOX","SAN PABLO","CA","94806"
272122,"1818 WILMAR ORCHARD","QUINCY","IL","62301"
272123,"1818 WILMONT","KENTWOOD","MI","49508"
272124,"1818 WINCHESTER STREET","MADISON","WI","53704"
272125,"1818 WOODLAWN RD","STEWARD","IL","60553"
272126,"1818 YORK ST","DES MOINES","IA","50316"
272127,"18180 FAIRVIEW DR","FONTANA","CA","92336"
272128,"18180 N OLGA DR","ALVA","FL","33920"
272129,"18180 OTTIEWAY COURT","HOLLY","MI","48442"
272130,"18181 BEAR VALLEY LANE","ESCONDIDO","CA","92027"
272131,"18181 DOGWOOD DR","SPRING LAKE","MI","49456"
272132,"18181 HOLLY RIDGE DR","HAMMOND","LA","70403"
272133,"18181 OAK RIDGE DR","PURCELLVILLE","VA","20132"
272134,"18182 LAKE HILLS CT","RENO","NV","89508"
272135,"18183 WEST SUNDOWNER WAY UNIT 852","CANYON COUNTRY","CA","91387"
272136,"18184 STATE ROUTE 3","WATERTOWN","NY","13601"
272137,"18184 VETERANS MEM HWY","DUNGANNON","VA","24245"
272138,"18185 241 AVE","BETTENDORF","IA","52722"
272139,"18186 GREENPOINT CT","HIDDEN VALLEY LAKE","CA","95467"
272140,"18186 HIGHWAY 28","HAZLEHURST","MS","39083"
272141,"18186 KAYLA LN","HARLINGEN","TX","78552"
272142,"18186 SW 4TH COURT","PEMBROKE PINES","FL","33029"
272143,"18187 SOUTH DRIVE APT 125","DETROIT","MI","48076"
272144,"18187 SOUTH DRIVE APT 128","SOUTHFIELD","ME","48076"
272145,"18187 SOUTH DRIVE","SOUTHFIELD","MI","48076"
272146,"18187 SPEARS ROAD","GREGORY","MI","48137"
272147,"18188 PAHUTE AVE","VICTORVILLE","CA","92395"
272148,"18188 PIONEER CT","LAKE OSWEGO","OR","97034"
272149,"18188 W DESERT LN","SURPRISE","AZ","85388"
272150,"18189 BERGTON RD","BERGTON","VA","22811"
272151,"18189 COUNTY ROAD 30","STERLING","CO","80751"
272152,"18189 DEER HOLLOW RD","HIDDEN VALLEY LK","CA","95467"
272153,"18189 WARBLER LANE","EDEN PRAIRIE","MN","55346"
272154,"1818A AUPUNI STREET","HONOLULU","HI","96817"
272155,"1819  110TH AVE","DRESSOR","WI","54009"
272156,"1819 10TH AVE A","HONOLULU","HI","96816"
272157,"1819 140TH AVE SE 98005","BELLEVUE","WA","98005"
272158,"1819 14TH ST","OREGON CITY","OR","97045"
272159,"1819 164TH ST E","TACOMA","WA","98445"
272160,"1819 184TH AVE NE","BELLEVUE","WA","98008"
272161,"1819 18TH LANE","PALM BCH GARDENS","FL","33418"
272162,"1819 23RD AVE APT  E403","SEATTLE","WA","98122"
272163,"1819 26TH AVENUE SOUTH","SAINT PETERSBURG","FL","33712"
272164,"1819 48TH AVENUE","SAN FRANCISCO","CA","94122"
272165,"1819 5TH AVE N","BIRMINGHAM","AL","35203"
272166,"1819 5TH AVENUE NORTH","BIRMINGHAM","AL","35203"
272167,"1819 60TH STREET","BROOKLYN","NY","11204"
272168,"1819 9TH AVENUE","BRADENTON","FL","34205"
272169,"1819 ALA AOLANI STREET","HONOLULU","HI","96819"
272170,"1819 ARBOR FALLS DRIVE","PLAINFIELD","IL","60586"
272171,"1819 BACON STREET","SAINT LOUIS","MO","63106"
272172,"1819 BALLYBUNION DRIVE","JOHNS CREEK","GA","30097"
272173,"1819 BANDERA DR","HENRICO","VA","23228"
272174,"1819 BARBARY WAY","SWANSEA","IL","62226"
272175,"1819 BERRYFIELD DR","HOUSTON","TX","77077"
272176,"1819 BEVERLY HILLS ST","NORMAN","OK","73072"
272177,"1819 BIG HOLLOW ROAD","STARKSBORO","VT","05487"
272178,"1819 BOYNE RD","MARLETTE","MI","48453"
272179,"1819 BROOKVIEW DR","ARLINGTON","TX","76010"
272180,"1819 BUFFALO WOLF","SAN ANTONIO","TX","78245"
272181,"1819 CALLE DE LOS ALAMOS","SAN CLEMENTE","CA","92672"
272182,"1819 CAREW STREET","FORT WAYNE","IN","46805"
272183,"1819 CASHMERE COURT","LITHONIA","GA","30058"
272184,"1819 CEDRIC LANE","SAN ANTONIO","TX","78213"
272185,"1819 CHARLIE SIFFORD RD","LOS ANGELES","CA","90047"
272186,"1819 CHATFIELD TERRACE","SEVERN","MD","21144"
272187,"1819 CHENEY DRIVE","VALPARAISO","IN","46383"
272188,"1819 CLEVELAND ST","BOISE","ID","83705"
272189,"1819 CLIFF STREET","THE DALLES","OR","97058"
272190,"1819 CLOUDBURST DRIVE","MATTHEWS","NC","28105"
272191,"1819 CO RD 59","NOSTASULGA","AL","36866"
272192,"1819 CREEK ROAD","JAMESVILLE","NC","27846"
272193,"1819 DORRITT ST","NEWBURY PARK","CA","91320"
272194,"1819 DUNEDIN AVE","DULUTH","MN","55803"
272195,"1819 E 42ND STREET","TACOMA","WA","98404"
272196,"1819 E BROADDWAY AVENUE","MARYVILLE","TN","37804"
272197,"1819 E FERNROCK STREET","CARSON","CA","90746"
272198,"1819 E MORTEN SUITE 180","PHOENIX","AZ","85020"
272199,"1819 E NORTH AVE","BALTIMORE","MD","21213"
272200,"1819 E PIKE APT 203","SEATTLE","WA","98122"
272201,"1819 E REPUBLICAN STREET APT 206","SEATTLE","WA","98112"
272202,"1819 E SONORA","STOCKTON","CA","95205"
272203,"1819 E YESLER WAY","SEATLE","WA","98122"
272204,"1819 EARLINGTON RD","HAVERTOWN","PA","19083"
272205,"1819 EAST 40TH ST","TACOMA","WA","98404"
272206,"1819 EL RANCHO DR","SUN CITY CENTER","FL","33753"
272207,"1819 EVANS STREET","MARSHALL","TX","75670"
272208,"1819 FALL MEADOW DRIVE","MISSOURI CITY","TX","77459"
272209,"1819 FARNAM STREET H03","OMAHA","NE","68183"
272210,"1819 FARNAM STREET STE 603","OMAHA","NE","68183"
272211,"1819 FARNAM STREET SUITE LC1","OMAHA","NE","68183"
272212,"1819 FARNAM STREET SUITE LC2","OMAHA","NE","68183"
272213,"1819 FERGUSON CT N","FORT WORTH","TX","76118"
272214,"1819 FILLMORE DRIVE","MONTEREY PARK","CA","91755"
272215,"1819 FISHING LANE","MONCKS CORNER","SC","29461"
272216,"1819 FLYCASTER DR","SPRING","TX","77388"
272217,"1819 FRIENDLY STREET","EUGENE","OR","97402"
272218,"1819 GIBEN ROAD","SW ATLANTA","GA","30315"
272219,"1819 GIBSON STREET","CEDAR FALLS","IA","50613"
272220,"1819 GLOUCESTER DRIVE","FAIRFIELD","OH","45014"
272221,"1819 GOLDEN GATE AVENUE APT 2","San Francisco","CA","94115"
272222,"1819 GREENBROOK TRAIL","DALLAS","NC","28034"
272223,"1819 HALSTEAD ST","MISSOURI CITY","TX","77489"
272224,"1819 HAMLET PLACE NORTH","BEL AIR","MD","21015"
272225,"1819 HARPSWELL ISLANDS RD","ORRS ISLAND","ME","04066"
272226,"1819 HEIMAN STREET","NASHVILLE","TN","37208"
272227,"1819 JUNIPER DRIVE","EDGEWATER","FL","32132"
272228,"1819 K STREET SUITE 200","SACRAMENTO","CA","95811"
272229,"1819 K STREET","SACRAMENTO","CA","95811"
272230,"1819 LASALLE AVE","FAYETTEVILLE","NC","28303"
272231,"1819 LAVALA LANE","EL CAJON","CA","92021"
272232,"1819 LAWANDA DR","CAPE GIRARDEAU","MO","63701"
272233,"1819 LAWRENCE","SAVANNA","IL","61074"
272234,"1819 LEADBURN RD","TOWSON","MD","21204"
272235,"1819 LONG BEACH BLVD","SURF CITY","NJ","08008"
272236,"1819 MACON AVENUE","BRUNSWICK","GA","31520"
272237,"1819 MAPLE ST","WHITE PINE","TN","37890"
272238,"1819 MARBLE DRIVE APT 2061","ARLINGTON","TX","76013"
272239,"1819 MARTIN LUTHER KING BLVD","DALLAS","TX","75215"
272240,"1819 MERIDEL AVE","TAMPA","FL","33612"
272241,"1819 MICHIGAN AVE UNIT 907","CHICAGO","IL","60616"
272242,"1819 MONTAGUE ROAD","CLOVER","SC","29710"
272243,"1819 MORNINGTON LANE","SNELLVILLE","GA","30078"
272244,"1819 MTN INDUSTRAIL BLD APT 210","TUCKER","GA","30084"
272245,"1819 N ASHLEY DR","INDEPENDENCE","MO","64058"
272246,"1819 N BEARWALLOW RD","FLETCHER","NC","28732"
272247,"1819 N FAIRCHILD DRIVE","MEDICAL LAKE","WA","99022"
272248,"1819 N MORRIS","APPETON","WI","54911"
272249,"1819 N NORFOLK  AVE","TULSA","OK","74106"
272250,"1819 N TEJON","COLORADO SPRINGS","CO","80907"
272251,"1819 NE 181 STREET","NORTH MIAMI BEACH","FL","33162"
272252,"1819 NICHOL AVE","ANDERSON","IN","46016"
272253,"1819 NW LARKSPUR S","CAMAS","WA","98607"
272254,"1819 OLD SPANISH TRAIL","SLIDELL","LA","70458"
272255,"1819 OLD SPANISH TRL","SLIDELL","LA","70458"
272256,"1819 PACKARD CT","DARDENNE PRAIRIE","MO","63368"
272257,"1819 PARK BLVD","FARGO","ND","58103"
272258,"1819 PARK STREET","LITTLE ROCK","AR","72202"
272259,"1819 PARKVIEW LN","MISSOURI CITY","TX","77459"
272260,"1819 PAULA LANE","MARION","IL","62959"
272261,"1819 PEARL CITY ROAD","FREEPORT","IL","61032"
272262,"1819 PEGGYS LANE","IDAHO FALLS","ID","83402"
272263,"1819 PLUM STREET","STEUBENVILLE","OH","43952"
272264,"1819 POLK STREET 449","SAN FRANCISCO","CA","94109"
272265,"1819 PROSPECT PLACE PVT","BROOKLYN","NY","11233"
272266,"1819 RAMADA DR","WACO","TX","76712"
272267,"1819 REES RD","SAN MARCOS","CA","92069"
272268,"1819 RIDGEVIEW CT","DUPONT","WA","98327"
272269,"1819 RIVER HEIGHTS DR","LITTLE ROCK","AR","72202"
272270,"1819 ROUTE 300","NEWBURGH","NY","12550"
272271,"1819 ROWLAND AVE SE","GRAND RAPIDS","MI","49546"
272272,"1819 S ALLPORT STREET","CHICAGO","IL","60608"
272273,"1819 S BYRNE RD","TOLEDO","OH","43614"
272274,"1819 S FERNON ST","PHILADELPHIA","PA","19139"
272275,"1819 S MERIDIAN AVE","WICHITA","KS","67213"
272276,"1819 S TROY","CHICAGO","IL","60623"
272277,"1819 SAN ARDO ST","TORRANCE","CA","90501"
272278,"1819 SE 17 STREET 512","FORT LAUDERDALE","FL","33316"
272279,"1819 SE MAISH AVE","DES MOINES","IA","50230"
272280,"1819 SHELLY CT","MOORE","OK","73160"
272281,"1819 SNOWDROP LANE","SILVER SPRING","MD","20906"
272282,"1819 SOUTH 5TH STREET","PHILADELPHIA","PA","19148"
272283,"1819 SOUTH 6TH STREET","MINNEAPOLIS","MN","55454"
272284,"1819 SOUTH MAIN ST","HOPE","AR","71801"
272285,"1819 SPEYER LN","REDONDO BEACH","CA","90278"
272286,"1819 STEELE STREET","LARAMIE","WY","82070"
272287,"1819 STERLING DR","MONMOUTH","OR","97361"
272288,"1819 STRINGTOWN ROAD","HELENA","AR","72342"
272289,"1819 SW 5TH AVENUE UNIT 410","PORTLAND","OR","97201"
272290,"1819 TAMMANY DRIVE","NASHVILLE","TN","37206"
272291,"1819 TARTAN DR","CARROLLTON","TX","75006"
272292,"1819 TETON VIEW DRIVE","REXBURG","ID","83440"
272293,"1819 THERRELL FARM RD","MARVIN","NC","28173"
272294,"1819 THORNWOOD CT","WESLEY CHAPEL","FL","33543"
272295,"1819 TONE RD","CORTLAND","NY","13045"
272296,"1819 TORRINGTON DR","MASCOTTE","FL","34753"
272297,"1819 VIZALEEA DR","DUBUQUE","IA","52002"
272298,"1819 W 19TH STREET","CHICAGO","IL","60608"
272299,"1819 W 3RD ST","RUSSELLVILLE","AR","72801"
272300,"1819 W 5TH ST","JACKSONVILLE","FL","32209"
272301,"1819 W BLACK HILL RD","PHOENIX","AZ","85085"
272302,"1819 WATERFORD SOUND BLVD","GULF BREEZE","FL","32563"
272303,"1819 WEDGEWOD AVENUE","UPLAND","CA","91784"
272304,"1819 WEEKS AVENUE APT 41N","BRONX","NY","10455"
272305,"1819 WEST 26TH","JACKSONVILLE","FL","32209"
272306,"1819 WEST AVENUE BAY 5","MIAMI BEACH","FL","33139"
272307,"1819 WHISPERWOOD WAY","HUNTSVILLE","AL","35806"
272308,"1819 WHITE AVE","ORLANDO","FL","30806"
272309,"1819 WHITE AVE","ORLANDO","FL","32806"
272310,"1819 WILCOX BOULEVARD","CHATTANOOGA","TN","37406"
272311,"1819 WINSTON AVENUE","NAVARRE","FL","32566"
272312,"1819 WOOD AVE","COLORADO SPRINGS","CO","80907"
272313,"1819 WOODSTONE DR","WINSTON SALEM","NC","27127"
272314,"1819 WYCLIFFE ROAD","PARKVILLE","MD","21234"
272315,"1819-A RACE TRACK RD","NEW BERN","NC","28562"
272316,"1819","GREENSBORO","NC","27410"
272317,"18190 NW CORNELL ROAD APT G","BEAVERTON","OR","97224"
272318,"18191 GIFFORD RD","WELLINGTON","OH","44090"
272319,"18192 THIRD STREET","FOUNTAIN VALLEY","CA","92708"
272320,"18194 W ESTES WAY","GOODYEAR","AZ","85338"
272321,"18195 BRYCE CT","FOUNTAIN VALLEY","CA","92708"
272322,"18196 S 4170 ROAD","CLAREMORE","OK","74017"
272323,"18197 130TH AVE","BARRETT","MN","56311"
272324,"18197 MARS","DETROIT","MI","48205"
272325,"18197 PATRICIA LANE","MAGNOLIA","TX","77355"
272326,"18197 PATRICIA LN","MAGNOLIA","TX","77355"
272327,"18198 68TH PLACE NORTH","MAPLE GROVE","MN","55311"
272328,"18198 FM 362","NAVASOTA","TX","77868"
272329,"18199 BEAVER DAM RD","LEWES","DE","19958"
272330,"18199 W MACKENZIE DR","GOODYEAR","AZ","85395"
272331,"181A HALSEY STREET","BROOKLYN","NY","11216"
272332,"182 14TH STREET","BROOKLYN","NY","11215"
272333,"182 3/4 S WASHINGTON STREET","TIFFIN","OH","44883"
272334,"182 3RD STREET","COPPER HARBOR","MI","49918"
272335,"182 ALLISON RD","KATONAH","NY","10536"
272336,"182 ALTA VISTA WAY","DALY CITY","CA","94014"
272337,"182 ASHETON LANE","AUBURN","AL","36830"
272338,"182 ASHFORD PLACE","IOWA CITY","IA","52245"
272339,"182 AUTUMN HILL ROAD","PRINCETON","NJ","08540"
272340,"182 BAPTIST CORNER RD","ASHFIELD","MA","01330"
272341,"182 BARLOW DR","FRANKLIN","TN","37064"
272342,"182 BEE HOLLOW RD","SHOHOLA","PA","18458"
272343,"182 BELMONT COURT 6","BROCKTON","MA","02301"
272344,"182 BELMONT CT 6","BROCKTON","MA","02301"
272345,"182 BELMONT DRIVE","WILMINGTON","DE","19808"
272346,"182 BENHAM STREET","TORRINGTON","CT","06790"
272347,"182 BEVERLY DR","OREGON CITY","OR","97045"
272348,"182 BONNYBROOK RD","MIDDLETOWN","DE","19709"
272349,"182 BRIXTON ROAD SOUTH","GARDEN CITY SOUTH","NY","11530"
272350,"182 BROAD ST","WASHINGTON","NJ","07882"
272351,"182 BRYSON AVE","STATEN ISLAND","NY","10302"
272352,"182 BULLVILLE ROAD","MONTGOMERY","NY","12549"
272353,"182 BURBANK ROAD","SUTTON","VT","01590"
272354,"182 CAISSON ROAD","FREDERICKSBURG","VA","22405"
272355,"182 CALLE RENATA","SAN DIMAS","CA","91773"
272356,"182 CALLE SEGUNDO FELICIANO","MOCA","PR","00676"
272357,"182 CARMEL CT","WEBSTER","NY","14580"
272358,"182 CAROLINA AVE","FOREST CITY","NC","28043"
272359,"182 CAROLINA AVENUE","FOREST CITY","NC","28043"
272360,"182 CASEBIER ST","LAKELAND","FL","33815"
272361,"182 CENTER DRIVE","WINCHESTER","KY","40391"
272362,"182 CENTRAL AVE APT D","ENGLEWOOD","NJ","07631"
272363,"182 CHERRYWOOD CT","ROMEOVILLE","IL","60446"
272364,"182 CHESTNUT STREET","FLORENCE","MA","01062"
272365,"182 CHICKADEE LANE","SEQUIM","WA","98382"
272366,"182 CHILI AVE","ROCHESTER","NY","14611"
272367,"182 CLARENDON STREET","FITCHBURG","MA","01420"
272368,"182 CLEAR LAKE DRIVE","SOMERSET","KY","42503"
272369,"182 COAL STREET","WILKES BARRE","PA","18702"
272370,"182 CONFER LANE","MUNCY","PA","17756"
272371,"182 CORONA CIRCLE","CORNELIUS","NC","28031"
272372,"182 COSSADUCK HILL ROAD","NORTH STONINGTON","CT","06359"
272373,"182 COUNTRY CLUB DR","BUTLER","AL","36904"
272374,"182 COUNTY FARM RD","DOVER","NH","03833"
272375,"182 COUNTY ROAD 663","BROSELEY","MO","63932"
272376,"182 CR 245","HONDO","TX","78861"
272377,"182 CR 338","GOLDTHWAITE","TX","76844"
272378,"182 CR 4218","ORANGE","TX","77632"
272379,"182 CR 691","TUSCOLA","TX","79562"
272380,"182 CRESCENT AVE","LOUISVILLE","KY","40206"
272381,"182 CROOKED HILL RD","HUMMELSTOWN","PA","17036"
272382,"182 CRYSTAL STREET","BROOKLYN","NY","11208"
272383,"182 CULPEPPER RD","CAMERON","NC","28326"
272384,"182 CULPEPPER ROAD","SOUTH MILLS","NC","27976"
272385,"182 CULPEZE RD","MOORESVILLE","NC","28117"
272386,"182 CYPRESS POINTE DRIVE","RICHMOND HILL","GA","31324"
272387,"182 D STREET","NAVARRE","OH","44662"
272388,"182 DALE DRIVE","CASSADAGA","NY","14718"
272389,"182 DATILES CIUDAD JARDIN","CANOVANAS","PR","00729"
272390,"182 DEER RIDGE DRIVE","MAYSVILLE","WV","26833"
272391,"182 DEER RUN LN","MENA","AR","71953"
272392,"182 DEYO ROAD","ALCOVE","NY","12007"
272393,"182 DOE HILL DR","CHURCHVILLE","VA","24421"
272394,"182 DOGWOOD CIR","BRANDON","MS","39047"
272395,"182 DOGWOOD CIRCLE","BRANDON","MS","39648"
272396,"182 DONCASTER ROAD","ARNOLD","MD","21012"
272397,"182 DOWNING ROAD","BUFFALO GROVE","IL","60089"
272398,"182 E 95 ST APT 23B","NEW YORK","NY","10128"
272399,"182 E 95TH ST APT 27H","NEW YORK CITY","NY","10128"
272400,"182 E 95TH ST APT 30C","NEW YORK","NY","10128"
272401,"182 EAGLE ROCK CIRCLE","HOT SPRINGS","AR","71901"
272402,"182 EAST 93RD STREET APT 2H","BROOKLYN","NY","11212"
272403,"182 EAST 93RD STREET","BROOKLYN","NY","11212"
272404,"182 EAST GRISSOM AVE","ROCKPORT","IN","47635"
272405,"182 EVELYN DAY RD","ROXBORO","NC","27574"
272406,"182 FAIRBANKS RD","DEDHAM","MA","02026"
272407,"182 FAIRFIELD CIRCLE","ATHENS","GA","30606"
272408,"182 FAIRWAY DRIVE","STAMFORD","CT","06903"
272409,"182 FALLING LEAF CIRCLE NE","CLEVELAND","TN","37312"
272410,"182 FALLWOOD PARKWAY","FARMINGDALE","NY","11735"
272411,"182 FILLY LANE","NORTHFIELD","OH","44067"
272412,"182 FIRST ST","YONKERS","NY","10704"
272413,"182 FLORIDA DRIVE","AGAWAM","MA","01001"
272414,"182 FLOWER HILL RD","HUNTINGTON","NY","11743"
272415,"182 FLYING POINT ROAD","FREEPORT","ME","04032"
272416,"182 FOREST GARDEN DR","BOARDMAN","OH","44512"
272417,"182 FOREST KNOLL DR","ELKTON","MD","21921"
272418,"182 FORESTRIDGE DR","BOONE","NC","28607"
272419,"182 GLEN EAGLE WAY","MCDONOUGH","GA","30253"
272420,"182 GOVERNORS RD","QUINCY","MA","02169"
272421,"182 GRACELAND DRIVE","ANDERSON","IN","46012"
272422,"182 GRACES LANE","WEST KINGSTON","RI","02892"
272423,"182 GRAND STREET","NEWBURGH","NY","12550"
272424,"182 GRASSY CREEK RD","SMITHVILLE","TX","78957"
272425,"182 GREAT OAKS DR","NESQUEHONING","PA","18240"
272426,"182 HAMPTON POINT DRIVE","ST SIMONS","GA","31522"
272427,"182 HANOVER RD","NEWTOWN","CT","06470"
272428,"182 HAVEN DRIVE","RINGGOLD","GA","30736"
272429,"182 HEATHWOOD DRIVE","MACON","GA","31206"
272430,"182 HELSEN ROAD","CARSON","WA","98610"
272431,"182 HEREFORD ROAD","GURLEY","AL","35748"
272432,"182 HERITAGE CIRCLE","BRINSON","GA","39825"
272433,"182 HERITAGE ROAD","PIKEVILLE","NC","27863"
272434,"182 HILLTOP DR","LAKE IN THE HILLS","IL","60156"
272435,"182 HILLTOP DRIVE","LAKE IN THE HILLS","IL","60156"
272436,"182 HOMER STREET","NEWTON CENTER","MA","02459"
272437,"182 HUGHES AVE","BRIDGEPORT","CT","06604"
272438,"182 INDIAN GRASS TERRACE","FREMONT","CA","94539"
272439,"182 INWOOD BLVD","AVON LAKE","OH","44012"
272440,"182 JERICHO CT","GEORGETOWN","SC","29440"
272441,"182 KALMIA LANE","BOONE","NC","28607"
272442,"182 KENAN STREET","CLARENDON","PA","16313"
272443,"182 KILLIAN FARM ROAD","STANLEY","NC","28164"
272444,"182 KILLIAN FARM","STANLEY","NC","28164"
272445,"182 KING BEE TRAIL","BRODNAX","VA","23920"
272446,"182 KING WILLIAM ST","NEWARK","DE","19711"
272447,"182 KINNEY LANE","CAMERON","WV","26033"
272448,"182 LAFAYETTE ST FL 3","NEW YORK","NY","10013"
272449,"182 LAKE MALLARD LANE","CAMDEN","SC","29020"
272450,"182 LAKE OGLETHORPE DRIVE","ARNOLDSVILLE","GA","30619"
272451,"182 LAKE ROAD","MCHENRY","MS","39561"
272452,"182 LAKENGREN DRIVE","EATON","OH","45320"
272453,"182 LANTANA CERRO","SPRING BRANCH","TX","78070"
272454,"182 LAUREL BAY RD","BEAUFORT","SC","29906"
272455,"182 LEWALLEN HOLLOW LANE","CLINTON","TN","37716"
272456,"182 LIMA ROAD","GENESEO","NY","14454"
272457,"182 LINDA TERRACE","EPHRATA","PA","17522"
272458,"182 LISBON AVENUE","BUFFALO","NY","14214"
272459,"182 LOLA CIRCLE","DESTIN","FL","32541"
272460,"182 LORELANE PL","KEY LARGO","FL","33037"
272461,"182 MADELINE COURT","MCDONOUGH","GA","30253"
272462,"182 MAIN STREET","COLUMBIA FALLS","ME","04623"
272463,"182 MAPLE HILL ROAD","GLENCOE","IL","60022"
272464,"182 MARCUS WAY APT 5","ABINGDON","VA","24210"
272465,"182 MC 7030","FLIPPEN","AR","72634"
272466,"182 MILL RUN","NORTH AUGUSTA","SC","29860"
272467,"182 MILL STREET APT 612","ATHENS","OH","45701"
272468,"182 MOORE ST","WILLIAMSBURG","OH","45176"
272469,"182 MOULTON ROAD","FALL BRANCH","TN","37656"
272470,"182 MOUNTAIN MEADOW ROAD","HOT SPRINGS","AR","71913"
272471,"182 N BEENE ST","SODDY DAISY","TN","37379"
272472,"182 N BELLMORE ROAD","LEVITTOWN","NY","11756"
272473,"182 N LAKE DR","WATERTOWN","SD","57201"
272474,"182 N MAIN STREET S","DEERFIELD","MA","01373"
272475,"182 N STINSON","NAMPA","ID","83651"
272476,"182 N VALLEY OAKS CIRCLE","SPRING","TX","77832"
272477,"182 NASSAU STREET SUITE 201","PRINCETON","NJ","08542"
272478,"182 NE COUNTY ROAD V","WARRENSBURG","MO","64093"
272479,"182 NEW YORK AVE","BAY SHORE","NY","11706"
272480,"182 NEWTON STREET","ORANGE","VA","22960"
272481,"182 NIXON AVENUE","STATEN ISLAND","NY","10304"
272482,"182 NOLA DR","HOLDEN","MA","01520"
272483,"182 OAK TERRACE","SEGUIN","TX","78155"
272484,"182 OAKADO DR","EAST HARTFORD","CT","06118"
272485,"182 OAKVILLE DR","PIEDMONT","SC","29673"
272486,"182 OLD MILL LANE","CLEARVILLE","PA","15535"
272487,"182 PARK AVENUE","GARDEN CITY PARK","NY","11040"
272488,"182 PASADENA","HIGHLAND PARK","MI","48203"
272489,"182 PATRICIA PLACE","CLIFTON","NJ","07012"
272490,"182 PATTERSON ST","PICKERINGTON","OH","43147"
272491,"182 PEASE RD","MEREDITH","NH","03245"
272492,"182 PEREA RD","CORRALES","NM","87048"
272493,"182 PETER STREET","SCHELLSBURG","PA","15559"
272494,"182 PETUNIA ROAD","WRIGHT CITY","OK","74766"
272495,"182 PINCH CREEK","BLAND","VA","24315"
272496,"182 PINE RIDGE LANE","PINK HILL","NC","28572"
272497,"182 PINECORE AVENUE","ODENTON","MD","21113"
272498,"182 PONDEROSA CIRCLE","MIDWAY","FL","32343"
272499,"182 PR 6413","CANTON","TX","75103"
272500,"182 QUAIL ROAD","LYNCHBURG","VA","24504"
