"ID","Address","City","State","Zip"
968001,"PO 1857","BIG BEAR CITY","CA","92314"
968002,"PO 1945","EAGLE","CO","81631"
968003,"PO 1953","OCEAN SHORES","WA","98569"
968004,"PO 1973","KEAAU","HI","96749"
968005,"PO 2","TOMALES","CA","94971"
968006,"PO 201354","NEW HAVEN","CT","06520"
968007,"PO 2029","MONTGOMERY","TX","77356"
968008,"PO 2033 2605 CAMINO TASSAJARA","DANVILLE","CA","94526"
968009,"PO 204","NEWHALL","IA","52315"
968010,"PO 207","DOVER","OH","44622"
968011,"PO 20757","SEDONA","AZ","86351"
968012,"PO 208","CUBA","AL","36907"
968013,"PO 2147","MISSOURI CITY","TX","77459"
968014,"PO 22-7463","MIAMI","FL","33222"
968015,"PO 223390","PRINCEVILLE","HI","96722"
968016,"PO 223586","PRINCEVILLE","HI","96766"
968017,"PO 2293","LOUISVILLE","KY","40252"
968018,"PO 237","TABERNASH","CO","80478"
968019,"PO 24023","HUBER HEIGHTS","OH","45424"
968020,"PO 243","TROUTDALE","OR","97060"
968021,"PO 2432","FRASER","CO","80442"
968022,"PO 2457","BROWNING","MT","59417"
968023,"PO 247","METUCHEN","NJ","08840"
968024,"PO 251","EDGEMONT","SD","57735"
968025,"PO 252","HILLSIDE","NJ","07205"
968026,"PO 255","MARYLHURST","OR","97036"
968027,"PO 262","GLYNDON","MD","21071"
968028,"PO 2667","LAKE CITY","FL","32056"
968029,"PO 269","BUCKFIELD","ME","04420"
968030,"PO 2795","RANCHOS DE TAOS","NM","87571"
968031,"PO 280202","HOUSTON","TX","77228"
968032,"PO 292","NEOLA","UT","84053"
968033,"PO 294076","SACRAMENTO","CA","95829"
968034,"PO 300382","AUSTIN","TX","78703"
968035,"PO 304886","ST THOMAS","VI","00893"
968036,"PO 305","CLEVELAND","TN","37364"
968037,"PO 322","PINE RIDGE","SD","57770"
968038,"PO 337","WEWAHITCHKA","FL","32465"
968039,"PO 344","NEWELL","NC","28126"
968040,"PO 351","MOUNT SHASTA","CA","96067"
968041,"PO 355","RIDGEFIELD","WA","98624"
968042,"PO 36","GREENWOOD","SC","29648"
968043,"PO 36355","GREENSBORO","NC","27406"
968044,"PO 36566","HOUSTON","TX","77236"
968045,"PO 370066","MAPLE HEIGHTS","OH","44137"
968046,"PO 374","COPPER CENTER","AK","99573"
968047,"PO 374","GRASS LAKE","MI","49240"
968048,"PO 381","RIVERVIEW","FL","33568"
968049,"PO 399","PORT EWEN","NY","12466"
968050,"PO 400438","CHARLOTTESVILLE","VA","22903"
968051,"PO 40475","PHOENIX","AZ","85067"
968052,"PO 4051","QUARTZSITE","AZ","85359"
968053,"PO 415","PORT HADLOCK","WA","98339"
968054,"PO 421","CEDARBURG","WI","53012"
968055,"PO 4310","PAGO PAGO","AS","96799"
968056,"PO 433 NORTH ROAD","LUBEC","ME","04652"
968057,"PO 436354","LOUISVILLE","KY","40253"
968058,"PO 450","ANAHOLA","HI","96703"
968059,"PO 4511","AVON","CO","81620"
968060,"PO 458","MICANOPY","FL","32667"
968061,"PO 462212","ESCONDIDO","CA","92046"
968062,"PO 48","MANLEY HOT SPRINGS","AK","99756"
968063,"PO 485","ANAHOLA","HI","96703"
968064,"PO 49","HUNTINGDON VALLEY","PA","19006"
968065,"PO 495","POMONA","CA","91769"
968066,"PO 502","SWAMPSCOTT","MA","01907"
968067,"PO 506","STAFFOD SPRINGS","CT","06076"
968068,"PO 51118","ELEELE","HI","96705"
968069,"PO 54017","MILLINGTON","TN","38054"
968070,"PO 5468","FAIRLAWN","OH","44334"
968071,"PO 552","BUCHANAN","MI","49107"
968072,"PO 560187","MONTVERDE","FL","34756"
968073,"PO 562","PAHALA","HI","96777"
968074,"PO 580/ 160 LANG STREET","SAN JUAN BAUTISTA","CA","95045"
968075,"PO 607161","ORLANDO","FL","32860"
968076,"PO 61651","SAVANNAH","GA","31420"
968077,"PO 62","WILLIAMS","CA","95987"
968078,"PO 624","FROSTBURG","MD","21532"
968079,"PO 640285","MIAMI","FL","33164"
968080,"PO 661","RANCHO CORDOVA","CA","95742"
968081,"PO 683125","HOUSTON","TX","77268"
968082,"PO 690757","QUINCY","MA","02269"
968083,"PO 772024","ORLANDO","FL","32837"
968084,"PO 776","TUSTIN","CA","92781"
968085,"PO 816","FOWLER","CA","93625"
968086,"PO 850046","MESQUITE","TX","75185"
968087,"PO 869","TWIN PEAKS","CA","92391"
968088,"PO 88116","LOS ANGELES","CA","90009"
968089,"PO 905","KILLINGWORTH","CT","06419"
968090,"PO 922","CHILHOWIE","VA","24319"
968091,"PO 9249","PHOENIX","AZ","85068"
968092,"PO 94132","PASADENA","CA","91109"
968093,"PO 94132","PASADENA",NA,NA
968094,"PO 970","PENNS CREEK","PA","17862"
968095,"PO B","A","VA","22314"
968096,"PO B0X 45","DILLINGHAM","AK","99576"
968097,"PO B0X 4720","SONORA","CA","95370"
968098,"PO B0X 742","GWINN","MI","49841"
968099,"PO B0X 767","PAHOA","HI","96778"
968100,"PO B0X 991","ESTILL","SC","29918"
968101,"PO BCX 153","EAST DERRY","NH","03041"
968102,"PO BIOX 73733","PUYALLUP","WA","98373"
968103,"PO BIX 351","TIPTON","OK","73570"
968104,"PO BIX 8081","RANCHO SANTA FE","CA","92067"
968105,"PO BO 1172","TEMECULA","CA","92593"
968106,"PO BO 1356","WEST BABYLON","NY","11704"
968107,"PO BO 15071","WILMINGTON","DE","19850"
968108,"PO BO 1701","LOCKEFORD","CA","95237"
968109,"PO BO 173362","DENVER","CO","80217"
968110,"PO BO 1752","WINTER HAVEN","FL","33882"
968111,"PO BO 2735","BETHEL","AK","99559"
968112,"PO BO 321328","HOUSTON","TX","77221"
968113,"PO BO 336","WILLISTON PARK","NY","11596"
968114,"PO BO 65060","ALBUQUERQUE","NM","87120"
968115,"PO BO 745","MCCALL","ID","83638"
968116,"PO BO 796841","DALLAS","TX","75248"
968117,"PO BO 808","BETHEL","NC","27812"
968118,"PO BO 91","KINGSBURY","TX","78638"
968119,"PO BO","KAUNAKAKAI","HI","96748"
968120,"PO BO","POST FALLS","ID","83877"
968121,"PO BOB 2203","LOUISA","VA","23093"
968122,"PO BOC 1023","MONTICELLO","UT","84535"
968123,"PO BOC 11368","ATLANTA","GA","30310"
968124,"PO BOC 1821","FRANKFORT","IL","60423"
968125,"PO BOC 189063","SACRAMENTO","CA","95818"
968126,"PO BOC 313","IRON STATION","NC","28080"
968127,"PO BOC 3192","ASHLAND","OR","97520"
968128,"PO BOC 395","BIG SUR","CA","93920"
968129,"PO BOC 4255","GREENVILLE","MS","38703"
968130,"PO BOC 501","WESTMORLAND","CA","92281"
968131,"PO BOC 515","MIDDLETON","ID","83644"
968132,"PO BOIX 1496","LOS ALAMITOS","CA","90720"
968133,"PO BOIX 3007","WEST HELENA","AR","72390"
968134,"PO BOS 1235","MONTEAGLE","TN","37356"
968135,"PO BOS 1598","LONG BEACH","WA","98631"
968136,"PO BOS 1713","PENDLETON","OR","97801"
968137,"PO BOS 18","OXFORD","MI","48371"
968138,"PO BOS 502","LYE","WA","98635"
968139,"PO BOS 546","EL RENO","OK","73036"
968140,"PO BOS 734","APEX","NC","27502"
968141,"PO BOX   64","MENARD","TX","76859"
968142,"PO BOX  1076","ELKTON","KY","42220"
968143,"PO BOX  1134","SANFORD","FL","32772"
968144,"PO BOX  115","DAILEY","WV","26259"
968145,"PO BOX  1155","DILLINGHAM","AK","99576"
968146,"PO BOX  1198","SACRAMENTO","CA","95812"
968147,"PO BOX  125","VALIER","MT","59486"
968148,"PO BOX  1284","OCEANA","WV","24870"
968149,"PO BOX  129","MARTIN","SD","57551"
968150,"PO BOX  14227","SPRINGFIELD","MO","65814"
968151,"PO BOX  1524","ALBEMARLE","NC","28002"
968152,"PO BOX  163","UNION","OR","97883"
968153,"PO BOX  176","RICHWOOD","OH","43344"
968154,"PO BOX  1817","CALUMET CITY","IL","60438"
968155,"PO BOX  18624","PITTSBURGH","PA","15236"
968156,"PO BOX  19","MARTIN","SD","57551"
968157,"PO BOX  2020","MONTGOMERY VILLAGE","MD","20886"
968158,"PO BOX  206141","LOUISVILLE","KY","40250"
968159,"PO BOX  2069","TEANECK","NJ","07666"
968160,"PO BOX  2131","KETTERING","OH","45429"
968161,"PO BOX  23307","HOUSTON","TX","77228"
968162,"PO BOX  24032","HOUSTON","TX","77229"
968163,"PO BOX  248","EAGLE PASS","TX","78853"
968164,"PO BOX  25","DILLINGHAM","AK","99576"
968165,"PO BOX  2646","TELLURIDE","CO","81321"
968166,"PO BOX  266","RICHLAND CENTER","WI","53581"
968167,"PO BOX  2807","ANAHEIM","CA","92814"
968168,"PO BOX  30054","COLUMBIA","SC","29230"
968169,"PO BOX  337","HIGHMOUNT","NY","12474"
968170,"PO BOX  351741","LOS ANGELES","CA","90035"
968171,"PO BOX  370","SUMTER","SC","29151"
968172,"PO BOX  391","ROSEAU","MN","56751"
968173,"PO BOX  4036","MIDDLETOWN","NJ","07748"
968174,"PO BOX  411","SOUTH RIVER","NJ","08882"
968175,"PO BOX  43755","BROOKLYN PARK","MN","55443"
968176,"PO BOX  464","HANALEI","HI","96714"
968177,"PO BOX  476","JORDAN","MT","59337"
968178,"PO BOX  493","MARION","MA","02738"
968179,"PO BOX  49824","ATHENS","GA","30604"
968180,"PO BOX  504","ACE","TX","77326"
968181,"PO BOX  50422","KNOXVILLE","TN","37950"
968182,"PO BOX  52","FAIRBURN","SD","57738"
968183,"PO BOX  52","SACRAMENTO","CA","95812"
968184,"PO BOX  5262","VACAVILLE","CA","95696"
968185,"PO BOX  5631","KINGSPORT","TN","37663"
968186,"PO BOX  580","BRAWLEY","AA","92227"
968187,"PO BOX  6544","PORTSMOUTH","VA","23703"
968188,"PO BOX  661","BLAIRSVILLE","GA","30514"
968189,"PO BOX  715","SANTA CRUZ","CA","95061"
968190,"PO BOX  764","COLUMBIA","KY","42728"
968191,"PO BOX  777","WAYNE","MI","48184"
968192,"PO BOX  80454","MILWAUKEE","WI","53208"
968193,"PO BOX  8240","PITTSBURGH","PA","15217"
968194,"PO BOX  837","FLEISCHMANNS","NY","12430"
968195,"PO BOX  8381","BELLEVILLE","IL","62222"
968196,"PO BOX  85","FRAZIER PARK","CA","93225"
968197,"PO BOX  873","HEBER","CA","92249"
968198,"PO BOX  876","BROOKLYN","CT","06234"
968199,"PO BOX  89203","ATLANTA","GA","30312"
968200,"PO BOX  894817","MILILANI","HI","96789"
968201,"PO BOX  998","STEVENSON","WA","98648"
968202,"PO BOX 0","MORENCI","AZ","85540"
968203,"PO BOX 0003","HIGHWOOD","MT","59450"
968204,"PO BOX 0012","LAKE LEELANAU","MI","49653"
968205,"PO BOX 002","JAL","NM","88252"
968206,"PO BOX 00208-125-00208","NGONG HILLS",NA,NA
968207,"PO BOX 003","VERONA","PA","15147"
968208,"PO BOX 0052","HIGHWOOD","MT","59450"
968209,"PO BOX 0066","CORVALLIS","OR","97339"
968210,"PO BOX 012376","MIAMI","FL","33101"
968211,"PO BOX 01523","LOS ANGELES","CA","90001"
968212,"PO BOX 0164   95 CENTER","GAASTRA","MI","49927"
968213,"PO BOX 0169","NEW MILFORD","NJ","07646"
968214,"PO BOX 021","BRICK","NJ","08723"
968215,"PO BOX 0213","CLINTON","ME","04927"
968216,"PO BOX 02283","DETRIOT","MI","48202"
968217,"PO BOX 02283","DETROIT","MI","48202"
968218,"PO BOX 0244","BAUDETTE","MN","56623"
968219,"PO BOX 025650 CR1022","MIAMI","FL","33102"
968220,"PO BOX 0273","GARRISON","NY","10524"
968221,"PO BOX 0335","NEW PRAGUE","MN","56071"
968222,"PO BOX 041","TEABERRY","KY","41660"
968223,"PO BOX 0496","CEDAR HILL","TX","75106"
968224,"PO BOX 0573","KAHULUI","HI","96733"
968225,"PO BOX 0582","OAK PARK","IL","60302"
968226,"PO BOX 06111","MILWAUKEE","WI","53206"
968227,"PO BOX 06365","COLUMBUS","OH","43206"
968228,"PO BOX 06538","COLUMBUS","OH","43206"
968229,"PO BOX 071","SAUSALITO","CA","94666"
968230,"PO BOX 071","SAUSALITO","CA","94966"
968231,"PO BOX 07104","MILWAUKEE","WI","53207"
968232,"PO BOX 074","KENBRIDGE","VA","23944"
968233,"PO BOX 080097","BROOKLYN","NY","11208"
968234,"PO BOX 0828","SPIRIT LAKE","ID","83869"
968235,"PO BOX 090116","STATEN ISLAND","NY","10309"
968236,"PO BOX 091022","BEXLEY","OH","43209"
968237,"PO BOX 0984","VILLA RICA","GA","30180"
968238,"PO BOX 1  S105 W37570 ESTATES DR","EAGLE","WI","53119"
968239,"PO BOX 1 - RM 1061 - BLDG 19","MOFFETT FIELD","CA","94035"
968240,"PO BOX 1","ALEDO","IL","61231"
968241,"PO BOX 1","ANIMAS","NM","88020"
968242,"PO BOX 1","ATHENS","WI","54411"
968243,"PO BOX 1","AUSTIN","TX","78767"
968244,"PO BOX 1","CAMPBELL","NE","68932"
968245,"PO BOX 1","CENTERTOWN","KY","42328"
968246,"PO BOX 1","COBBS","IN","23035"
968247,"PO BOX 1","CORY","IN","47846"
968248,"PO BOX 1","CRAIG","AK","99921"
968249,"PO BOX 1","CRAWFORDVILLE","GA","30631"
968250,"PO BOX 1","DANVILLE","KS","67036"
968251,"PO BOX 1","DELEON SPRINGS","FL","32130"
968252,"PO BOX 1","DERMOTT","AR","71638"
968253,"PO BOX 1","DIAMOND","MO","64840"
968254,"PO BOX 1","EAGLE BUTTE","SD","57625"
968255,"PO BOX 1","EAST DORSET","VT","05253"
968256,"PO BOX 1","EAST ORLAND","ME","04431"
968257,"PO BOX 1","ELIOT","ME","03903"
968258,"PO BOX 1","ELIZAVILLE","NY","12523"
968259,"PO BOX 1","EMINENCE","MO","65466"
968260,"PO BOX 1","FRANKLIN","AR","72536"
968261,"PO BOX 1","FRANKLIN","VT","05457"
968262,"PO BOX 1","FRANKTOWN","CO","80116"
968263,"PO BOX 1","FREMONT","MI","49412"
968264,"PO BOX 1","GERMANTOWN","WI","53022"
968265,"PO BOX 1","GLADSTONE","IL","61437"
968266,"PO BOX 1","HARRINGTON PARK","NJ","07640"
968267,"PO BOX 1","HASBROUCK HTS","NJ","07604"
968268,"PO BOX 1","HILLSBORO","WI","54634"
968269,"PO BOX 1","HINCKLEY","ME","04944"
968270,"PO BOX 1","HINDMAN","KY","41822"
968271,"PO BOX 1","HUMANSVILLE","MO","65674"
968272,"PO BOX 1","HYAMPOM","CA","96046"
968273,"PO BOX 1","HYDE PARK","VT","05655"
968274,"PO BOX 1","IRONTON","MO","63650"
968275,"PO BOX 1","LA JOYA","TX","78560"
968276,"PO BOX 1","LA PINE","OR","97739"
968277,"PO BOX 1","LOWELL","VT","05847"
968278,"PO BOX 1","MCCAMEY","TX","79752"
968279,"PO BOX 1","MILAN","IN","47031"
968280,"PO BOX 1","MIRROR LAKE","NH","03853"
968281,"PO BOX 1","MONTROSE","PA","18801"
968282,"PO BOX 1","MORAVIA","IA","52571"
968283,"PO BOX 1","MOUNT LEMMON","AZ","85619"
968284,"PO BOX 1","NEW CARLISLE","OH","45344"
968285,"PO BOX 1","NEW RIVER","VA","24129"
968286,"PO BOX 1","NEWAYGO","MI","49337"
968287,"PO BOX 1","NOKOMIS","FL","34275"
968288,"PO BOX 1","PARKERFORD","PA","19457"
968289,"PO BOX 1","PINEVILLE","PA","18946"
968290,"PO BOX 1","PORCUPINE","SD","57772"
968291,"PO BOX 1","SCIO","OR","97374"
968292,"PO BOX 1","SILOAM SPRINGS","AR","72761"
968293,"PO BOX 1","THE PLAINS","OH","45780"
968294,"PO BOX 1","WAIMEA","HI","96796"
968295,"PO BOX 10","ALLEN","TX","75013"
968296,"PO BOX 10","ARTESIA","CA","90702"
968297,"PO BOX 10","BARTOW","WV","24920"
968298,"PO BOX 10","BLUFF CITY","AR","71722"
968299,"PO BOX 10","BLUFFTION","IN","46714"
968300,"PO BOX 10","BLUFFTON","IN","46714"
968301,"PO BOX 10","CAVE SPRINGS","GA","30124"
968302,"PO BOX 10","COLBERT","WA","99005"
968303,"PO BOX 10","CRESTWOOD","KY","40014"
968304,"PO BOX 10","DAWSON","MN","56232"
968305,"PO BOX 10","DEL NORTE","CO","81132"
968306,"PO BOX 10","DUNCAN","AZ","85534"
968307,"PO BOX 10","EAST THETFORD","VT","05043"
968308,"PO BOX 10","EULESS","TX","76039"
968309,"PO BOX 10","FLORENCE","MT","59833"
968310,"PO BOX 10","FRANKLIN","WV","26807"
968311,"PO BOX 10","GLADEVILLE","TN","37071"
968312,"PO BOX 10","HACKETT","AR","72937"
968313,"PO BOX 10","HALLOCK","MN","56728"
968314,"PO BOX 10","JUNCTION CITY","OR","97448"
968315,"PO BOX 10","KRESGEVILLE","PA","18333"
968316,"PO BOX 10","MANKATO","KS","66956"
968317,"PO BOX 10","MCHENRY","MD","21541"
968318,"PO BOX 10","MOUNTAINAIR","NM","87036"
968319,"PO BOX 10","NORTH FERRISBURG","VT","05473"
968320,"PO BOX 10","OBERLIN","LA","70655"
968321,"PO BOX 10","PALMDALE","FL","33944"
968322,"PO BOX 10","PEAK","SC","29122"
968323,"PO BOX 10","RATON","NM","87740"
968324,"PO BOX 10","ROSEMONT","WV","26424"
968325,"PO BOX 10","ROSWELL","NM","88202"
968326,"PO BOX 10","ST AUGUSTINE","FL","32085"
968327,"PO BOX 10","TALLAPOOSA","GA","30176"
968328,"PO BOX 10","TOMS RIVER","NJ","07764"
968329,"PO BOX 10","VILLANUEVA N","NM","87583"
968330,"PO BOX 10","WARREN","NH","03279"
968331,"PO BOX 10","WARRIORS MARK","PA","16877"
968332,"PO BOX 10","WOODSON","IL","62695"
968333,"PO BOX 100 PMB 234","MAMMOTH LAKES","CA","93546"
968334,"PO BOX 100 PMB 241","MAMMOTH LAKES","CA","93546"
968335,"PO BOX 100 PMB 442","MAMMOTH LAKES","CA","93546"
968336,"PO BOX 100","APEX","NC","27502"
968337,"PO BOX 100","ARKVILLE","NY","12406"
968338,"PO BOX 100","BIG TIMBER","MT","59011"
968339,"PO BOX 100","BUNNELL","FL","32110"
968340,"PO BOX 100","COLDSPRING","TX","77331"
968341,"PO BOX 100","COLUMBUS","TX","78934"
968342,"PO BOX 100","COSTILLA","NM","87524"
968343,"PO BOX 100","DRUMS","PA","18222"
968344,"PO BOX 100","FULTON","TX","78358"
968345,"PO BOX 100","GALENA","MD","21635"
968346,"PO BOX 100","GRANTS PASS","OR","97528"
968347,"PO BOX 100","HAWTHORNE","NV","89415"
968348,"PO BOX 100","HEMPHILL","TX","75948"
968349,"PO BOX 100","KEYES","CA","95328"
968350,"PO BOX 100","LAPORTE","CO","80535"
968351,"PO BOX 100","LEON","OK","73441"
968352,"PO BOX 100","MIDDLETOWN","CA","95461"
968353,"PO BOX 100","NEW BUFFALO","MI","49117"
968354,"PO BOX 100","NEW DURHAM","NH","03855"
968355,"PO BOX 100","NEWHALL","WV","24866"
968356,"PO BOX 100","OWENTON","KY","40359"
968357,"PO BOX 100","RAMSEY","NJ","07446"
968358,"PO BOX 100","SANBORNTON","NH","03269"
968359,"PO BOX 100","STRATHMERE","NJ","08248"
968360,"PO BOX 100","VEGA BAJA","PR","00695"
968361,"PO BOX 1000","BOONEVILLE","KY","41314"
968362,"PO BOX 1000","CAMP WOOD","TX","78833"
968363,"PO BOX 1000","HONOKAA","HI","96727"
968364,"PO BOX 1000","MANTEO","NC","27954"
968365,"PO BOX 1000","NEDERLAND","CO","80466"
968366,"PO BOX 1000","SAINT PAUL","MN","55117"
968367,"PO BOX 1000","SALOME","AZ","85348"
968368,"PO BOX 1000","TIJERAS","NM","87059"
968369,"PO BOX 1000","TIMBER LAKE","SD","57656"
968370,"PO BOX 1000","UMPQUA","OR","97486"
968371,"PO BOX 10000 SUITE 343","CAYEY","PR","00737"
968372,"PO BOX 10001","WASHINGTON","DC","20018"
968373,"PO BOX 10003 PMB 722","SAIPAN","MP","96950"
968374,"PO BOX 10003 PMB 722","SAIPAN","WA","96950"
968375,"PO BOX 10005","OLATHE","KS","66051"
968376,"PO BOX 10008","EUGENE","OR","97440"
968377,"PO BOX 10009","BAINBRIDGE ISLAND","WA","98110"
968378,"PO BOX 1001","ALBEMARLE","NC","28002"
968379,"PO BOX 1001","BIG TIMBER","MT","59011"
968380,"PO BOX 1001","BUCKHANNON","WV","26201"
968381,"PO BOX 1001","ETON","GA","30724"
968382,"PO BOX 1001","IMPERIAL","NE","69033"
968383,"PO BOX 1001","MABTON","WA","98935"
968384,"PO BOX 1001","MIDLOTHIAN","TX","76056"
968385,"PO BOX 1001","NORWICH","VT","05055"
968386,"PO BOX 1001","OKEECHOBEE","FL","34973"
968387,"PO BOX 1001","SARASOTA","FL","34230"
968388,"PO BOX 1001","SOCORRO","NM","87801"
968389,"PO BOX 1001","WARSAW","KY","41095"
968390,"PO BOX 10015","FORT MOHAVE","AZ","86426"
968391,"PO BOX 10016","GAINESVILLE","FL","32610"
968392,"PO BOX 10017","FAYETTEVILLE","AR","72703"
968393,"PO BOX 100172","DENVER","CO","80250"
968394,"PO BOX 100197","GAINESVILLE","FL","32610"
968395,"PO BOX 1002","ALPHARETTA","GA","30009"
968396,"PO BOX 1002","BAUDETTE","MN","56623"
968397,"PO BOX 1002","ELLENWOOD","GA","30294"
968398,"PO BOX 1002","FORT MYERS","FL","33902"
968399,"PO BOX 1002","FREER","TX","78357"
968400,"PO BOX 1002","GARRISON","ND","58540"
968401,"PO BOX 1002","LAWRENCEVILLE","GA","30046"
968402,"PO BOX 1002","MIDLOTHIAN","VA","23113"
968403,"PO BOX 1002","MIRA LOMA","CA","91752"
968404,"PO BOX 1002","PATAGONIA","AZ","85624"
968405,"PO BOX 1002","SUMNER","WA","98390"
968406,"PO BOX 1003","ASHLAND","OR","97520"
968407,"PO BOX 1003","BETHEL","NC","27812"
968408,"PO BOX 1003","KALAMA","WA","98625"
968409,"PO BOX 1003","MARSHALLTOWN","IA","50158"
968410,"PO BOX 1003","OBERLIN","LA","70655"
968411,"PO BOX 1003","PHILIPSBURG","MT","59858"
968412,"PO BOX 1003","PINE GROVE","LA","70453"
968413,"PO BOX 1003","PINETOPS","NC","27864"
968414,"PO BOX 1003","REDWAY","CA","95560"
968415,"PO BOX 1003","TWISP","WA","98856"
968416,"PO BOX 1003","WEST BEND","WI","53095"
968417,"PO BOX 1003","WITTMANN","AZ","85361"
968418,"PO BOX 10030","ASPEN","CO","81612"
968419,"PO BOX 10031","HOUSTON","TX","77026"
968420,"PO BOX 100332","FORT WORTH","TX","76185"
968421,"PO BOX 100351","CAPE CORAL","FL","33910"
968422,"PO BOX 100362 2319 NOSTRAND AVENUE","BROOKLYN","NY","11210"
968423,"PO BOX 1004","ALEDO","TX","76008"
968424,"PO BOX 1004","CRYSTAL BEACH","TX","77650"
968425,"PO BOX 1004","DEEP RIVER","CT","06417"
968426,"PO BOX 1004","KINGSBURG","CA","93631"
968427,"PO BOX 1004","MANNFORD","OK","74044"
968428,"PO BOX 1004","QUITMAN","TX","75783"
968429,"PO BOX 1004","SALUDA","NC","28773"
968430,"PO BOX 1004","SANTA CLAUS","IN","47579"
968431,"PO BOX 10040","RUSSELLVILLE","AR","72802"
968432,"PO BOX 10041","MELVILLE","NY","11747"
968433,"PO BOX 100412 2319 NOSTRAND AVENUE","BROOKLYN","NY","11210"
968434,"PO BOX 100468","ANCHORAGE","AK","99510"
968435,"PO BOX 100483","DENVER","CO","80250"
968436,"PO BOX 100495","MILWAUKEE","WI","53210"
968437,"PO BOX 1005","BASTROP","TX","78602"
968438,"PO BOX 1005","BRACKETTVILLE","TX","78832"
968439,"PO BOX 1005","HARTFORD","CT","06143"
968440,"PO BOX 1005","SHERIDAN","WY","82801"
968441,"PO BOX 1005","TOCCOA","GA","30577"
968442,"PO BOX 10054","RALEIGH","NC","27605"
968443,"PO BOX 100541","CRANSTON","RI","02910"
968444,"PO BOX 100547","FLORENCE","SC","29502"
968445,"PO BOX 100549","DENVER","CO","80250"
968446,"PO BOX 1006","BUFFALO","MO","65622"
968447,"PO BOX 1006","CLAYPOOL","AZ","85532"
968448,"PO BOX 1006","COLFAX","CA","95713"
968449,"PO BOX 1006","EASTPOINT","FL","32328"
968450,"PO BOX 1006","TRACY","CA","95378"
968451,"PO BOX 100631","DENVER","CO","80250"
968452,"PO BOX 100638","DENVER","CO","80250"
968453,"PO BOX 10065","PRESCOTT","AZ","86304"
968454,"PO BOX 10067","VA BEACH","VA","23450"
968455,"PO BOX 1007 500 CAPTAIN KRAMER LN","CONCHAS DAM","NM","88416"
968456,"PO BOX 1007","ALLENTOWN","PA","18105"
968457,"PO BOX 1007","REPUBLIC","WA","99166"
968458,"PO BOX 1007","SWANSBORO","NC","28584"
968459,"PO BOX 1007","TOMBALL","TX","77377"
968460,"PO BOX 1007","TWIN FALLS","ID","83303"
968461,"PO BOX 1007","WESTLEY","CA","95387"
968462,"PO BOX 10072","STATEN ISLAND","NY","10301"
968463,"PO BOX 100757","FORT LAUDERDALE","FL","33310"
968464,"PO BOX 10076","TAMPA","FL","33606"
968465,"PO BOX 1008","BUFFALO","MO","65622"
968466,"PO BOX 1008","DRIPPING SPRINGS","TX","78620"
968467,"PO BOX 1008","JONESBORO","LA","71251"
968468,"PO BOX 1008","MONTEREY","CA","93942"
968469,"PO BOX 1008","OAK FOREST","IL","60452"
968470,"PO BOX 1008","TALKEETNA","AK","99676"
968471,"PO BOX 10081","PALM BAY","FL","32910"
968472,"PO BOX 100820","DENVER","CO","80250"
968473,"PO BOX 10086","BAINBRIDGE ISLAND","WA","98110"
968474,"PO BOX 100870","CAPE CORAL","FL","33910"
968475,"PO BOX 1009","EAST JORDAN","MI","49727"
968476,"PO BOX 1009","FAIRCHILD AFB","WA","99011"
968477,"PO BOX 1009","INDIANOLA","MS","38751"
968478,"PO BOX 1009","PINETOP","AZ","85935"
968479,"PO BOX 100942","MILWAUKEE","WI","53210"
968480,"PO BOX 10099","PHOENIX","AZ","85064"
968481,"PO BOX 101  7802 N M-123","PARADISE","MI","49768"
968482,"PO BOX 101","ADDISON","ME","04606"
968483,"PO BOX 101","ANNVILLE","KY","40402"
968484,"PO BOX 101","ARCADIA","OK","73007"
968485,"PO BOX 101","ARLINGTON","OR","97812"
968486,"PO BOX 101","BARKHAMSTED","CT","06063"
968487,"PO BOX 101","BASYE","VA","22810"
968488,"PO BOX 101","BATESLAND","SD","57716"
968489,"PO BOX 101","BRADFORD","VT","05033"
968490,"PO BOX 101","CARDIFF","CA","92007"
968491,"PO BOX 101","CLEARMONT","WY","82835"
968492,"PO BOX 101","CLIO","MI","48420"
968493,"PO BOX 101","DYER","NV","89010"
968494,"PO BOX 101","ELSMFORD","NY","10523"
968495,"PO BOX 101","EVANSVILLE","WI","53536"
968496,"PO BOX 101","FRANKENMUTH","MI","48734"
968497,"PO BOX 101","GADSDEN","AL","35902"
968498,"PO BOX 101","GRAND JUNCTION","CO","81502"
968499,"PO BOX 101","GUILFORD","CT","06437"
968500,"PO BOX 101","HILLSBORO","MO","63050"
