"ID","Address","City","State","Zip"
987501,"PO BOX 432","WOLCOTTVILLE","IN","46795"
987502,"PO BOX 432","WURTSBORO","NY","12790"
987503,"PO BOX 4321","ALPHARETTA","GA","30023"
987504,"PO BOX 4323","ORMOND BEACH","FL","32175"
987505,"PO BOX 4324","WALNUT CREEK","CA","94596"
987506,"PO BOX 433","BUENA VISTA","CO","81211"
987507,"PO BOX 433","GILROY","CA","95020"
987508,"PO BOX 433","GOLD BAR","WA","98251"
987509,"PO BOX 433","GOWRIE","IA","50543"
987510,"PO BOX 433","GRANDVILLE","MD","49468"
987511,"PO BOX 433","GRANDVILLE","MI","49468"
987512,"PO BOX 433","HAZELTON","ND","58544"
987513,"PO BOX 433","HINTON","OK","73047"
987514,"PO BOX 433","HUNTINGTON STATION","NY","11746"
987515,"PO BOX 433","HURLEY","NY","12443"
987516,"PO BOX 433","IIRON RIVER","MI","49935"
987517,"PO BOX 433","IRON RIVER","MI","49935"
987518,"PO BOX 433","LANCASTER","TX","75146"
987519,"PO BOX 433","MARENGO","OH","43334"
987520,"PO BOX 433","MURCHISON","TX","75778"
987521,"PO BOX 433","NANUET","NY","10954"
987522,"PO BOX 433","NIXON","TX","78140"
987523,"PO BOX 433","SHAW ISLAND","WA","98286"
987524,"PO BOX 433","SLEDGE","MS","38670"
987525,"PO BOX 433","TONASKET","WA","98885"
987526,"PO BOX 433","WAXHAW","NC","28173"
987527,"PO BOX 4331","TOPEKA","KS","66604"
987528,"PO BOX 4335","MARYVILLE","TN","37802"
987529,"PO BOX 4336","LYNCHBURG","VA","24502"
987530,"PO BOX 4337","WILLISTON","ND","58801"
987531,"PO BOX 4337","WILLISTON","ND","58802"
987532,"PO BOX 4338","ANDERSON","SC","29622"
987533,"PO BOX 434","ASHLAND","MT","59003"
987534,"PO BOX 434","BATSON","TX","77519"
987535,"PO BOX 434","BOWLING GREEN","VA","22427"
987536,"PO BOX 434","CASTLEWOOD","VA","24224"
987537,"PO BOX 434","ESCALON","CA","95320"
987538,"PO BOX 434","FORT MADISON","IA","52627"
987539,"PO BOX 434","GREEN RIVER","UT","84525"
987540,"PO BOX 434","GUNTERSVILLE","AL","35976"
987541,"PO BOX 434","HARTFORD","CT","06141"
987542,"PO BOX 434","LA CONNER","WA","98257"
987543,"PO BOX 434","LAWSON","MO","64062"
987544,"PO BOX 434","MALVERN","IA","51551"
987545,"PO BOX 434","MEDICAL LAKE","WA","99022"
987546,"PO BOX 434","MONTICELLO","GA","31064"
987547,"PO BOX 434","NEWPORT","NY","13416"
987548,"PO BOX 434","PITTSBURG","KY","40755"
987549,"PO BOX 434","PRAIRIE VIEW","TX","77446"
987550,"PO BOX 434","SENECA FALLS","NY","13148"
987551,"PO BOX 434","STANTON","CA","90680"
987552,"PO BOX 434","TAOS","NM","87571"
987553,"PO BOX 434","VERONA","MS","38879"
987554,"PO BOX 434062","SAINT LOUIS","MO","63143"
987555,"PO BOX 4341","COSTA MESA","CA","92628"
987556,"PO BOX 4341","MORGANTOWN","WV","26504"
987557,"PO BOX 43411","BROOKLYN PARK","MN","55443"
987558,"PO BOX 43418","LOS ANGELES","CA","90043"
987559,"PO BOX 4342","APOPKA","FL","32704"
987560,"PO BOX 4344","TORRANCE","CA","90510"
987561,"PO BOX 43444","UPPER MONTCLAIR","NJ","07043"
987562,"PO BOX 4345","DUNELLEN","NJ","08812"
987563,"PO BOX 43450","LAFAYETTE","LA","70504"
987564,"PO BOX 4346","PAGO PAGO","AS","96799"
987565,"PO BOX 4346","POCATELLO","ID","83206"
987566,"PO BOX 434607 SAN YSIDRO BLVD","SAN YSIDRO","CA","92143"
987567,"PO BOX 435","ANN ARBOR","MI","48106"
987568,"PO BOX 435","AVON PARK","FL","33826"
987569,"PO BOX 435","CORYDON","IA","50060"
987570,"PO BOX 435","COWAN","TN","37318"
987571,"PO BOX 435","EASTON","WA","98925"
987572,"PO BOX 435","GOSHEN","IN","46527"
987573,"PO BOX 435","GUSTINE","CA","95322"
987574,"PO BOX 435","HOWELLS","NE","68641"
987575,"PO BOX 435","LAKEVIEW","MI","48850"
987576,"PO BOX 435","MCDERMITT","NV","89421"
987577,"PO BOX 435","MONTGOMERY CENTER","VT","05471"
987578,"PO BOX 435","MOUNDS","OK","74047"
987579,"PO BOX 435","PAAUILO","HI","96776"
987580,"PO BOX 435","POWERS LAKE","ND","58773"
987581,"PO BOX 435","WARRIOR","AL","35180"
987582,"PO BOX 4352","BISBEE","AZ","85603"
987583,"PO BOX 4352","TUMWATER","WA","98501"
987584,"PO BOX 4353","MIDLOTHIAN","VA","23112"
987585,"PO BOX 4353","MILOTHIAN","VA","23112"
987586,"PO BOX 43538","JACKSONVILLE","FL","32203"
987587,"PO BOX 43544","SCOTTSDALE","AZ","85080"
987588,"PO BOX 436","BOULDER","MT","59632"
987589,"PO BOX 436","BRIGHTWOOD","OR","97011"
987590,"PO BOX 436","ESCALANTE","UT","84726"
987591,"PO BOX 436","FOX ISLAND","WA","98333"
987592,"PO BOX 436","HINESBURG","VT","05403"
987593,"PO BOX 436","METALINE FALLS","WA","99153"
987594,"PO BOX 436","MOUNT TABOR","NJ","07878"
987595,"PO BOX 436","NORWICH","WA","05055"
987596,"PO BOX 436","PALMER","AK","99645"
987597,"PO BOX 436","PEA RIDGE","AR","72751"
987598,"PO BOX 436","RIDGELEY","WV","26753"
987599,"PO BOX 436","ROANOKE","IN","46783"
987600,"PO BOX 436","SUAMICO","WI","54173"
987601,"PO BOX 4361","OCALA","FL","34478"
987602,"PO BOX 4364","SAN CLEMENTE","CA","92674"
987603,"PO BOX 43641","JACKSONVILLE","FL","32203"
987604,"PO BOX 4365","ATLANTA","GA","30302"
987605,"PO BOX 43655","LOS ANGELES","CA","90043"
987606,"PO BOX 43656","CHARLOTTE","NC","28215"
987607,"PO BOX 436789","MIDDLETOWN","KY","40253"
987608,"PO BOX 4368","BIG BEAR LAKE","CA","92315"
987609,"PO BOX 436885  IL 60643","CHICAGO","IL","60643"
987610,"PO BOX 437","DAVIS","WV","26260"
987611,"PO BOX 437","EASTPOINTE","MI","48021"
987612,"PO BOX 437","GEORGETOWN","SC","29442"
987613,"PO BOX 437","IDER","AL","35981"
987614,"PO BOX 437","LARNED","KS","67550"
987615,"PO BOX 437","MESILLA","NM","88046"
987616,"PO BOX 437","MONROE","WA","98272"
987617,"PO BOX 437","PANGUITCH","UT","84759"
987618,"PO BOX 437","ROOSEVELT","NY","11575"
987619,"PO BOX 437","SOUTH BEND","WA","98586"
987620,"PO BOX 437","WAYNE","NJ","07474"
987621,"PO BOX 4370","TUMWATER","WA","98501"
987622,"PO BOX 4370","TUWMATER","WA","98501"
987623,"PO BOX 437053","CHICAGO","IL","60643"
987624,"PO BOX 4371","LITTLE ROCK","AR","72214"
987625,"PO BOX 437150","CHICAGO","IL","60643"
987626,"PO BOX 437169","KAMUELA","HI","96743"
987627,"PO BOX 437173","KAMUELA","HI","96743"
987628,"PO BOX 4373","MANASSASS","VA","20118"
987629,"PO BOX 43732","BROADVIEW HEIGHTS","OH","44147"
987630,"PO BOX 437388","CHICAGO","IL","60643"
987631,"PO BOX 4374","HUNTSVILLE","AL","35815"
987632,"PO BOX 437438","KAMUELA","HI","96743"
987633,"PO BOX 43753","LOUISVILLE","KY","40253"
987634,"PO BOX 43755","BROOKLYN PARK","MN","55443"
987635,"PO BOX 4376","FONTANA","CA","92334"
987636,"PO BOX 4376","KAILUA KONA","HI","96745"
987637,"PO BOX 43777","CHARLOTTE","NC","28215"
987638,"PO BOX 43783","WASHINGTON","DC","20010"
987639,"PO BOX 438","BARROW","AK","99723"
987640,"PO BOX 438","BYRON CENTER","MI","49315"
987641,"PO BOX 438","CHAPITCO","MD","20621"
987642,"PO BOX 438","DETROIT","OR","97342"
987643,"PO BOX 438","GARDINER","MT","59030"
987644,"PO BOX 438","LAFAYETTE","GA","30728"
987645,"PO BOX 438","LECANTO","FL","34460"
987646,"PO BOX 438","MOAB","UT","84532"
987647,"PO BOX 438","MULBERRY","FL","33860"
987648,"PO BOX 438","RANCHESTER","WY","82830"
987649,"PO BOX 4381","Houston","TX","77210"
987650,"PO BOX 438152","CHICAGO","IL","60643"
987651,"PO BOX 43819","CLEVELAND","OH","44143"
987652,"PO BOX 4382","PAGO PAGO","AS","96799"
987653,"PO BOX 43824","LOUISVILLE","KY","40253"
987654,"PO BOX 4383","BEDFORD","WY","83112"
987655,"PO BOX 4383","DAVENPORT","IA","52802"
987656,"PO BOX 438305","CHICAGO","IL","60643"
987657,"PO BOX 4385","JACKSON","MS","39296"
987658,"PO BOX 4385","RIVERSIDE","CA","92514"
987659,"PO BOX 43862","ATLANTA","GA","30036"
987660,"PO BOX 438825","CHICAGO","IL","60643"
987661,"PO BOX 439","EHRHARDT","SC","29081"
987662,"PO BOX 439","GREENWOOD LAKE","NY","10925"
987663,"PO BOX 439","KINGS PARK","NY","11754"
987664,"PO BOX 439","MOHAWAK","MI","49450"
987665,"PO BOX 439030   PMB 153","SAN YSIDRO","CA","92143"
987666,"PO BOX 439030  PMB 153","SAN YSIDRO","CA","92143"
987667,"PO BOX 439030 PMB 168","SAN YSIDRO","CA","92143"
987668,"PO BOX 439030 PMB168","SAN YSIDRO","CA","92143"
987669,"PO BOX 439060  PMB 421","SAN DIEGO","CA","92143"
987670,"PO BOX 439060 PMB 351","SAN YSIDRO","CA","92143"
987671,"PO BOX 4391","GARDEN GROVE","CA","92842"
987672,"PO BOX 4391","LYNCHBURG","VA","24502"
987673,"PO BOX 4392","AUBURN","CA","95604"
987674,"PO BOX 4392","BUTTE","MT","59702"
987675,"PO BOX 4393","BEEVILLE","TX","78102"
987676,"PO BOX 4397","VESTAVIA","AL","35243"
987677,"PO BOX 44","ATKINSON","NE","68713"
987678,"PO BOX 44","BLOCK ISLAND","RI","02807"
987679,"PO BOX 44","BURLINGTON","CO","80807"
987680,"PO BOX 44","CAMP SHERMAN","OR","97730"
987681,"PO BOX 44","CASCADE LOCKS","OR","97014"
987682,"PO BOX 44","CENTERTON","AR","72719"
987683,"PO BOX 44","CLARK","PA","16113"
987684,"PO BOX 44","CLEVELAND","NM","87715"
987685,"PO BOX 44","CULLODEN","WV","25510"
987686,"PO BOX 44","DASSEL","MN","55325"
987687,"PO BOX 44","GRANITE FALLS","WA","98252"
987688,"PO BOX 44","GREENVILLE","MO","63944"
987689,"PO BOX 44","HENDERSONVILLE","TN","37077"
987690,"PO BOX 44","HOMER","GA","30547"
987691,"PO BOX 44","HOWE","IN","46746"
987692,"PO BOX 44","KETCHUM","ID","83340"
987693,"PO BOX 44","LACLEDE","ID","83841"
987694,"PO BOX 44","LAKE CHARLES","LA","70602"
987695,"PO BOX 44","LEBANON","OH","45036"
987696,"PO BOX 44","LINDEN","IA","50146"
987697,"PO BOX 44","LONG POINT","IL","61333"
987698,"PO BOX 44","LONGLEAF","LA","71448"
987699,"PO BOX 44","LONGLEAF","LA","71488"
987700,"PO BOX 44","MARLBOROUGH","CT","06447"
987701,"PO BOX 44","MARSTONS MILLS","MA","02648"
987702,"PO BOX 44","METCALFE","MS","38760"
987703,"PO BOX 44","MILBANK","SD","57252"
987704,"PO BOX 44","MONGO","IN","46771"
987705,"PO BOX 44","NAPOLEON","ND","58561"
987706,"PO BOX 44","RAMAH","NM","87321"
987707,"PO BOX 44","SANDWICH","IL","60548"
987708,"PO BOX 44","SCIOTO FURNACE","OH","45677"
987709,"PO BOX 44","SHARON","VT","06065"
987710,"PO BOX 44","SIERRA BLANCA","TX","79851"
987711,"PO BOX 44","TEMECULA","CA","92593"
987712,"PO BOX 44","WASHINGTON","VT","05675"
987713,"PO BOX 44","WAYNE","IL","60184"
987714,"PO BOX 44","WEST BOXFORD","MA","01885"
987715,"PO BOX 44","WINSTONVILLE","MS","39174"
987716,"PO BOX 44","YOUNTVILLE","AA","94599"
987717,"PO BOX 44","YOUNTVILLE","CA","94599"
987718,"PO BOX 440","HOT SPRINGS","MT","59845"
987719,"PO BOX 440","JACKSONVILLE","TX","75766"
987720,"PO BOX 440","LEGGETT","TX","77350"
987721,"PO BOX 440","PELHAM","NH","03076"
987722,"PO BOX 440","WINCHESTER","ID","83555"
987723,"PO BOX 4401","PENSACOLA","FL","32507"
987724,"PO BOX 4402","OMAHA","NE","68104"
987725,"PO BOX 440232","AURORA","CO","80044"
987726,"PO BOX 4403","HAGATNA","GU","96932"
987727,"PO BOX 440321","HOUSTON","TX","77244"
987728,"PO BOX 440356","CHICAGO","IL","60644"
987729,"PO BOX 440392","KENNESAW","GA","30160"
987730,"PO BOX 440402","KENNESAW","GA","30160"
987731,"PO BOX 440532","AURORA","CO","80044"
987732,"PO BOX 440642","KENNESAW","GA","30160"
987733,"PO BOX 440712","AURORA","CO","80044"
987734,"PO BOX 4408","SAN LUIS OBISPO","CA","93403"
987735,"PO BOX 440866","JACKSONVILLE","FL","32222"
987736,"PO BOX 440973","KENNESAW","GA","30160"
987737,"PO BOX 441","CHANDLER","TX","75758"
987738,"PO BOX 441","COLUMBIA","TN","38402"
987739,"PO BOX 441","COULEE CITY","WA","99115"
987740,"PO BOX 441","ELIZABETH","CO","80107"
987741,"PO BOX 441","ELLSINORE","MO","63937"
987742,"PO BOX 441","FRIENDSHIP","WI","53934"
987743,"PO BOX 441","FRIENDSHIP","WI",NA
987744,"PO BOX 441","HARRAH","WA","98933"
987745,"PO BOX 441","HAWI","HI","96719"
987746,"PO BOX 441","KIMBERLY","ID","83341"
987747,"PO BOX 441","LEAKEY","TX","78873"
987748,"PO BOX 441","NOME","AK","99762"
987749,"PO BOX 441","ORANGEBURG","SC","29116"
987750,"PO BOX 441","ORISKANY","NY","13424"
987751,"PO BOX 441","PENNVILLE","IN","47369"
987752,"PO BOX 441","THEODORE","AL","36590"
987753,"PO BOX 441013","FORT WASHINGTON","MD","20749"
987754,"PO BOX 44103","DETROIT","MI","48226"
987755,"PO BOX 441034","KENNESAW","GA","30160"
987756,"PO BOX 441038","DETROIT","MI","48224"
987757,"PO BOX 4411","JOPLIN","MO","64803"
987758,"PO BOX 441271","INDIANAPOLIS","IN","46244"
987759,"PO BOX 441278","PITTSBURGH","PA","15205"
987760,"PO BOX 4413","COLUMBUS","GA","31914"
987761,"PO BOX 44146","DENVER","CO","80201"
987762,"PO BOX 441491","AURORA","CO","80044"
987763,"PO BOX 441522","JACKSONVILLE","FL","32222"
987764,"PO BOX 441672","AURORA","CO","80044"
987765,"PO BOX 4417","DOWLING PARK","FL","32064"
987766,"PO BOX 4417","FAIRVIEW","NM","87533"
987767,"PO BOX 44174","FORT WASHINGTON","MD","20749"
987768,"PO BOX 44174","FT WASHINGTON","MD","20749"
987769,"PO BOX 44178","PITTSBURGH","PA","15205"
987770,"PO BOX 44192","ATLANTA","GA","30336"
987771,"PO BOX 442","BRANFORD","CT","04605"
987772,"PO BOX 442","BRANFORD","CT","06405"
987773,"PO BOX 442","CARTHAGE","NY","13619"
987774,"PO BOX 442","DUPLESSIS","LA","70728"
987775,"PO BOX 442","FRANCONIA","NH","03580"
987776,"PO BOX 442","HEATHSVILLE","VA","22473"
987777,"PO BOX 442","LAKE CRYSTAL","MN","56055"
987778,"PO BOX 442","LUCKEY","OH","43443"
987779,"PO BOX 442","MATHEWS","VA","23109"
987780,"PO BOX 442","MEDFORD","MA","02155"
987781,"PO BOX 442","MEDICINE PARK","OK","73557"
987782,"PO BOX 442","MIDDLEBURG","VA","20118"
987783,"PO BOX 442","MONTPELIER","VT","05601"
987784,"PO BOX 442","MULLICA HILL","NJ","08062"
987785,"PO BOX 442","POMEROY","WA","99347"
987786,"PO BOX 442","SHERWOOD","OH","43556"
987787,"PO BOX 442","STRATFORD","NJ","08084"
987788,"PO BOX 442","SUMMIT","AR","72677"
987789,"PO BOX 44201","FT WASHINGTON","MA","20749"
987790,"PO BOX 4421","TYLER","TX","75712"
987791,"PO BOX 442164","LAWRENCE","KS","66044"
987792,"PO BOX 442164","LAWRENCE","SC","66044"
987793,"PO BOX 4422","EDWARDS","CO","81632"
987794,"PO BOX 44221","ATLANTA","GA","30336"
987795,"PO BOX 44246","MADISON","WI","53719"
987796,"PO BOX 4425","BRANDON","MS","39047"
987797,"PO BOX 442632","LAWRENCE","KS","66044"
987798,"PO BOX 4427","SEVIERVILLE","TN","37864"
987799,"PO BOX 4429","BOULDER","CO","80306"
987800,"PO BOX 44293","WASHINGTON","DC","20026"
987801,"PO BOX 443","BELT","MT","59412"
987802,"PO BOX 443","BUNN","NC","27508"
987803,"PO BOX 443","DAMASCUS","VA","24236"
987804,"PO BOX 443","DUNN LORING","VA","22027"
987805,"PO BOX 443","ELYRIA","OH","44036"
987806,"PO BOX 443","ENNIS","MT","59729"
987807,"PO BOX 443","FAIRFAX","VT","05454"
987808,"PO BOX 443","FINDLAY","OH","45839"
987809,"PO BOX 443","FOX LAKE","WI","53933"
987810,"PO BOX 443","FRISCO","CO","80443"
987811,"PO BOX 443","GEORGETOWN","KY","40324"
987812,"PO BOX 443","HERALD","CA","95638"
987813,"PO BOX 443","HOWARD","PA","16841"
987814,"PO BOX 443","HUNTINGTON STATION","NY","11746"
987815,"PO BOX 443","INTERVALE","NH","03845"
987816,"PO BOX 443","MCDONALD","OH","44437"
987817,"PO BOX 443","MONETTE","AR","72447"
987818,"PO BOX 443","MORELAND","GA","30259"
987819,"PO BOX 443","OSCEOLA","AR","72370"
987820,"PO BOX 443","ROAN MOUNTAIN","TN","37687"
987821,"PO BOX 443","SAN AUGUSTINE","TX","75972"
987822,"PO BOX 443","SENECA","MO","64865"
987823,"PO BOX 443","SHADY COVE","OR","97539"
987824,"PO BOX 443","SMITHVILLE","TX","78957"
987825,"PO BOX 443","STAFFORD","TX","77497"
987826,"PO BOX 443","TOWNSEND","MA","01469"
987827,"PO BOX 443","WASHINGTON CROSSING","PA","18977"
987828,"PO BOX 4430","SONORA","CA","95370"
987829,"PO BOX 443178","MOSCOW","ID","83843"
987830,"PO BOX 4432","ALBUQUERQUE","NM","87196"
987831,"PO BOX 44321","MADISON","WI","53744"
987832,"PO BOX 4434","KILLEEN","TX","76540"
987833,"PO BOX 44369","PHILADELPHIA","PA","19144"
987834,"PO BOX 4437","ANDERSON","SC","29622"
987835,"PO BOX 4438","OLATHE","KS","66063"
987836,"PO BOX 444","ALBANY","OR","97322"
987837,"PO BOX 444","ARTEMUS","KY","40900"
987838,"PO BOX 444","ASTORIA","IL","61501"
987839,"PO BOX 444","BIGLER","PA","16825"
987840,"PO BOX 444","BOICEVILE","NY","12412"
987841,"PO BOX 444","BURLINGTON","NJ","08016"
987842,"PO BOX 444","CAYUCOS","CA","93430"
987843,"PO BOX 444","CEDARBURG","WI","53012"
987844,"PO BOX 444","CHARDON","OH","44024"
987845,"PO BOX 444","CRAIGSVILLE","WV","26205"
987846,"PO BOX 444","DAYTON","OH","45409"
987847,"PO BOX 444","HIGHLAND","NY","12528"
987848,"PO BOX 444","HOOLEHUA","HI","96729"
987849,"PO BOX 444","HORN LAKE","MS","38637"
987850,"PO BOX 444","KILMARNOCK","VA","22482"
987851,"PO BOX 444","KINGSLEY","MI","49649"
987852,"PO BOX 444","LAUPAHOEHOE","HI","96764"
987853,"PO BOX 444","MONTGOMERY","AL","36101"
987854,"PO BOX 444","MORO","OR","97039"
987855,"PO BOX 444","PERIDOT","AZ","85542"
987856,"PO BOX 444","SENATOBIA","MS","38668"
987857,"PO BOX 444","SPICER","MN","56288"
987858,"PO BOX 444","STONE HARBOR","NJ","08247"
987859,"PO BOX 444","THREE FORKS","MT","59752"
987860,"PO BOX 444","TUOLUMNE","CA","95379"
987861,"PO BOX 444","VANDERBILT","TX","77991"
987862,"PO BOX 4440","BOZEMAN","MT","59772"
987863,"PO BOX 4442","BRYAN","TX","77805"
987864,"PO BOX 4442","PALMER","AK","99645"
987865,"PO BOX 4445","FOSTER CITY","CA","94404"
987866,"PO BOX 4445","KNOXVILLE","TN","37921"
987867,"PO BOX 4445","OAK RIDGE","TN","37830"
987868,"PO BOX 4446","APOPKA","FL","32704"
987869,"PO BOX 44474","DETROIT","MI","48244"
987870,"PO BOX 4448","FONTANA","CA","92334"
987871,"PO BOX 445","ALDERSON","WV","24910"
987872,"PO BOX 445","AXTELL","TX","76624"
987873,"PO BOX 445","BIMBLE","KY","40915"
987874,"PO BOX 445","BRONX","NY","10475"
987875,"PO BOX 445","EAST STROUDSBURG","PA","18301"
987876,"PO BOX 445","EDGERTON","WI","53534"
987877,"PO BOX 445","FONDA","IA","50540"
987878,"PO BOX 445","MULLICA HILL","NJ","08062"
987879,"PO BOX 445","NEDERLAND","CO","80466"
987880,"PO BOX 445","NEW CASTLE","CO","81647"
987881,"PO BOX 445","PEORIA","AZ","85380"
987882,"PO BOX 445","STIGLER","OK","74462"
987883,"PO BOX 445","STURGIS","SD","57785"
987884,"PO BOX 445","SUNAPEE","NH","03782"
987885,"PO BOX 445","TREGO","MT","59934"
987886,"PO BOX 445","WEST COLUMBIA","TX","77486"
987887,"PO BOX 445","WIMBERLEY","TX","78676"
987888,"PO BOX 44504","ATLANTA","GA","30336"
987889,"PO BOX 4451","CARMEL","IN","46082"
987890,"PO BOX 4453","IRVINE","CA","92697"
987891,"PO BOX 44532","LOS ANGELES","CA","90044"
987892,"PO BOX 4454","CITRUS HEIGHTS","CA","95611"
987893,"PO BOX 44541","ATLANTA","GA","30336"
987894,"PO BOX 4455","LONG BEACH","CA","90804"
987895,"PO BOX 44568","FT WASHINGTON","MD","20749"
987896,"PO BOX 4457","FORT LAUDERDALE","FL","33338"
987897,"PO BOX 4457","LEESBURG","VA","20177"
987898,"PO BOX 44582","ATLANTA","GA","30336"
987899,"PO BOX 44583","PHOENIX","AZ","85064"
987900,"PO BOX 44591","KAMUELA","HI","96743"
987901,"PO BOX 446 - 119 PITT STREET","HUSTONTOWN","PA","17229"
987902,"PO BOX 446","ENDICOTT","NY","13761"
987903,"PO BOX 446","GREAT BEND","KS","67530"
987904,"PO BOX 446","HANALEI","HI","96714"
987905,"PO BOX 446","HARLEM","GA","30814"
987906,"PO BOX 446","HARRISON","OH","45030"
987907,"PO BOX 446","HENDERSON","NE","68371"
987908,"PO BOX 446","HUSTONTOWN","PA","17229"
987909,"PO BOX 446","KANEOHE","HI","96744"
987910,"PO BOX 446","LANCASTER","TX","75146"
987911,"PO BOX 446","LITTLE ROCK","AR","72201"
987912,"PO BOX 446","MARION","NC","28752"
987913,"PO BOX 446","MONTEAGLE","TN","37356"
987914,"PO BOX 446","MT. HOPE","WV","25880"
987915,"PO BOX 446","NEAH BAY","WA","98357"
987916,"PO BOX 446","OJAI","CA","93024"
987917,"PO BOX 446","OKMULGEE","OK","74447"
987918,"PO BOX 446","ONA","FL","33865"
987919,"PO BOX 446","OXFORD","IA","52322"
987920,"PO BOX 446","SAXTONS RIVER","VT","05154"
987921,"PO BOX 446","SOUTH SUTTON","NH","03273"
987922,"PO BOX 446","SOUTHEASTERN","PA","19399"
987923,"PO BOX 446","SPRINGFIELD","SD","57062"
987924,"PO BOX 446","STATESBORO","GA","30459"
987925,"PO BOX 446","STRAFFORD","NH","03884"
987926,"PO BOX 4461","MONROE","LA","71211"
987927,"PO BOX 4462","BRANDON","MS","39047"
987928,"PO BOX 4462","NEW YORK","NY","10017"
987929,"PO BOX 4463","KAILUA KONA","HI","96745"
987930,"PO BOX 44638","KAMUELA","HI","96743"
987931,"PO BOX 4464","SANTA FE","NM","87502"
987932,"PO BOX 4465","PAGO PAGO","AS","96799"
987933,"PO BOX 4466","DIAMOND BAR","CA","91765"
987934,"PO BOX 44671","KAMUELA","HI","96743"
987935,"PO BOX 447","ACCORD","NY","12404"
987936,"PO BOX 447","ASHLAND","NY","12407"
987937,"PO BOX 447","ASHTABULA","OH","44004"
987938,"PO BOX 447","CANVAS","WV","26662"
987939,"PO BOX 447","EAGLE BUTTE","SD","57625"
987940,"PO BOX 447","EL RITO","NM","87530"
987941,"PO BOX 447","FLORAL PARK","NY","11002"
987942,"PO BOX 447","FOSSIL","OR","97830"
987943,"PO BOX 447","GLASGOW","MT","59230"
987944,"PO BOX 447","HIRAM","OH","44234"
987945,"PO BOX 447","INDIANOLA","MS","38751"
987946,"PO BOX 447","JASPER","AR","72641"
987947,"PO BOX 447","LOUISIANA","MO","63353"
987948,"PO BOX 447","MAHOPAC","NY","10542"
987949,"PO BOX 447","MONONA","IA","52159"
987950,"PO BOX 447","MT NEBO","WV","26679"
987951,"PO BOX 447","NEWPORT","NY","13416"
987952,"PO BOX 447","NORWOOD","CO","81423"
987953,"PO BOX 447","ROCK CREEK","OH","44084"
987954,"PO BOX 447","SEWELL","NJ","08080"
987955,"PO BOX 447","SIX MILE","SC","29682"
987956,"PO BOX 447","SPRINGTOWN","TX","76082"
987957,"PO BOX 447","THOMPSON FALLS","MT","59873"
987958,"PO BOX 447","WARDEN","WA","98857"
987959,"PO BOX 4472","COMPTON","CA","90224"
987960,"PO BOX 4472","WASHINGTON","DC","20017"
987961,"PO BOX 4473","MOORESVILLE","NC","28117"
987962,"PO BOX 44742","PHOENIX","AZ","85064"
987963,"PO BOX 448","DELTA JUNCTION","AK","99737"
987964,"PO BOX 448","LINDEN","TN","37096"
987965,"PO BOX 448","MOOREFIELD","WV","26836"
987966,"PO BOX 448","NAALEHU","HI","96772"
987967,"PO BOX 448","OROFINO","ID","83544"
987968,"PO BOX 448","SPOUT SPRING","VA","24593"
987969,"PO BOX 448","TERLINGUA","TX","79852"
987970,"PO BOX 448","WELCHES","OR","97067"
987971,"PO BOX 44801","INDIANAPOLIS","IN","46244"
987972,"PO BOX 44802","MADISON","WI","53744"
987973,"PO BOX 4481","PITTSBURGH","PA","15205"
987974,"PO BOX 4483","GREENSBORO","NC","27404"
987975,"PO BOX 44832","BALTIMORE","MD","21236"
987976,"PO BOX 4484","KAILUA KONA","HI","96745"
987977,"PO BOX 4485","CHATTANOOGA","TN","37405"
987978,"PO BOX 4486","CRESTLINE","CA","92325"
987979,"PO BOX 4486","PALESTINE","TX","75802"
987980,"PO BOX 4487","SPANAWAY","WA","98387"
987981,"PO BOX 44875","EDEN PRAIRIE","MN","55344"
987982,"PO BOX 449","HARTSEL","CO","80449"
987983,"PO BOX 449","LITHIA SPRINGS","NC","30122"
987984,"PO BOX 449","MCKENNA","WA","98558"
987985,"PO BOX 449","MT. AIRY","NC","27030"
987986,"PO BOX 449","THREE RIVERS","CA","93271"
987987,"PO BOX 449","WEST POINT","VA","23181"
987988,"PO BOX 449","WINNSBORO","SC","29180"
987989,"PO BOX 4491","KETCHUM","ID","83340"
987990,"PO BOX 44944","KAMUELA","HI","96743"
987991,"PO BOX 4497","SAINT AUGUSTINE","FL","32085"
987992,"PO BOX 45","AARONSBURG","PA","16820"
987993,"PO BOX 45","BANGOR","WI","54614"
987994,"PO BOX 45","BUFFALO LAKE","MN","55314"
987995,"PO BOX 45","BURLINGTON","PA","18814"
987996,"PO BOX 45","CHANDLER","AZ","85244"
987997,"PO BOX 45","CHANDLR","AZ","85244"
987998,"PO BOX 45","CLIFTON PARK","NY","12065"
987999,"PO BOX 45","COLDIRON","KY","40819"
988000,"PO BOX 45","COLLEYVILLE","TX","76034"
