"ID","Address","City","State","Zip"
617001,"422 W REDROCK DRIVE","PHOENIX","AZ","85027"
617002,"422 W RIVERSIDE DR","AUSTIN","TX","78704"
617003,"422 W RIVERSIDE STE 1100","SPOKANE","WA","99201"
617004,"422 W TITUS","KENT","WA","98032"
617005,"422 WALL ST","TIFFIN","OH","44883"
617006,"422 WALNUT ST","HAPEVILLE","GA","30354"
617007,"422 WALNUT STREET","ATLANTA","GA","30354"
617008,"422 WARNER ST","OREGON CITY","OR","97045"
617009,"422 WARWICK ROAD","CLINTON","MS","39056"
617010,"422 WELLESLEY SE","ALBUQUERQUE","NM","87106"
617011,"422 WEST 1600 NORTH","CEDAR CITY","UT","84721"
617012,"422 WEST 17TH","ADA","OK","74820"
617013,"422 WEST 20TH STREET 4A","NEW YORK","NY","10011"
617014,"422 WEST 85TH DRIVE","MERRILLVILLE","IN","46410"
617015,"422 WEST BIJOU STREET","COLORADO SPRINGSQ","CO","80905"
617016,"422 WEST CARLISLE ROAD","THOUSAND OAKS","CA","91361"
617017,"422 WEST CARRIERE STREET","WASHINGTON","LA","70589"
617018,"422 WEST MAIN ST","EVERETT","PA","15537"
617019,"422 WEST PARK","MADISONVILLE","TX","77864"
617020,"422 WEST PESTALOZZI STREET","EGG HARBOR CITY","NJ","08215"
617021,"422 WEST RIVERSIDE DRIVE 536","AUSTIN","TX","78704"
617022,"422 WESTOVER DRIVE","COLUMBIA","TN","38401"
617023,"422 WHEELER AVE","ANDERSON","IN","46016"
617024,"422 WHIPPOORWILL RD","ALBANY","GA","31707"
617025,"422 WIKLUND AVENUE","STRATFORD","CT","06615"
617026,"422 WILEMAN DRIVE","EDGERTON","WI","53534"
617027,"422 WILEY","SWINK","CO","81077"
617028,"422 WILSON COURT","HUNTINGTON","WV","25701"
617029,"422 WISHON AVENUE","MADERA","CA","93636"
617030,"422 WOODHALL DR","WILLOW STREET","PA","17584"
617031,"422 WOODLANDS WAY","ABINGTON","MA","02351"
617032,"422 ZEIGLER AVENUE  APT 2","BUTLER","PA","16001"
617033,"422","STERLING","VA","20166"
617034,"4220 24TH STREET APT 22K","LONG ISLAND CITY","NY","11101"
617035,"4220 27TH STREET","LONG ISLAND CITY","NY","11101"
617036,"4220 58TH ST S","FARGO","ND","58104"
617037,"4220 5TH AVE NW UNIT102","OLYMPIA","WA","98502"
617038,"4220 5TH AVE UNIT 6","SAN DIEGO","CA","92103"
617039,"4220 ADMIRABLE DRIVE","RPV","CA","90275"
617040,"4220 ALEX AVENUE","CHEVIOT","OH","45211"
617041,"4220 ALEX CT","FAIRFAX","VA","22030"
617042,"4220 ALIIKOA PLACE","HAIKU","HI","96708"
617043,"4220 ALLENDALE AVENUE","ROCKFORD","IL","61109"
617044,"4220 ALLENDORF DRIVE","CINCINNATI","OH","45209"
617045,"4220 ALLOTT AVE","SHERMAN OAKS","CA","91423"
617046,"4220 ALNA WAY","SARASOTA","FL","34232"
617047,"4220 ANTHONY LANE","PLAINFIELD","IL","60586"
617048,"4220 ANTLERS CT","FORT COLLINS","CO","80526"
617049,"4220 ASHCOTT LN","PLAINFIELD","IL","60586"
617050,"4220 BALINGTON DR","VALRICO","FL","33596"
617051,"4220 BAY RUM LN","RALEIGH","NC","27610"
617052,"4220 BELMAR AVENUE","BALTIMORE","MD","21206"
617053,"4220 BEN CARTER ROAD","BAXLEY","GA","31513"
617054,"4220 BRETTON BAY LANE","DALLAS","TX","75287"
617055,"4220 BROMLEY PLACE","COLORADO SPRINGS","CO","80906"
617056,"4220 BROOKSIDE RD","OTTAWA HILLS","OH","43606"
617057,"4220 BRUSH HILL RD","NASHVILLE","TN","37216"
617058,"4220 CAMPBELL AVENUE UNIT 818","ARLINGTON","VA","22206"
617059,"4220 CAMPBELL AVENUE","ARLINGTON","VA","22206"
617060,"4220 CASEY AVE","SANTA YNEZ","CA","93460"
617061,"4220 CLIFFSIDE DRIVE","LA CROSSE","WI","54601"
617062,"4220 COLORADO DRIVE","BETTENDORF","IA","52722"
617063,"4220 CORTE FAVOR","SAN DIEGO","CA","92130"
617064,"4220 CROWFIELD DRIVE","RALEIGH","NC","27610"
617065,"4220 DAIRY RD","ARPIN","WI","54410"
617066,"4220 DELAUTER ROAD","MYERSVILLE","MD","21773"
617067,"4220 DEREIMER AVENUE","BRONX","NY","10466"
617068,"4220 DIXIE HWY","PALM BAY","FL","32905"
617069,"4220 DOGWOOD STAND RD","HARTFORD","TN","37704"
617070,"4220 DREUX AVENUE","NEW ORLEANS","LA","70126"
617071,"4220 E 77TH ST","TULSA","OK","74136"
617072,"4220 E 83RD PL","TULSA","OK","74137"
617073,"4220 E LAWRENCE AVENUE","SUMNER","IL","62466"
617074,"4220 E LOOP ROAD","HESPERIA","MI","49421"
617075,"4220 E SACRAMENTO AVENUE","ST LOUIS","MO","63115"
617076,"4220 E SANDRA TERRACE","PHOENIX","AZ","85032"
617077,"4220 EMERSON AVENUE","DALLAS","TX","75205"
617078,"4220 ERIK AVENUE","AMARILLO","TX","79106"
617079,"4220 EVANSTON AVE","INDIANAPOLIS","IN","46205"
617080,"4220 FLORIN ROAD SUITE 109","SACRAMENTO","CA","95823"
617081,"4220 HENRY AVE","HAMMOND","IN","46327"
617082,"4220 HOLLAND DRIVE","DES MOINES","IA","50310"
617083,"4220 HOULDSWORTH DR","CHARLOTTE","NC","28213"
617084,"4220 HWY 41","HUGER","SC","29450"
617085,"4220 IDLEWOOD DRIVE","CUMMING","GA","30040"
617086,"4220 INDIGO DR","SAN JOSE","CA","95136"
617087,"4220 JASMINE COURT","TURLOCK","CA","95382"
617088,"4220 JASMINE CT","TURLOCK","CA","95382"
617089,"4220 JASON ST UNIT B","DENVER","CO","80211"
617090,"4220 JEANETTE DR","BETHLEHEM","PA","18020"
617091,"4220 KINGSTON CT","SARASOTA","FL","34233"
617092,"4220 KISSENA BLVD STE A2","FLUSHING","NY","11355"
617093,"4220 KNIGHT ARNOLD","MEMPHIS","TN","38118"
617094,"4220 LAKE COOK DRIVE APT 104","DURHAM","NC","27713"
617095,"4220 LAMAR ST - 2","HOUSTON","TX","77023"
617096,"4220 LEEDS DR","CROWLEY","TX","76036"
617097,"4220 LOSTRIDGE ROAD","AUSTIN","TX","78731"
617098,"4220 LOWELL DR","PIKESVILLE","MD","21208"
617099,"4220 MADISON DR","CUMMING","GA","30040"
617100,"4220 MADISON ST","HYATTSVILLE","MD","20781"
617101,"4220 MALLORY RD","COLUMBUS","GA","31907"
617102,"4220 MANHATTAN DRIVE","MOORE","OK","73160"
617103,"4220 MARK PL","MACON","GA","31204"
617104,"4220 MOUNTVIEW ROAD","UPPER ARLINGTON","OH","43220"
617105,"4220 N 1350 E","BUHL","ID","83316"
617106,"4220 N 146TH PLZ","OMAHA","NE","68116"
617107,"4220 N 57 LANE","PHOENIX","AZ","85031"
617108,"4220 N CR 500 W","MUNCIE","IN","47304"
617109,"4220 N JOSEY LN","CARROLLTON","TX","75010"
617110,"4220 NELSON ROAD","CAZENOVIA","NY","13035"
617111,"4220 NORTH 146TH PLAZA APT 305","OMAHA","NE","68116"
617112,"4220 NORTH 146TH PLAZA","OMAHA","NE","68116"
617113,"4220 NORTH RIVERSIDE DRIVE","COLUMBUS","IN","47203"
617114,"4220 NORTH RUSHWOOD COURT","BEL AIRE","KS","67226"
617115,"4220 NW 10TH ST","COCONUT CREEK","FL","33066"
617116,"4220 OAKBROOK DR","DEL CITY","OK","73115"
617117,"4220 OAKWOOD DRIVE","ADAMSVILLE","AL","35005"
617118,"4220 OTTER STREET","PHILADELPHIA","PA","19104"
617119,"4220 PALM DRIVE","BARTOW","FL","33830"
617120,"4220 PALMER DRIVE","NAPERVILLE","IL","60564"
617121,"4220 PIERCE ROAD","POWHATAN","VA","23139"
617122,"4220 PINEHOLLOW CIR","GREENACRES ACRES","FL","33463"
617123,"4220 PONT DU GARD WAY","CROWLEY","TX","76036"
617124,"4220 PROSPERITY CHURCH ROAD","CHARLOTTE","NC","28269"
617125,"4220 QUAIL ROOST RD","ST CLOUD","FL","34772"
617126,"4220 RAMS HALL PL","SANTA CLARA","CA","95054"
617127,"4220 REED ROAD","LOUISVILLE","TN","37777"
617128,"4220 REESHEMAH ST","COLLEGE PARK","GA","30349"
617129,"4220 RIPA AVENUE","SAINT LOUIS CITY","MO","63125"
617130,"4220 ROBINS HILL COURT","MIMS","FL","32754"
617131,"4220 ROCK ROAD","BOURBON","MO","65441"
617132,"4220 S 215TH W","GODDARD","KS","67052"
617133,"4220 S HOCKER DRIVE 200","INDEPENDENCE","MO","64055"
617134,"4220 SOUTH VAN BUREN PLACE","LOS ANGELES","CA","90037"
617135,"4220 STADIUM BLVD","JONESBORO","AR","72404"
617136,"4220 STATE ROUTE 681","ALBANY","OH","45710"
617137,"4220 SUGAR STONE LANE APT 123","CHARLOTTE","NC","28269"
617138,"4220 SW 5TH AVENUE","GAINESVILLE","FL","32607"
617139,"4220 SW TORR LANE","PORTLAND","OR","97221"
617140,"4220 TARA ST","SPRINGDALE","AR","72762"
617141,"4220 W ADAMS AVE","SHOW LOW","AZ","85901"
617142,"4220 W GARFIELD AVE","MILWAUKEE","WI","53208"
617143,"4220 W SAN ANTONIO ST","BROKEN ARROW","OK","74012"
617144,"4220 W SAN ANTONIO","BROKEN ARROW","OK","74012"
617145,"4220 WILSONIA SHORES DRIVE","MACHIPONGO","VA","23405"
617146,"4220 WITHEROW ROAD","WINSTON-SALEM","NC","27106"
617147,"4220 WOODLEA AVENUE","BALTIMORE","MD","21206"
617148,"4220 WOODLEAF RD","SALISBURY","NC","28147"
617149,"4220 WOODLEAF ROAD","SALISBURY","NC","28147"
617150,"4220 YORK STREET","NEW BOSTON","OH","45662"
617151,"4220 ZACCARO WAY","ELK GROVE","CA","95758"
617152,"4220-15TH AVENUE","BROOKLYN","NY","11219"
617153,"4220-2 BRISTLE CONE ST","FT. WAINWRIGHT","AK","99703"
617154,"42200 MARGARITA ROAD APT 1313","TEMECULA","CA","92592"
617155,"42200 MARGARITA ROAD APT1313","PEMECULA","CA","92592"
617156,"42200 MORAGA ROAD","TEMECULA","CA","92591"
617157,"42203 BROADWALK AVE","HAMMOND","LA","70403"
617158,"42205 260TH ST","ARLINGTON","MN","55307"
617159,"42205 PANORAMA PLACE","LEESBURG","VA","20176"
617160,"42207 HYSTONE ST","CANTON","MI","48187"
617161,"42208 VALLEY VISTA DRIVE","LANCASTER","CA","93536"
617162,"42209 MARBELLA STREET","QUARTZ HILL","CA","93536"
617163,"4220A SE SALMON STREET","PORTLAND","OR","98221"
617164,"4220A SE SALMON STREET","PORTLAND","WA","98221"
617165,"4221 13TH AVE S","SAINT PETERSBURG","FL","33711"
617166,"4221 183RD AVE SW","ROCHESTER","WA","98579"
617167,"4221 28TH AVENUE APT302","TEMPLE HILL","MD","20748"
617168,"4221 42ND AVENUE S","SEATTLE","WA","98118"
617169,"4221 47TH STREET","SAN DIEGO","CA","92115"
617170,"4221 55TH AVE NE","SEATTLE","WA","91805"
617171,"4221 ACADEMY ST","BELLINGHAM","WA","98226"
617172,"4221 ALMY ROAD 107","EVANSTON","WY","82930"
617173,"4221 ARGYLE TERRACE NW","WASHINGTON","DC","20011"
617174,"4221 ATWOOD DR","ORLANDO","FL","32828"
617175,"4221 AUTUMN LANE","CHATTANOOGA","TN","37416"
617176,"4221 BARING AVE","EAST CHICAGO","IN","46312"
617177,"4221 BELL ST","CINCINNATI","OH","45212"
617178,"4221 BELMAR AVENUE","BALTIMORE","MD","21206"
617179,"4221 BEVERLY RD SW","CEDAR RAPIDS","IA","52402"
617180,"4221 BIRDIE CT","LONGMONT","CO","80503"
617181,"4221 BROWNWAY AVE APT 1","CINCINNATI","OH","45209"
617182,"4221 BROWNWAY AVE APT 2","CINCINNATI","OH","45209"
617183,"4221 BUCKSKIN TRAIL","LAPORTE","CO","80535"
617184,"4221 BUSHNELL CAMPBELL ROAD","FOWLER","OH","44481"
617185,"4221 CANEBRAKE COURT","VIRGINIA BEACH","VA","23456"
617186,"4221 CANTELOW ROAD","VACAVILLE","CA","95688"
617187,"4221 CAPRI ST","SEBRING","FL","33872"
617188,"4221 CARDINAL STREET","NORTHPORT","AL","35473"
617189,"4221 CASS AVE APT 1300","DETROIT","MI","48201"
617190,"4221 COLT DR","LAKE HAVASU CITY","AZ","86404"
617191,"4221 CRIPPLE CREEK","LINCOLN","NE","68516"
617192,"4221 CRUMP RD","MEMPHIS","TN","38141"
617193,"4221 DEERFIELD CIRCLE","JACKSONVILLE","FL","32234"
617194,"4221 DESERT FOX DRIVE","SPARKS","NV","89436"
617195,"4221 DOE CREEK TRL","FORT WORTH","TX","76244"
617196,"4221 DRAKES COURT","NASHVILLE","TN","37218"
617197,"4221 E MCDOWELL ROAD","PHOENIX","AZ","85008"
617198,"4221 E RAY RD 2055","PHOENIX","AZ","85044"
617199,"4221 E RAY RD","PHOENIX","AZ","85044"
617200,"4221 EAST MCDOWELL RD UNIT 1095","PHOENIX","AZ","85008"
617201,"4221 EASTLAWN","DETROIT","MI","48215"
617202,"4221 EVERETT STREET","KENSINGTON","MD","20895"
617203,"4221 EXPLORER COURT","LA MESA","CA","91941"
617204,"4221 EXPLORER CT","LA MESA","CA","91941"
617205,"4221 FLATRIDGE","KINGMAN","AZ","86401"
617206,"4221 FM 876","WAXAHACHIE","TX","75167"
617207,"4221 FOREST HILL DR","LOUISIANA","MO","63353"
617208,"4221 FULLERTON","DETROIT","MI","48238"
617209,"4221 GORMAN STREET","WASHINGTON","DC","20019"
617210,"4221 HIGHWAY 136","CLINTON","IA","52732"
617211,"4221 INDIAN RUN DR","CARROLLTON","TX","75010"
617212,"4221 LAMPLIGHTER DRIVE","CHESTERFIELD","VA","23234"
617213,"4221 LANCASTER DR","SARASOTA","FL","34241"
617214,"4221 LEIMERT  BOULEVARD  APT  1","LOS ANGELES","CA","90008"
617215,"4221 MARBELLA DRIVE","FLOWER MOUND","TX","75022"
617216,"4221 MATHEWSON DR NW","WASHINGTON","DC","20011"
617217,"4221 MEREDITH DRIVE","VALDOSTA","GA","31605"
617218,"4221 MICHELLE ST","TORRANCE","CA","91403"
617219,"4221 N 172 ST","OMAHA","NE","68116"
617220,"4221 N 6TH STREET","PHILADELPHIA","PA","19140"
617221,"4221 N CALLE VISTA CIUDAD","TUCSON","AZ","85750"
617222,"4221 N HIMES AVE","TAMPA","FL","33607"
617223,"4221 NE 71ST AVENUE","GAINESVILLE","FL","32609"
617224,"4221 NORTH 10TH STREET","LINCOLN","NE","68521"
617225,"4221 NW 19TH STREET","LAUDERHILL","FL","33313"
617226,"4221 OLD DENTON ROAD APT 4205","CARROLLTON","TX","75010"
617227,"4221 PASEO BLVD","KANSAS CITY","MO","64110"
617228,"4221 PECAN BEND DR","RICHMOND","TX","77406"
617229,"4221 PERRY HALL ROAD","PERRY HALL","MD","21128"
617230,"4221 PLAAG","HOUSTON","TX","77016"
617231,"4221 POTOMAC AVENUE","DALLAS","TX","75205"
617232,"4221 RIDGELINE CIRCLE","NORMAN","OK","73072"
617233,"4221 RIO CANCION NO 94","TUCSON","AZ","85718"
617234,"4221 RIVERDALE ROAD","MEMPHIS","TN","38114"
617235,"4221 RIVERVIEW DR","LA CROSSE","WI","54601"
617236,"4221 RURAL AVE","BELLINGHAM","WA","98226"
617237,"4221 S 247TH ST","KENT","WA","98032"
617238,"4221 S 6TH ST UNIT C20","MILWAUKEE","WI","53214"
617239,"4221 S CLEAR VIEW DR","BLOOMINGTON","IN","47403"
617240,"4221 S DELAWARE ST","ENGLEWOOD","CO","80110"
617241,"4221 SANTA ROSALIA DRIVE APT B","LOS ANGELES","CA","90008"
617242,"4221 SHARPSBURG DRIVE","BIRMINGHAM","AL","35213"
617243,"4221 SOUTHERLY POINTE DRIVE","HAVERSTRAW","NY","10927"
617244,"4221 SPRUCE STREET SUITE 2420","TAMPA","FL","33607"
617245,"4221 SW 154TH PL","MIAMI","FL","33185"
617246,"4221 SW COMUS STREET","PORTLAND","OR","97219"
617247,"4221 TEAKWOOD DRIVE","WILLIAMSBURG","VA","23188"
617248,"4221 VIA MAINA  STE 105","MARINA DEL REY","CA","90292"
617249,"4221 VINCENT AVE S","MINNEAPOLIS","MN","55410"
617250,"4221 W 104TH TER","OVERLAND PARK","KS","66207"
617251,"4221 W 141ST STREET","SAVAGE","MN","55378"
617252,"4221 W CHARLESTON","LAS VEGAS","NV","89102"
617253,"4221 WHITEWATER RD","VALDOSTA","GA","31601"
617254,"4221 WILSHIRE BLVD SUITE 170-16","LOS ANGELES","CA","90010"
617255,"4221 WILSON CREEK TRL","PROSPER","TX","75078"
617256,"4221 WILTSHIRE","LOS ANGELES","CA","90010"
617257,"4221 WOODVALE RD","BIRMINGHAM","AL","35222"
617258,"4221 XARTHAN AVE S","ST. LOUIS PARK","MN","55416"
617259,"42210 264TH AVE SE","ENUMCLAW","WA","98022"
617260,"42210 MARBELLA ST","QUARTZ HILL","CA","93536"
617261,"42215 SHORE CREST TERRACE","ALDIE",NA,NA
617262,"42219 GATEWOOD STREET","FREMONT","CA","94538"
617263,"4222  POLK STREET","HOLLYWOOD","FL","33021"
617264,"4222  W URBANA CT","BROKEN ARROWN","OK","74012"
617265,"4222 1/2 ELIZABETH ST","CUDAHY","CA","90201"
617266,"4222 42ND STREET NW","WASHINGTON","DC","20016"
617267,"4222 4TH AVENUE","BROOKLYN","NY","11232"
617268,"4222 79TH STREET","ELMHURST","NY","11373"
617269,"4222 AQUA RIDGE DR","SAINT LOUIS","MO","63129"
617270,"4222 ASHBURY PARKE DR","NEWBURGH","IN","47630"
617271,"4222 BEXLEY BLVD","SOUTH EUCLID","OH","44121"
617272,"4222 BIRD DOG CT","HUBER HEIGHTS","OH","45424"
617273,"4222 BRECKENRIDGE DRIVE","WEST BLOOMFIELD","MI","48322"
617274,"4222 BRECKENRIDGE DRIVE","WEST BLOOMFIELD","MI","48323"
617275,"4222 CARIBOU LAKE RD","DULUTH","MN","55810"
617276,"4222 CHAMBERLAYNE AVENUE APT 2","RICHMOND","VA","23227"
617277,"4222 CHELTINGHAM LANE","SMYRNA","GA","30082"
617278,"4222 CHESTNUT LAKE AVE","LITHONIA","GA","30038"
617279,"4222 COPELAND ST","DALLAS","TX","75210"
617280,"4222 CORTEZ DR","MURFREESBORO","TN","37128"
617281,"4222 COUNTY P","RHINELANDER","WI","54501"
617282,"4222 CRAZY HORSE RD","CAMERON PARK","CA","95682"
617283,"4222 CRYSTAL LANE","GARLAND","TX","75043"
617284,"4222 DELFERN DR","MONTGOMERY","AL","36116"
617285,"4222 E 200 N","LAFAYETTE","IN","47905"
617286,"4222 EL CERRITO DR","DALLAS","TX","75228"
617287,"4222 ELDERWOOD DR","SEABROOK","TX","77586"
617288,"4222 FORT DUPONT STREET SE","WASHINGTON","DC","20020"
617289,"4222 FORTUNA CENTER PLAZA STE 637","DUMFRIES","VA","22025"
617290,"4222 FORTUNA PLAZA CENTER STE 270","DUMFRIES","VA","22025"
617291,"4222 GAUGE LINE LOOP","TAMPA","FL","33624"
617292,"4222 GRAND OAKS VIEW LOOP","HOUSTON","TX","77084"
617293,"4222 HAZEL AVENUE","LINCOLN PARK","MI","48146"
617294,"4222 INVERRARY BLVD APT 4418","LAUDERHILL","FL","33319"
617295,"4222 INVERRARY BLVD","LAUDERHILL","FL","33319"
617296,"4222 JARBET","SAN ANTONIO","TX","78220"
617297,"4222 LA SALLE AVE","LOS ANGELES","CA","90047"
617298,"4222 LEWIS CREAK DR","RICHMOND","TX","77469"
617299,"4222 MAILY MEADOW LANE","KATY","TX","77450"
617300,"4222 MARSH AVENUE","ROCKFORD","IL","61114"
617301,"4222 MEADOWCREEK DR","FREELAND","MI","48623"
617302,"4222 MELITA ROAD","STANDISH","MI","48658"
617303,"4222 MENTONE AVENUE","CULVER CITY","CA","90232"
617304,"4222 N 96TH STREET","WAUWATOSA","WI","53222"
617305,"4222 N MISSOURI AVE","PORTLAND","OR","97217"
617306,"4222 N RAVENSWOOD AVE STE 204","CHICAGO","IL","60613"
617307,"4222 OAKFORD AVE","BALTIMORE","MD","21215"
617308,"4222 ODGEN STREET","PHILADELPHIA","PA","19104"
617309,"4222 OGDEN STREET","PHILADELPHIA","PA","19104"
617310,"4222 OLIVE ST","ST LOUIS","MO","63108"
617311,"4222 OSCEOLA ST","DENVER","CO","80212"
617312,"4222 PICO NORTE LANE","RIO RANCHO","NM","87124"
617313,"4222 PINE STREET","PHILADELPHIA","PA","19104"
617314,"4222 POTOMAC AVE","DALLAS","TX","75225"
617315,"4222 RIDGELAND AVENUE","STICKNEY","IL","60402"
617316,"4222 RIVER HILLS DR","TAMPA","FL","33617"
617317,"4222 RIVERCHASE LANE","HOUSTON","TX","77014"
617318,"4222 RODERICK ROAD","OAKLAND","CA","94605"
617319,"4222 ROSE AVE","WESTERN SPRINGS","IL","60558"
617320,"4222 S 300TH PL","AUBURN","WA","98001"
617321,"4222 S HARRISON ST","MARION","IN","46953"
617322,"4222 SOUTH HARRISON STREET","MARION","IN","46952"
617323,"4222 SOUTH STATE HIGHWAY 297","DYESS","AP","72330"
617324,"4222 SPRING CREEK LANE","ATLANTA","GA","30350"
617325,"4222 STANBRIDGE AVE","LONG BEACH","CA","90808"
617326,"4222 STATE HIGHWAY 81","ITASCA","TX","76055"
617327,"4222 SW MOUNDVIEW DR","TOPEKA","KS","66610"
617328,"4222 TANGLEWOOD DR","PHOENIX","AZ","85048"
617329,"4222 TOM CHAPMAN RD","GROVELAND","FL","34736"
617330,"4222 TUJUNGA AVENUE  APT 208","STUDIO CITY","CA","91604"
617331,"4222 VINELAND AVE","NORTH HOLLYWOOD","CA","91602"
617332,"4222 W 20TH PL","GARY","IN","46404"
617333,"4222 W 4TH ST","DULUTH","MN","55807"
617334,"4222 W ALLUVIAL AVE","FRESNO","CA","93722"
617335,"4222 W CAPITOL DR","MILWAUKEE","WI","53216"
617336,"4222 W MADISON","CHICAGO","IL","60624"
617337,"4222 WALLINGFORD COURT","JEFFERSON","MD","21755"
617338,"4222 WESTGATE TRAIL","MEMPHIS","TN","38141"
617339,"4222","ELLICOTT CITY","MD","21042"
617340,"42222 EDGEWOOD DRIVE","FREMONT","CA","94538"
617341,"42222 FALLEN TIMBER LN","ASHBURN","VA","20148"
617342,"42222 N OLYMPIC FIELDS CT","ANTHEM","AZ","85086"
617343,"42222 RANCHO LAS PALMAS DR UNIT2863","RANCHO MIRAGE","CA","92270"
617344,"42225 212 AVE SE","ENUMCLAW","WA","98022"
617345,"42225 MINNESOTA CREEK ROAD","PAONIA","CO","81428"
617346,"42227 SARATOGA CIRCLE","CANTON","MI","48187"
617347,"42228 N 7TH ST","NEW RIVER","AZ","85086"
617348,"42229 LAMBORN MESA ROAD","PAONIA","CO","81428"
617349,"4222B BERKELEY PLACE","ROANOKE","VA","24018"
617350,"4223 1/4 LINDBLADE DRIVE","LOS ANGELES","CA","90066"
617351,"4223 41ST ST","SAN DIEGO","CA","92105"
617352,"4223 ADRIATIC SEA WAY","SACRAMENTO","CA","95834"
617353,"4223 ATLAS AVE","OAKLAND","CA","94619"
617354,"4223 AUTUMN LEAVES DR","TAMPA","FL","33624"
617355,"4223 BAR HARBOR","HOLNEY","MD","20832"
617356,"4223 CADE ROAD","CAPAC","MI","48014"
617357,"4223 CANYON TRAILS DRIVE","WICHITA FALLS","TX","76309"
617358,"4223 CENTER STREET","OMAHA","NE","68105"
617359,"4223 CROWN-WOOD DRIVE","JACKSONVILLE","DE","32216"
617360,"4223 DALE BLVD","WOODBRIDGE","VA","22193"
617361,"4223 DEGNAN BLVD","LA","CA","90302"
617362,"4223 DON FELIPE DRIVE","LOS ANGELES","CA","90008"
617363,"4223 E BROADWAY","LONG BEACH","CA","90803"
617364,"4223 EAST EMMA ST","TAMPA","FL","33610"
617365,"4223 EAST PARKWAY","GATLINBURG","TN","37738"
617366,"4223 EAST SPUR DR","CAVE CREEK","AR","85331"
617367,"4223 EAST SPUR DR","CAVE CREEK","AZ","85331"
617368,"4223 ECHO VALLEY ROAD","GLEN ARM","MD","21057"
617369,"4223 EDGEHILL DRIVE","LOS ANGELES","CA","90008"
617370,"4223 EULALEE DRIVE","SAN ANTONIO","TX","78220"
617371,"4223 EVERGREEN LANE","ANNANDALE","VA","22003"
617372,"4223 FABER AVE NE","SAINT PAUL","OR","97137"
617373,"4223 FOOTHILL DR","RAPID CITY","SD","57702"
617374,"4223 GAULT PLACE NE","WASHINGTON","DC","20019"
617375,"4223 GLENCOE AVE SUITE B-130","MARINA DEL REY","CA","90292"
617376,"4223 GLENCOE AVE SUITE C115","MARINA DEL REY","CA","90292"
617377,"4223 GREYSTONE","SAN ANTONIO","TX","78233"
617378,"4223 HUMBOLDT AVE N","MINNEAPOLIS","MN","55412"
617379,"4223 KRIS LINE DRIVE","WATERLOO","IA","50701"
617380,"4223 LEIMERT BLVD -3","LOS ANGELES","CA","90008"
617381,"4223 LEIMERT BLVD UNIT 3","LOS ANGELES","CA","90305"
617382,"4223 LEIMERT BOULEVARD  APT 1","LOS ANGELES","CA","90008"
617383,"4223 LIRON AVE APT 202","FORT MYERS","FL","33916"
617384,"4223 LIRON AVE","FORT MYERS","FL","33916"
617385,"4223 LUZ DE ESTRELLA","SANTA FE","NM","87507"
617386,"4223 MACKAY FALLS TERRACE","SARASOTA","FL","34243"
617387,"4223 MAIDSTONE DRIVE","LAKE CHARLES","LA","70605"
617388,"4223 MERIDIAN ST","PHILADELPHIA","PA","19136"
617389,"4223 MONTGOMERY PLACE","MOUNT VERNON","WA","98273"
617390,"4223 N BELL AVE","CHICAGO","IL","60618"
617391,"4223 N ELLENDALE AVE","FRESNO","CA","93722"
617392,"4223 NOBLE PLACE","PARRISH","FL","34219"
617393,"4223 NORTHWESTERN PARKWAY","LOUISVILLE","KY","40212"
617394,"4223 PEBBLESTONE TRAIL","ROUND ROCK","TX","78665"
617395,"4223 PINECROFT COURT","W BLOOMFIELD","MI","48322"
617396,"4223 PRATT ST","OMAHA","NE","68111"
617397,"4223 QUINCE COURT","BOULDER","CO","80301"
617398,"4223 S JUNEAU ST","SEATTLE","WA","98118"
617399,"4223 S MICHIGAN AVE UNIT B","CHICAGO","IL","60653"
617400,"4223 S NORTON AVENUE","LOS ANGELES","CA","90008"
617401,"4223 S UNIVERSITY DR","ALLENDALE","MI","49401"
617402,"4223 SEBRING CT SW","CONCORD","NC","28025"
617403,"4223 SHELTER CREEK LANE","SAN BRUNO","CA","94066"
617404,"4223 SPUR LANE","GRAND ISLAND","NE","68803"
617405,"4223 STATE ROUTE 97 APARTMENT 1","BARRYVILLE","NY","12719"
617406,"4223 THREE OAKS DRIVE","FORT WAYNE","IN","46809"
617407,"4223 TIDEWATER","HOUSTON","TX","77045"
617408,"4223 US HWY 220 N","SEAGROVE","NC","27341"
617409,"4223 W HAMPTON AVE","MILWAUKEE","WI","53209"
617410,"4223 W LAKE ST STE 342","CHICAGO","IL","60624"
617411,"4223 W LAKE STREET 402","CHICAGO","IL","60624"
617412,"4223 W MADISON","SPRINGFIELD","MO","65802"
617413,"4223 WEST 187TH PLACE","COUNTRY CLUB HILLS","IL","60478"
617414,"4223 WEST OLIVE AVE","FRESNO","CA","93772"
617415,"4223 WORRELL DRIVE","HOUSTON","TX","77045"
617416,"4223 YACKEY DR NW","STRASBURG","OH","44680"
617417,"4223 ZIMMERLY COURT","SUGAR LAND","TX","77479"
617418,"42230 RIVA RIDGE DRIVE","HOLLYWOOD","MD","20636"
617419,"42231 LADYWOOD DRIVE","NORTHVILLE","MI","48168"
617420,"42234 ROAD 14","OROSI","CA","93647"
617421,"42234 TODDMARK LANE","CLINTON TOWNSHIP","MI","48038"
617422,"42236 W CHISHOLM DR","MARICOPA","AZ","85138"
617423,"42239 CY CIRCLE","PONCHATOULA","LA","70454"
617424,"4224 122ND AVE E","EDGEWOOD","WA","98372"
617425,"4224 184TH STREET SW","LYNNWOOD","WA","98037"
617426,"4224 185TH PLACE","COUNTRY CLUB HILLS","IL","60478"
617427,"4224 278TH AVE SE","FALL CITY","WA","98024"
617428,"4224 320TH ST","NORTHBORO","IA","51647"
617429,"4224 AMWELL DRIVE","HUNTERSVILLE","NC","28078"
617430,"4224 BECKLEYSVILLE ROAD","HAMPSTEAD","MD","21074"
617431,"4224 BIRMINGHAM WAY","RALEIGH","NC","27604"
617432,"4224 BLUFFS LN","DURHAM","NC","27712"
617433,"4224 BRIAR HILL ROAD","LEXINGTON","KY","40516"
617434,"4224 CAPRI DRIVE","PENSACOLA","FL","32504"
617435,"4224 CHEEK ROAD","BIRMINGHAM","AL","35207"
617436,"4224 CHURCHILL ROAD","LOUISVILLE","KY","40207"
617437,"4224 COLONY RD","S EUCLID","OH","44121"
617438,"4224 CROFTON COURT","FORT WAYNE","IN","46835"
617439,"4224 CROWFIELD DRIVE","RALEIGH","NC","27610"
617440,"4224 DARBYTOWN ROAD","HENRICO","VA","23231"
617441,"4224 DECATUR AVE N","NEW HOPE","MN","55428"
617442,"4224 EAGLE HEAD DR","COLUMBUS","OH","43230"
617443,"4224 ESTRELLA AVE APT 8","SAN DIEGO","CA","92115"
617444,"4224 FLORIDA STREET UNIT 4","SAN DIEGO","CA","92104"
617445,"4224 GARLAND AVE","NOTTINGHAM","MD","21236"
617446,"4224 GATEWAY DRIVE","MONTGOMERY","AL","36108"
617447,"4224 GENOA WAY","YORBA LINDA","CA","92886"
617448,"4224 GREEN ACRES DR","HELENA","MT","59602"
617449,"4224 GREENBRIAR DRIVE","NIXA","MO","65714"
617450,"4224 HENRY AVE","HAMMOND","IN","46327"
617451,"4224 HENRY STREET","OAK FOREST","IL","60452"
617452,"4224 HICKORY CROSSROADS ROAD","KENLY","NC","27544"
617453,"4224 HIMEBAUGH  AVE","OMAHA","NE","68111"
617454,"4224 JOAN BLVD","NEW CASTLE","IN","47362"
617455,"4224 KESTREL CT","INDIANAPOLIS","IN","46254"
617456,"4224 LINDA LN","BALCH SPRINGS","TX","75180"
617457,"4224 MCADOO RIDGE RD","WELLSBURG","WV","26070"
617458,"4224 MINNARD CT","VIRGINIA BEACH","VA","23462"
617459,"4224 N FRANKLIN ST","PHILADELPHIA","PA","19140"
617460,"4224 N HARBOR ISLE","FAYETTEVILLE","AR","72703"
617461,"4224 N MCDONALD RD APT 202","SPOKANE VALLEY","WA","99216"
617462,"4224 NE 312TH AVE","CAMAS","WA","98607"
617463,"4224 NE SKYLINE DRIVE","JENSEN BEACH","FL","34957"
617464,"4224 NORTHEAST EXPRESSWAY","ATLANTA","GA","30340"
617465,"4224 PARK PLACE","MONTGOMERY","AL","36106"
617466,"4224 PHILLIPS RD SE","PORT ORCHARD","WA","98366"
617467,"4224 RIADA LANE","WILSON","WY","83014"
617468,"4224 S KING DRIVE UNIT 1S","CHICAGO","IL","60653"
617469,"4224 S ROSEMARY","SIERRA VISTA","AZ","85650"
617470,"4224 SE MAYA CT","HILLSBORO","OR","97123"
617471,"4224 SHELTER CREEK LN","SAN BRUNO","CA","94066"
617472,"4224 SHOALS DRIVE","OKEMOS","MI","48864"
617473,"4224 SILVERWOOD LANE","BETHESDA","MD","20816"
617474,"4224 STATE RT 19","FLAT TOP","WV","25841"
617475,"4224 STONEBRIDGE DR SW APT 12","WYOMING","MI","49519"
617476,"4224 SWEET CLOVER LANGE","CROWLEY","TX","76036"
617477,"4224 TAMARACK COURT","BOULDER","CO","80304"
617478,"4224 TATTNALL RUN","ACWORTH","GA","30101"
617479,"4224 TERRACE AVENUE","PENNSAUKEN","NJ","08109"
617480,"4224 THICK RD","CHAPEL HILL","TN","37034"
617481,"4224 TOWNHALL","MEMPHIS","TN","38128"
617482,"4224 TYLER AVE","EL MONTE","CA","91731"
617483,"4224 W 8TH ST N","WICHITA","KS","67212"
617484,"4224 W 8TH ST","WICHITA","KS","67212"
617485,"4224 WABAN HILL","MADISON","WI","53711"
617486,"4224 WEST 100 STREET","OAK LAWN","IL","60453"
617487,"4224 WEST 2ND STREET","PINE BLUFF","AR","71602"
617488,"4224 WEST GREENWOOD","SKOKIE","IL","60076"
617489,"4224 WOODBRIDGE DR","KINGWOOD","TX","77339"
617490,"4224","COUNTRY CLUB HILLS","IL","60478"
617491,"42241 BROKENHORN CIR","PARKER","CO","80138"
617492,"42245 GLASCOCK FIELD DRIVE APT 208","STERLING","VA","20166"
617493,"42245 WEST CENTINNIAL COURT","MARICOPA","AZ","85138"
617494,"4225 101ST ST 580016","PLEASANT PRAIRIE","WI","53158"
617495,"4225 175TH PLACE","COUNTRY CLUB HILLS","IL","60478"
617496,"4225 67TH ST","URBANDALE","IA","50322"
617497,"4225 AMHERST LANE","GRAND PRAIRIE","TX","75052"
617498,"4225 AVENUE H  TRL9","ROSENBERG","TX","77471"
617499,"4225 BALSAM ST","WHEAT RIDGE","CO","80033"
617500,"4225 BEVERLY ROAD","MADISON","WI","53711"
