"ID","Address","City","State","Zip"
156501,"1350 HARVEY RUN ROAD","FREEDOM","PA","15042"
156502,"1350 HI TECH DRIVE","SHERIDAN","WY","82801"
156503,"1350 HILLRISE CIRCLE","LAS CRUCES","NM","88005"
156504,"1350 HOLLIDAY LN","PORTAGE","MI","49024"
156505,"1350 HORSESHOE DRIVE","BLUE BELL","PA","19422"
156506,"1350 HUNTER MILL ROAD","VIENNA","VA","22182"
156507,"1350 INGRAM RD","YOUNG HARRIS","GA","30582"
156508,"1350 IRELAND ROAD","PULLMAN","WV","26187"
156509,"1350 JAMES FARM ROAD","STRATFORD","CT","06614"
156510,"1350 JONESTOWN ROAD","WINSTON SALEM","NC","27103"
156511,"1350 JONESTOWN ROAD","WINSTON-SALEM","NC","27103"
156512,"1350 JONESTOWN","WINSTON SALEM","NC","27103"
156513,"1350 KELLY AVE BLDG A","AKRON","OH","44306"
156514,"1350 KELLY LN","DUBUQUE","IA","52003"
156515,"1350 KELSEY ST","RICHMOND","CA","94801"
156516,"1350 KELSEY STREET","RICHMOND","CA","94801"
156517,"1350 KING COLLEGE","BRISTOL","TN","37620"
156518,"1350 LAGOON AVE S NO 900","MINNEAPOLIS","MN","55408"
156519,"1350 LAKE AVE","PASADENA","MD","21122"
156520,"1350 LEXINGTON SQUARE SW","VERO BEACH","FL","32962"
156521,"1350 LIME KILN RD","ANNA","IL","62906"
156522,"1350 LOCUST STREET","MCKEESPORT","PA","15132"
156523,"1350 LONE OAK ROAD","GROVETOWN","GA","30813"
156524,"1350 MADISON LANE","FLORISSANT","MO","63033"
156525,"1350 MAIN STREET","DRESDEN","OH","43821"
156526,"1350 MAIN STREET","SPRINGFIELD","MA","01103"
156527,"1350 MALLARD LN","HOFFMAN ESTATES","IL","60192"
156528,"1350 MANU MELE ST","KAILUA","HI","96734"
156529,"1350 MANUFACTURING STREET STE 111","DALLAS","TX","75207"
156530,"1350 MCCLENDON RD","WEATHERFORD","TX","76088"
156531,"1350 MOHAWK ST","LOS ANGELES","CA","90026"
156532,"1350 MONACO PARKWAY","DENVER","CO","80220"
156533,"1350 MORGAN WAY","WINSTON SALEM","NC","27127"
156534,"1350 MORNING VIEW DRIVE APT 295","ESCONDIDO","CT","92026"
156535,"1350 MT CARMEL RD","GRAY COURT","SC",NA
156536,"1350 MYRTLE AVE","PLAINFIELD","NJ","07063"
156537,"1350 N 2950 E ROAD","LEROY","IL","61752"
156538,"1350 N 74TH STREET","PHILADELPHIA","PA","19151"
156539,"1350 N AIR DEPOT BLVD","MIDWEST CITY","OK","73110"
156540,"1350 N ALTADENA DRIVE SUITE D","PASADENA","CA","91107"
156541,"1350 N GREENVILLE AVE  APT 4201","RICHARDSON","TX","75081"
156542,"1350 N GREENVILLE AVE APT 6418","RICHARDSON","TX","75081"
156543,"1350 N HORIZON RIDGE PKWY 1623","HENDERSON","NV","89012"
156544,"1350 N LBJ DRIVE APT 134","SAN MARCOS","TX","78666"
156545,"1350 N LEAVITT ST UNIT 2","CHICAGO","IL","60622"
156546,"1350 N LEMON AVENUE","MENLO PARK","CA","94025"
156547,"1350 N MAIN ST","WILLIAMSTOWN","KY","41097"
156548,"1350 N RAISINVILLE ROAD","MONROE","MI","48162"
156549,"1350 N TOWN CENTER DRIVE UNIT 2011","LAS VEGAS","NV","89144"
156550,"1350 N WELLS ST E100","CHICAGO","IL","60610"
156551,"1350 N WELLS ST UNIT F421","CHICAGO","IL","60610"
156552,"1350 NE 138 STREET","NORTH MIAMI","FL","33161"
156553,"1350 NEW HOPE RD SW","ATLANTA","GA","30331"
156554,"1350 NICOLLET AVE APT 1024","MINNEAPOLIS","MN","55403"
156555,"1350 NORRIS RD","BAKERSFIELD","CA","93308"
156556,"1350 NORTH GREENVILLE AVE","RICHARDSON","TX","75081"
156557,"1350 NORTH MAIN STREET","LOGAN","UT","84321"
156558,"1350 NORTH RAYS FORK ROAD","SADIEVILLE","KY","40370"
156559,"1350 NW 182ND STREET","MIAMI","FL","33169"
156560,"1350 NW 192ND TERRACE","MIAMI GARDENS","FL","33169"
156561,"1350 NW 8TH CT APT 304","MIAMI","FL","33136"
156562,"1350 NW HWY 27","CHIEFLAND","FL","32626"
156563,"1350 OLD BRIDGE RD","WOODBRIDGE","VA","22192"
156564,"1350 OLD BRIDGE ROAD","WOODBRIDGE","VA","22192"
156565,"1350 OLDE TOWNE ROAD","ALEXANDRIA","VA","22307"
156566,"1350 PALMS BLVD","VENICE","CA","90291"
156567,"1350 PAMELA STREET NO 39","LEESBURG","FL","34748"
156568,"1350 PEARSON ROAD","PARADISE","CA","95969"
156569,"1350 PENNSYLVANIA AVE","LOS ANGELES","CA","90033"
156570,"1350 PERRY POINT ROAD","VIRGINIA BEACH","VA","23464"
156571,"1350 PHOENIX PLACE","KETTERING","OH","45420"
156572,"1350 POPLAR HILL DRIVE","RIDGEVEILLE","SC","29472"
156573,"1350 POST OAK SUITE 550","HOUSTON","TX","77056"
156574,"1350 POTTERTOWN ROAD","MURRAY","KY","42071"
156575,"1350 PRESTON PLACE","DIXON","CA","95620"
156576,"1350 RICHMAN ROAD","KIMBALL","MI","48074"
156577,"1350 ROSA L PARKS BLVD APT 424","NASHVILLE","TN","37208"
156578,"1350 ROSE AVENUE","VENICE","CA","90291"
156579,"1350 S BOULDER AVE SUITE 800","TULSA","OK","74119"
156580,"1350 S DIAMOND BAR BLVD UNIT B","DIAMOND BAR","CA","91765"
156581,"1350 S HARDING AVENUE SUITE 407","CHICAGO","IL","60623"
156582,"1350 S KNOLES RM H127","FLAGSTAFF","AZ","86011"
156583,"1350 S MORGAN APT 302","CHICAGO","IL","60608"
156584,"1350 S NEWKIRK ST","PHILADELPHIA","PA","19146"
156585,"1350 S NEWKIRK STREET","PHILADELPHIA","PA","19146"
156586,"1350 S WOOD AVE APT B8","LINDEN","NJ","07036"
156587,"1350 SADLER DR 9102","SAN MARCOS","TX","78666"
156588,"1350 SANDERLING DR","FAIRFIELD","CA","94533"
156589,"1350 SANTA MONICA CIRCLE","WAUKESHA","WI","53186"
156590,"1350 SCENIC HIGHWAY SUITE 266","SNELLVILLE","GA","30078"
156591,"1350 SCENIC VIEW TRACE","LAWRENCEVILLE","GA","30044"
156592,"1350 SE PIONEER WAY","OAK HARBOR","WA","98277"
156593,"1350 SELNA CIR","CLARKDALE","AZ","86324"
156594,"1350 SEMINOLE RD","NORTH BRUNSWICK","NJ","08902"
156595,"1350 SHEPHERDS CREEK DR","LUCAS","TX","75002"
156596,"1350 SHERMAN HOLLOW RD","HUNTINGTON","VT","05462"
156597,"1350 SKYLINE RD APT 222","GRAND PRAIRIE","TX","75051"
156598,"1350 SKYLINE ROAD APT 535","GRAND PRAIRIE","TX","75051"
156599,"1350 SONNY DR  APT 8104","LEANDER","TX","78641"
156600,"1350 SPRUCE PARK DR STE 114","LAS VEGAS","NV","89135"
156601,"1350 SPRUCE PARK DR UNIT 135","LAS VEGAS","NV","89135"
156602,"1350 SUMMIT ROAD","ALPHARETTA","GA","30004"
156603,"1350 SW 13TH CT","POMPANO BEACH","FL","33069"
156604,"1350 SW 72ND AVE","PLANTATION","FL","33317"
156605,"1350 SW HODGES RD","TOPEKA","KS","66615"
156606,"1350 SW SHEA DR","HERMISTON","OR","97838"
156607,"1350 TAMIAMI TRAIL NORTH","NAPLES","FL","34102"
156608,"1350 TANGLEWOOD COURT","PROSPER","TX","75078"
156609,"1350 THIRD ST APT 1","PAONIA","CO","81428"
156610,"1350 THIRD ST","PAONIA","CO","81428"
156611,"1350 TREVOR CT","ROSEVILLE","CA","95678"
156612,"1350 TRI STATE PKWY","GURNEE","IL","60031"
156613,"1350 TRILWOOD PATH C","BLOOMFIELD HILLS","MI","48301"
156614,"1350 TURNER RIDGE DR","NORCROSS","GA","30089"
156615,"1350 TWIN OAK CIRCLE","SMYRNA","GA","30080"
156616,"1350 VAN BUREN","BEAUMONT","TX","77701"
156617,"1350 VERNON ST","HARRISBURG","PA","17103"
156618,"1350 W CENTER ST","CHINO VALLEY AZ","AZ","86323"
156619,"1350 W CENTER ST","CHINO VALLEY","AZ","86323"
156620,"1350 W JENNY ST","LECANTO","FL","34461"
156621,"1350 W LAMBERT RD SUITE A","BREA","CA","92821"
156622,"1350 W STREET SE","WASHINGTON","DC","20024"
156623,"1350 W VAN BUREN ST","PHOENIX","AZ","85007"
156624,"1350 WARD DR","ELBERTON","GA","30635"
156625,"1350 WASHINGTON AVE  APT 6A","BRONX","NY","10456"
156626,"1350 WASHINGTON AVE APT 15A","BRONX","NY","10456"
156627,"1350 WEBSTER AVENUE APT 21F","BRONX","NY","10456"
156628,"1350 WEST ST","PITTSFIELD","MA","01201"
156629,"1350 WINTON AVENUE","AKRON","OH","44320"
156630,"1350 WYCOMBE AVE","DARBY","PA","19023"
156631,"1350 YALE AVE","SALT LAKE CITY","UT","84105"
156632,"1350","AKRON","OH","44301"
156633,"1350","NEWCASTLE","CA","95658"
156634,"13500 BEL-RED RD 4","REDMOND","WA","98005"
156635,"13500 CHENAL PARKWAY APT 203","LITTLE ROCK","AR","72203"
156636,"13500 CHENAL PKWY 2003","LIITLE ROCK","AR","72211"
156637,"13500 CHENAL PKWY APT 2004","LITTLE ROCK","AR","72223"
156638,"13500 COAL BELT LN","MARION","IL","62959"
156639,"13500 COOMES DR","AUSTIN","TX","78617"
156640,"13500 COPPER BED RD","HERNDON","VA","20171"
156641,"13500 COUNTRY TRAILS LANE","AUSTIN","TX","78732"
156642,"13500 COUNTY ROAD 67 POINT 3","TRINIDAD","CO",NA
156643,"13500 E STROUD RD","BURRTON","KS","67020"
156644,"13500 E WHIPSAW RD","SHELDON","MO","64784"
156645,"13500 EAST U AVE","VICKSBURG","MI","49097"
156646,"13500 FOUNTAIN VIEW BLVD","WELLINGTON","FL","33414"
156647,"13500 KOYOTO DR","CHESTER","VA","23836"
156648,"13500 MARTHA JEFFERSON PLACE","HERNDON","VA","20171"
156649,"13500 MT VICTORIA PL","MT VICTORIA","MD","20661"
156650,"13500 N CO 675 W","GASTON","IN","47342"
156651,"13500 N KENDALL DR SUITE 115","MIAMI","FL","33186"
156652,"13500 N US HWY 31 LOT 302","EDINBURGH","IN","46124"
156653,"13500 NOEL ROAD APT 204","DALLAS","TX","75240"
156654,"13500 NOEL ROAD NO 106","DALLAS","TX","75240"
156655,"13500 NOEL ROAD NO 557","DALLAS","TX","75240"
156656,"13500 PEARL RD STE 139 NO 104","STRONGSVILLE","OH","44136"
156657,"13500 PEARL ROAD SUITE 139","STRONGSVILLE","OH","44136"
156658,"13500 POWDER RIVER AVE","BAKERSFIELD","CA","93314"
156659,"13500 RODGERS AVENUE APT 804","LARGO","FL","33765"
156660,"13500 S LONE POINT LN APT 24104","DRAPER","UT","84020"
156661,"13500 S PARTRIDGE RUN","TRAVERSE CITY","MI","49684"
156662,"13500 SE STEELE ST","PORTLAND","OR","97236"
156663,"13500 STARGAZER LN","SILVER SPRING","MD","20906"
156664,"13500 SUTTON PARK DR S STE 801","JACKSONVILLE","FL","32224"
156665,"13500 SW PACIFIC HWY PMB 228","TIGARD","OR","97223"
156666,"13500 SW PACIFIC HWY STE 499","TIGARD","OR","97223"
156667,"13500 SW PACIFIC HWY-SUITE 121","PORTLAND","OR","97223"
156668,"13500 SW PACIFIC HWY-SUTIE 121","PORTLAND","OR","97223"
156669,"13500 VAN BRADY","WASHINGTON","DC","20772"
156670,"13501 ALE HOUSE CIR STE 338","GERMANTOWN","MD","20874"
156671,"13501 ALE HOUSE CIRCLE","GERMANTOWN","MD","20874"
156672,"13501 AMES AVENUE","OMAHA","NE","68164"
156673,"13501 CEDAR BRIDGE RD","SAINT LOUIS","MO","63141"
156674,"13501 EAST WHEATON ROAD","INA","IL","62846"
156675,"13501 EASTWOOD BLVD","GARFIELD HTS","OH","44125"
156676,"13501 FM 2769","AUSTIN","TX","78726"
156677,"13501 GADWELL COURT","UPPER MARLBORO","MD","20774"
156678,"13501 GATESONE LANE","PINEVILLE","NC","28134"
156679,"13501 HAINES AVE NE","ALBUQUERQUE","NM","87112"
156680,"13501 HEADWATERS  PLACE","MIDLOTHIAN","VA","23113"
156681,"13501 HIGHWAY K","JADWIN","MO","65501"
156682,"13501 MCINTOSH","THONOTOSASSA","FL","33592"
156683,"13501 MONTVALE DRIVE","SILVER SPRING","MD","20904"
156684,"13501 OIL FIELD RD","BARTELSO","IL","62218"
156685,"13501 PINE WOOD TR","ST LOUIS","MO","63128"
156686,"13501 POWDER RIVER AVE","BAKERSFIELD","CA","93314"
156687,"13501 RANCH ROAD 12 STE 103","WIMBERLEY","TX","78676"
156688,"13501 RR 12 SUITE 103","WIMBERLEY","TX","78676"
156689,"13501 S 4245 RD","CHELSEA","OK","74016"
156690,"13501 S MACKINAW","CHICAGO","IL","60633"
156691,"13501 S PINE ST","EDMOND","OK","73034"
156692,"13501 SHELTON RD","MABELVALE","AR","72103"
156693,"13501 SKYWATCH LANE UNIT 101","LOUISVILLE","KY","40245"
156694,"13501 STEEPLE CHASE DR","BOWIE","MD","20715"
156695,"13501 VAN NESS AVE APT 27","GARDENA","CA","90249"
156696,"13501 VENTURA BLVD","SHERMAN OAKS","CA","91423"
156697,"13501 WEST ROAD","CARMEL","IN","46074"
156698,"13502 42ND AVE NE","SEATTLE","WA","98125"
156699,"13502 E 26TH AVE","SPOKANE","WA","99216"
156700,"13502 FENDALL COURT","UPPER MARLBORO","MD","20772"
156701,"13502 GADWELL COURT","UPPER MARLBORO","MD","20774"
156702,"13502 GREENCASTLE RIDGE TERR","BURTONSVILLE","MD","20866"
156703,"13502 HAMMOND HILLS LN","HOUSTON","TX","77044"
156704,"13502 HIGHWAY 959","CLINTON","LA","70722"
156705,"13502 HWY 643","VACHERIE","LA","70090"
156706,"13502 LONG GLEN DR","HOUSTON","TX","77039"
156707,"13502 MAHOGANY COURT","MIDLOTHIAN","VA","23832"
156708,"13502 MOORE STREET","CERRITOS","CA","90703"
156709,"13502 N GREENVILLE RD","CROFTON","KY","42217"
156710,"13502 PARK LAKE DR APT 203","TAMPA","FL","33618"
156711,"13502 PISCATAWAY DRIVE","FORT WASHINGTON","MD","20744"
156712,"13502 SPRIGGS ROAD","HAGERSTOWN","MD","21740"
156713,"13502 TOBIASSON ROAD","POWAY","CA","92064"
156714,"13502 WHITTIER BLVD STE H 442","WHITTIER","CA","90605"
156715,"13503 123RD AVE KPN","GIG HARBOR","WA","98329"
156716,"13503 135TH AVE KP N","GIG HARBOR","WA","98329"
156717,"13503 13TH AVE KP N","GIG HARBOR","WA","98329"
156718,"13503 ALEXANDER ROAD","BALCH SPRINGS","TX","75181"
156719,"13503 AVEBURY DRIVE","LAUREL","MD","20708"
156720,"13503 COOPER CIR","OMAHA","NE","68138"
156721,"13503 COURREGE LANE","HOUSTON","TX","77037"
156722,"13503 GRANITE ROCK DRIVE","CHANTILLY","VA","20151"
156723,"13503 HELMSLEY COURT","CHARLOTTE","NC","28273"
156724,"13503 N THORNTREE STE 261","HOUSTON","TX","77015"
156725,"13503 NORTHBOROUGH DRIVE APT 1110","HOUSTON","TX","77067"
156726,"13503 NORTHBOROUGH","HOUSTON","TX","77067"
156727,"13503 SPRING CT","TOMBALL","TX","77375"
156728,"13503 SPRINGS STATION RD","LOUISVILLE","KY","40245"
156729,"13503 TAMARACK RD","SILVER SPRING","MI","20904"
156730,"13503 TAMARACK ROAD","SILVER SPRING","MD","20904"
156731,"13503 VIEW DRIVE","ORANGE COVE","CA","93646"
156732,"13504 131ST STREET FL2","SOUTH OZONE PARK","NY","11420"
156733,"13504 ARBORVIEW CIRCLE","PLAINFIELD","IL","60585"
156734,"13504 ASHFORD WOOD CT W","JACKSONVILLE","FL","32218"
156735,"13504 CARPACCIO LANE","BAKERSFIELD","CA","93306"
156736,"13504 CAVANAUGH DR","ROCKVILLE","MD","20850"
156737,"13504 N NASEAR PR NE","BENTON CITY","WA","99320"
156738,"13504 SCARLET SAGE","SAN DIEGO","CA","92130"
156739,"13504 SCHROEDER RD  3304","HOUSTON","TX","77076"
156740,"13504 SPINNING WHEEL DRIVE","GERMANTOWN","MD","20874"
156741,"13504 SW 111 TER","MIAMI","FL","33186"
156742,"13504 WOODSIDE LANE SOUTHWEST","PORT ORCHARD","WA","98367"
156743,"13505 219TH AVE NE","HAWICK","MN","56273"
156744,"13505 242ND ST","ROSEDALE","NY","11422"
156745,"13505 40TH RD UNIT PH1H","FLUSHING","NY","11354"
156746,"13505 BLACK BEAR DR","PARK RAPIDS","MN","56470"
156747,"13505 BOLINGBROOK LANE","CHARLOTTE","NC","28273"
156748,"13505 CHANEY THOMPSON ROAD","HUNTSVILLE","AL","35803"
156749,"13505 DAISY LANE","CHINO","CA","91710"
156750,"13505 EQUESTRIAN CR","WICHITA","KS","67230"
156751,"13505 HARTFORD ROAD","SUNBURY","OH","43074"
156752,"13505 HIGHLAND FARMS CT","NOKESVILLE","VA","20181"
156753,"13505 HIGHWAY 1085","COVINGTON","LA","70433"
156754,"13505 HIGHWAY 1085","COVINTON","LA","70433"
156755,"13505 HOLLOW ROCK RD","OKLAHOMA CITY","OK","73120"
156756,"13505 LONE RIDER TRL","AUSTIN","TX","78738"
156757,"13505 MARY BOWIE PARKWAY","UPPER MARLBORO","MD","20774"
156758,"13505 MICHAEL SHAYNE COURT","CHARLOTTE","NC","28278"
156759,"13505 PARKER AVE","GRANDVIEW","MO","64030"
156760,"13505 PARKER AVE","KANSAS CITY","MO","64130"
156761,"13505 PRESTON RD","MINNETONKA","MN","55305"
156762,"13505 SPINNING WHEEL DR","GERMANTOWN","MD","20874"
156763,"13506 ALLNUTT LANE","HIGHLAND","MD","20777"
156764,"13506 ARBOLADO COURT","BAKERFIELD","CA","93314"
156765,"13506 BUGLENOTE WAY","SPOTSYLVANIA","VA","22553"
156766,"13506 CASTANA AVE","DOWNEY","CA","90242"
156767,"13506 CASTLEWAY RD","MIDLOTHIAN","VA","23114"
156768,"13506 CHARLES CIRCLE","OMAHA","NE","68154"
156769,"13506 COLDWATER DRIVE","FORT WASHINGTON","MD","20744"
156770,"13506 HOLLOW LOG DRIVE","UPPER MARLBORO","MD","20774"
156771,"13506 KALMBACKS MILL DR","FREDERICKSBURG","VA","22407"
156772,"13506 LUCKY DEBONAIR LANE","MIDLOTHIAN","VA","23112"
156773,"13506 PUNGO CT","CHESTERFIELD","VA","23838"
156774,"13506 ROXBORO ROAD","ROUGEMONT","NC","27572"
156775,"13506 SADDLE BACK PASS","AUSTIN","TX","78738"
156776,"13506 SCENIC GLADE DR","HOUSTON","TX","77059"
156777,"13506 SUMMERPORT VILLAGE PKWY","WINDERMERE","FL","34786"
156778,"13506 UNION VILLAGE CIRCLE","CLIFTON","VA","20124"
156779,"13506 UTOPIA RD","POWAY","CA","92064"
156780,"13507 BLAIR HILL LANE","HOUSTON","TX","77044"
156781,"13507 BRANDYWINE ROAD","BRANDYWINE","MD","20613"
156782,"13507 FALLBROOK CIRCLE","MONT BELVIEU","TX","77535"
156783,"13507 FAR POINT MANOR CT","CYPRESS","TX","77429"
156784,"13507 HARPERS FERRY ROAD","HILLSBORO","VA","20132"
156785,"13507 HWY 67","KIEL","WI","53042"
156786,"13507 LAKE AVENUE","LAKEWOOD","OH","44107"
156787,"13507 NW FORD ROAD","GASTON","OR","97119"
156788,"13507 OLD FRANKLIN TPK","PENHOOK","VA","24137"
156789,"13507 PERRYWOOD COURT","UPPER MARLBORO","MD","20774"
156790,"13507 PURITAS AVENUE","CLEVELAND","OH","44135"
156791,"13507 S PARK DR","MAGALIA","CA","95954"
156792,"13507 UNDERRIDGE RD","WEST SPRINGFIELD","PA","16443"
156793,"13508  NW  50TH  COURT","VANCOUVER","WA","98685"
156794,"13508 AVENUE 20","CHOWCHILLA","CA","93610"
156795,"13508 COOMES DRIVE","DEL VALLE","TX","78617"
156796,"13508 CROSS LANE","CUMBERLAND","MD","21502"
156797,"13508 DARLEY AVE","CLEVELAND","OH","44110"
156798,"13508 DELANEY ROAD","WOODBRIDGE","VA","22193"
156799,"13508 FERN PINE ST","VICTORVILLE","CA","92392"
156800,"13508 GREENCASTLE RIDGE TER APT 204","BUTONSVILLE","MD","20866"
156801,"13508 GUMSPRING DR","ROCKVILLE","MD","20850"
156802,"13508 LATHE COVE","AUSTIN","TX","78727"
156803,"13508 MARQUETTE BLVD","FORT MYERS","FL","33905"
156804,"13508 SOUTH FAIR HILLS COURT","DRAPER","UT","84020"
156805,"13508 SW 118 PLACE","MIAMI","FL","33186"
156806,"13509 39TH AVE NE","SEATTLE","WA","98125"
156807,"13509 423RD AVE SE","NORTH BEND","WA","98045"
156808,"13509 BATTLEWOOD CT","CLIFTON","VA","20124"
156809,"13509 BAUHAUS BEND","PFLUGERVILLE","TX","78660"
156810,"13509 BOISE ST","HOUSTON","TX","77015"
156811,"13509 MARTHA JEFFERSON PLACE","HERNDON","VA","20171"
156812,"13509 MONEY FARM ROAD","OCEAN SPRINGS","MS","39564"
156813,"13509 MOONLIGHT TRAIL","SILVER SPRING","MD","20906"
156814,"13509 NE 22ND ST","VANCOUVER","WA","98684"
156815,"13509 NW BRAZEE CT","PORTLAND","OR","97230"
156816,"13509 OLD MILL RD","WAYNESBORO","PA","17268"
156817,"13509 S 129TH ST","SPRINGFIELD","NE","68059"
156818,"13509 SPINNING AVENUE","GARDENA","CA","90249"
156819,"13509 SWEET WIND CT","PEARLAND","TX","77584"
156820,"13509 WOODMORE RD","BOWIE","MD","20721"
156821,"1351 23RD STREET","DES MOINES","IA","50311"
156822,"1351 4TH ST","LOS OSOS","CA","93402"
156823,"1351 51ST STREET","BROOKLYN","NY","11219"
156824,"1351 AIRPORT ROAD","LARCHWOOD","IA","51241"
156825,"1351 ANCESTRA DRIVE","FOUNTAIN","CO","80817"
156826,"1351 ARCADIAN AVE APT B","CHICO","CA","95926"
156827,"1351 AUTUMN WOOD TR","SUGAR HILL","GA","30518"
156828,"1351 BADHAM DRIVE","BIRMINGHAM","AL","35216"
156829,"1351 BLACKROCK DRIVE","RICHMOND","VA","23225"
156830,"1351 BOXELDER RD","GLENROCK","WY","82637"
156831,"1351 CALUMET FARMS","COLLIERVILLE","TN","38017"
156832,"1351 CHAUTAUQUA BLVD","VALLEY CITY","ND","58072"
156833,"1351 CHURCH STREET 6","REDLANDS","CA","92374"
156834,"1351 CLOUSER HOLLOW RD","NEW BLOOMFIELD","PA","17068"
156835,"1351 COLLEGE AVE NE","GRAND RAPIDS","MI","49505"
156836,"1351 COLLIER ST NW","ATLANTA","GA","30314"
156837,"1351 COLLIER STREET NW","ATLANTA","GA","30314"
156838,"1351 COLORADO DRIVE","XENI","OH","45385"
156839,"1351 COLORADO DRIVE","XENIA","OH","45385"
156840,"1351 COLT RIDGE DR","MABLETON","GA","30126"
156841,"1351 COLT RIDGE DRIVE","MABLETON","GA","30126"
156842,"1351 CONEWAGO ROAD","DOVER","PA","17315"
156843,"1351 CR 742","DUMAS","MS","38625"
156844,"1351 CROSSBEND DR","HEBRON","KY","41048"
156845,"1351 CYRO RD","OSCEOLA","AR","72370"
156846,"1351 DOROTHY DRIVE","CLEARWATER","FL","33764"
156847,"1351 DOWNING COURT","WHEATON","IL","60189"
156848,"1351 E 224TH ST","BRONX","NY","10456"
156849,"1351 E CHAPMAN AVE STE C","Fullerton","CA","92831"
156850,"1351 E CHAPMAN AVE STE C","FULLERTON","CA","92831"
156851,"1351 E HWY 1223","CORBIN","KY","40701"
156852,"1351 E NORTHERN PKWY","BALTIMORE","MD","21239"
156853,"1351 EAST 224TH STREET APT 2","BRONX","NY","10466"
156854,"1351 ELLIS FALLON LOOP","OVIEDO","FL","32765"
156855,"1351 EMERSON","SHERIDAN","WY","82801"
156856,"1351 EUBANKS AVE","EAST POINT","GA","30344"
156857,"1351 FALL COVER ST","NEW BRAUNFELS","TX","78130"
156858,"1351 FIELDS ROAD","MEMPHIS","TN","38109"
156859,"1351 FILBERT STREET","SAN FRANCISCO","CA","94109"
156860,"1351 FREEPORT ROAD","PITTSBURGH","PA","15238"
156861,"1351 GIFFORD RD","ANGLETON","TX","77515"
156862,"1351 GIGSON AVE","SURFISDE","SC","29575"
156863,"1351 GIGSON AVE","SURFSIDE","SC","29575"
156864,"1351 HARGROVE AVENUE","GASTONIA","NC","28052"
156865,"1351 HARKER AVE","PALO ALTO","CA","94301"
156866,"1351 HARKER AVE","PALO ALTO","CA",NA
156867,"1351 HAYES ST","CEDAR HILL","TX","75104"
156868,"1351 HEYDT","ST. LOUIS","MO","63135"
156869,"1351 HIGH POINTE LANE","CEDAR HILL","TX","75104"
156870,"1351 HIGHLAND ST","CABOOL","MO","65689"
156871,"1351 HILLSIDE DR NW","CEDAR RAPIDS","IA","52405"
156872,"1351 HOLIDAY HILL","GOLETA","CA","93117"
156873,"1351 HUDSONVILLE RD","HOLLY SPRINGS","MS","38635"
156874,"1351 HWY 22","MANNING","ND","58642"
156875,"1351 IRIS LANE","CAROL STREAM","IL","60188"
156876,"1351 JONES ST","SHELTON","WA","98584"
156877,"1351 KEARNY ST","SAN FRANCISCO","CA","94133"
156878,"1351 LEEWARD WAY","FREEPORT","TX","77541"
156879,"1351 LITTLE NECK ROAD","VIRGINIA BEACH","VA","23452"
156880,"1351 LONDON BRIDGE RD UNIT 8","LAKE HAVASU CITY","AZ","86404"
156881,"1351 MAJESTIC PINES DR","MAMMOTH LAKES","CA","93546"
156882,"1351 MARTIN LUTHER KING","MARKS","MS","38646"
156883,"1351 N 1670 W","FARMINGTON","UT","84025"
156884,"1351 N BUCKNER BLVD -180182","DALLAS","TX","75218"
156885,"1351 N CORMORANT PL    APT 104","BOISE","ID","83713"
156886,"1351 N CRESCENT HEIGHTS BLVD 314","WEST HOLLYWOOD","CA","90046"
156887,"1351 N PLEASANT DR 2075","CHANDLER","AZ","85225"
156888,"1351 NE 191 STREET STE 219","NMB","FL","33179"
156889,"1351 NE MIAMI GARDENS DR 1703","MIAMI","FL","33179"
156890,"1351 NE MIAMI GARDENS DR 1703E","MIAMI","FL","33179"
156891,"1351 NE MIAMI GARDENS DRIVE UNIT 91","MIAMI","FL","33179"
156892,"1351 NORBY RD","JAMESTOWN","NY","14701"
156893,"1351 NORTH CASS STREET","WABASH","IN","46992"
156894,"1351 NW 103 STREET APT 229","MIAMI","FL","33147"
156895,"1351 NW 103RD STREET APT 229","MIAMI","FL","33147"
156896,"1351 NW 178TH TERRACE","MIAMI","FL","33169"
156897,"1351 PARK AVENUE APT 5A","NEW YORK","NY","10029"
156898,"1351 PARK AVENUE APT 5B","NEW YORK","NY","10029"
156899,"1351 PARK DRIVE","PALMYRA","PA","17078"
156900,"1351 PASSENGER STREET APT 360","CHATTANOOGA","TN","37408"
156901,"1351 PASSENGER STREET APT 379","CHATTANOOGA","TN","37408"
156902,"1351 PATIO DRIVE","NEW BRAUNFELS","TX","78130"
156903,"1351 PAXTON CIRCLE","TUSCALOOSA","AL","35405"
156904,"1351 PIN OAK DRIVE","TAYLORSVILLE","KY","40071"
156905,"1351 PINE ARBOR RD","HARDEESVILLE","SC","29927"
156906,"1351 PONCE DE LEON ST","LAKE PLACID","FL","33852"
156907,"1351 PONDEROSA DRIVE","JEMEZ SPRINGS","NM","87025"
156908,"1351 PVT 4007","HALLETTSVILLE","TX","77964"
156909,"1351 RANGETON DRIVE","WALNUT","CA","91789"
156910,"1351 RED RIVER DR","ST LOUIS","MO","63138"
156911,"1351 RIMROCK DRIVE","SAN JOSE","CA","95120"
156912,"1351 RITTENHOUSE STREET NW","WASHINGTON","DC","20011"
156913,"1351 ROLLING MEADOWS DR","VERMILION","OH","44089"
156914,"1351 ROSEWOOD DR SE","GRAND RAPIDS","MI","49506"
156915,"1351 ROYAL WAY APT 35","SAN LUIS OBISPO","CA","93405"
156916,"1351 RUNNING BROOK CT","JACKSONVILLE","FL","32225"
156917,"1351 S BOUVIER STREET","PHILADELPHIA","PA","19146"
156918,"1351 S CORONA ST","DENVER","CO","80210"
156919,"1351 S SHARON CHAPEL RD","WEST LAFAYETE","IN","47906"
156920,"1351 SILVERGATE DRIVE","MABLETON","GA","30126"
156921,"1351 SMITH RD","COLUMBUS","OH","43207"
156922,"1351 SOUTHPOINT TRAIL","DURHAM","NC","27713"
156923,"1351 STANDRIDGE CT","TRACY","CA","95376"
156924,"1351 STATE HWY 67","JOHNSTOWN","NY","12095"
156925,"1351 STERLING DRIVE","TROY","OH","45373"
156926,"1351 STILLWAGON RD SE","WARREN","OH","44484"
156927,"1351 STREET PARIS PIKE","SPRINGFIELD","OH","45504"
156928,"1351 SW 151ST TERRACE","SUNRISE","FL","33326"
156929,"1351 SW 70TH AVE","MIAMI","FL","33144"
156930,"1351 THOREAU RD","LAKEWOOD","OH","44107"
156931,"1351 TREASURE LAKE","DUBOIS","PA","15801"
156932,"1351 TREE GARDEN PLACE","CONCORD","CA","94518"
156933,"1351 TROTTERS LN","WILLIAMSTON","MI","48895"
156934,"1351 TUPELO RD","CLOVER","SC","29710"
156935,"1351 W 227 STREET APT 18","TORRANCE","CA","90501"
156936,"1351 W 30TH STREET","ERIE","PA","16508"
156937,"1351 W ALTGELD 3E","CHICAGO","IL","60614"
156938,"1351 W BERTONA ST","SEATTLE","WA","98119"
156939,"1351 W CARL SANDBURG DRIVE","GALESBURG","IL","61401"
156940,"1351 W KAUFMAN","COOPER","TX","75432"
156941,"1351 W TEXTILE RD","ANN ARBOR","MI","48108"
156942,"1351 WAKEFIELD DR","VIRGINIA BEACH","VA","23455"
156943,"1351 WASHINGTON STREET","EASTON","PA","18042"
156944,"1351 WATSON AVE","WILMINGTON","CA","90744"
156945,"1351 WEST 27TH DRIVE","SAN PEDRO","CA","90731"
156946,"1351 WEST 73RD CIRCLE","ANCHORAGE","AK","99518"
156947,"1351 WEST ALTGELD STREET UNIT 2F","CHICAGO","IL","60614"
156948,"1351 WEST STRASBURG ROAD","WEST CHESTER","PA","19382"
156949,"1351 WESTOVER","UNIVERSITY CITY","MO","63130"
156950,"1351 WESTWOOD DRIVE","MOUNT VERNON","OH","43050"
156951,"1351 WOODMERE ROAD","ORCUTT","CA","93455"
156952,"13510  SWEET WIND COURT","PEARLAND","TX","77584"
156953,"13510 68TH AVE CT E","PUYALLUP","WA","98373"
156954,"13510 ASHWORTH PLACE","CERRITOS","CA","90703"
156955,"13510 CARPENTER RD","GARFIELD HEIGHTS","OH","44125"
156956,"13510 CARRUTH LN","HOUSTON","TX","77083"
156957,"13510 COVEY LANE","CLIFTON","VA","20724"
156958,"13510 E STROUD RD","BURRTON","KS","67020"
156959,"13510 HACIENDA TRAIL DRIVE","SAN ANTONIO","TX","78232"
156960,"13510 HUNTERS RIDGE CT","PROSPECT","KY","40059"
156961,"13510 INVURAN DRIVE","BAKERSFIELD","CA","93314"
156962,"13510 MARY BOWIE PKWY","UPPER MARLBORO","MD","20774"
156963,"13510 MOUNT OLYMPUS","UNIVERSAL CITY","TX","78148"
156964,"13510 MOUNT OLYMUS","SAN ANTONIO","TX","78148"
156965,"13510 N CREEK DR APT G203","MILL CREEK","WA","98012"
156966,"13510 N CREEK DRIVE UNIT V301","MILL CREEK","WA","98012"
156967,"13510 N CREK DR U107","MILL CREEK","WA","98012"
156968,"13510 NE 188TH PL","WOODINVILLE","WA","98072"
156969,"13510 NE ROEDEL RD","MUKILTEO","WA","98275"
156970,"13510 NE ROEDEL RD","NEWBERG","OR","97132"
156971,"13510 NORTH COUNTY ROAD 7","WELLINGTON","CO","80549"
156972,"13510 PALMER SPRINGS DR","HOUSTON","TX","77070"
156973,"13510 PALMER SPRINGS DRIVE","HOUSTON","TX","77070"
156974,"13510 RR 1","PATTERSON","MO","63956"
156975,"13510 SAINT MARY CIRCLE","ORLAND PARK","IL","60462"
156976,"13510 SW 5TH PLACE","DAVIE","FL","33325"
156977,"13510 SWIFTWATER WAY","BRADENTON","FL","34211"
156978,"13511 69TH AVE SE","SNOHOMISH","WA","98296"
156979,"13511 7TH","PARLIER","CA","93648"
156980,"13511 BETSY ROSS CT","FONTANA","CA","92336"
156981,"13511 CLUBSIDE DR","TAMPA","FL","33624"
156982,"13511 GRAHAM RD","EAST CLEVELAND","OH","44112"
156983,"13511 HAYDEN RUN APT 201","MIDLOTHIAN","VA","23112"
156984,"13511 LEBOEUF TRAIL ROAD","CENTERVILLE","PA","16404"
156985,"13511 MOSER RD","THURMONT","MD","21788"
156986,"13511 PLANTATION LANE","NEW PORT RICHEY","FL","34653"
156987,"13511 QUARTZ WAY","LATHROP","CA","95330"
156988,"13511 SW 3RD COURT","DAVIE","FL","33325"
156989,"13511 V CIRCLE","OMAHA","NE","68137"
156990,"13512 BUSTLETON AVE APT 2211","PHILADELPHIA","PA","19116"
156991,"13512 BUSTLETON AVE APT 7-201","PHILADELPHIA","PA","19116"
156992,"13512 BUSTLETON AVENUE","PHILADELPHIA","PA","19116"
156993,"13512 CREWE ST","VALLEY GLEN","CA","91405"
156994,"13512 FM 812 RD","DEL VALLE","TX","78617"
156995,"13512 J F KENNEDY","MANOR","TX","78653"
156996,"13512 NE 20 CT","MIAMI","FL","33181"
156997,"13512 NORLINGTON COURT","CHARLOTTE","NC","28273"
156998,"13512 PROVIDENCE RUN ROAD","ASHLAND","VA","23005"
156999,"13512 S 7530 W","HERRIMAN","UT","84096"
157000,"13512 SPARREN AVE","SAN DIEGO","CA","92129"
