"ID","Address","City","State","Zip"
990501,"PO BOX 5343","DILLON","CO","80435"
990502,"PO BOX 5344","DE PERE","WI","54115"
990503,"PO BOX 5344","ETNA","WY","83118"
990504,"PO BOX 535","ABBEVILLE","SC","29620"
990505,"PO BOX 535","BEEVILLE","TX","78104"
990506,"PO BOX 535","CALIPATRIA","CA","92233"
990507,"PO BOX 535","CLARKSTON","GA","30021"
990508,"PO BOX 535","DANVILLE","WV","25053"
990509,"PO BOX 535","DILLON","CO","80435"
990510,"PO BOX 535","FRESNO","TX","77545"
990511,"PO BOX 535","GRAND ISLE","LA","70358"
990512,"PO BOX 535","HUSTISFORD","WI","53034"
990513,"PO BOX 535","JACKSON CENTER","OH","45334"
990514,"PO BOX 535","KING SALMON","AK","99613"
990515,"PO BOX 535","MONTEREY","CA","93942"
990516,"PO BOX 535","MT VERNON","OH","43050"
990517,"PO BOX 535","NORTHPORT","WA","99157"
990518,"PO BOX 535","PAULDEN","AZ","86334"
990519,"PO BOX 535","PAWLEYS ISLAND","SC","29585"
990520,"PO BOX 535","PINE GROVE","WV","26419"
990521,"PO BOX 535","ROSCOMMON","MI","48653"
990522,"PO BOX 535","SHERIDAN","WY","82801"
990523,"PO BOX 535","TULARE","CA","93275"
990524,"PO BOX 535","TWISP","WA","98856"
990525,"PO BOX 535","VILLAGE MILLS","TX","77663"
990526,"PO BOX 535","WAITSBURG","WA","99361"
990527,"PO BOX 535002","GRAND PRAIRIE","TX","75050"
990528,"PO BOX 5351","FULLERTON","CA","92838"
990529,"PO BOX 535111","GRAND PRAIRIE","TX","75053"
990530,"PO BOX 5353","SANTA FE","NM","87502"
990531,"PO BOX 5357","ETNA","WY","83118"
990532,"PO BOX 5358","EUGENE","OR","97405"
990533,"PO BOX 536","BAYOU LA BATRE","AL","36509"
990534,"PO BOX 536","BINGEN","WA","98605"
990535,"PO BOX 536","CHAPPELL HILL","TX","77426"
990536,"PO BOX 536","CHASE","AK","99841"
990537,"PO BOX 536","DE FOREST","WI","53532"
990538,"PO BOX 536","DOWNEVILLE","CA","95936"
990539,"PO BOX 536","DOWNIEVILLE","CA","95936"
990540,"PO BOX 536","GOLDTHWAITE","TX","76844"
990541,"PO BOX 536","GRAND ISLAND","NE","68802"
990542,"PO BOX 536","HAMPTON","SC","29924"
990543,"PO BOX 536","LAPEER","MI","48446"
990544,"PO BOX 536","MACON","GA","31202"
990545,"PO BOX 536","MEETEETSE","WY","82433"
990546,"PO BOX 536","SUN PRAIRIE","WI","53590"
990547,"PO BOX 536","TRACYTON","WA","98393"
990548,"PO BOX 536","WEST SWANZEY","NH","03469"
990549,"PO BOX 5360","KINGSHILL","VI","00851"
990550,"PO BOX 5361","ORACLE","AZ","85623"
990551,"PO BOX 5362","IRVINE","CA","92616"
990552,"PO BOX 5363","BEAVERTON","OR","97006"
990553,"PO BOX 5364","SNOWMASS VILLAGE","CO","81615"
990554,"PO BOX 536561","ORLANDO","FL","32853"
990555,"PO BOX 536794","ORLANDO","FL","32853"
990556,"PO BOX 5368","LEUPP","AZ","86035"
990557,"PO BOX 537 3208 SUNSET DRIVE","NORTH BONNEVILLE","WA","98639"
990558,"PO BOX 537","CHEWELAH","WA","99109"
990559,"PO BOX 537","HOUSTON","MN","55943"
990560,"PO BOX 537","INVERNESS","CA","94937"
990561,"PO BOX 537","NIWOT","CO","80544"
990562,"PO BOX 537","PEORIA","AZ","85380"
990563,"PO BOX 537","TOKELAND","WA","98590"
990564,"PO BOX 5371 MS RC-507","SEATTLE","WA","98145"
990565,"PO BOX 5371","HILO","HI","96720"
990566,"PO BOX 5374","ETNA","WY","83118"
990567,"PO BOX 5376","GRANBURY","TX","76049"
990568,"PO BOX 5377","CENTRAL POINT","OR","97502"
990569,"PO BOX 5377","RICHMOND","CA","94805"
990570,"PO BOX 5378","KETCHUM","ID","83340"
990571,"PO BOX 538","FAIRFIELD","ME","04937"
990572,"PO BOX 538","MCCLEARY","WA","98557"
990573,"PO BOX 538","MEXICO","NY","13114"
990574,"PO BOX 538","OCOEE","FL","34761"
990575,"PO BOX 538","PINE LAKE","GA","30072"
990576,"PO BOX 538","PRINCETON","NC","27569"
990577,"PO BOX 538","TENAKEE","AK","99841"
990578,"PO BOX 5380","MANGILAO","GU","96923"
990579,"PO BOX 53804","FORT BENNING","GA","31995"
990580,"PO BOX 53807","LAFAYETTE","LA","70505"
990581,"PO BOX 5381","KANSAS CITY","MO","64131"
990582,"PO BOX 5383","WHITEFISH","MT","59937"
990583,"PO BOX 5385","OSWEGO","NY","13126"
990584,"PO BOX 5385","SACRAMENTO","CA","95817"
990585,"PO BOX 539","BREMOND","TX","76629"
990586,"PO BOX 539","BROOKHAVEN","MS","39601"
990587,"PO BOX 539","CHILLICOTHE","OH","45601"
990588,"PO BOX 539","GT BARRINGTON","MA","01230"
990589,"PO BOX 539","LEWISVILLE","AR","71845"
990590,"PO BOX 539","LIBBY","MT","59923"
990591,"PO BOX 539","POINT ARENA","CA","95468"
990592,"PO BOX 539","VERNON","AZ","85940"
990593,"PO BOX 5390","WARREN","MI","48090"
990594,"PO BOX 5391","KANEOHE","HI","96744"
990595,"PO BOX 5393","FREDERICKSBURG","VA","22403"
990596,"PO BOX 5397","FORT LEE","VA","23801"
990597,"PO BOX 53975","FAYETTEVILLE","NC","28305"
990598,"PO BOX 54","BASYE","VA","22810"
990599,"PO BOX 54","BAYVIEW","ID","83803"
990600,"PO BOX 54","BERLIN","OH","44610"
990601,"PO BOX 54","BOLIVAR","OH","44612"
990602,"PO BOX 54","CARSON","WA","98610"
990603,"PO BOX 54","CICERO","IN","46034"
990604,"PO BOX 54","CLIFTON","TX","76634"
990605,"PO BOX 54","COLUMBIA FALLS","MT","59912"
990606,"PO BOX 54","COOPER","TX","75432"
990607,"PO BOX 54","DIXON","CA","95620"
990608,"PO BOX 54","FAIRFIELD","MT","59436"
990609,"PO BOX 54","FELTON","DE","19943"
990610,"PO BOX 54","FRIENDSHIP","WI","53934"
990611,"PO BOX 54","FRUITLAND","NM","87416"
990612,"PO BOX 54","HIBERNIA","NJ","07842"
990613,"PO BOX 54","JASPER","NY","14855"
990614,"PO BOX 54","LOBELVILLE","TN","37097"
990615,"PO BOX 54","MEDORA","IN","47260"
990616,"PO BOX 54","MEXICO","MO","65265"
990617,"PO BOX 54","OLIVE HILL","KY","41164"
990618,"PO BOX 54","OTISVILLE","NY","10963"
990619,"PO BOX 54","PALMERO","CA","95968"
990620,"PO BOX 54","PARIS","ME","04271"
990621,"PO BOX 54","PEEKSKILL","NY","10566"
990622,"PO BOX 54","PITTSVILLE","WI","54466"
990623,"PO BOX 54","PLATTSMOUTH","NE","68048"
990624,"PO BOX 54","POCAHONTAS","VA","24635"
990625,"PO BOX 54","POMONA","NY","10970"
990626,"PO BOX 54","QUITAQUE","TX","79255"
990627,"PO BOX 54","ROANOKE RAPIDS","NC","27870"
990628,"PO BOX 54","ROCHESTER","VT","05767"
990629,"PO BOX 54","ROLESVILLE","NC","27571"
990630,"PO BOX 54","ROTAN","TX","79549"
990631,"PO BOX 54","SANTA BARBARA","CA","93102"
990632,"PO BOX 54","SEARSMONT","ME","04973"
990633,"PO BOX 54","SOUTH PARK","PA","15129"
990634,"PO BOX 54","WALES","WI","54284"
990635,"PO BOX 54","WEST BLOOMFIELD","NY","14585"
990636,"PO BOX 54","WEST STOCKHOLM","NY","13696"
990637,"PO BOX 54","WEWAHITCHKA","FL","32465"
990638,"PO BOX 54","WINNEMUCCA","NV","89446"
990639,"PO BOX 540","MORAVIAN FALLS","NC","28654"
990640,"PO BOX 540","STOCKTON","MO","65785"
990641,"PO BOX 540","SUNRAY","TX","79086"
990642,"PO BOX 540","TRINIDAD","CO","81082"
990643,"PO BOX 540","WALNUT","MS","38683"
990644,"PO BOX 5402","SANTA CRUZ","CA","95063"
990645,"PO BOX 540231","HOUSTON","TX","77254"
990646,"PO BOX 540272","OPA LOCKA","FL","33054"
990647,"PO BOX 540294","DALLAS","TX","75354"
990648,"PO BOX 5404","POLAND","OH","44514"
990649,"PO BOX 540403","WALTHAM","MA","02454"
990650,"PO BOX 540481","HOUSTON","TX","77254"
990651,"PO BOX 540484","GRAND PRAIRIE","TX","75054"
990652,"PO BOX 54049","ATLANTA","GA","30308"
990653,"PO BOX 540491","GRAND PRAIRIE","TX","75054"
990654,"PO BOX 540505","OPALOCKA","FL","33054"
990655,"PO BOX 540561","HOUSTON","TX","77254"
990656,"PO BOX 540577","HOUSTON","TX","77254"
990657,"PO BOX 540592","GRAND PRAIRIE","TX","75054"
990658,"PO BOX 5406","KAILUA KONA","HI","96745"
990659,"PO BOX 54066","ATLANTA","GA","30303"
990660,"PO BOX 540935","HOUSTON","TX","77254"
990661,"PO BOX 541","BELLE CHASSE","LA","70037"
990662,"PO BOX 541","BELLE","MO","65013"
990663,"PO BOX 541","CARTHAGE","NY","13619"
990664,"PO BOX 541","CASTLEWOOD","VA","24224"
990665,"PO BOX 541","ELIZABETHTOWN","KY","42702"
990666,"PO BOX 541","ISLETA","NM","87022"
990667,"PO BOX 541","MARKLEEVILLE","CA","96120"
990668,"PO BOX 541","METCALFE","MS","38760"
990669,"PO BOX 541","NASHVILLE","AR","71852"
990670,"PO BOX 541","NEW PALESTINE","IN","46163"
990671,"PO BOX 541","ORANGE PARK","FL","32067"
990672,"PO BOX 541","PANGUITCH","UT","84759"
990673,"PO BOX 541","PINEDALE","WY","82941"
990674,"PO BOX 541","PLACITAS","NM","87043"
990675,"PO BOX 541","PORT LEYDEN","NY","13433"
990676,"PO BOX 541","SAN CARLOS","CA","94070"
990677,"PO BOX 541","TREGO","MT","59934"
990678,"PO BOX 541031","DALLAS","TX","75354"
990679,"PO BOX 541032","HOUSTON","TX","77254"
990680,"PO BOX 541063","HOUSTON","TX","77254"
990681,"PO BOX 541141","LAKE WORTH","FL","33454"
990682,"PO BOX 541231","DALLAS","TX","75354"
990683,"PO BOX 541311","DALLAS","TX","75354"
990684,"PO BOX 5414","PAHRUMP","NV","89048"
990685,"PO BOX 541512","WALTHAM","MA","02452"
990686,"PO BOX 5416","LONGVIEW","TX","75608"
990687,"PO BOX 541871","HOUSTON","TX","77254"
990688,"PO BOX 541881","HOUSTON","TX","77254"
990689,"PO BOX 541883","GREENACRES","FL","33454"
990690,"PO BOX 542","APALACHIN","NY","13732"
990691,"PO BOX 542","ASHDOWN","AR","71822"
990692,"PO BOX 542","BEAR","DE","19701"
990693,"PO BOX 542","BELLE CHASSE","LA","70037"
990694,"PO BOX 542","CANTON","TX","75103"
990695,"PO BOX 542","CIBOLO","TX","78108"
990696,"PO BOX 542","CODEN","AL","36523"
990697,"PO BOX 542","GRINNELL","IA","50112"
990698,"PO BOX 542","KENNEBUNK","ME","04043"
990699,"PO BOX 542","LA VETA","CO","81055"
990700,"PO BOX 542","LENOIR","NC","28645"
990701,"PO BOX 542","OLALLA","WA","98359"
990702,"PO BOX 542","PAOLI","OK","73074"
990703,"PO BOX 542","PINE RIDGE","SD","57770"
990704,"PO BOX 542","SIMPSONVILLE","KY","40067"
990705,"PO BOX 542","TOWNSEND","DE","19734"
990706,"PO BOX 542","TYRONE","NM","88065"
990707,"PO BOX 542","WEST CHESTER","OH","45071"
990708,"PO BOX 542","WILLCOX","AZ","85644"
990709,"PO BOX 5421","CLOVIS","NM","88102"
990710,"PO BOX 542211","HOUSTON","TX","77098"
990711,"PO BOX 5423","ORACLE","AZ","85623"
990712,"PO BOX 542334","GRAND PRAIRIE","TX","75054"
990713,"PO BOX 5424","CHICO","CA","95927"
990714,"PO BOX 5424","NEWPORT NEWS","VA","23605"
990715,"PO BOX 5424","PRINCETON","WV","24740"
990716,"PO BOX 542451","DALLAS","TX","75354"
990717,"PO BOX 54266","UBUNGO TANZANIA",NA,NA
990718,"PO BOX 542671","GRAND PRAIRIE","TX","75052"
990719,"PO BOX 542692","GRAND PRAIRIE","TX","75054"
990720,"PO BOX 5427","ARLINGTON","TX","76005"
990721,"PO BOX 5427","SNOWMASS VILLAGE","CO","81615"
990722,"PO BOX 542772","GRAND PRAIRIE","TX","75054"
990723,"PO BOX 5428","FRISCO","TX","75035"
990724,"PO BOX 542881","DALLAS","TX","75354"
990725,"PO BOX 542942","GRAND PRAIRIE","TX","75054"
990726,"PO BOX 543","BARRE","VT","05641"
990727,"PO BOX 543","BUSHLAND","TX","79012"
990728,"PO BOX 543","CABLE","WI","54821"
990729,"PO BOX 543","CENTERVILLE","UT","84014"
990730,"PO BOX 543","FARMINGTON","MO","63640"
990731,"PO BOX 543","FERRUM","VA","24088"
990732,"PO BOX 543","GRABILL","IN","46741"
990733,"PO BOX 543","GREAT CACAPON","WV","25422"
990734,"PO BOX 543","GREENCASTLE","IN","46135"
990735,"PO BOX 543","HASTINGS ON HUDSON","NY","10706"
990736,"PO BOX 543","LEXINGTON","KY","40588"
990737,"PO BOX 543","LOS OLIVOS","CA","93441"
990738,"PO BOX 543","MARIPOSA","CA","95338"
990739,"PO BOX 543","MISSOURI CITY","TX","77459"
990740,"PO BOX 543","MISSOURI CITY","TX","77489"
990741,"PO BOX 543","PERRIS","CA","92572"
990742,"PO BOX 543","SAN MATEO","FL","32187"
990743,"PO BOX 543","STURGEON BAY","WI","54235"
990744,"PO BOX 543","YONKERS","NY","10702"
990745,"PO BOX 5430","CONCORD","NC","28025"
990746,"PO BOX 54304","OKLAHOMA CITY","OK","73154"
990747,"PO BOX 54309","OKLAHOMA CITY","OK","73154"
990748,"PO BOX 543212","DALLAS","TX","75354"
990749,"PO BOX 5433","ABURN","CA","95604"
990750,"PO BOX 5435","GREENVILLE","SC","29606"
990751,"PO BOX 54383","SAN JOSE","CA","95154"
990752,"PO BOX 54384","SAN JOSE","CA","95154"
990753,"PO BOX 544","ALPENA","MI","49707"
990754,"PO BOX 544","BERRYVILLE","VA","22611"
990755,"PO BOX 544","CEDARVILLE","CA","96112"
990756,"PO BOX 544","CENTREVILLE","AL","35042"
990757,"PO BOX 544","DICKINSON","TX","77539"
990758,"PO BOX 544","FLORENCE","MT","59833"
990759,"PO BOX 544","FLORESVILLE","TX","78114"
990760,"PO BOX 544","GEORGETOWN","CT","06829"
990761,"PO BOX 544","GREEN","OH","44232"
990762,"PO BOX 544","HINESVILLE","GA","31310"
990763,"PO BOX 544","KAKE","AK","99830"
990764,"PO BOX 544","LAPWAI","ID","83540"
990765,"PO BOX 544","MILFORD","TX","76670"
990766,"PO BOX 544","OMAHA","AR","72662"
990767,"PO BOX 544","PITTSFIELD","MA","04967"
990768,"PO BOX 544","PITTSFIELD","ME","04967"
990769,"PO BOX 544","SANTA MARIA","CA","93456"
990770,"PO BOX 544","TRENTON","GA","30752"
990771,"PO BOX 544","WINSTED","MN","55395"
990772,"PO BOX 54401","MILLINGTON","TN","38054"
990773,"PO BOX 5441","SYLVESTER","GA","31791"
990774,"PO BOX 5443","HIGH POINT","NC","27262"
990775,"PO BOX 5444","BELLINGHAM","WA","98227"
990776,"PO BOX 5444","CLEVELAND","TN","37320"
990777,"PO BOX 54452","ATLANTA","GA","30308"
990778,"PO BOX 54459","PHOENIX","AZ","85078"
990779,"PO BOX 5446","STATELINE","NV","89449"
990780,"PO BOX 54466","OKLAHOMA CITY","OK","73154"
990781,"PO BOX 54466","OKLAHOMA","OK","73154"
990782,"PO BOX 5447","HERCULES","CA","94547"
990783,"PO BOX 54476","CINCINNATI","OH","45254"
990784,"PO BOX 545","ALANSON","MI","49706"
990785,"PO BOX 545","BRACEY","VA","23919"
990786,"PO BOX 545","CAMAA","WA","98607"
990787,"PO BOX 545","CAMAS","WA","98607"
990788,"PO BOX 545","CIRCLE","MT","59215"
990789,"PO BOX 545","DAYTON",NA,NA
990790,"PO BOX 545","ELLENVILLE","NY","12428"
990791,"PO BOX 545","EMERY","UT","84522"
990792,"PO BOX 545","HARTSVILLE","SC","29551"
990793,"PO BOX 545","HAYES","VA","23072"
990794,"PO BOX 545","JONESBORO","GA","30237"
990795,"PO BOX 545","KITTREDGE","CO","80457"
990796,"PO BOX 545","LAND O LAKES","WI","54540"
990797,"PO BOX 545","MARS HILL","NC","28754"
990798,"PO BOX 545","RAIL ROAD FLAT","CA","95248"
990799,"PO BOX 545","RUSSELLS POINT","OH","43348"
990800,"PO BOX 545","STARR","SC","29684"
990801,"PO BOX 545","TOMAHAWK","WI","54487"
990802,"PO BOX 5452","CHATSWORTH","CA","91313"
990803,"PO BOX 5454","CAREFREE","AZ","85377"
990804,"PO BOX 5455","MIDLAND","TX","79704"
990805,"PO BOX 54554","PEARL","MS","39288"
990806,"PO BOX 5456","HEMET","CA","92544"
990807,"PO BOX 546","ARLINGTON","TX","76004"
990808,"PO BOX 546","EL RENO","OK","73036"
990809,"PO BOX 546","GULF SHORES","AL","36547"
990810,"PO BOX 546","HAWLEY","TX","79525"
990811,"PO BOX 546","KAMAS","UT","84036"
990812,"PO BOX 546","MANDAREE","ND","58757"
990813,"PO BOX 546","MEDFORD","OR","97501"
990814,"PO BOX 546","MONA","UT","84645"
990815,"PO BOX 546","NORTH BELLMORE","NY","11710"
990816,"PO BOX 546","NORTH WILKESBORO","NC","28659"
990817,"PO BOX 546","ORADELL","NJ","07649"
990818,"PO BOX 546","PADUCAH","TX","79248"
990819,"PO BOX 546","ROUND LAKE","NY","12151"
990820,"PO BOX 546","SAINT ANTHONY","ID","83445"
990821,"PO BOX 546","SCOTTSBORO","AL","35768"
990822,"PO BOX 546","SHELBYVILLE","KY","40066"
990823,"PO BOX 546","SNOWMASS","CO","81654"
990824,"PO BOX 546","UTICA","OH","43080"
990825,"PO BOX 54605","LEXINGTON","KY","40555"
990826,"PO BOX 5461","AIKEN","SC","29804"
990827,"PO BOX 5462","PRINCETON","WV","24740"
990828,"PO BOX 5463","SPRING HILL","FL","34611"
990829,"PO BOX 54634","PEARL","MS","39288"
990830,"PO BOX 5464","DOUGLASVILLE","GA","30154"
990831,"PO BOX 54673","LEXINGTON","KY","40555"
990832,"PO BOX 5468","SACRAMENTO","CA","95817"
990833,"PO BOX 5469","SANTA ROSA","CA","95404"
990834,"PO BOX 547","GALLUP","NM","87305"
990835,"PO BOX 547","GILMANTON","NH","03237"
990836,"PO BOX 547","LEAKEY","TX","78873"
990837,"PO BOX 547","MACARTHUR","WV","25873"
990838,"PO BOX 547","MONTROSE","AL","36559"
990839,"PO BOX 547","NASHVILLE","NC","27856"
990840,"PO BOX 547","OSCEOLA","WI","54020"
990841,"PO BOX 547","TRENTON","GA","30752"
990842,"PO BOX 547","WALTON","IN","46994"
990843,"PO BOX 5471","ORACLE","AZ","85623"
990844,"PO BOX 5471","PINE BLUFF","AR","71611"
990845,"PO BOX 547157","SURFSIDE","FL","33154"
990846,"PO BOX 5472","COLUMBUS","MS","39702"
990847,"PO BOX 5472","HUNTSVILLE","AL","35814"
990848,"PO BOX 5472","SANTA MARIA","CA","93456"
990849,"PO BOX 5473","ORANGE","CA","92863"
990850,"PO BOX 5476","FLORENCE","SC","29502"
990851,"PO BOX 547643","ORLANDO","FL","32804"
990852,"PO BOX 5477","FARMINGTON","NM","87499"
990853,"PO BOX 548","BASALT","CO","81621"
990854,"PO BOX 548","CULLMAN","AL","35056"
990855,"PO BOX 548","GRAND VIEW","ID","83624"
990856,"PO BOX 548","HERCULANEUM","MO","63048"
990857,"PO BOX 548","KILA","MT","59920"
990858,"PO BOX 548","MONTEREY","MA","01246"
990859,"PO BOX 548","PATAGONIA","AZ","85624"
990860,"PO BOX 548","SECOND MESA","AZ","86043"
990861,"PO BOX 548","STERLING","MA","01564"
990862,"PO BOX 5482","JOHNSON CITY","TN","37602"
990863,"PO BOX 5482","MESA","AZ","85209"
990864,"PO BOX 5484","KETCHIKAN","AK","99901"
990865,"PO BOX 549 6804 E HWY 6 SOUTH","HOUSTON","TX","77083"
990866,"PO BOX 549","ARCHER CITY","TX","76351"
990867,"PO BOX 549","BANQUETE","TX","78339"
990868,"PO BOX 549","CADDO MILLS","TX","75135"
990869,"PO BOX 549","CEDARVILLE","CA","96104"
990870,"PO BOX 549","CEDRVILLE","CA","96104"
990871,"PO BOX 549","CHARLESTON","SC","29402"
990872,"PO BOX 549","CONOVER","NC","28613"
990873,"PO BOX 549","FREMONT","NE","68026"
990874,"PO BOX 549","FRIENDSWOOD","TX","77549"
990875,"PO BOX 549","HOLLY SPRINGS","MS","38635"
990876,"PO BOX 549","LAGUNA BEACH","CA","92652"
990877,"PO BOX 549","LOMITA","CA","90717"
990878,"PO BOX 549","NINE MILE FALLS","WA","99026"
990879,"PO BOX 549","PINEDALE","WY","82941"
990880,"PO BOX 549","RAPIDS CITY","IL","61278"
990881,"PO BOX 549","ROSEBURG","OR","97470"
990882,"PO BOX 549","SULLIGENT","AL","35586"
990883,"PO BOX 5492","VALLEJO","CA","94591"
990884,"PO BOX 5493","W LEBANON","NH","03784"
990885,"PO BOX 55 / 870 WW HIGHWAY","OSCEOLA","MO","64776"
990886,"PO BOX 55 /23 BUTLERS ALLEY","ARLINGTON","GA","39813"
990887,"PO BOX 55 110 BRUNO LANE","IMPERIAL","PA","15126"
990888,"PO BOX 55","ASHLAND","MS","38603"
990889,"PO BOX 55","BARSTOW","TX","79719"
990890,"PO BOX 55","BERE","KY","40403"
990891,"PO BOX 55","BUTNER","NC","27509"
990892,"PO BOX 55","CERRO","NM","87519"
990893,"PO BOX 55","CLAREMONT","NH","03743"
990894,"PO BOX 55","COLLETTSVILLE","NC","28611"
990895,"PO BOX 55","DE SOTO","IL","62924"
990896,"PO BOX 55","EAST STONE GAP","VA","24219"
990897,"PO BOX 55","ELBA","NE","68835"
990898,"PO BOX 55","ELLIS","KS","67637"
990899,"PO BOX 55","FLORENCE","OR","97439"
990900,"PO BOX 55","FORT WHITE","FL","32038"
990901,"PO BOX 55","FREDERIKSTED","VI","00841"
990902,"PO BOX 55","GRAND GORGE","NY","12434"
990903,"PO BOX 55","GRATON","CA","95444"
990904,"PO BOX 55","HEBRON","MD","21830"
990905,"PO BOX 55","IRONTON","MN","56455"
990906,"PO BOX 55","LARAMIE","WY","82073"
990907,"PO BOX 55","MIDDLETOWN","NJ","07748"
990908,"PO BOX 55","MULLAN","ID","83846"
990909,"PO BOX 55","NORTH SUTTON","NH","03260"
990910,"PO BOX 55","PARIS","ME","04271"
990911,"PO BOX 55","RAVENSDALE","WA","98051"
990912,"PO BOX 55","RINGGOLD","GA","30736"
990913,"PO BOX 55","ROCK VIEW","WV","24880"
990914,"PO BOX 55","SALADO","TX","76571"
990915,"PO BOX 55","SALAMANCA","NY","14779"
990916,"PO BOX 55","SAN ANTONIO","NM","87832"
990917,"PO BOX 55","SCOBEY","MT","59263"
990918,"PO BOX 55","SECOND MESA","AZ","86043"
990919,"PO BOX 55","SENECA","SC","29679"
990920,"PO BOX 55","SHORT HILLS","NJ","07078"
990921,"PO BOX 55","SWAN QUARTER","NC","27885"
990922,"PO BOX 55","TONOPAH","NV","89049"
990923,"PO BOX 55","WICKES","AR","75661"
990924,"PO BOX 550","BABB","MT","59411"
990925,"PO BOX 550","BELLEVIEW","FL","34421"
990926,"PO BOX 550","BLAIRSVILLE","GA","30514"
990927,"PO BOX 550","BRIDGE CITY","TX","77611"
990928,"PO BOX 550","LAS CRUCES","NM","88004"
990929,"PO BOX 550","LITTLETON","CO","80160"
990930,"PO BOX 550","PERRY","IA","50220"
990931,"PO BOX 550","WATERBURY","VT","05676"
990932,"PO BOX 550","WOODLAKE","CA","93286"
990933,"PO BOX 5500","KAILUA-KONA","HI","96740"
990934,"PO BOX 5501","COLUMBUS","GA","31906"
990935,"PO BOX 550115","FORT LAUDERDALE","FL","33355"
990936,"PO BOX 550116","ORLANDO","FL","32855"
990937,"PO BOX 55019","VIRGINIA BEACH","VA","23471"
990938,"PO BOX 55023","BIRMINGHAM","AL","35255"
990939,"PO BOX 550231","BIMRINGHAM","AL","35255"
990940,"PO BOX 550231","BIRMINGHAM","AL","35255"
990941,"PO BOX 550268","GASTONIA","NC","28055"
990942,"PO BOX 55028","LEXINGTON","KY","40555"
990943,"PO BOX 55028","NORTH POLE","AK","99705"
990944,"PO BOX 5503","CHARLOTTESVILLE","VA","22905"
990945,"PO BOX 550351","DALLAS","TX","75355"
990946,"PO BOX 550434","GASTONIA","NC","28055"
990947,"PO BOX 5505","PINE MTN CLUB","CA","93222"
990948,"PO BOX 550551","FORT LAUDERDALE","FL","33355"
990949,"PO BOX 55067","RIVERSIDE","CA","92517"
990950,"PO BOX 550741","JACKSONVILLE","FL","32255"
990951,"PO BOX 550851","ATLANTA","GA","30355"
990952,"PO BOX 550893","DALLAS","TX","75355"
990953,"PO BOX 550931","JACKSONVILLE","FL","32255"
990954,"PO BOX 551","ALDIE","VA","20105"
990955,"PO BOX 551","BENHAM","KY","40807"
990956,"PO BOX 551","FOLLY BEACH","SC","29439"
990957,"PO BOX 551","GLEN ARBOR","MI","49636"
990958,"PO BOX 551","GREEN RIVER","WY","82935"
990959,"PO BOX 551","GREER","SC","29652"
990960,"PO BOX 551","HOXIE","KS","67740"
990961,"PO BOX 551","MOUNT HERMON","CA","95041"
990962,"PO BOX 551","NEW YORK","NY","10030"
990963,"PO BOX 551","OXFORD","MS","38665"
990964,"PO BOX 551","ROWLETT","TX","75030"
990965,"PO BOX 551","SAN LUIS","AZ","85349"
990966,"PO BOX 551","THOMPSON FALLS","MT","59873"
990967,"PO BOX 551062","INDIANAPOLIS","IN","46205"
990968,"PO BOX 55125","INDIANAPOLIS","IN","46205"
990969,"PO BOX 551260","JACKSONVILLE","FL","32255"
990970,"PO BOX 5513","GREENVILLE","SC","29606"
990971,"PO BOX 5513","KATY","TX","77449"
990972,"PO BOX 5513","NAVARRE","FL","32566"
990973,"PO BOX 55132","LITTLE ROCK","AR","72215"
990974,"PO BOX 55134","WASHINGTON","DC","20040"
990975,"PO BOX 551439","ORLANDO","FL","32855"
990976,"PO BOX 55145","NORTH POLE","AK","99705"
990977,"PO BOX 551502","JACKSONVILLE","FL","32255"
990978,"PO BOX 55151","WASHINGTON","DC","20040"
990979,"PO BOX 55155","HAYWARD","CA","94545"
990980,"PO BOX 55155","HAYWARDQ","CA","94545"
990981,"PO BOX 5517","BURLINGTON","VT","05402"
990982,"PO BOX 551706","JACKSONVILLE","FL","32255"
990983,"PO BOX 551752","DAVIE","FL","33355"
990984,"PO BOX 55176","BAYAMON","PR","00960"
990985,"PO BOX 551775","KAPA'AU","HI","96755"
990986,"PO BOX 552","BELLE HAVEN","VA","23306"
990987,"PO BOX 552","BUCHANAN","MI","49107"
990988,"PO BOX 552","COMMERCE","TX","75429"
990989,"PO BOX 552","EAGLE LAKE","TX","77434"
990990,"PO BOX 552","FALLSTON","MD","21047"
990991,"PO BOX 552","FAYETTE","MS","39069"
990992,"PO BOX 552","FESTUS","MO","63028"
990993,"PO BOX 552","FRISCO","TX","75034"
990994,"PO BOX 552","GRATIS","OH","45330"
990995,"PO BOX 552","JACKSON","AL","36545"
990996,"PO BOX 552","MAPLE SHADE","NJ","08052"
990997,"PO BOX 552","NEWCASTLE","WY","82701"
990998,"PO BOX 552","NEWPORT","NY","13416"
990999,"PO BOX 552","OAK CREEK","WI","53154"
991000,"PO BOX 552","ORCAS","WA","98280"
