"ID","Address","City","State","Zip"
998501,"PO BOX 896","DELAND","FL","32721"
998502,"PO BOX 896","HOXIE","KS","67740"
998503,"PO BOX 896","KAMUELA","HI","96743"
998504,"PO BOX 896","LAKE DALLAS","TX","75065"
998505,"PO BOX 896","NAPLES","NC","28760"
998506,"PO BOX 896","PALMER","AK","99645"
998507,"PO BOX 896","SULLIVANS ISLAND","SC","29482"
998508,"PO BOX 896","WAGONER","OK","74477"
998509,"PO BOX 8965","BOISE","ID","83707"
998510,"PO BOX 897","MERIDIAN","TX","76665"
998511,"PO BOX 897","OWINGSVILLE","KY","40360"
998512,"PO BOX 897","SOUTH BEND","WA","98586"
998513,"PO BOX 897","TOPANGA","CA","90290"
998514,"PO BOX 898","BACLIFF","TX","77518"
998515,"PO BOX 898","BALCIFF","TX","77518"
998516,"PO BOX 898","KERHONKSON","NY","12446"
998517,"PO BOX 898","MCCAYSVILLE","GA","30555"
998518,"PO BOX 898","MCHENRY","MD","21541"
998519,"PO BOX 898","MOSS BEACH","CA","94038"
998520,"PO BOX 8984","FORT WORTH","TX","76124"
998521,"PO BOX 8986","CRANSTON","RI","02920"
998522,"PO BOX 899","CANYON","TX","79015"
998523,"PO BOX 899","PINETOPS","NC","27864"
998524,"PO BOX 8991","THE WOODLANDS","TX","77387"
998525,"PO BOX 8992","SPRINGFIELD","IL","62791"
998526,"PO BOX 89946","TAMPA","FL","33689"
998527,"PO BOX 8996","RANCHO SANTA FE","CA","92067"
998528,"PO BOX 89975","TAMPA","FL","33689"
998529,"PO BOX 8O71","GRAND RAPIDS","MI","49518"
998530,"PO BOX 9","ATLANTIC HEIGHTS","NJ","07718"
998531,"PO BOX 9","BIG TIMBER","MT","59011"
998532,"PO BOX 9","CANYON","CA","94516"
998533,"PO BOX 9","CHINOOK","MT","59523"
998534,"PO BOX 9","CLATSKANIE","OR","97016"
998535,"PO BOX 9","COWLEY","WY","82420"
998536,"PO BOX 9","DEPAUW","IN","47115"
998537,"PO BOX 9","FLEISCHMANNS","NY","12430"
998538,"PO BOX 9","GARDNERVILLE","NV","89410"
998539,"PO BOX 9","GREYBULL","WY","82426"
998540,"PO BOX 9","HALL","MT","59837"
998541,"PO BOX 9","HALL","NY","14463"
998542,"PO BOX 9","HAYWARD","WI","54843"
998543,"PO BOX 9","HAZELHURST","WI","54531"
998544,"PO BOX 9","KILLEEN","TX","76540"
998545,"PO BOX 9","LEBANON","OK","73440"
998546,"PO BOX 9","LINCOLNTON","NC","28093"
998547,"PO BOX 9","LOWELL","OR","97452"
998548,"PO BOX 9","MELVIN VILLAGE","NH","03850"
998549,"PO BOX 9","MOOSE","WY","83012"
998550,"PO BOX 9","MOSCA","CO","81146"
998551,"PO BOX 9","MUNISING","MI","49862"
998552,"PO BOX 9","OXFORD","MD","21654"
998553,"PO BOX 9","PRAIRIE DU SAC","WI","53578"
998554,"PO BOX 9","SAN FELIPE","TX","77473"
998555,"PO BOX 9","THE DALLES","OR","97058"
998556,"PO BOX 9","WARSAW","OH","43844"
998557,"PO BOX 9","WASHINGTONVILLE","NY","10992"
998558,"PO BOX 9","WINDSOR","CT","06095"
998559,"PO BOX 90 6932 SERENITY FARM RD","BENEDICT","MD","20612"
998560,"PO BOX 90","BADIN","NC","28009"
998561,"PO BOX 90","CALIFORNIA","MO","65018"
998562,"PO BOX 90","CRESTWOOD","KY","40014"
998563,"PO BOX 90","HOLLISTER","MO","65673"
998564,"PO BOX 90","LORAIN","OH","44052"
998565,"PO BOX 90","OKARCHE","OK","73762"
998566,"PO BOX 90","PALMER","AK","99645"
998567,"PO BOX 90","VAUGHN","WA","98394"
998568,"PO BOX 90","WILD ROSE","WI","54984"
998569,"PO BOX 90","WOOLWICH","ME","04579"
998570,"PO BOX 900","DRIPPING SPRINGS","TX","78620"
998571,"PO BOX 900","LAKE CITY","MI","49651"
998572,"PO BOX 900","RYE","NH","03870"
998573,"PO BOX 900","SILVER CITY","NM","88062"
998574,"PO BOX 900","SOMIS","CA","93066"
998575,"PO BOX 9000 CPO 6274","SWANNANOA","NC","28815"
998576,"PO BOX 9000","LAS VEGAS","NM","87701"
998577,"PO BOX 9000","MAYAGUEZ","PR","00681"
998578,"PO BOX 9000","MAYAGUEZ","PR","00981"
998579,"PO BOX 9001","RENTON","WA","98057"
998580,"PO BOX 900176","PALMDALE","CA","93590"
998581,"PO BOX 90048","WASHINGTON","DC","20090"
998582,"PO BOX 9007","FORT MOHAVE","AZ","86427"
998583,"PO BOX 9007","GREENVILLE","TX","75404"
998584,"PO BOX 901","ALAMOSA","CO","81101"
998585,"PO BOX 901","ALEXANDRIA","MN","56308"
998586,"PO BOX 901","BAYFIELD","CO","81122"
998587,"PO BOX 901","CHETEK","WI","54728"
998588,"PO BOX 901","DELAND","FL","32721"
998589,"PO BOX 901","FRESNO","TX","77545"
998590,"PO BOX 901","HAILEY","ID","83333"
998591,"PO BOX 901","LAVALETTE","WV","25535"
998592,"PO BOX 901","LONDON","KY","40743"
998593,"PO BOX 901","MORGANTON","GA","30560"
998594,"PO BOX 901","MOUNTAIN VIEW","AR","72560"
998595,"PO BOX 901","ORINDA","CA","94563"
998596,"PO BOX 901","PETERSBURG","WV","26847"
998597,"PO BOX 901","SANFORD","FL","32772"
998598,"PO BOX 901","TRAVERSE CITY","MI","49685"
998599,"PO BOX 901","TRENTON","GA","30752"
998600,"PO BOX 901","ZEBULON","GA","30295"
998601,"PO BOX 90103","HOUSTON","TX","77290"
998602,"PO BOX 9011 PMB 149","CALEXICO","CA","92232"
998603,"PO BOX 9011 PMB 345","CALEXICO","CA","92232"
998604,"PO BOX 9011 PMB 384","CALEXICO","CA","92232"
998605,"PO BOX 9011","WYOMING","MI","49509"
998606,"PO BOX 901135","SANDY","UT","84090"
998607,"PO BOX 90114","RALEIGH","NC","27675"
998608,"PO BOX 901146","PALMDALE","CA","93590"
998609,"PO BOX 901151","SANDY","UT","84090"
998610,"PO BOX 90129","STATEN ISLAND","NY","10309"
998611,"PO BOX 90145","PHOENIX","AZ","85066"
998612,"PO BOX 901455","PALMDALE","CA","93590"
998613,"PO BOX 901471","KULA","HI","96790"
998614,"PO BOX 9015","KAILUA-KONA","HI","96745"
998615,"PO BOX 901627","PALM DALE","CA","93590"
998616,"PO BOX 9019 PMB 395","CALEXICO","CA","92232"
998617,"PO BOX 90192","PHOENIX","AZ","85066"
998618,"PO BOX 90196","PHOENIX","AZ","85066"
998619,"PO BOX 902","COULEE CITY","WA","99115"
998620,"PO BOX 902","DELTA JUNCTION","AK","99737"
998621,"PO BOX 902","ELKHART","TX","75839"
998622,"PO BOX 902","HONAKER","VA","24260"
998623,"PO BOX 902","MILWAUKEE","WI","53201"
998624,"PO BOX 902","NILES","MI","49120"
998625,"PO BOX 902","PALM BEACH","FL","33480"
998626,"PO BOX 902","ROCK FALLS","IL","61071"
998627,"PO BOX 902","SANDERSON","TX","79848"
998628,"PO BOX 902","STAFFORDSVILLE","KY","41256"
998629,"PO BOX 9020034","SAN JUAN","PR","00902"
998630,"PO BOX 9020308","SAN JUAN","PR","00902"
998631,"PO BOX 9020479","SAN JUAN","PR","00902"
998632,"PO BOX 9021","LIBERTY","TX","77575"
998633,"PO BOX 9021","MOBILE","AL","36691"
998634,"PO BOX 9021629","SAN JUAN","PR","00902"
998635,"PO BOX 9022","YOUNGSTOWN","OH","44513"
998636,"PO BOX 9022375","SAN JUAN","PR","00902"
998637,"PO BOX 9022375","SAN JUAN","PR","00907"
998638,"PO BOX 9023412","SAN JUAN","PR","00901"
998639,"PO BOX 9024096","SAN JUAN","PR","00902"
998640,"PO BOX 9025","GRAY","TN","37615"
998641,"PO BOX 9026","TRUCKEE","CA","96162"
998642,"PO BOX 90274","ATLANTA","GA","30364"
998643,"PO BOX 903","GREENBRIER","AR","72058"
998644,"PO BOX 903","KENNESAW","GA","30156"
998645,"PO BOX 903","PARK CITY","UT","84060"
998646,"PO BOX 903","ROCKWALL","TX","75087"
998647,"PO BOX 903","STEVENSVILLE","MT","59870"
998648,"PO BOX 903","VERMILION","OH","44089"
998649,"PO BOX 903","YELLVILLE","AR","72687"
998650,"PO BOX 9030","AVON","CO","81620"
998651,"PO BOX 9031","CHAPEL HILL","NC","27515"
998652,"PO BOX 9032","KEY WEST","FL","33040"
998653,"PO BOX 90336","ANCHORAGE","AK","99509"
998654,"PO BOX 9038","SANTA FE","NM","87504"
998655,"PO BOX 90398","ANCHORAGE","AK","99509"
998656,"PO BOX 904","BETHEL","AK","99559"
998657,"PO BOX 904","BUFFALO","MO","65622"
998658,"PO BOX 904","CLOUDCROFT","NM","88317"
998659,"PO BOX 904","COMFORT","TX","78013"
998660,"PO BOX 904","GRANITE QUARRY","NC","28278"
998661,"PO BOX 904","JOHNSON CITY","TX","78636"
998662,"PO BOX 904","LAKE CITY","CO","81235"
998663,"PO BOX 904","LITHIA","FL","33547"
998664,"PO BOX 904","LK HOPATCONG","NJ","07849"
998665,"PO BOX 904","MONTE RIO","CA","95462"
998666,"PO BOX 904","RENTON","WA","98057"
998667,"PO BOX 904","RUSSELLVILLE","KY","42276"
998668,"PO BOX 904","SEARCY","AR","72145"
998669,"PO BOX 904","SPRINGFIELD","OR","97477"
998670,"PO BOX 904","WEST FARGO","ND","58078"
998671,"PO BOX 904","WHITLEY CITY","KY","42653"
998672,"PO BOX 9041","KEY WEST","FL","33040"
998673,"PO BOX 90441","LAKELAND","FL","33801"
998674,"PO BOX 9045","BACLIFF","TX","77518"
998675,"PO BOX 90456","DURHAM","NC","27705"
998676,"PO BOX 9047","LAFAYETTE","LA","70509"
998677,"PO BOX 9047","NISKAYUNA","NY","12309"
998678,"PO BOX 90473","LAFAYETTE","LA","70509"
998679,"PO BOX 905","BELFAIR","WA","98528"
998680,"PO BOX 905","EAGLE BUTTE","SD","57625"
998681,"PO BOX 905","HEIDELBERG","MS","39439"
998682,"PO BOX 905","HUTTO","TX","78634"
998683,"PO BOX 905","LEBANON","NH","03766"
998684,"PO BOX 905","MANZANITA","OR","97130"
998685,"PO BOX 905","NEW YORK","NY","10024"
998686,"PO BOX 905","PALACIOS","TX","77465"
998687,"PO Box 905","San Luis","CO","81152"
998688,"PO Box 905","SAN LUIS","CO","81152"
998689,"PO BOX 905","SLATERSVILLE","RI","02876"
998690,"PO BOX 905","SPANANWAY","WA","98387"
998691,"PO BOX 905","SPANAWAY","WA","98387"
998692,"PO BOX 905","YREKA","CA","96097"
998693,"PO BOX 9050","PRESCOTT","AZ","86313"
998694,"PO BOX 90504","STATEN ISLAND","NY","10309"
998695,"PO BOX 9051","COLLEGE STATION","TX","77842"
998696,"PO BOX 9052","HOUMA","LA","70361"
998697,"PO BOX 90548","ATLANTA","GA","30364"
998698,"PO BOX 9056","RENO","NV","89507"
998699,"PO BOX 90567","ANCHORAGE","AK","99509"
998700,"PO BOX 90583","LAKELAND","VA","33804"
998701,"PO BOX 906","GLOBE","AZ","85502"
998702,"PO BOX 906","GREENVILLE","RI","02828"
998703,"PO BOX 906","GUERNEVILLE","CA","95446"
998704,"PO BOX 906","KEKAHA","HI","96752"
998705,"PO BOX 906","MONTCLAIR","NJ","07042"
998706,"PO BOX 906","NEW HARMONY","UT","84757"
998707,"PO BOX 906","SOUTHFIELD","MI","48037"
998708,"PO BOX 906","TOWER","MN","55790"
998709,"PO BOX 906","VOLCANO","HI","96785"
998710,"PO BOX 906","WORTHINGTON","OH","43231"
998711,"PO BOX 9061","PAGO PAGO","AS","96799"
998712,"PO BOX 90628","WASHINGTON","DC","20090"
998713,"PO BOX 90642","PASADENA","CA","91109"
998714,"PO BOX 90670","ATLANTA","GA","30364"
998715,"PO BOX 90672","ATLANTA","GA","30364"
998716,"PO BOX 907","ARMADA","MI","48005"
998717,"PO BOX 907","BROADALBIN","NY","12025"
998718,"PO BOX 907","FORTSON","GA","31808"
998719,"PO BOX 907","GLENDALE","OR","97442"
998720,"PO BOX 907","HIGH SPRINGS","FL","32643"
998721,"PO BOX 907","KENBRIDGE","VA","23944"
998722,"PO BOX 907","OURAY","CO","81427"
998723,"PO BOX 907","WINDOW ROCK","AZ","86515"
998724,"PO BOX 90715","HENDERSON","NV","89009"
998725,"PO BOX 90721","SANTA BARBARA","CA","93190"
998726,"PO BOX 90734","PHOENIX","AZ","85066"
998727,"PO BOX 9074","CEDARPINES PARK","CA","92322"
998728,"PO BOX 9074","REDLANDS","CA","92375"
998729,"PO BOX 9074","SPRINGFIELD","IL","62704"
998730,"PO BOX 9075","PAHRUMP","NV","89060"
998731,"PO BOX 9075","SEATTLE","WA","98109"
998732,"PO BOX 90764","PHOENIX","AZ","85066"
998733,"PO BOX 90772","PASADENA","CA","91109"
998734,"PO BOX 908","ANADARKO","OK","73005"
998735,"PO BOX 908","BIG PINEY","WY","83113"
998736,"PO BOX 908","BODEGA BAY","CA","94923"
998737,"PO BOX 908","CANNON BEACH","OR","97110"
998738,"PO BOX 908","GULFPORT","MS","39502"
998739,"PO BOX 908","JANE LEW","WV","26378"
998740,"PO BOX 908","LANSDOWNE","PA","19050"
998741,"PO BOX 908","PANHANDLE","TX","79068"
998742,"PO BOX 908","PECOS","TX","79772"
998743,"PO BOX 908","PLYMOUTH","CA","95669"
998744,"PO BOX 908","ROGERS","AR","72757"
998745,"PO BOX 908","SPENCER","IA","51301"
998746,"PO BOX 9081","VALLEJO","CA","94591"
998747,"PO BOX 90816","LAFAYETTE","LA","70509"
998748,"PO BOX 90816","LONG BEACH","CA","90819"
998749,"PO BOX 90821","COLUMBIA","SC","29290"
998750,"PO BOX 9083","PHOENIX","AZ","85068"
998751,"PO BOX 90846","ANCHORAGE","AK","99509"
998752,"PO BOX 9085","SALT LAKE CITY","UT","84109"
998753,"PO BOX 909","ALPINE","CA","91903"
998754,"PO BOX 909","LAS PIEDRAS","PR","00771"
998755,"PO BOX 909","MOUNTAINAIR","NM","87036"
998756,"PO BOX 909","NESKOWIN","OR","97149"
998757,"PO BOX 909","NEW YORK","NY","10272"
998758,"PO BOX 909","PAGO PAGO","AS","96799"
998759,"PO BOX 909","TRAVERSE CITY","MI","49685"
998760,"PO BOX 90974","DURHAM","NC","27708"
998761,"PO BOX 91","ABIQUIU","NM","87510"
998762,"PO BOX 91","ANNAPOLIS","MD","21404"
998763,"PO BOX 91","AURORA","MO","65605"
998764,"PO BOX 91","COLFAX","IL","46035"
998765,"PO BOX 91","DEWY ROSE","GA","30634"
998766,"PO BOX 91","DUNN LORING","VA","22027"
998767,"PO BOX 91","ELKHART","IA","50073"
998768,"PO BOX 91","ESPARTO","CA","95627"
998769,"PO BOX 91","FAYETTE","AL","35555"
998770,"PO BOX 91","GARDEN","MI","49835"
998771,"PO BOX 91","GERALDINE","AL","35974"
998772,"PO BOX 91","HAMLER","OH","43524"
998773,"PO BOX 91","HANALEI","HI","96714"
998774,"PO BOX 91","HENRIETTA","TX","76365"
998775,"PO BOX 91","INDIANOLA","MS","38751"
998776,"PO BOX 91","ISLETA","NM","87022"
998777,"PO BOX 91","KINGSBURY","TX","78638"
998778,"PO BOX 91","LAKE BUTLER","FL","32054"
998779,"PO BOX 91","MOUNTAINTOP","PA","18707"
998780,"PO BOX 91","NASH","OK","73761"
998781,"PO BOX 91","OWINGS MILLS","MD","21117"
998782,"PO BOX 91","PAISLEY","OR","97636"
998783,"PO BOX 91","PURSGLOVE","WV","26546"
998784,"PO BOX 91","RINGWOOD","OK","73768"
998785,"PO BOX 91","RONAN","MT","59864"
998786,"PO BOX 91","SALTVILLE","VA","24370"
998787,"PO BOX 91","SNOW HILL","NC","28580"
998788,"PO BOX 91","SOLGOHACHIA","AR","72156"
998789,"PO BOX 91","SPARTA","GA","31087"
998790,"PO BOX 91","STAUNTON","IL","62088"
998791,"PO BOX 91","STRATHMERE","NJ","08248"
998792,"PO BOX 91","TETONIA","ID","83452"
998793,"PO BOX 91","VICKSBURG","MI","49097"
998794,"PO BOX 91","VIRGINIA CITY","MT","59755"
998795,"PO BOX 91","W DUMMERSTON","VT","05357"
998796,"PO BOX 91","WARTRACE","TN","37183"
998797,"PO BOX 91","WESTBROOK","ME","04098"
998798,"PO BOX 910 LOT 391","COLUMBUS","OH","43216"
998799,"PO BOX 910","CASTROVILLE","TX","78009"
998800,"PO BOX 910","FAIRFIELD","MT","59436"
998801,"PO BOX 910","FAYETTEVILLE","WV","25840"
998802,"PO BOX 910","LAC DU FLAMBEAU","WI","54538"
998803,"PO BOX 910","NAVASOTA","TX","77868"
998804,"PO BOX 910","RISING SUN","MD","21911"
998805,"PO BOX 910","RIVERVIEW","FL","33568"
998806,"PO BOX 910","SAPULPA","OK","74067"
998807,"PO BOX 9101","CORPUS CHRISTI","TX","78469"
998808,"PO BOX 9101","RANCHO SANTA FE","CA","92067"
998809,"PO BOX 910283","LEXINGTON","KY","40591"
998810,"PO BOX 91036 BOX 373","HOUSTON","TX","77291"
998811,"PO BOX 910552","LEXINGTON","KY","40591"
998812,"PO BOX 91061","PORTLAND","OR","97291"
998813,"PO BOX 9107","WARWICK","RI","02889"
998814,"PO BOX 91081","MILWAUKEE","WI","53209"
998815,"PO BOX 91082","ANCHORAGE","AK","99509"
998816,"PO BOX 91087","PORTLAND","OR","97291"
998817,"PO BOX 910934","ST GEORGE","UT","84791"
998818,"PO BOX 911","CUMBERLAND","MD","21502"
998819,"PO BOX 911","DARDANELLE","AR","72834"
998820,"PO BOX 911","FAYETTE","AL","35555"
998821,"PO BOX 911","GREENUP","KY","41144"
998822,"PO BOX 911","HEREFORD","AZ","85615"
998823,"PO BOX 911","JUDSONIA","AR","72081"
998824,"PO BOX 911","MESILLA PARK","NM","88047"
998825,"PO BOX 911","MOUNTAIN VIEW","WY","82939"
998826,"PO BOX 911","NEW ROADS","LA","70760"
998827,"PO BOX 911","PEMBROKE","NC","28372"
998828,"PO BOX 911","REDAN","GA","30074"
998829,"PO BOX 911","ROCKLIN","CA","95677"
998830,"PO BOX 911","SAN ANDREAS","CA","95249"
998831,"PO BOX 911","SAN BRUNO","CA","94066"
998832,"PO BOX 911","TOLEDO","WA","98591"
998833,"PO BOX 911","VALRICO","FL","33595"
998834,"PO BOX 911","WATERLOO","IA","50704"
998835,"PO BOX 911","WESTWOOD","NJ","07675"
998836,"PO BOX 91116","PORTLAND","OR","97291"
998837,"PO BOX 911225","LOS ANGELES","CA","90091"
998838,"PO BOX 911350","WAIALUA","HI","96791"
998839,"PO BOX 9115","NEW HAVEN","CT","06532"
998840,"PO BOX 91179","PASADENA","CA","91109"
998841,"PO BOX 9118","HOT SPRINGS VILLAGE","AR","71910"
998842,"PO BOX 91186","CLEVELAND","OH","44101"
998843,"PO BOX 911897","ST GEORGE","UT","84791"
998844,"PO BOX 9119","PAGO PAGO","AS","96799"
998845,"PO BOX 912","COLTON","CA","92324"
998846,"PO BOX 912","DOTHAN","AL","36302"
998847,"PO BOX 912","FAIRPLAY","CO","80440"
998848,"PO BOX 912","JACKSONVILLE","OR","97530"
998849,"PO BOX 912","JOSHUA TREE","CA","92252"
998850,"PO BOX 912","LAKE GENEVA","WI","53147"
998851,"PO BOX 912","MACCLENNY","FL","32063"
998852,"PO BOX 912","NEW PORT RICHEY","FL","34656"
998853,"PO BOX 912","PINEHURST","ID","83850"
998854,"PO BOX 912","POCATELLO","ID","83204"
998855,"PO BOX 912","ROSEDALE","MS","38769"
998856,"PO BOX 912","SARATOGA","WY","82331"
998857,"PO BOX 912","THOMPSON FALLS","MT","59873"
998858,"PO BOX 912","ZANESVILLE","OH","43701"
998859,"PO BOX 91223","MILWAUKEE","WI","53209"
998860,"PO BOX 91254","LOS ANGELES","CA","90009"
998861,"PO BOX 9126","COLLEGE STATION","TX","77842"
998862,"PO BOX 9129","SALT LAKE CITY","UT","84109"
998863,"PO BOX 91291","PHOENIX","AZ","85066"
998864,"PO BOX 91294","RALEIGH","NC","27675"
998865,"PO BOX 91297","COLUMBUS","OH","43209"
998866,"PO BOX 913","BERTRAM","TX","78605"
998867,"PO BOX 913","HILLSBORO","OR","97123"
998868,"PO BOX 913","MADISON","AL","35758"
998869,"PO BOX 913","POTEET","TX","78065"
998870,"PO BOX 913","SAN ANTONIO","FL","33576"
998871,"PO BOX 9132","AMARILLO","TX","79105"
998872,"PO BOX 91321","RALEIGH","NC","27675"
998873,"PO BOX 9133","PARAMUS","NJ","07653"
998874,"PO BOX 9133","RIVIERA BEACH","FL","33419"
998875,"PO BOX 9134","SURPRISE","AZ","85028"
998876,"PO BOX 9134","SURPRISE","AZ","85374"
998877,"PO BOX 91386","HENDERSON","NV","89009"
998878,"PO BOX 91393","EAST POINT","GA","30364"
998879,"PO BOX 914","HEREFORD","AZ","85615"
998880,"PO BOX 914","HUMBOLDT","AZ","86329"
998881,"PO BOX 914","KITTITAS","WA","98934"
998882,"PO BOX 914","NACHES","WA","98937"
998883,"PO BOX 914","STRATFORD","OK","74872"
998884,"PO BOX 914","TROY","OH","45373"
998885,"PO BOX 91411","HENDERSON","NV","89009"
998886,"PO BOX 91411","LOS ANGELES","CA","90009"
998887,"PO BOX 91411","MILWAUKEE","WI","53209"
998888,"PO BOX 91429","LOS ANGELES","CA","90009"
998889,"PO BOX 91432","WASHINGTON","DC","20090"
998890,"PO BOX 91462","HENDERSON","NV","89009"
998891,"PO BOX 9147","PARAMUS","NJ","07653"
998892,"PO BOX 9149","JACKSON","WY","83002"
998893,"PO BOX 91494","WASHINGTON","DC","20090"
998894,"PO BOX 915","ALABASTER","AL","35007"
998895,"PO BOX 915","BRACKETTVILLE","TX","78832"
998896,"PO BOX 915","EDEN","TX","76837"
998897,"PO BOX 915","MONTGOMERY","TX","77356"
998898,"PO BOX 915","SHELTER ISLAND","NY","11964"
998899,"PO BOX 915","UNADILLA","GA","31091"
998900,"PO BOX 915","UNION CITY","TN","38261"
998901,"PO BOX 91504","ANCHORAGE","AK","99509"
998902,"PO BOX 91525","LOS ANGELES","CA","90009"
998903,"PO BOX 91552","LONG BEACH","CA","90809"
998904,"PO BOX 91566","ALBUQUERQUE","NM","87199"
998905,"PO BOX 91582","LAKELAND","FL","33804"
998906,"PO BOX 916","BERWICK","ME","03901"
998907,"PO BOX 916","LAUREL","MD","20725"
998908,"PO BOX 916","MOBERLY","MO","65270"
998909,"PO BOX 916","PEA RIDGE","AR","72751"
998910,"PO BOX 916","SUBLIMITY","OR","97385"
998911,"PO BOX 916","ZACHARY","LA","70791"
998912,"PO BOX 9161","ALLENTOWN","PA","18103"
998913,"PO BOX 9164","PORTLAND","OR","97201"
998914,"PO BOX 917","LEWISTON","NY","14092"
998915,"PO BOX 917","MARYSVILLE","WA","98270"
998916,"PO BOX 91716","RIVERSIDE","CA","92517"
998917,"PO BOX 9173","GARY","IN","46402"
998918,"PO BOX 9173","PAHRUMP","NV","89060"
998919,"PO BOX 91742","ANCHORAGE","AK","99509"
998920,"PO BOX 91761","TUCSON","AZ","85752"
998921,"PO BOX 917750","LONGWOOD","FL","32791"
998922,"PO BOX 918","CABAZON","CA","92230"
998923,"PO BOX 918","GOLIAD","TX","77963"
998924,"PO BOX 918","OAK GROVE","MO","64075"
998925,"PO BOX 918","RESACA","GA","30735"
998926,"PO BOX 918","THAYNE","WY","83127"
998927,"PO BOX 91827","LOS ANGELES","CA","90009"
998928,"PO BOX 9183","NAPERVILLE","IL","60567"
998929,"PO BOX 9184","COLUMBUS","OH","43209"
998930,"PO BOX 9185","MONROE","LA","71211"
998931,"PO BOX 9186","ST THOMAS","VI","00801"
998932,"PO BOX 9188","CANTON","OH","44711"
998933,"PO BOX 91892","AUSTIN","TX","78709"
998934,"PO BOX 919","JOHNSON CITY","TX","78636"
998935,"PO BOX 9192","CAGUAS","PR","00726"
998936,"PO BOX 91924","ANCHORAGE","AK","99509"
998937,"PO BOX 9196","ST THOMAS","VI","00801"
998938,"PO BOX 92","BASYE","VA","22810"
998939,"PO BOX 92","BUCKSPORT","ME","04416"
998940,"PO BOX 92","CHEROKEE","NC","28719"
998941,"PO BOX 92","CHICO","TX","76431"
998942,"PO BOX 92","CLARENCE","IA","52216"
998943,"PO BOX 92","CLARENCE","NY","14031"
998944,"PO BOX 92","CLEARWATER","NE","68726"
998945,"PO BOX 92","EASTWOOD","KY","40018"
998946,"PO BOX 92","EDISON","OH","43320"
998947,"PO BOX 92","ELLENWOOD","GA","30294"
998948,"PO BOX 92","ENGLEWOOD","FL","34295"
998949,"PO BOX 92","FAULKTON","SD","57438"
998950,"PO BOX 92","GARFIELD","WA","99130"
998951,"PO BOX 92","GRAND GORGE","NY","12434"
998952,"PO BOX 92","HAILEY","ID","83333"
998953,"PO BOX 92","HAMPDEN","ND","58338"
998954,"PO BOX 92","HASKELL","TX","79521"
998955,"PO BOX 92","HIRAM","ME","04041"
998956,"PO BOX 92","INGLESIDE","TX","78362"
998957,"PO BOX 92","INTERLACHEN","FL","32148"
998958,"PO BOX 92","MARSHALL","AK","99585"
998959,"PO BOX 92","MIMS","FL","32754"
998960,"PO BOX 92","MOUNT PLEASANT","TN","38474"
998961,"PO BOX 92","PITTSBURG","NH","03592"
998962,"PO BOX 92","POINT ROBERTS","WA","98281"
998963,"PO BOX 92","RICHLANDS","NC","28574"
998964,"PO BOX 92","RIDGWAY","CO","81432"
998965,"PO BOX 92","RODEO","NM","88056"
998966,"PO BOX 92","SOUTH ORANGE","NJ","07079"
998967,"PO BOX 92","SPARKS","GA","31647"
998968,"PO BOX 92","SPOKANE","WA","99210"
998969,"PO BOX 92","STAR","ID","83669"
998970,"PO BOX 92","TIBURON","CA","94920"
998971,"PO BOX 92","WINTER PARK","CO","80482"
998972,"PO BOX 92","WINTERSET","IA","50273"
998973,"PO BOX 920","OZARK","AR","72949"
998974,"PO BOX 920","PITTSBURG","TX","75686"
998975,"PO BOX 920","PLEASANT VALLEY","NY","12569"
998976,"PO BOX 920","REX","GA","30273"
998977,"PO BOX 920","SNYDER","TX","79550"
998978,"PO BOX 920","THAYNE","WY","83127"
998979,"PO BOX 920","TRENTON","GA","30752"
998980,"PO BOX 920014","SNOWBIRD","UT","84092"
998981,"PO BOX 920015","SNOWBIRD","UT","84092"
998982,"PO BOX 920019","SNOWBIRD","UT","84092"
998983,"PO BOX 920031","SNOWBIRD","UT","84092"
998984,"PO BOX 9202","BEALE AFB","CA","95903"
998985,"PO BOX 92034","HENDERSON","NV","89009"
998986,"PO BOX 920526","DUTCH HARBOR","AK","99692"
998987,"PO BOX 9206","MARINA DEL REY","CA","90295"
998988,"PO BOX 92067","ATLANTA","GA","30314"
998989,"PO BOX 920743","NORCROSS","GA","30010"
998990,"PO BOX 920839","HOUSTON","TX","77292"
998991,"PO BOX 92094","ALBUQUERQUE","NM","87199"
998992,"PO BOX 920954","HOUSTON","TX","77292"
998993,"PO BOX 921","ALLYN","WA","98524"
998994,"PO BOX 921","APEX","NC","27502"
998995,"PO BOX 921","BURNSVILLE","NC","28714"
998996,"PO BOX 921","HOWE","TX","75459"
998997,"PO BOX 921","LANGSTON","OK","73050"
998998,"PO BOX 921","MINERVA","NY","12851"
998999,"PO BOX 921","MITHCELL","SD","57301"
999000,"PO BOX 921","PINEDALE","WY","82941"
