"ID","Address","City","State","Zip"
863001,"79 CLINTON AVENUE","ASHEVILLE","NC","28806"
863002,"79 CLINTON ST","NEW YORK","NY","10002"
863003,"79 CLINTON STREET","NEW YORK","NY","10002"
863004,"79 CLOPPER ST","HERMINIE","PA","15637"
863005,"79 COLUMBIA AVE","HOPEWELL","NJ","08525"
863006,"79 COMMACK ROAD","ISLIP","NY","11751"
863007,"79 COMMERCE ST","MONTGOMERY","AL","36104"
863008,"79 CONCORD MEETING ROAD","GLEN MILLS","PA","19342"
863009,"79 CORNEHLSEN DRIVE","HUNTINGTON STATION","NY","11746"
863010,"79 COTTAGE AVE","ALBANY","NY","12203"
863011,"79 COTTAGE ST","BOSTON","MA","02128"
863012,"79 COTTAGEWOOD DRIVE","SAFETY HARBOR","FL","34695"
863013,"79 COUNTY ROAD 3148","VERNON","AZ","85940"
863014,"79 CR 1054","BARDWELL","KY","42023"
863015,"79 CR 141","CORNING","AR","72422"
863016,"79 CR 146","BAY CITY","TX","77414"
863017,"79 CR 164","CORINTH","MS","38834"
863018,"79 CRABAPPLE LN","RANSON","WV","25438"
863019,"79 CRESCENT HILL AVE","ARLINGTON","MA","02474"
863020,"79 CRESCENT STREET","WATERBURY","CT","06710"
863021,"79 CUSHMAN DRIVE","MANCHESTER","CT","06042"
863022,"79 CZAR AVENUE","BISBEE","AZ","85603"
863023,"79 DALTON ST","DANIEL ISLAND","SC","29492"
863024,"79 DALTON ST","WEST HAVEN","CT","06516"
863025,"79 DEER MEADOWS DRIVE","ST. AUGUSTINE","FL","32092"
863026,"79 DEER RUN","TOPSHAM","ME","04086"
863027,"79 DELAWARE DRIVE","JIM THORPE","PA","18229"
863028,"79 DELOS ST E APT B","ST. PAUL","MN","55107"
863029,"79 DEPOT RD","EAST WINDSOR","CT","06016"
863030,"79 DEVINE STREET SUITE 101","SAN JOSE","CA","95110"
863031,"79 DIABLO VIEW RD","ORINDA","CA","94563"
863032,"79 DONNELLY ROAD","OLMSTEDVILLE","NY","12857"
863033,"79 DURAND ROAD","MAPLEWOOD","NJ","07040"
863034,"79 E DAILY DR SUITE 514","CAMARILLO","CA","93010"
863035,"79 E DESHLER","COLUMBUS","OH","43206"
863036,"79 EAST AGATE AVE UNIT 202","LAS VEGAS","NV","89123"
863037,"79 EAST BARE HILL RD","HARVARD","MA","01451"
863038,"79 EASTERN AVENUE","ESSEX","MA","01929"
863039,"79 EASTLAND ROAD","JAMAICA PLAIN","MA","02130"
863040,"79 EASTMAN AVE","SWAMPSCOTT","MA","01907"
863041,"79 EDGEWOOD WAY","NEW HAVEN","CT","06515"
863042,"79 EDWARDS STREET","PORTLAND","ME","04102"
863043,"79 EISENHOWER DRIVE","MIDDLETOWN","NY","10940"
863044,"79 ELLIOT ST","CLINTON","MA","01501"
863045,"79 ELLIOT ST","NORWOOD","MA","02062"
863046,"79 ELLSWORTH STREET","BROCKTON","MA","02301"
863047,"79 EMERSON AVENUE","FLORAL PARK","NY","11001"
863048,"79 EMPRESS PINES DR","NESCONSET","NY","11767"
863049,"79 ESTELLA LANE","RICEBORO","GA","31323"
863050,"79 EXPRESS STREET","PLAINVIEW","NY","11803"
863051,"79 FARM ROAD UNIT J","HILLSBOROUGH","NJ","08844"
863052,"79 FENIMORE ST","BROOKLYN","NY","11225"
863053,"79 FLAGGLER DRIVE","MARSHFIELD","MA","02050"
863054,"79 FORGE HOLLOW RD","PORT HENRY","NY","12974"
863055,"79 FORSHAY RD","MONSEY","NY","10952"
863056,"79 FOSTERVILLE ROAD","GREENSBURG","PA","15601"
863057,"79 FOURTH STREET","WORCESTER","MA","01602"
863058,"79 FRENCH AVE 1","BROCKTON","MA","01420"
863059,"79 FRENCH AVE 1","BROCKTON","MA","02301"
863060,"79 FRENCH STREET","BUFFALO","NY","14211"
863061,"79 GARDEN STREET APT 1","POUGHKEEPSIE","NY","12601"
863062,"79 GARDNER AVE","WILKES BARRE","PA","18705"
863063,"79 GAUDET ST","N PROVIDENCE","RI","02911"
863064,"79 GENEST STREET","MERIDEN","CT","06450"
863065,"79 GOLF PKWY","MADISON","WI","53704"
863066,"79 GOODMAN ROAD","FORT ANN","NY","12927"
863067,"79 GOODMAN ROAD","FOURT ANN","NY","12827"
863068,"79 GRANADA","LOS ALAMOS","NM","87544"
863069,"79 GRAND HARBOR","GRAND RIVER","OH","44045"
863070,"79 GRAND HAVEN","JACKSON","TN","38305"
863071,"79 GRANVILLE AVE","MILFORD","CT","06460"
863072,"79 GRAYWOOD RD FLOOR 2","PORT WASHINGTON","NY","11050"
863073,"79 GREENE STREET","CLARKSVILLE","PA","15322"
863074,"79 GREENS RD","DURANT","OK","74701"
863075,"79 GREGORY LANE","FRANKLIN PARK","NJ","08823"
863076,"79 GRIDIRON ROAD","LEVITTOWN","PA","19057"
863077,"79 GUISE WY","BRENTWOOD","CA","94513"
863078,"79 HANCOCK STREET","ELLSWORTH","ME","04605"
863079,"79 HARMONY ROAD","MINEVILLE","NY","12956"
863080,"79 HARRISON ROAD","NORWAY","ME","04268"
863081,"79 HAWTHORNE PLACE","MONTCLAIR","NJ","07042"
863082,"79 HEBERT ROAD","WILLIAMSTOWN","VT","05679"
863083,"79 HENRY STREET APT 3","NEWBURGH","NY","12550"
863084,"79 HIGHLAND STREET","TOWNSEND","MA","01469"
863085,"79 HILL ST","MIDLAND PARK","NJ","07432"
863086,"79 HILL STREET","BUFFALO","NY","14214"
863087,"79 HILL STREET","BUFFALO","NY","14215"
863088,"79 HILLSIDE AVE","SPRINGFIELD","NJ","07081"
863089,"79 HILLSIDE LANE","NEW RINGGOLD","PA","17960"
863090,"79 HOGAN RD","HOQUIAM","WA","98550"
863091,"79 HOH ROAD","LA CONNER","WA","98257"
863092,"79 HOLBROOK DR","DALLAS","GA","30132"
863093,"79 HURON ROAD","FLORAL PARK","NY","11001"
863094,"79 INDEPENDENCE TRAIL","TOTOWA","NJ","07512"
863095,"79 IVING ST","NEWARK","NJ","07104"
863096,"79 JAMES MCCARTY DR","LUMBERPORT","WV","26386"
863097,"79 JASMINE AVENUE","WEST SENECA","NY","14224"
863098,"79 JEFFERSON","BELLVILLE","NJ","07109"
863099,"79 JENNINGS LANE","ATHERTON","CA","94027"
863100,"79 JEWELL ST","GARFIELD","NJ","07026"
863101,"79 JFK STREET","CAMBRIDGE","MA","02135"
863102,"79 JFK STREET","CAMBRIDGE","MA","02138"
863103,"79 JOY COURT","MARTINSBUG","WV","25401"
863104,"79 JOY COURT","MARTINSBURG","WV","25401"
863105,"79 JOY CT","MARTINSBURG","WV","25401"
863106,"79 JOYCE AVE","WHITMAN","MA","02382"
863107,"79 JRF STREET","CAMBRIDGE","MA","02138"
863108,"79 JUDGES ROAD","THORNTON","NH","03285"
863109,"79 KARLIN ROAD","FREMONT","NH","03044"
863110,"79 KAULBACK RD","SANBORNTON","NH","03269"
863111,"79 KEPNERS RD","NEW RINGGOLD","PA","17960"
863112,"79 KESSLA WAY","SHINNSTON","WV","26431"
863113,"79 KNOLLWOOD ROAD","NORTH HAVEN","CT","06473"
863114,"79 KREBS ROAD","PALINSBORO","NJ","08536"
863115,"79 LADY SLIPPER LANE","MANCHESTER","NH","03109"
863116,"79 LANCER PLACE","WEBSTER","NY","14580"
863117,"79 LANDIS DR","LANCASTER","PA","17602"
863118,"79 LEAVITT LN","PRINCETON","NJ","08540"
863119,"79 LEFEVER LN","LITTLE ROCK","AR","72227"
863120,"79 LEGION STREET SUITE 1","BROOKLYN","NY","11212"
863121,"79 LEGION STREET","BROOKLYN","NY","11212"
863122,"79 LEIGH DR","EAST HAVEN","CT","06512"
863123,"79 LEMOYN AVENUE","ROCHESTER","NY","14612"
863124,"79 LEONARD STREET","MALDEN","MA","02148"
863125,"79 LINDAS WAY","LEOMINSTER","MA","01453"
863126,"79 LINDEN ST","HYANNIS","MA","02601"
863127,"79 LINTON AVE","OAK BLUFFS","MA","02557"
863128,"79 LITTLE EAST NECK ROAD","BABYLON","NY","11702"
863129,"79 LONG MEADOW CIRCLE","PITTSFORD","NY","14534"
863130,"79 LONGWOOD DRIVE","SICKLERVILLE","NJ","08081"
863131,"79 LOWER TWOLICK DR","INDIANA","PA","15701"
863132,"79 LURA LANE","WALTHAM","MA","02453"
863133,"79 LYON LANE","LEXINGTON","VA","24450"
863134,"79 MALL RD SUITE D","S WILLIAMSON","KY","41503"
863135,"79 MANHATTAN STREET","ASHLEY","PA","18706"
863136,"79 MAPLE LANE","MEDFORD","NY","11763"
863137,"79 MAPLE ST","NORTHFIELD","MA","01360"
863138,"79 MARKET STREET","AMESBURY","MA","01950"
863139,"79 MASSASOIT ROAD","WORCESTER","MA","01604"
863140,"79 MATTHEW CIRCLE","RICHBORO","PA","18954"
863141,"79 MIDTOWN PARK EAST","MOBILE","AL","36606"
863142,"79 MILFORD STREET","BROOKLYN","NY","11208"
863143,"79 MILLWORKS RD","EUREKA","MT","59917"
863144,"79 MOLLIES CT","ST. MARYS","GA","31558"
863145,"79 MONTERREY AVE","KENNER","LA","70065"
863146,"79 MONTGOMERY GULCH ROAD","KELLOGG","ID","83837"
863147,"79 MONTGOMERY STREET APT 4H","PATERSON","NJ","07501"
863148,"79 MORRIS STREET","JERSEY CITY","NJ","07302"
863149,"79 MOTTER ROAD","DUNCANNON","PA","17020"
863150,"79 MOUNTAIN ROAD","GOFFSTOWN","NH","03045"
863151,"79 MOUNTAIN ROAD","ROCKAWAY","NJ","07866"
863152,"79 MUELLER DRIVE","HAMDEN","CT","06514"
863153,"79 N ALEXANDER CREEK RD","NEWNAN","GA","30263"
863154,"79 N GRIFFITH AVENUE","CRYSTAL RIVER","FL","34429"
863155,"79 NARRAGANSETT AVENUE","JAMESTOWN","RI","02835"
863156,"79 NASHOBA ROAD","LITTLETON","MA","01460"
863157,"79 NE 68 TERRACE","MIAMI","FL","33138"
863158,"79 NICOLE LOOP","STATEN ISLAND","NY","10304"
863159,"79 NIMROD DRIVE","CONCORD","MA","01742"
863160,"79 NOREAST DR","E HARWICH","MA","02645"
863161,"79 NORFOLK STREET","BANGOR","ME","04401"
863162,"79 NORTH 10TH STREET","SAN JOSE","CA","95112"
863163,"79 NORTH 22ND STREET","EAST ORANGE","NJ","07017"
863164,"79 NORTH BAY HARBOR DR","KEY LARGO","FL","33037"
863165,"79 NORTH LEHIGH STREET","SHAVERTOWN","PA","18708"
863166,"79 NORTH MAIN","FALL RIVER","MA","02720"
863167,"79 NORTH STREET","LEXINGTON","MA","02420"
863168,"79 NOTTINGHAM DRIVE","FREDERICKSBURG","VA","22406"
863169,"79 OAK RD","CONESTOGA","PA","17516"
863170,"79 OAKLAND AVE","PONTIAC","MI","48342"
863171,"79 OAKWOOD STREET","SAN FRANCISCO","CA","91440"
863172,"79 OLD LINCOLN HWY","TALLADEGA","AL","35160"
863173,"79 PAQUATUCK AVENUE","EAST MORICHES","NY","11940"
863174,"79 PARK STREET","TENAFLY","NJ","07670"
863175,"79 PARKRIDGE DRIVE","MOUNT VERNON","IN","47620"
863176,"79 PASEO ESPLENDIDO","CAMARILLO","CA","93010"
863177,"79 PATTON ROAD","FITCHBURG","MA","01420"
863178,"79 PECAN PASS","OCALA","FL","34472"
863179,"79 PENNSVILLE PEDRICKTOWN RD","PEDRICKTOWN","NJ","08067"
863180,"79 PENSION ROAD","MANALAPAN","NJ","07726"
863181,"79 PILGRIM PATHWAY","OCEAN GROVE","NJ","07756"
863182,"79 PINE STREET","DEPOSIT","NY","13754"
863183,"79 PINE STREET","DOVER","MA","02030"
863184,"79 PINE TRAIL","PERKINSTON","MS","39573"
863185,"79 PITT STREET","CHARLESTON","SC","29401"
863186,"79 PLAIN ST","EASTHAMPTON","MA","01027"
863187,"79 PLEASANT STREET","RANGELEY","ME","04970"
863188,"79 POOLE ROAD","SUFFIELD","CT","06078"
863189,"79 PRICE ST","KINGSTON","PA","18704"
863190,"79 PRIMROSE ST","WHITE PLAINS","NY","10606"
863191,"79 PRIMROSE STREET","WHITE PLAINS","NY","10606"
863192,"79 PRINCE STREET NUMBER 4","ROCHESTER","NY","14605"
863193,"79 PRINCE WILLIAM CT","PRINCETON","NJ","08540"
863194,"79 PROSPECT STREET","JERSEY CITY","NJ","07307"
863195,"79 QUAIL DRIVE","ROCKY HILL","CT","06067"
863196,"79 QUAIL RIDGE DR","MONROE","LA","71203"
863197,"79 QUAIL RIDGE DRIVE","MONROE","LA","71203"
863198,"79 QUARRY BROOK DR","SOUTH WINDSOR","CT","06074"
863199,"79 QUEEN STREET","FALMOUTH","MA","02540"
863200,"79 QUIMBY ROAD","ALBION","ME","04910"
863201,"79 RALSTON AVENUE","HAMDEN","CT","06517"
863202,"79 RANDOLPH AVE","OLD BRIDGE","NJ","08857"
863203,"79 RAUBER STREET","ROCHESTER","NY","14605"
863204,"79 RECREATION DR","CRAWFORDVILLE","FL","32327"
863205,"79 RED BARN RD","WELLSVILLE","MO","63384"
863206,"79 REID AVENUE","PORT WASHINGTON","NY","11050"
863207,"79 RGM DRIVE","COVINGTON TOWNSHIP","PA","18444"
863208,"79 RICH ST","BUFFALO","NY","14212"
863209,"79 RIDGE ROAD","SEALE","AL","36875"
863210,"79 RIVER HEIGHTS ROAD","SMITHTOWN","NY","11787"
863211,"79 RIVER RUN LANE","BUMPASS","VA","23024"
863212,"79 RIVERSIDE DR MI","NEW YORK","NY","10032"
863213,"79 ROCKLAND RD","AUBURN","MA","01501"
863214,"79 ROCKLEDGE ROAD","TUNKHANNOCK","PA","18657"
863215,"79 ROCKS AND TREES LANE","MIDDLETOWN SPRINGS","VT","05757"
863216,"79 ROSS HALL BLVD S","PISCATAWAY","NJ","08854"
863217,"79 ROUNDTOP ROAD","FRAMINGHAM","MA","01701"
863218,"79 RUBY LN","CARSON CITY","NV","89706"
863219,"79 RUSSEL ST","CLIFTON","NJ","07011"
863220,"79 RUSTIC DR","SHIPPENSBURG","PA","17257"
863221,"79 RYCKMAN AVENUE","ALBANY","NY","12208"
863222,"79 S AVON DR","ST. ANNE","IL","60964"
863223,"79 S CLINTON ST","EAST ORANGE","NJ","07018"
863224,"79 S MAIN STREET","MORAVIA","NY","13118"
863225,"79 SALISBURY ROAD","SHEFFIELD","MA","01257"
863226,"79 SANTA ANITA","MARYVILLE","IL","62062"
863227,"79 SANZTOWN RD","LAKEWOOD","NJ","08701"
863228,"79 SAWGRASS DR","LAPALCE","LA","70068"
863229,"79 SAWGRASS DR","LAPLACE","LA","70068"
863230,"79 SAWGRASS","LAPLACE","LA","70068"
863231,"79 SCHUYLKILL MOUNTAIN RD","SCHUYLKILL HAVEN","PA","17972"
863232,"79 SEAWATCH TRAIL","WEBSTER","NY","14580"
863233,"79 SEMINOLE CT","FORT MYERS","FL","33916"
863234,"79 SHARON DRIVE","MOUNT JOY","PA","17552"
863235,"79 SHENTON RD","DUBOIS","ID","83423"
863236,"79 SHERMAN STREET","LOWELL","MA","01852"
863237,"79 SHERWOOD RD","STAMFORD","CT","06905"
863238,"79 SHULTZ RD","PINE GROVE","PA","17963"
863239,"79 SILVER CIRCLE","PAGOSA SPRINGS","CO","81147"
863240,"79 SKYLINE DR","MORRISTOWN","NJ","07960"
863241,"79 SKYTOP DR","BENNINGTON","VT","05201"
863242,"79 SLALOM CIRCLE","WINCHESTER","TN","37398"
863243,"79 SONOMA DRIVE","ROMEOVILLE","IL","60446"
863244,"79 SOULE AVE","DUXBURY","MS","02332"
863245,"79 SOUTH BENSON ROAD","FAIRFIELD","CT","06824"
863246,"79 SOUTH MINNEQUA ST","CANTON","PA","17724"
863247,"79 SOUTH MINNEQUA STREET","CANTON","PA","17724"
863248,"79 SOUTH SYRACUSE STREET","DENVER","CO","80230"
863249,"79 SOUTHGATE CIRCLE","MASSAPEQUA PARK","NY","11762"
863250,"79 SPRING STREET","CONCHO","AZ","85924"
863251,"79 ST JAMES PLACE APT 2","BROOKLYN","NY","11238"
863252,"79 STANDISH DRIVE","MOUNT SINAI","NY","11766"
863253,"79 STATES AVE","DALLAS","GA","30132"
863254,"79 STEWART AVENUE","BETHPAGE","NY","11714"
863255,"79 STOCKTON PLACE","EAST ORANGE","NJ","07017"
863256,"79 STONECROFT DRIVE","HORSEHEADS","NY","14845"
863257,"79 SUNNYSIDE TERRACE","EAST ORANGE","NJ","07018"
863258,"79 SUNSET AVENUE","NEWARK","NJ","07106"
863259,"79 SUNSET DRIVE","SAYVILLE","NY","11782"
863260,"79 SURREY STREET","MEDFORD","MA","02155"
863261,"79 SW 12TH ST PH309","MIAMI","FL","33130"
863262,"79 SW 12TH STREET APT 2312","MIAMI","FL","33130"
863263,"79 SW 12TH STREET","MIAMI","FL","33130"
863264,"79 SWIFT ST","AUBURN","NY","13021"
863265,"79 SYLVAN AVENUE","NEW HAVEN","CT","06511"
863266,"79 TAFT STREET","CRANSTON","RI","02905"
863267,"79 TERRACE DRIVE","CHICO","CA","95926"
863268,"79 THE PORTAGE","TICONDEROGA","NY","12883"
863269,"79 TRENTON AVENUE","EAST ATLANTIC BEACH","NY","11561"
863270,"79 TROLLEY LANE","CORNING","NY","14830"
863271,"79 UPPER AFTON TERRACE","ST. PAUL","MN","55106"
863272,"79 VASSAR AVE","NEWARK","NJ","07112"
863273,"79 VERCHILD STREET","QUINCY","MA","02169"
863274,"79 VEREL AVENUE","LACKAWANNA","NY","14218"
863275,"79 W LANSDOWNE CIRCLE","THE WOODLANDS","TX","77382"
863276,"79 W WOOD ST APT 1","LOWELLVILLE","OH","44436"
863277,"79 WALNUT STREET","MIDDLEBORO","MA","02346"
863278,"79 WALTHAM STREET","BOSTON","MA","02118"
863279,"79 WARSAW ST","DEEP RIVER","CT","06417"
863280,"79 WASHINGTON AVE","HANCOCK","MN","56244"
863281,"79 WATCHUNG AVE","MONTCLAIR","NJ","07043"
863282,"79 WEBBS MILLS RD","CASCO","ME","04015"
863283,"79 WEST 12TH ST STE 6-D","NEW YORK","NY","10001"
863284,"79 WEST 12TH STREET APT 2A","NEW YORK","NY","10011"
863285,"79 WEST 6 AVENUE","HIALEAH","FL","33014"
863286,"79 WEST COLUMBIA DRIVE","MIDVALE","UT","84047"
863287,"79 WEST ISABEL STREET","SAINT PAUL","MN","55107"
863288,"79 WEST MARINERS CAY","FOLLY BEACH","SC","29439"
863289,"79 WEST STREET APT A4","HARRISON","NY","10528"
863290,"79 WEST WILLETS DR","RED HOOK","NY","12571"
863291,"79 WHARTON ROW","GROTON","MA","01450"
863292,"79 WINCHESTER DR","CODY","WY","82414"
863293,"79 WINDMILL LANE","STUARTS DRAFT","VA","24477"
863294,"79 WOLCOTT STREET NO 102B","BROOKLYN","NY","11231"
863295,"79 WOOD DRIVE","CLENDENIN","WV","25045"
863296,"79 WOODBINE ROAD","CRAIGSVILLE","WV","26205"
863297,"79 WOODLAND ACRES RD","BROOKSVILLE","KY","41004"
863298,"79 WOODLAND AVE","COATESVILLE","PA","19320"
863299,"79 WOODLAND DRIVE","PITTSBURGH","PA","15228"
863300,"79 WOODLAND TERRACE","VERONANJ","NJ","07044"
863301,"79 WOODSIDE KNOLLS DR","MIDDLETOWN","NY","10940"
863302,"79 WORTHLEY ROAD","BEDFORD","NH","03110"
863303,"79-01 BROADWAY SUITE D6-15","ELMHURST","NY","11373"
863304,"79-1037 HOKUKANO ROAD","KAILUA KONA","HI","96750"
863305,"79-14 ROCKAWAY BEACH BLVD","ROCKAWAY BEACH","NY","11693"
863306,"79-18 WOODSIDE AVE APT 1F","ELMHURST","NY","11373"
863307,"79-20 ROOSEVELT AVE","JACKSON HEIGHTS","NJ","11372"
863308,"79-20 ROOSEVELT AVE","JACKSON HEIGHTS","NY","11372"
863309,"79-24 67TH DRIVE","MIDDLE VILLAGE","NY","11379"
863310,"79-276 AVE 38","INDIO","CA","92203"
863311,"79-28 60TH LANE","GLENDALE","NY","11385"
863312,"79-41 ESTATE SOLBERG","ST THOMAS","VI","00804"
863313,"79-43 69TH ROAD","MIDDLE VILLAGE","NY","11379"
863314,"79-7197 HOOPER RD","KAILUA KONA","HI","96725"
863315,"79-7199 MAMALAHOA HWY","HOLUALOA","HI","96725"
863316,"79-7460 MAMALAHOA HWY 110","KEALAKEKUA","HI","96750"
863317,"79-7506 MAMALAHOA HIGHWAY","KEALAKEKUA","HI","96750"
863318,"79-81 MAIN STREET UNIT 141","YONKERS","NY","10701"
863319,"79-81 POINIER STREET","NEWARK","NJ","07114"
863320,"79-93 MONTGOMERY STREET 3D","PATERSON","NJ","07501"
863321,"79","COLUMBUS","OH","43207"
863322,"79","HAMMOND","IN","46324"
863323,"79","IRVINGTON","NY","10533"
863324,"79","LARKSPUR","CO","80118"
863325,"79","WHITMAN","MA","02382"
863326,"790 107TH AVENUE NORTH","NAPLES","FL","34108"
863327,"790 107TH ST","ROBERTS","WI","54023"
863328,"790 19TH AVE N","ST. PETERSBURG","FL","33704"
863329,"790 30TH ST SUITE B3","SPRINGFIELD","OR","97478"
863330,"790 30TH ST SUITE B3","SPRINGFIELD","OR",NA
863331,"790 31ST ST","SIOUX CITY","IA","51101"
863332,"790 3RD ST","BENNETT","CO","80102"
863333,"790 ALICE AVE","MEMPHIS","TN","38106"
863334,"790 APAKI PLACE","DIAMONDHEAD","MS","39525"
863335,"790 AUBURN STREET","BRIDGEWAGTER","MA","02324"
863336,"790 BALDWIN RD","ROCKMART","GA","30153"
863337,"790 BARBOUR DRIVE","REDWOOD CITY","CA","94062"
863338,"790 BELAIR DR","SAGINAW","MI","48638"
863339,"790 BELAIR DRIVE","SAGINAW","MI","48638"
863340,"790 BELHAVEN CHASE COURT","MABLETON","GA","30126"
863341,"790 BERGEN ST","NEWARK","NJ","07108"
863342,"790 BERT JOHNSTON AVENUE","COVINGTON","TN","38019"
863343,"790 BIENVENUE AVE NW","VALDESE","NC","28690"
863344,"790 BIG HORN DR UNIT A","ESTES PARK","CO","80517"
863345,"790 BRONX RIVER ROAD APT A53","BRONXVILLE","NY","10708"
863346,"790 BURGUNDY CIRCLE","KING OF PRUSSIA","PA","19406"
863347,"790 CAMBRIDGE DR","LAKE OZARK","MO","65049"
863348,"790 CAMBRIDGE DRIVE","BILOXI","MS","39532"
863349,"790 CAMINO DE LA REINA UNIT 259","SAN DIEGO","CA","92108"
863350,"790 CARLYLE RD","ZEBULON","NC","27597"
863351,"790 CLIFFSIDE DRIVE","FAYETTEVILLE","AR","72701"
863352,"790 CLOISTERS COURT NW APT 14","CONCORD","NC","28027"
863353,"790 CO RD 2500 E","HOMER","IL","61849"
863354,"790 CO RD 930","TEAGUE","TX","75860"
863355,"790 COLUSA DRIVE","WALNUT","CA","91789"
863356,"790 CONCOURSE VILLAGE APT 21J","BRONX","NY","10451"
863357,"790 CONCOURSE VILLAGE WEST","BRONX","NY","10451"
863358,"790 CONCOURSE VILLAGE","BRONX","NY","10451"
863359,"790 COUNTRY LANE","ORLANDO","FL","32804"
863360,"790 COUNTY HIGHWAY 34","SCHENEVUS","NY","12155"
863361,"790 COUNTY ROAD 486","CENTRE","AL","35960"
863362,"790 COUNTY ROAD 705","WEST COLUMBIA","TX","77486"
863363,"790 CROWN POINT CIRCLE","COROLLA","NC","27927"
863364,"790 CYPRESS STREET","HOWARD CITY","MI","49329"
863365,"790 DAYTON AVENUE UNIT 1","SAINT PAUL","MN","55104"
863366,"790 DEERWOOD DRIVE","STOCKBRIDGE","GA","30281"
863367,"790 DOGWOOD DRIVE APT D2","BLACKSHEAR","GA","31516"
863368,"790 DOGWOOD DRIVE","BLACKSHEAR","GA","31516"
863369,"790 DOGWOOD LN","LAKE IN THE HILLS","IL","60156"
863370,"790 DONEGAL DR","SAN LUIS OBISPO","CA","93405"
863371,"790 DOUGLAS","SALT LAKE CITY","UT","84102"
863372,"790 DRAYMONT DR","SPARTANBURG","SC","29303"
863373,"790 DUTCH VALLEY DR","MIDWAY","UT","84049"
863374,"790 E SANTA CLARA ST SUITE 102","VENTURA","CA","93001"
863375,"790 E VALLEY VIEW TRAIL","HUACHUCA CITY","AZ","85616"
863376,"790 EARLHAM ST APT6","PASADENA","CA","91101"
863377,"790 EAST LAKESHORE DRIVE","LAKE STEVENS","WA","98258"
863378,"790 EASTER AVE","AKRON","OH","44307"
863379,"790 EASTER AVENUE","AKRON","OH","44307"
863380,"790 ELDERT LANE","BROOLLYN","NY","11208"
863381,"790 FALCON DR","ABINGDON","VA","24210"
863382,"790 FISHER ROAD","NORTH DARTMOUTH","MA","02747"
863383,"790 FLEMING STREET","COLORADO SPRINGS","CO","80911"
863384,"790 FRONTAGE RD","CHICAGO","IL","60093"
863385,"790 GENESEE ST","ROCHESTER","NY","14611"
863386,"790 GIRARD CT","COTTAGE GROVE","OR","97424"
863387,"790 GLEN HOLLOW TRAIL","FORNEY","TX","75126"
863388,"790 GLOVER RD","LIVINGSTON","TX","77351"
863389,"790 GREEN LANE","UNION","NJ","07083"
863390,"790 HALSEY ST","BROOKLYN","NY","11233"
863391,"790 HAVEN PT","NEW BRAUNFELS","TX","78132"
863392,"790 HIGHLAND TERRACE NE","ATLANTA","GA","30306"
863393,"790 HOLLYANN COURT","TWIN FALLS","ID","83301"
863394,"790 HOOKS STREET","CLERMONT","FL","34711"
863395,"790 HOPE RD","GOLDEN VALLEY","AZ","86413"
863396,"790 HORSESHOE DRIVE","SOMERSET","KY","42501"
863397,"790 HOWARD AVE - UNIT I","MYRTLE BEACH","SC","29577"
863398,"790 INDIAN MOUNDS ROAD","CARTERSVILLE","GA","30120"
863399,"790 IVES ROAD","WARWICK","RI","02818"
863400,"790 J STREET","LINCOLN","CA","95648"
863401,"790 JUNO OCEAN WALK SUITE 102","JUNO BEACH","FL","33408"
863402,"790 KALMIA CT NW","ISSAQUAH","WA","98027"
863403,"790 KIMBALL AVE APT 2D","YONKERS","NY","10704"
863404,"790 KINGS DEER POINT EAST","MONUMENT","CO","80132"
863405,"790 LAKE DENTON RD","AVON PARK","FL","33825"
863406,"790 LAKEVIEW AVE NE","ATLANTA","GA","30308"
863407,"790 LANEY TERRACE","ROCK HILL","SC","29730"
863408,"790 LOGAN STREET APARTMENT 1","BROOKLYN","NY","11208"
863409,"790 LONE STAR RD","BOWIE","TX","76230"
863410,"790 LONGVIEW DRIVE","MIDDLETOWN","PA","17057"
863411,"790 LOST VALLEY RD","DRIPPING SPRINGS","TX","78620"
863412,"790 LOUGHBOROUGH DR","MERCED","CA","95348"
863413,"790 LOUGHBOROUGH","MERCED","CA","95348"
863414,"790 MAGNOLIA WAY 102","ATLANTA","GA","30314"
863415,"790 MAIN ST","TEMPLETON","CA","93465"
863416,"790 MANSELL DRIVE","YOUNGSTOWN","OH","44505"
863417,"790 METRO DRIVE","MONTEREY PARK","CA","91755"
863418,"790 MILLER RD","MOUNT AIRY","NC","27030"
863419,"790 MOORE ROAD","RIPLEY","WV","25271"
863420,"790 MOUNTAIN OAKS PKWY","STONE MOUNTAIN","GA","30087"
863421,"790 MUDDY RIVER PL APT 106","MEMPHIS","TN","38103"
863422,"790 N 2720 E UNIT 8 ST","ST. GEORGE","UT","84790"
863423,"790 N EUCLID STREET APT 341","ANAHSON","CA","92801"
863424,"790 NE 11TH ST","GRANTS PASS","OR","97526"
863425,"790 NORTH CUTLER DRIVE APT C207","NORTH SALT LAKE","UT","84054"
863426,"790 NORTH SHORE DRIVE","ANNA MARIA","FL","34216"
863427,"790 NORTH UNION CITY ROAD","COLDWATER","MI","49036"
863428,"790 NORTHCUTTS COVE RD","BEERSHEBA SPRINGS","TN","37305"
863429,"790 OAKDALE DRIVE","FOREST PARK","GA","30297"
863430,"790 OCEAN STREET","MARSHFIELD","LA","02050"
863431,"790 OCEAN STREET","MARSHFIELD","MA","02050"
863432,"790 PAGODA COURT","ERIE","CO","80516"
863433,"790 PALOMAR ST STE D","CHULA VISTA","CA","91911"
863434,"790 PANORAMIC HIGHWAY","MILL VALLEY","CA","94941"
863435,"790 PARADISE LANE","ATLANTIC BEACH","FL","32233"
863436,"790 PARKER STREET","ELMHURST","IL","60126"
863437,"790 PLACID LAKE DR","OSPREY","FL","34229"
863438,"790 POINTE BASSE DRIVE","SAINTE GENEVIEVE","MO","63670"
863439,"790 POPPY HILLS DR","BLACKLICK","OH","43004"
863440,"790 PUU KALA STREET","PEARL CITY","HI","96782"
863441,"790 QUAKER RIDGE CT","LATHROP","CA","95330"
863442,"790 RAILROAD AVENUE","DENDRON","VA","23839"
863443,"790 READING COURT","WEST CHESTER","PA","19380"
863444,"790 RED FEATHER LN","WOODLAND PARK","CO","80863"
863445,"790 RICHMOND AVENUE","BUFFALO","NY","14222"
863446,"790 RIVERSIDE DR APT 7H","NEW YORK","NY","10032"
863447,"790 RIVERSIDE DRIVE APT 2B","NEW YORK","NY","10032"
863448,"790 RIVERSIDE DRIVE APT 6K","NEW YORK","NY","10032"
863449,"790 RIVERSIDE DRIVE","NEW YORK CITY","NY","10032"
863450,"790 ROBINWOOD AVE","SHEFFIELD LAKE","OH","44054"
863451,"790 ROCHELLE CT","WHEELING","IL","60090"
863452,"790 S HOPE RD","GOLDEN VALLEY","AZ","86413"
863453,"790 SARATOGA AVE APT R210","SAN JOSE","CA","95129"
863454,"790 SE FINCH CIRCLE","WAUKEE","IA","50263"
863455,"790 SE PARKER DR","WAUKEE","IA","50263"
863456,"790 SE SHERWOOD CT","PULLMAN","WA","99163"
863457,"790 SECOND STREET","MACON","GA","31202"
863458,"790 SEED TICK ROAD","DAWSONVILLE","GA","30534"
863459,"790 SHERWOOD STREET","NORTH WOODMERE","NY","11581"
863460,"790 SKYLINE BLVD","RENO","NV","89509"
863461,"790 SOUTH ARLINGTON STREET","AKRON","OH","44306"
863462,"790 SOUTH BISCAYNE RIVER DRIVE","MIAMI","FL","33169"
863463,"790 SOUTH VIRGINIA ST","QUINCY","FL","32351"
863464,"790 STEVENS CREEK BLVD","FORSYTH","IL","62535"
863465,"790 SUMMIT DRIVE","DALLASTOWN","PA","17313"
863466,"790 SUNSET BLVD SUITE 3","SUNSET BEACH","NC","28468"
863467,"790 TATUM STREET","SAINT PAUL","MN","55104"
863468,"790 TAYLOR BLAIR","WEST JEFFERSON","OH","43162"
863469,"790 TEN ROD ROAD","NORTH KINGSTOWN","RI","02852"
863470,"790 THOMAS MORE PKWY","EDGEWOOD","KY","41017"
863471,"790 THORNBERRY DR","ALPHARETTA","GA","30022"
863472,"790 TUNG ST","MONTICELLO","FL","32344"
863473,"790 UNION CHURCH RD","WINNSBORO","LA","71295"
863474,"790 VANDAL WAY","PALMDALE","CA","93551"
863475,"790 W  LITTLE YORK APT 1111","HOUSTON","TX","77091"
863476,"790 W PANORAMA ROAD","TUCSON","AZ","85704"
863477,"790 W PRAIRIE STREET","LE CENTER","MN","56057"
863478,"790 W WINDING RD","RENSSELAER","IN","47978"
863479,"790 WARWICK","BROOKLYN","NY","11207"
863480,"790 WASHINGTON RD","WESTMINSTER","MD","21157"
863481,"790 WEST GAP CREEK ROAD","GREER","SC","29651"
863482,"790 WHITEHEAD ROAD","GREENSBURG","PA","15601"
863483,"790 WILLARD ST APT 312","QUINCY","MA","02169"
863484,"790 WILLARD STREET UNIT 205","QUINCY","MA","02169"
863485,"790 WILLIAMS WAY","VERNON HILLS","IL","60061"
863486,"790 WOODLAND CIRCLE DRIVE","SCOTTSVILLE","KY","42164"
863487,"790","MIAMI","FL","33169"
863488,"7900 10TH AVENUE","LOS ANGELES","CA","90305"
863489,"7900 131ST ST","APPLE VALLEY","MN","55124"
863490,"7900 187TH PL SW","EDMONDS","WA","98026"
863491,"7900 236TH ST SW UNIT 1","EDMONDS","WA","98026"
863492,"7900 94TH AVE  APT 304","PLEASANT PRAIRIE","WI","53158"
863493,"7900 ARCADIA CREEK ST","LAS VEGAS","NV","89084"
863494,"7900 ARNOLD AVE BLDG 1060 RM 20","BEALE AFB","CA","95903"
863495,"7900 BAVARIA RD","VICTORIA","MN","55386"
863496,"7900 BAYMEADOWS CIR E","JCKSOMVILLE","FL","32256"
863497,"7900 BAYMEADOWS RD E 329","JACKSONVILLE","FL","32256"
863498,"7900 BEE RIDGE ROAD","SARASOTA","FL","34241"
863499,"7900 BELAND AVE","LOS ANGELES","CA","90045"
863500,"7900 BELAND AVE","LOS ANGELS","CA","90045"
