"ID","Address","City","State","Zip"
997001,"PO BOX 815","CLAXTON","GA","30417"
997002,"PO BOX 815","JACKSON","CA","95642"
997003,"PO BOX 815","LAHAINA","HI","96767"
997004,"PO BOX 815","MERIDAIN","ID","83680"
997005,"PO BOX 815","MERIDIAN","ID","83680"
997006,"PO BOX 815","MILLS","WY","82644"
997007,"PO BOX 815","WHITE PLAINS","NY","10602"
997008,"PO BOX 81511","LINCOLN","NE","68501"
997009,"PO BOX 8152","SURPRISE","AZ","85374"
997010,"PO BOX 8155","PISCATAWAY","NJ","08854"
997011,"PO BOX 81555","PITTSBURGH","PA","15217"
997012,"PO BOX 81593","CONYERS","GA","30013"
997013,"PO BOX 816","BALDWIN","MI","49304"
997014,"PO BOX 816","CANOVANAS","PR","00729"
997015,"PO BOX 816","CARBONDALE","CO","81623"
997016,"PO BOX 816","CHANDLER","TX","75758"
997017,"PO BOX 816","CHOCTAW","OK","73020"
997018,"PO BOX 816","EAGLE RIVER","WI","54521"
997019,"PO BOX 816","FORT MYERS","FL","33902"
997020,"PO BOX 816","KINGSTREE","SC","29556"
997021,"PO BOX 816","LA COSTE","TX","78039"
997022,"PO BOX 816","LEBANON","OH","45036"
997023,"PO BOX 816","LOBECO","SC","29931"
997024,"PO BOX 816","RINGOLD","OK","74754"
997025,"PO BOX 816","SOUTH BEND","WA","98586"
997026,"PO BOX 816","WAINSCOTT","NY","11975"
997027,"PO BOX 816024","DALLAS","TX","75381"
997028,"PO BOX 8162","SALEM","OR","97303"
997029,"PO BOX 816248","HOLLYWOOD","FL","33081"
997030,"PO BOX 8164","HOUSTON","TX","77288"
997031,"PO BOX 81663","AUSTIN","TX","78708"
997032,"PO BOX 817","EMMITSBURG","MD","21727"
997033,"PO BOX 817","FORSYTH","GA","31029"
997034,"PO BOX 817","MILLERTON","NY","12546"
997035,"PO BOX 817","MOLALLA","OR","97038"
997036,"PO BOX 817","POCATELLO","ID","83204"
997037,"PO BOX 817","SEADRIFT","TX","77983"
997038,"PO BOX 817","SEAFORD","DE","19973"
997039,"PO BOX 817","SODA SPRINGS","CA","95728"
997040,"PO BOX 8170","ANN ARBOR","MI","48107"
997041,"PO BOX 8171","BLOOMFIELD HILL","MI","48302"
997042,"PO BOX 8175","HOUSTON","TX","77288"
997043,"PO BOX 8176","NEW YORK","NY","10116"
997044,"PO BOX 8179","PORT SAINT LUCIE","FL","34985"
997045,"PO BOX 81793","LAS VEGAS","NV","89180"
997046,"PO BOX 818","KEARNY","AZ","85137"
997047,"PO BOX 818","LAKE CITY","CO","81235"
997048,"PO BOX 818","NEW LEXINGTON","OH","43764"
997049,"PO BOX 818","ROCK HILL","SC","29731"
997050,"PO BOX 818","STANTON","TX","79782"
997051,"PO BOX 818","SULLIVAN","MO","63080"
997052,"PO BOX 81807","AUSTIN","TX","78708"
997053,"PO BOX 81825","ALBUQUERQUE","NM","87198"
997054,"PO BOX 8183","FAYETTEVILLE","NC","28311"
997055,"PO BOX 8186","FREMONT","CA","94537"
997056,"PO BOX 8186","NIKISKI","AK","99635"
997057,"PO BOX 81864","LAS VEGAS","NV","89180"
997058,"PO BOX 8187","REDLANDS","CA","92375"
997059,"PO BOX 81872","BAKERSFIELD","CA","93380"
997060,"PO BOX 81892","FAIRBANKS","AK","99708"
997061,"PO BOX 819","KAMUELA","HI","96743"
997062,"PO BOX 819","SCOTTSVILLE","VA","24590"
997063,"PO BOX 819","SNOWFLAKE","AZ","85937"
997064,"PO BOX 819","WALDO","AR","71770"
997065,"PO BOX 8191","CAVE CREEK","AZ","85327"
997066,"PO BOX 8192","ANN ARBOR","MI","48107"
997067,"PO BOX 8193","DELRAY BEACH","FL","33482"
997068,"PO BOX 81962","CONYERS","GA","80013"
997069,"PO BOX 81967","FAIRBANKS","AK","99712"
997070,"PO BOX 8197","CANTON","OH","44711"
997071,"PO BOX 81991","AUSTIN","TX","78708"
997072,"PO BOX 81998","FAIRBANKS","AK","99708"
997073,"PO BOX 82","ADDISON","AL","35540"
997074,"PO BOX 82","ALLONS","TN","38541"
997075,"PO BOX 82","BENSALEM","PA","19020"
997076,"PO BOX 82","BERLIN","NY","12022"
997077,"PO BOX 82","BOULDER","MT","59632"
997078,"PO BOX 82","BROOKLYN","NY","11211"
997079,"PO BOX 82","CELINA","TX","75009"
997080,"PO BOX 82","CHARLOTTEVILLE","NY","12036"
997081,"PO BOX 82","CLARENCE CENTER","NY","14032"
997082,"PO BOX 82","COEUR D'ALENE","ID","83816"
997083,"PO BOX 82","COLONIAL HEIGHTS","VA","23834"
997084,"PO BOX 82","CUMMINGTON","MA","01026"
997085,"PO BOX 82","CUSICK","WA","99119"
997086,"PO BOX 82","DUPONT","OH","45837"
997087,"PO BOX 82","DUVALL","WA","98019"
997088,"PO BOX 82","EAST BURKE","VT","05832"
997089,"PO BOX 82","GARDEN","MI","49835"
997090,"PO BOX 82","GERALDINE","MT","59446"
997091,"PO BOX 82","GREENWICH","NJ","08323"
997092,"PO BOX 82","HAMILTON","GA","31811"
997093,"PO BOX 82","KUALAPUU","HI","96757"
997094,"PO BOX 82","LAKE VIEW","SC","29563"
997095,"PO BOX 82","MANNSVILLE","OK","73447"
997096,"PO BOX 82","MAZOMANIE","WI","53560"
997097,"PO BOX 82","MCCAMEY","TX","79752"
997098,"PO BOX 82","MILACA","MN","56353"
997099,"PO BOX 82","NICOMA PARK","OK","73066"
997100,"PO BOX 82","NORTH HAVERHILL","NH","03774"
997101,"PO BOX 82","ONALASKA","WA","98570"
997102,"PO BOX 82","OSGOOD","IN","47037"
997103,"PO BOX 82","PRAIRIETON","IN","47870"
997104,"PO BOX 82","RANCHO SANTA FE","CA","92067"
997105,"PO BOX 82","RENICK","WV","24966"
997106,"PO BOX 82","SHAWNEE","OH","43782"
997107,"PO BOX 82","SHERRODSVILLE","OH","44675"
997108,"PO BOX 82","SOUTH BAY","FL","33493"
997109,"PO BOX 82","ST ANSGAR","IA","50472"
997110,"PO BOX 82","SWISSHOME","OR","97480"
997111,"PO BOX 82","THOMAS","WV","26292"
997112,"PO BOX 82","VERNON","TX","76385"
997113,"PO BOX 82","VERNONIA","OR","97064"
997114,"PO BOX 82","WASHINGTON","MO","63090"
997115,"PO BOX 82","WESTFORD","VT","05494"
997116,"PO BOX 82","WHITE MARSH","VA","23183"
997117,"PO BOX 82","WINCHESTER","AR","71677"
997118,"PO BOX 820","CHICAGO PARK","CA","95712"
997119,"PO BOX 820","MCDONOUGH","GA","30253"
997120,"PO BOX 820","WILLITS","CA","95490"
997121,"PO BOX 82002","FAIRBANKS","AK","99708"
997122,"PO BOX 820035","SOUTH FLORIDA","FL","33082"
997123,"PO BOX 820044","PORTLAND","OR","97282"
997124,"PO BOX 8201","SEBRING","FL","33872"
997125,"PO BOX 8202","GAITHERSBURG","MD","20898"
997126,"PO BOX 8202","SALEM","OR","97303"
997127,"PO BOX 820281","NEW ORLEANS","LA","70182"
997128,"PO BOX 820296","NEW ORLEANS","LA","70182"
997129,"PO BOX 82034","PORTLAND","OR","97282"
997130,"PO BOX 82054","MOBILE","AL","36689"
997131,"PO BOX 820550","VANCOUVER","WA","98682"
997132,"PO BOX 820652","HOUSTON","TX","77282"
997133,"PO BOX 820714","VICKSBURG","MS","39182"
997134,"PO BOX 820766","HOUSTON","TX","77282"
997135,"PO BOX 821 LUTHER OKLAHOMA","LUTHER","OK","73054"
997136,"PO BOX 821","BOARDMAN","OR","97818"
997137,"PO BOX 821","CAMDENTON","MO","65020"
997138,"PO BOX 821","DOUGLASVILLE","GA","30133"
997139,"PO BOX 821","INDEPENDENCE","LA","70443"
997140,"PO BOX 821","KIMBERLY","ID","83341"
997141,"PO BOX 821","NORMANGEE","TX","77871"
997142,"PO BOX 821","PHOENIX","AZ","85001"
997143,"PO BOX 821","RED LODGE","MT","59068"
997144,"PO BOX 821","SEAHURST","WA","98062"
997145,"PO BOX 821","THREE FORKS","MT","59752"
997146,"PO BOX 821","VIEQUES","PR","00765"
997147,"PO BOX 821","VOLCANO","HI","96785"
997148,"PO BOX 821","WALKER","MN","56484"
997149,"PO BOX 821","ZEBULON","GA","30295"
997150,"PO BOX 8211","SEBRING","FL","33872"
997151,"PO BOX 8213","TRENTON","NJ","08650"
997152,"PO BOX 821429","VANCOUVER","WA","98682"
997153,"PO BOX 821504","DALLAS","TX","75382"
997154,"PO BOX 82154","ATHENS","GA","30608"
997155,"PO BOX 821564","DALLAS","TX","75382"
997156,"PO BOX 82158","FAIRBANKS","AK","99708"
997157,"PO BOX 8217","ALTUS","OK","73522"
997158,"PO BOX 821788","VANCOUVER","WA","98682"
997159,"PO BOX 8218","MORGANTON","NC","28680"
997160,"PO BOX 8218","TACOMA","WA","98419"
997161,"PO BOX 821843","VICKSBURG","MS","39182"
997162,"PO BOX 82185","Kenmore","WA","98028"
997163,"PO BOX 821961","VICKSBURG","MS","39182"
997164,"PO BOX 822","BYRON","IL","61010"
997165,"PO BOX 822","CLARK","CO","80428"
997166,"PO BOX 822","DENISON","TX","75020"
997167,"PO BOX 822","FAYETTE","MS","39069"
997168,"PO BOX 822","GRANBY","CO","80446"
997169,"PO BOX 822","KENTFIELD","CA","94914"
997170,"PO BOX 822","MEBANE","NC","27302"
997171,"PO BOX 822","REEDSVILLE","WV","26547"
997172,"PO BOX 822","RINCON","GA","31326"
997173,"PO BOX 822","TULSA","OK","74101"
997174,"PO BOX 822","UPPER LAKE","CA","95485"
997175,"PO BOX 822020","VANCOUVER","WA","98682"
997176,"PO BOX 822023","PEMBROKE PINES","FL","33082"
997177,"PO BOX 822292","VANCOUVER","WA","98682"
997178,"PO BOX 8225","AUSTIN","TX","78712"
997179,"PO BOX 8226","NIKISKI","AK","99063"
997180,"PO BOX 822615","VICKSBURG","TN","39182"
997181,"PO BOX 822727","VANCOUVER","WA","98682"
997182,"PO BOX 8228","LONG ISLAND CITY","NY","11101"
997183,"PO BOX 823","ABINGDON","VA","24212"
997184,"PO BOX 823","ATMORE","AL","36504"
997185,"PO BOX 823","AUGUSTA","GA","30903"
997186,"PO BOX 823","CHANDLER","AS","85225"
997187,"PO BOX 823","CHANDLER","AZ","85225"
997188,"PO BOX 823","CRESTONE","CO","81131"
997189,"PO BOX 823","JAL","NM","88252"
997190,"PO BOX 823","JENKS","OK","74037"
997191,"PO BOX 823","LARKSPUR","CA","94977"
997192,"PO BOX 823","LARSKPUR","CA","94977"
997193,"PO BOX 823","MARTINSBURG","WV","25402"
997194,"PO BOX 823","OLYMPIA","WA","98507"
997195,"PO BOX 823","PATILLAS","PR","00723"
997196,"PO BOX 823","ROSEVILLE","CA","95661"
997197,"PO BOX 823","SAN JUAN BAUTISTA","CA","95045"
997198,"PO BOX 823","SANTA FE","TX","77510"
997199,"PO BOX 823","WALPOLE","NH","03608"
997200,"PO BOX 8231","YAKIMA","WA","98908"
997201,"PO BOX 82314","TAMPA","FL","33682"
997202,"PO BOX 82324","KENMORE","WA","98028"
997203,"PO BOX 8233","OMAHA","NE","68108"
997204,"PO BOX 8235 5010 NORTH POINTE","ZANESVILLE","OH","43702"
997205,"PO BOX 8235","LA VERNE","CA","91750"
997206,"PO BOX 8236","PITTSBURGH","PA","15217"
997207,"PO BOX 8236","ROCHESTER","MN","55903"
997208,"PO BOX 82366","ATLANTA","GA","30354"
997209,"PO BOX 82366","TAMPA","FL","33862"
997210,"PO BOX 8237","ASPEN","CO","81612"
997211,"PO BOX 8238","BONNEY LAKE","WA","98391"
997212,"PO BOX 8239 MARINA","LAGOS, NIGERIA",NA,NA
997213,"PO BOX 824","BELFIELD","ND","58622"
997214,"PO BOX 824","BURSON","CA","95225"
997215,"PO BOX 824","CRESCENT CITY","FL","32112"
997216,"PO BOX 824","CRSECENT CITY","FL","32112"
997217,"PO BOX 824","HENDERSON","TX","75654"
997218,"PO BOX 824","JAMESTOWN","TN","38556"
997219,"PO BOX 824","MOKENA","IL","60448"
997220,"PO BOX 824","OAKHURST","CA","93644"
997221,"PO BOX 824","ROCKPORT","ME","04856"
997222,"PO BOX 824","SILVERTON","CO","81433"
997223,"PO BOX 824","WYLIE","TX","75098"
997224,"PO BOX 82401","ROCHESTER","MI","48308"
997225,"PO BOX 82405","COLUMBUS","OH","43202"
997226,"PO BOX 8241","PORTLAND","OR","97207"
997227,"PO BOX 824113","PEMBROKE PINES","FL","33082"
997228,"PO BOX 8246","WILMINGTON","DE","19803"
997229,"PO BOX 82474","CONYERS","GA","30013"
997230,"PO BOX 8248","BESSEMER","AL","35218"
997231,"PO BOX 825","CENTERVILLE","IA","52544"
997232,"PO BOX 825","FLORENCE","TX","76527"
997233,"PO BOX 825","FRISCO","CO","80443"
997234,"PO BOX 825","LYNDEN","WA","98264"
997235,"PO BOX 825","MANHATTAN","MT","59741"
997236,"PO BOX 825","MCCORMICK","SC","29835"
997237,"PO BOX 825","NEW YORK","NY","10009"
997238,"PO BOX 825","NEWARK","OH","43058"
997239,"PO BOX 825","ROCKY FORD","CO","81067"
997240,"PO BOX 825","THERMOPOLIS","WY","82443"
997241,"PO BOX 825","WAITSBURG","WA","99361"
997242,"PO BOX 825","WESTMONT","IL","60559"
997243,"PO BOX 8250","FRESNO","CA","93747"
997244,"PO BOX 82551","BAKERSFIELD","CA","93380"
997245,"PO BOX 826 11 ELM ST","NORTH BERWICK","ME","03906"
997246,"PO BOX 826-00900","KIAMBU",NA,NA
997247,"PO BOX 826","BRANSON","MO","65615"
997248,"PO BOX 826","CHRISTIANSTED","VI","00821"
997249,"PO BOX 826","CIBOLO","TX","78108"
997250,"PO BOX 826","DOTHAN","AL","36302"
997251,"PO BOX 826","ISLAMORADA","FL","33036"
997252,"PO BOX 826","LYLE","WA","98635"
997253,"PO BOX 826","MORTON","WA","98356"
997254,"PO BOX 826","REPUBLIC","WA","99166"
997255,"PO BOX 826092","PEMBROKE PINES","FL","33082"
997256,"PO BOX 8263","CHICAGO","IL","60608"
997257,"PO BOX 8264","ELKRIDGE","MD","21075"
997258,"PO BOX 8264","TURNERSVILLE","NJ","08012"
997259,"PO BOX 8266","SPOKANE","WA","99203"
997260,"PO BOX 82685","CONYERS","GA","30013"
997261,"PO BOX 827","GARIBALDI","OR","97118"
997262,"PO BOX 827","KILGORE","TX","75663"
997263,"PO BOX 827","MUNCIE","IN","47308"
997264,"PO BOX 827","PITTSBURG","CA","94565"
997265,"PO BOX 827","SHEPHERDSTOWN","WV","25443"
997266,"PO BOX 827","THOMASTON","GA","30286"
997267,"PO BOX 8271","FRESNO","CA","93747"
997268,"PO BOX 8273","EVANSVILLE","IN","47716"
997269,"PO BOX 8273","LONG BEACH","CA","90808"
997270,"PO BOX 8273","LOS ANGELES","CA","90008"
997271,"PO BOX 8273","MANCHESTER","CT","06040"
997272,"PO BOX 8274","HAVERHILL","MA","01835"
997273,"PO BOX 828","NEW YORK","NY","10116"
997274,"PO BOX 828","OAKRIDGE","OR","97463"
997275,"PO BOX 828","RIDGELY","MD","21660"
997276,"PO BOX 828","ROWLETT","TX","75030"
997277,"PO BOX 828","TESUQUE","NM","87574"
997278,"PO BOX 828","VERPLANK","NY","10596"
997279,"PO BOX 828","WOODLAKE","CA","93286"
997280,"PO BOX 82892","KENMORE","WA","98028"
997281,"PO BOX 829","CLAXTON","GA","30417"
997282,"PO BOX 829","EL CAMPO","TX","77437"
997283,"PO BOX 829","MECHANICSVILLE","MD","20659"
997284,"PO BOX 829","NORTH BEND","OR","97459"
997285,"PO BOX 829","SOUTH CASCO","ME","04077"
997286,"PO BOX 8292","SOUTH LAKE TAHOE","CA","96158"
997287,"PO BOX 83 126 N DOUGLAS","ELLSWORTH","KS","67439"
997288,"PO BOX 83 6816 N 1025 E","WILKINSON","IN","46186"
997289,"PO BOX 83","AZLE","TX","76098"
997290,"PO BOX 83","BLUFF","UT","84512"
997291,"PO BOX 83","CALUMET","OK","73014"
997292,"PO BOX 83","CERRO","NM","87519"
997293,"PO BOX 83","CHEROKEE","OK","73728"
997294,"PO BOX 83","CUSHING","IA","51018"
997295,"PO BOX 83","DEANSBORO","NY","13328"
997296,"PO BOX 83","DUNCAN","AZ","85534"
997297,"PO BOX 83","FERNDALE","CA","95536"
997298,"PO BOX 83","FINLEY","OK","74523"
997299,"PO BOX 83","FORT ATKINSON","WI","53538"
997300,"PO BOX 83","FOSTER","RI","02825"
997301,"PO BOX 83","GENESEO","NY","14454"
997302,"PO BOX 83","GRAYLAND","WA","98547"
997303,"PO BOX 83","GREENACRES","WA","99016"
997304,"PO BOX 83","HALLETTSVILLE","TX","77964"
997305,"PO BOX 83","HARTFORD","IA","50118"
997306,"PO BOX 83","KING SALMON","AK","99613"
997307,"PO BOX 83","LEOLA","SD","57456"
997308,"PO BOX 83","MALVERN","PA","19355"
997309,"PO BOX 83","MANISTIQUE","MI","49854"
997310,"PO BOX 83","NAKNEK","AK","99613"
997311,"PO BOX 83","NEWCASTLE","WY","82701"
997312,"PO BOX 83","NORDHEIM","TX","78141"
997313,"PO BOX 83","OLD ZIONSVILLE","PA","18068"
997314,"PO BOX 83","OMEGA","GA","31775"
997315,"PO BOX 83","PORTLAND","ME","04112"
997316,"PO BOX 83","RAYMOND","WA","98577"
997317,"PO BOX 83","RINGWOOD","NJ","07456"
997318,"PO BOX 83","RUTHTON","MN","56170"
997319,"PO BOX 83","SANDY RIDGE","PA","16677"
997320,"PO BOX 83","SHALLOTTE","NC","28459"
997321,"PO BOX 83","SOUTH BOSTON","VA","24592"
997322,"PO BOX 83","STAPLETON","NE","69163"
997323,"PO BOX 83","TUTTLE","ND","58488"
997324,"PO BOX 83","UNDERHILL CENTER","VT","05490"
997325,"PO BOX 83","VOLCANO","HI","96785"
997326,"PO BOX 83","WADMALAW ISLAND","SC","29487"
997327,"PO BOX 83","WELLINGTON","NV","89444"
997328,"PO BOX 83","WESSON","MS","39191"
997329,"PO BOX 83","WEST RUPERT","VT","05776"
997330,"PO BOX 83","WRIGHTWOOD","CA","92397"
997331,"PO BOX 830","GLENWOOD","AR","71943"
997332,"PO BOX 830","LEESBURG","GA","31763"
997333,"PO BOX 830","SCOBEY","MT","59263"
997334,"PO BOX 830","WILTON","CA","95693"
997335,"PO BOX 8301 LAKEVIEW PRKWY 111-157","ROWLETT","TX","75088"
997336,"PO BOX 8302","NEW HAVEN","CT","06530"
997337,"PO BOX 830278","TUSUKEGEE","AL","36083"
997338,"PO BOX 8304","BRECKENRIDGE","CO","80424"
997339,"PO BOX 830932","RICHARDSON","TX","75083"
997340,"PO BOX 831","BLUEFIELD","VA","24605"
997341,"PO BOX 831","CERRILLOS","NM","87010"
997342,"PO BOX 831","GRAND JUNCTION","CO","81501"
997343,"PO BOX 831","GRAND JUNCTION","CO","81504"
997344,"PO BOX 831","LAMBERT","MS","38643"
997345,"PO BOX 831","LIBERTY LAKE","WA","99019"
997346,"PO BOX 831","MADISON","AL","35758"
997347,"PO BOX 831","MIDDLETOWN","OH","45042"
997348,"PO BOX 831","SEAHURST","WA","98062"
997349,"PO BOX 831","SHAW ISLAND","WA","98286"
997350,"PO BOX 83100","ROUND ROCK","TX","78681"
997351,"PO BOX 831083","MIAMI","FL","33283"
997352,"PO BOX 8311","JACKSON","MS","39283"
997353,"PO BOX 831183","SAN ANTONIO","TX","78283"
997354,"PO BOX 831282","RICHARDSON","TX","75083"
997355,"PO BOX 831359","RICHARDSON","TX",NA
997356,"PO BOX 831414","SAN ANTONIO","TX","78283"
997357,"PO BOX 831463","RICHARDSON","TX","75080"
997358,"PO BOX 83153","FAIRBANKS","AK","99708"
997359,"PO BOX 831537","RICHARDSON","TX","75083"
997360,"PO BOX 831592","OCALA","FL","34483"
997361,"PO BOX 8318","JACKSONVILLE","AR","72078"
997362,"PO BOX 83182","FAIRBANKS","AK","99708"
997363,"PO BOX 83193","FAIRBANKS","AK","99708"
997364,"PO BOX 831973","RICHARDSON","TX","75083"
997365,"PO BOX 832","ATHENS","GA","30603"
997366,"PO BOX 832","ELGIN","TX","78621"
997367,"PO BOX 832","FT PIERRE","SD","57532"
997368,"PO BOX 832","GEORGETOWN","CO","80444"
997369,"PO BOX 832","HONAUNAU","HI","96726"
997370,"PO BOX 832","KOLOA","HI","96756"
997371,"PO BOX 832","MYRTLE CREEK","OR","97457"
997372,"PO BOX 832","OAK GROVE","LA","71263"
997373,"PO BOX 832","ODESSA","WA","99159"
997374,"PO BOX 832","OFALLON","IL","62269"
997375,"PO BOX 832","PALATKA","FL","32178"
997376,"PO BOX 832","PETERSTOWN","WV","24963"
997377,"PO BOX 832","PORT ORCHARD","WA","98366"
997378,"PO BOX 832","PRINCETON JCT","NJ","08550"
997379,"PO BOX 832","SPRINGDALE","AR","72766"
997380,"PO BOX 832","WALDOBORO","ME","04572"
997381,"PO BOX 832","WHITEHALL","MT","59714"
997382,"PO BOX 832252","RICHARDSON","TX","75083"
997383,"PO BOX 8325","AVON","CO","81620"
997384,"PO BOX 8325","NORFOLK","VA","23503"
997385,"PO BOX 832553","RICHARDSON","TX","75083"
997386,"PO BOX 832615","RICHARDSON","TX","75083"
997387,"PO BOX 8327","WILSON","NC","27893"
997388,"PO BOX 833","BARNESVILLE","GA","30204"
997389,"PO BOX 833","BRUCE","MS","38915"
997390,"PO BOX 833","DENVER","MT","28037"
997391,"PO BOX 833","DENVER","NC","28037"
997392,"PO BOX 833","KAILUA","HI","96734"
997393,"PO BOX 833","KEENE","TX","76059"
997394,"PO BOX 833","KREMMLING","CO","80459"
997395,"PO BOX 833","MOUNTAIN VIEW","HI","96771"
997396,"PO BOX 833","PAYETTE","ID","83661"
997397,"PO BOX 833","SUTTER CREEK","CA","95685"
997398,"PO BOX 833","VERDUGO CITY","CA","91046"
997399,"PO BOX 833","WESTWOOD","CA","96137"
997400,"PO BOX 833","WILDOMAR","CA","92595"
997401,"PO BOX 8331","DELRAY BEACH","FL","33482"
997402,"PO BOX 8331","HERMITAGE","TN","37076"
997403,"PO BOX 8331","NIKISKI","AK","99635"
997404,"PO BOX 8332","HORSESHOE BAY","TX","78657"
997405,"PO BOX 8334","FORT WORTH","TX","76124"
997406,"PO BOX 8334","SOUTH LAKE TAHOE","CA","96158"
997407,"PO BOX 83356","PORTLAND","OR","97283"
997408,"PO BOX 83391","FAIRBANKS","AK","99708"
997409,"PO BOX 834","AUB URN","NY","13021"
997410,"PO BOX 834","BISBEE","AZ","85603"
997411,"PO BOX 834","CHEEKTOWAGA","NY","14225"
997412,"PO BOX 834","HEALDTON","OK","73438"
997413,"PO BOX 834","HOLLYWOOD","SC","29449"
997414,"PO BOX 834","LAKE OSWEGO","OR","97034"
997415,"PO BOX 834","LAS VEGAS","NV","89125"
997416,"PO BOX 834","MILLS","WY","82644"
997417,"PO BOX 834","MOUNT VERNON","TX","75457"
997418,"PO BOX 834","ODESSA","WA","99159"
997419,"PO BOX 834","ORIENTAL","NC","28571"
997420,"PO BOX 834","SAN BERNARDINO","CA","92402"
997421,"PO BOX 834","SANTA FE","NM","87504"
997422,"PO BOX 834","SILVERTHORNE","CO","80498"
997423,"PO BOX 834","SOMERS","CT","06071"
997424,"PO BOX 8341","INGLEWOOD","CA","90308"
997425,"PO BOX 8342","BONNEY LAKE","WA","98391"
997426,"PO BOX 8346","MORENO VALLEY","CA","92552"
997427,"PO BOX 8347","SPRINGDALE","AR","72766"
997428,"PO BOX 83472","LINCOLN","NE","68501"
997429,"PO BOX 8349","CHRISTIANSTED","VI","00823"
997430,"PO BOX 835","BAKER","MT","59313"
997431,"PO BOX 835","BAYSE","VA","22810"
997432,"PO BOX 835","DE QUEEN","AR","71832"
997433,"PO BOX 835","HAWTHRONE","FL","32640"
997434,"PO BOX 835","LOS ALAMOS","CA","93440"
997435,"PO BOX 835","MARSHFIELD","WI","54449"
997436,"PO BOX 835","MASON","OH","45040"
997437,"PO BOX 835","MECCA","CA","92254"
997438,"PO BOX 835","MILLBROOK","NY","12545"
997439,"PO BOX 835","OCEAN PARK","WA","98640"
997440,"PO BOX 835","PALACIOS","TX","77979"
997441,"PO BOX 835","WINNEBAGO","MN","56098"
997442,"PO BOX 83515","LOS ANGELES","CA","90083"
997443,"PO BOX 8352","WILMINGTON","DE","19880"
997444,"PO BOX 83522","FAIRBANKS","AK","99708"
997445,"PO BOX 8354","MORENO VALLEY","CA","92552"
997446,"PO BOX 83549","CONYERS","GA","30013"
997447,"PO BOX 8355","SAN JOSE","CA","95155"
997448,"PO BOX 8357","RED BLUFF","CA","96080"
997449,"PO BOX 835701","CHICAGO","IL","60657"
997450,"PO BOX 836","ABIQUIU","NM","87510"
997451,"PO BOX 836","BEAVER DAM","WI","53916"
997452,"PO BOX 836","DES MOINES","IA","50304"
997453,"PO BOX 836","FITZGERALD","GA","31750"
997454,"PO BOX 836","LUDINGTON","MI","49431"
997455,"PO BOX 836","PORT LAVACA","TX","77979"
997456,"PO BOX 83612","BATON ROUGE","LA","70884"
997457,"PO BOX 8362","BEND","OR","97708"
997458,"PO BOX 83652","LOS ANGELES","CA","90083"
997459,"PO BOX 8366","MISSOULA","MT","59807"
997460,"PO BOX 8368","ANN ARBOR","MI","48107"
997461,"PO BOX 83686","SAN DIEGO","CA","92138"
997462,"PO BOX 837","AGUILA","AZ","85320"
997463,"PO BOX 837","BETHEL","NC","27812"
997464,"PO BOX 837","PLAINFIELD","IN","46168"
997465,"PO BOX 837","RUSK","TX","75785"
997466,"PO BOX 837","SOCIAL CIRCLE","GA","30025"
997467,"PO BOX 837","SPIRIT LAKE","ID","83869"
997468,"PO BOX 837","SUNRAY","TX","79086"
997469,"PO BOX 837","WILDWOOD","FL","34785"
997470,"PO BOX 8371","REDLANDS","CA","92375"
997471,"PO BOX 8372","WOODLAND","CA","95776"
997472,"PO BOX 838","CLINTON","AR","72031"
997473,"PO BOX 838","EDEN","TX","76837"
997474,"PO BOX 838","HARLETON","TX","75651"
997475,"PO BOX 838","PALACIOS","TX","77465"
997476,"PO BOX 838","PANGUITCH","UT","84759"
997477,"PO BOX 838","QUINTON","VA","23141"
997478,"PO BOX 838","SOMERVILLE","TX","77879"
997479,"PO BOX 838","STURGIS","SD","57785"
997480,"PO BOX 8382","RENO","NV","89507"
997481,"PO BOX 839","AVILA BEACH","CA","93424"
997482,"PO BOX 839","CENTERVILLE","TX","75833"
997483,"PO BOX 839","EVERETT","WA","98206"
997484,"PO BOX 839","HANOVER","PA","17331"
997485,"PO BOX 839","MULINO","OR","97042"
997486,"PO BOX 839","NAALEHU","HI","96772"
997487,"PO BOX 839","OVERTON","NV","89040"
997488,"PO BOX 83913","BATON ROUGE","LA","70884"
997489,"PO BOX 84","ADDISON NH","ME","04606"
997490,"PO BOX 84","APPLE SPRINGS","TX","75926"
997491,"PO BOX 84","BELFRY","KY","41514"
997492,"PO BOX 84","BUCKHOLTS","TX","76518"
997493,"PO BOX 84","BUSBY","MT","59016"
997494,"PO BOX 84","CASTLE DALE","UT","84513"
997495,"PO BOX 84","CENTER","MO","63436"
997496,"PO BOX 84","COSTILLA","NM","87524"
997497,"PO BOX 84","COYOTE","NM","87012"
997498,"PO BOX 84","CROSS PLAINS","TN","37049"
997499,"PO BOX 84","ELK RIVER","MN","55330"
997500,"PO BOX 84","EVANSVILLE","MN","56326"
