"ID","Address","City","State","Zip"
992501,"PO BOX 61481","BOULDER CITY","NV","89006"
992502,"PO BOX 615","BERKELEY SPRINGS","WV","25411"
992503,"PO BOX 615","CLAYTON","DE","19938"
992504,"PO BOX 615","EAGAR","AZ","85925"
992505,"PO BOX 615","GARRETSON","SD","57030"
992506,"PO BOX 615","KIRON","IA","51448"
992507,"PO BOX 615","MACON","MS","39341"
992508,"PO BOX 615","SUPERIOR","AZ","85173"
992509,"PO BOX 615","WOLFFORTH","TX","79382"
992510,"PO BOX 6151","KAMUELA","HI","96743"
992511,"PO BOX 6152","BRANDON","FL","33508"
992512,"PO BOX 6154","GOODYEAR","AZ","85338"
992513,"PO BOX 6156","CHICAGO","IL","60680"
992514,"PO BOX 6158","EDMONDS","WA","98026"
992515,"PO BOX 616","ABSAROKEE","MT","59001"
992516,"PO BOX 616","COVINGTON","TN","38019"
992517,"PO BOX 616","KALAHEO","HI","96741"
992518,"PO BOX 616","LAMPASAS","TX","76550"
992519,"PO BOX 616","RAMSEUR","NC","27316"
992520,"PO BOX 616","ROUND HILL","VA","20142"
992521,"PO BOX 616","SAUSALITO","CA","94965"
992522,"PO BOX 616","SIMI VALLEY","CA","93062"
992523,"PO BOX 616","VAN VLECK","TX","77482"
992524,"PO BOX 616","WILLIAMSON","NY","14589"
992525,"PO BOX 6161","CHICO","CA","95927"
992526,"PO BOX 6163","BELLEVUE","WA","98008"
992527,"PO BOX 6163","LANCASTER","CA","93539"
992528,"PO BOX 61630","HONOLULU","HI","96839"
992529,"PO BOX 61635","FORT MYERS","FL","33906"
992530,"PO BOX 61638","VANCOUVER","WA","98666"
992531,"PO BOX 6164","KETCHIKAN","AK","99901"
992532,"PO BOX 61651","BOULDER CITY","NV","89006"
992533,"PO BOX 61681","HONOLULU","HI","96839"
992534,"PO BOX 617","COLDWATER","MS","38618"
992535,"PO BOX 617","ELKINS","AR","72727"
992536,"PO BOX 617","MILL CITY","OR","97360"
992537,"PO BOX 617","TAHOLAH","WA","98587"
992538,"PO BOX 61720","HONOLUU","HI","96839"
992539,"PO BOX 617320","ORLANDO","FL","32861"
992540,"PO BOX 6174","WOODLAND HILLS","CA","91365"
992541,"PO BOX 6175","HUNTINGTON BEACH","CA","92615"
992542,"PO BOX 617584","ORLANDO","FL","32861"
992543,"PO BOX 6176","BALTIMORE","MD","21231"
992544,"PO BOX 61764","RENO","NV","89506"
992545,"PO BOX 6177","KANEOHE","HI","96744"
992546,"PO BOX 617875","CHICAGO","IL","60661"
992547,"PO BOX 61793","DURHAM","NC","27715"
992548,"PO BOX 618","ARROYO HONDO","NM","87513"
992549,"PO BOX 618","LAWRENCEBURG","TN","38464"
992550,"PO BOX 618","MABSCOTT","WV","25871"
992551,"PO BOX 618","MINA","NV","89422"
992552,"PO BOX 618","NORTH APOLLO","PA","15673"
992553,"PO BOX 618","WINDSOR","CA","95492"
992554,"PO BOX 61807","HOUSTON","TX","77284"
992555,"PO BOX 6182","CAPITOL HEIGHTS","MD","20791"
992556,"PO BOX 61822","IRVINE","CA","92602"
992557,"PO BOX 6186","KANEOHE","HI","96744"
992558,"PO BOX 61865","LOS ANGELES","CA","90061"
992559,"PO BOX 619","BAUDETTE","MN","56623"
992560,"PO BOX 619","BREMOND","TX","76629"
992561,"PO BOX 619","GARDINER","MT","59030"
992562,"PO BOX 619","HENDERSONVILLE","TN","37077"
992563,"PO BOX 619","MT ANGEL","OR","97362"
992564,"PO BOX 6192","FLORENCE","SC","29502"
992565,"PO BOX 6192","TALLADEGA","AL","35161"
992566,"PO BOX 6195","GOODYEAR","AZ","85338"
992567,"PO BOX 6196","OLYMPIA","WA","98507"
992568,"PO BOX 6197","KANEOHE","HI","96744"
992569,"PO BOX 61971","DURHAM","NC","27715"
992570,"PO BOX 6198","LA QUINTA","CA","92248"
992571,"PO BOX 62","AMANDA","OH","43102"
992572,"PO BOX 62","BERRYSBURG","PA","17005"
992573,"PO BOX 62","BROWNVILLE JCT","ME","04415"
992574,"PO BOX 62","BUFFALO","WV","25033"
992575,"PO BOX 62","DICKSON","TN","37055"
992576,"PO BOX 62","FALL ROCK","KY","40932"
992577,"PO BOX 62","FORT MYERS","FL","33902"
992578,"PO BOX 62","GREENFIELD","NH","03047"
992579,"PO BOX 62","GUTHRIE","KY","42234"
992580,"PO BOX 62","HAINES","AK","99827"
992581,"PO BOX 62","HOPE","NJ","07844"
992582,"PO BOX 62","ISHPEMING","MI","49849"
992583,"PO BOX 62","ISLAND","KY","42350"
992584,"PO BOX 62","JAKIN","GA","39861"
992585,"PO BOX 62","KERHONKSON","NY","12446"
992586,"PO BOX 62","LURAY","KS","67649"
992587,"PO BOX 62","NASELLE","WA","98638"
992588,"PO BOX 62","NEW VERNON","NJ","07976"
992589,"PO BOX 62","PRIOR LAKE","MN","55372"
992590,"PO BOX 62","PROSPECT","OR","97536"
992591,"PO BOX 62","RIPLEY","WV","25271"
992592,"PO BOX 62","ROSENBERG","TX","77471"
992593,"PO BOX 62","ROYAL CENTER","IN","46978"
992594,"PO BOX 62","ROYSE CITY","TX","75189"
992595,"PO BOX 62","SAVAGE","MT","59262"
992596,"PO BOX 62","SEARSPORT","ME","04974"
992597,"PO BOX 62","SHAKOPEE","MN","55379"
992598,"PO BOX 62","TAHOE CITY","CA","96145"
992599,"PO BOX 62","THEDFORD","NE","69166"
992600,"PO BOX 62","TUCKAHOE","NY","10707"
992601,"PO BOX 62","WARFIELD","KY","41267"
992602,"PO BOX 62","WARRENTON","GA","30828"
992603,"PO BOX 620","EUDORA","KS","66025"
992604,"PO BOX 620","JOSHUA","TX","76058"
992605,"PO BOX 620","MISSION","SD","57555"
992606,"PO BOX 620","MOUNT SUNAPEE","NH","03255"
992607,"PO BOX 620","RINGOES","NJ","08551"
992608,"PO BOX 620","WIMBERLEY","TX","78676"
992609,"PO BOX 620061","CHARLOTTE","NC","28262"
992610,"PO BOX 620061","LITTLETON","CO","80162"
992611,"PO BOX 620092","OVIEDO","FL","32762"
992612,"PO BOX 6201","ALAMEDA","CA","94501"
992613,"PO BOX 620170","WOODSIDE","CA","94062"
992614,"PO BOX 620171","OVIEDO","FL","32762"
992615,"PO BOX 62018","NORTH CHARLESTON","SC","29419"
992616,"PO BOX 6202","LEESBURG","VA","20178"
992617,"PO BOX 620214","MIDDLETON","WI","53562"
992618,"PO BOX 62023","HARRISBURG","PA","17106"
992619,"PO BOX 620251","LAS VEGAS","NV","89162"
992620,"PO BOX 620326","MIDDLETON","WI","53562"
992621,"PO BOX 620395","CHARLOTTE","NC","28262"
992622,"PO BOX 62043","FORT MYERS","FL","33906"
992623,"PO BOX 62046","SUNNYVALE","CA","94088"
992624,"PO BOX 620460","OVIEDO","FL","32762"
992625,"PO BOX 620495","MIDDLETON","WI","53562"
992626,"PO BOX 6205","NEW YORK","NY","10150"
992627,"PO BOX 62063","FORT MYERS","FL","33906"
992628,"PO BOX 620650","REDWOOD CITY","CA","94062"
992629,"PO BOX 62093","CINCINNATI","OH","45262"
992630,"PO BOX 621","BATH","ME","04530"
992631,"PO BOX 621","BRYSON CITY","NC","28713"
992632,"PO BOX 621","CHATTAROY","WA","99003"
992633,"PO BOX 621","COLLIERVILLE","TN","38027"
992634,"PO BOX 621","DAYTON","OH","45405"
992635,"PO BOX 621","ENFIELD","NC","27823"
992636,"PO BOX 621","HORN LAKE","MS","38637"
992637,"PO BOX 621","HORN LAKE","MS","38673"
992638,"PO BOX 621","JESSUP","MD","20794"
992639,"PO BOX 621","KIMBALL","MN","55353"
992640,"PO BOX 621","MILLBROOK","NY","12545"
992641,"PO BOX 621","ONEONTA","NY","13820"
992642,"PO BOX 621","PATEROS","WA","98846"
992643,"PO BOX 621","RAINELLE","WV","25962"
992644,"PO BOX 621","RINCON","PR","00677"
992645,"PO BOX 621","THAYNE","WY","83127"
992646,"PO BOX 621087","LITTLETON","CO","80162"
992647,"PO BOX 6211","SNOWMASS VILLAGE","CO","81615"
992648,"PO BOX 621123","OVIEDO","FL","32762"
992649,"PO BOX 62116","COLORADO SPRINGS","CO","80962"
992650,"PO BOX 621175","CHARLOTTE","NC","28269"
992651,"PO BOX 621264","CHARLOTTE","NC","28262"
992652,"PO BOX 62127","CINCINNATI","OH","45262"
992653,"PO BOX 62139","JACKSONVILLE","FL","32208"
992654,"PO BOX 621521","LAS VEGAS","NV","89162"
992655,"PO BOX 621568","CHARLOTTE","NC","28262"
992656,"PO BOX 6216","NAVARRE","FL","32566"
992657,"PO BOX 621616","CHARLOTTE","NC","28262"
992658,"PO BOX 621637","LAS VEGAS","NV","89162"
992659,"PO BOX 62171","VIRGINIA BEACH","VA","23466"
992660,"PO BOX 6218","HERSHEY","PA","17112"
992661,"PO BOX 6218","KANEOHE","HI","96744"
992662,"PO BOX 62181","HOUSTON","TX","77205"
992663,"PO BOX 6219","NORTH AUGUSTA","SC","29861"
992664,"PO BOX 622  116 NORTH WADE AVE","WASHINGTON","PA","15301"
992665,"PO BOX 622","BARRACKVILLE","WV","26559"
992666,"PO BOX 622","BIG LAKE","MN","55309"
992667,"PO BOX 622","BIG SANDY","TX","75755"
992668,"PO BOX 622","BONDVILLE","VT","05340"
992669,"PO BOX 622","BOULDER","MT","59632"
992670,"PO BOX 622","CALAIS","ME","04619"
992671,"PO BOX 622","CLAYMONT","DE","19703"
992672,"PO BOX 622","DUENWEG","MO","64801"
992673,"PO BOX 622","LEAVENWORTH","KS","66048"
992674,"PO BOX 622","LILBURN","GA","30048"
992675,"PO BOX 622","MACKINAC ISLAND","MI","49757"
992676,"PO BOX 622","MONTCLAIR","NJ","07042"
992677,"PO BOX 622","OXFORD","CT","06478"
992678,"PO BOX 622","POND CREEK","OK","73766"
992679,"PO BOX 622","POTEET","TX","78065"
992680,"PO BOX 622","REDMOND","OR","97838"
992681,"PO BOX 622","SAMSON","AL","36477"
992682,"PO BOX 622","SAXTONS RIVER","VT","05154"
992683,"PO BOX 622","ST STEPHEN",NA,NA
992684,"PO BOX 622","TRINIDAD","CA","95570"
992685,"PO BOX 622","VIENNA","VA","22183"
992686,"PO BOX 622","WAPPINGERS FALLS","NY","12590"
992687,"PO BOX 6221","BRYAN","TX","77805"
992688,"PO BOX 622248","OVIEDO","FL","32762"
992689,"PO BOX 6224","TRAVERSE CITY","MI","49696"
992690,"PO BOX 6225","CAGUAS","PR","00726"
992691,"PO BOX 6225","MCALLEN","TX","78502"
992692,"PO BOX 622621","OVIEDO","FL","32762"
992693,"PO BOX 62263","HUMBLE","TX","77205"
992694,"PO BOX 623","ARROYO HONDO","NM","87513"
992695,"PO BOX 623","CYPRESS","TX","77410"
992696,"PO BOX 623","DALEVILLE","VA","24083"
992697,"PO BOX 623","DAVIS","WV","26260"
992698,"PO BOX 623","EMERY","UT","84522"
992699,"PO BOX 623","EUREKA","CA","95502"
992700,"PO BOX 623","GALLIPOLIS","OH","45631"
992701,"PO BOX 623","HERLONG","CA","96113"
992702,"PO BOX 623","LAMAR","CO","81052"
992703,"PO BOX 623","LIVERPOOL","TX","77577"
992704,"PO BOX 623","LOPEZ","WA","98261"
992705,"PO BOX 623","NEW YORK","NY","10002"
992706,"PO BOX 623","ODESSA","FL","33556"
992707,"PO BOX 623","RIVESVILLE","WV","26588"
992708,"PO BOX 623","RUSSELL","KS","67665"
992709,"PO BOX 623","SMITHTON","PA","15479"
992710,"PO BOX 623","ST JOSEPH","MI","49085"
992711,"PO BOX 623","TAYLOR","AZ","85939"
992712,"PO BOX 62302","SAN ANGELO","TX","76906"
992713,"PO BOX 6234","CLEVELAND","OH","44101"
992714,"PO BOX 62345","TAMPA","FL","62345"
992715,"PO BOX 6236","RUTLAND","VT","05702"
992716,"PO BOX 624","EL PRADO","NM","87529"
992717,"PO BOX 624","FOREST","VA","24551"
992718,"PO BOX 624","GOLDTHWAITE","TX","76844"
992719,"PO BOX 624","GREENWOOD","IN","46142"
992720,"PO BOX 624","GROVER","NC","28073"
992721,"PO BOX 624","LAKE PARK","IA","51347"
992722,"PO BOX 624","LIVERMORE","KY","42352"
992723,"PO BOX 624","MONROE","ME","04951"
992724,"PO BOX 624","PAGO PAGO","AS","96799"
992725,"PO BOX 624","PORT ROYAL","SC","29935"
992726,"PO BOX 624","RENTON","WA","98057"
992727,"PO BOX 624","ROCKSPRINGS","TX","78880"
992728,"PO BOX 624","SANDHILL","MS","39161"
992729,"PO BOX 624","STERLINGTON","LA","71280"
992730,"PO BOX 624","WARRENTON","VA","20188"
992731,"PO BOX 624","WILLOW","AK","99688"
992732,"PO BOX 624","WILTON","CA","95693"
992733,"PO BOX 624","YERMO","CA","92398"
992734,"PO BOX 6242","BIG BEAR LAKE","CA","92315"
992735,"PO BOX 62443","IRVINE","CA","92602"
992736,"PO BOX 6245","EVANSTON","IL","60204"
992737,"PO BOX 625","AGUADA","PR","00602"
992738,"PO BOX 625","AMERICUS","GA","31719"
992739,"PO BOX 625","BONNERS FERRY","ID","83805"
992740,"PO BOX 625","BRECKENRIDGE","CO","80424"
992741,"PO BOX 625","CARRBORO","NC","27510"
992742,"PO BOX 625","CORDOVA","TN","38088"
992743,"PO BOX 625","DORRIS","CA","96023"
992744,"PO BOX 625","FRANKLIN","WV","26807"
992745,"PO BOX 625","HEALDSBURG","CA","95448"
992746,"PO BOX 625","HOWE","TX","75459"
992747,"PO BOX 625","INGRAM","TX","78025"
992748,"PO BOX 625","LEAVENWORTH","KS","66048"
992749,"PO BOX 625","LINCOLN","MT","59639"
992750,"PO BOX 625","MASTIC BEACH","NY","11951"
992751,"PO BOX 625","MOMUMENT BEACH","MA","02553"
992752,"PO BOX 625","OPHIR","CO","81426"
992753,"PO BOX 625","SAINT LOUIS","MO","63188"
992754,"PO BOX 625","SPLENDORA","TX","77372"
992755,"PO BOX 625","UNIONVILLE","NY","10988"
992756,"PO BOX 625","VIEQUES","PR","00765"
992757,"PO BOX 625","WINSTON SALEM","NC","27102"
992758,"PO BOX 625","WOLFEBORO FALLS","NH","03896"
992759,"PO BOX 6250","SHERWOOD","AR","72124"
992760,"PO BOX 6251","DOUGLASVILLE","GA","30154"
992761,"PO BOX 6251","WESTLAKE VILLAGE","CA","91359"
992762,"PO BOX 6252","VACAVILLE","CA","95696"
992763,"PO BOX 6253","ST LOUIS","MO","63106"
992764,"PO BOX 62533","LAFAYETTE","LA","70596"
992765,"PO BOX 6255","MORENO VALLEY","CA","92555"
992766,"PO BOX 6256","CHANDLER","AZ","85246"
992767,"PO BOX 62561","COLORADO SPRINGS","CO","80962"
992768,"PO BOX 6257","SYRACUSE","NY","13217"
992769,"PO BOX 626","BELLE PLAINE","KS","67013"
992770,"PO BOX 626","CIMARRON","NM","87714"
992771,"PO BOX 626","DECHERD","TN","37324"
992772,"PO BOX 626","GUALALA","CA","95445"
992773,"PO BOX 626","HOLT","FL","32564"
992774,"PO BOX 626","JOSEPHINE","TX","75164"
992775,"PO BOX 626","KNIGHTDALE","NC","27545"
992776,"PO BOX 626","MERCER","WI","54547"
992777,"PO BOX 626","MORONGO VALLEY","CA","92256"
992778,"PO BOX 626","ONLEY","VA","23418"
992779,"PO BOX 626","RAMSEY","NJ","07446"
992780,"PO BOX 626","REDWAY","CA","95560"
992781,"PO BOX 626","SABINAL","TX","78881"
992782,"PO BOX 626","SAINT LOUIS","MO","63188"
992783,"PO BOX 6267","OGDEN","UT","84402"
992784,"PO BOX 627","COLLINSVILLE","TX","76233"
992785,"PO BOX 627","DANVILLE","AR","72833"
992786,"PO BOX 627","GREEN MOUNTAIN FALLS","CO","80819"
992787,"PO BOX 627","INVERNESS","CA","94937"
992788,"PO BOX 627","JEFFERSON CITY","MO","65109"
992789,"PO BOX 627","KETCHUM","OK","74349"
992790,"PO BOX 627","PAOLI","PA","19301"
992791,"PO BOX 627","RAYMOND","WA","98577"
992792,"PO BOX 627","RUMSON","NJ","07760"
992793,"PO BOX 6271","NY","NY","10150"
992794,"PO BOX 6272","DIAMONDHEAD","MS","39525"
992795,"PO BOX 6274","CHARLESTON","WV","25362"
992796,"PO BOX 6274","PAGO PAGO","AS","96799"
992797,"PO BOX 6274","WILLIAMSBURG","VA","23188"
992798,"PO BOX 6275","EAGLE","CO","81631"
992799,"PO BOX 6275","SCOTTSDALE","AZ","85258"
992800,"PO BOX 628","BALM","FL","33503"
992801,"PO BOX 628","BRONX","NY","10457"
992802,"PO BOX 628","DECATUR","GA","30031"
992803,"PO BOX 628","MAGDALENA","NM","87825"
992804,"PO BOX 628","MATHEWS","VA","23109"
992805,"PO BOX 628","WELLSTON","OH","45692"
992806,"PO BOX 62802","SAN ANGELO","TX","76906"
992807,"PO BOX 62804","HOUSTON","TX","77205"
992808,"PO BOX 6283","YUMA","AZ","85366"
992809,"PO BOX 6283","YUMA","AZ","85367"
992810,"PO BOX 62853","VIRGINIA BEACH","VA","23466"
992811,"PO BOX 628551","MIDDLETON","WI","53562"
992812,"PO BOX 6286","GREENVILLE","SC","29606"
992813,"PO BOX 6287","KENNEWICK","WA","99336"
992814,"PO BOX 629","COMFORT","TX","78013"
992815,"PO BOX 629","KINGLAND","TX","78639"
992816,"PO BOX 629","KINGSLAND","TX","78639"
992817,"PO BOX 629","LOWER LAKE","CA","95457"
992818,"PO BOX 629","OAK GROVE","LA","71263"
992819,"PO BOX 629","PARKSTON","SD","57366"
992820,"PO BOX 629","ULYSSES","KS","67880"
992821,"PO BOX 6291","ANNAPOLIS","MD","21401"
992822,"PO BOX 6292","BAYAMON","PR","00960"
992823,"PO BOX 62961","EWA BEACH","HI","96706"
992824,"PO BOX 6298","CHRISTIANSTED","VI","00823"
992825,"PO BOX 63 / 103 JUSTAMERE LANE","FLAT ROCK","NC","28731"
992826,"PO BOX 63 104 EAST HIGH STREET","MAYTOWN","PA","17550"
992827,"PO BOX 63","ALVA","FL","33920"
992828,"PO BOX 63","ATCHISON","KS","66002"
992829,"PO BOX 63","BELLE PLAINE","IA","52208"
992830,"PO BOX 63","CLARKSVILLE","AR","72830"
992831,"PO BOX 63","CONYERS","GA","30012"
992832,"PO BOX 63","COTTONWOOD","MN","56229"
992833,"PO BOX 63","DUBUQUE","IA","52004"
992834,"PO BOX 63","GARFIELD","WA","99130"
992835,"PO BOX 63","GILBERTOWN","AL","36908"
992836,"PO BOX 63","GOWRIE","IA","50543"
992837,"PO BOX 63","HASTINGS","PA","16646"
992838,"PO BOX 63","HENRIETTA","NY","14467"
992839,"PO BOX 63","HERMISTON","OR","97838"
992840,"PO BOX 63","JOPPA","MD","21085"
992841,"PO BOX 63","LEWES","DE","19958"
992842,"PO BOX 63","MALDEN BRIDGE","NY","12115"
992843,"PO BOX 63","MCINTOSH","SD","57641"
992844,"PO BOX 63","MORO","OR","97039"
992845,"PO BOX 63","MULLAN","ID","83846"
992846,"PO BOX 63","NEWTON HAMILTON","PA","17075"
992847,"PO BOX 63","NEZPERCE","ID","83543"
992848,"PO BOX 63","OYSTERVILLE","WA","98641"
992849,"PO BOX 63","RICKETTS","IA","51460"
992850,"PO BOX 63","ROBERT LEE","TX",NA
992851,"PO BOX 63","ROCHESTER","VT","05767"
992852,"PO BOX 63","RUSHVILLE","IL","62681"
992853,"PO BOX 63","STEPHENVILLE","TX","76401"
992854,"PO BOX 63","TUOLUMNE","CA","95379"
992855,"PO BOX 63","VEGA","TX","79092"
992856,"PO BOX 63","WEST KILL","NY","12492"
992857,"PO BOX 63","WEST NYACK","NY","10914"
992858,"PO BOX 63","WHARTON","TX","77488"
992859,"PO BOX 630","CROWN POINT","IN","46308"
992860,"PO BOX 630","JAY","OK","74346"
992861,"PO BOX 630","JEFFERSON","TX","75657"
992862,"PO BOX 630","LITHONIA","GA","30058"
992863,"PO BOX 630044","LANAI CITY","HI","96763"
992864,"PO BOX 6301","KOKOMO","IN","46904"
992865,"PO BOX 6301","LYNCHBURG","VA","24505"
992866,"PO BOX 63015","EWA BEACH HI","HI","96706"
992867,"PO BOX 630151","IRVING","TX","75063"
992868,"PO BOX 6302","FREEHOLD","NJ","07728"
992869,"PO BOX 630231","LANAI CITY","HI","96763"
992870,"PO BOX 630242","LANAI CITY","HI","96763"
992871,"PO BOX 630316","ROCKVILLE","UT","84793"
992872,"PO BOX 630323","HIGHLANDS RANCH","CO","80163"
992873,"PO BOX 6305","KENT","WA","98030"
992874,"PO BOX 630511","HOUSTON","TX","77263"
992875,"PO BOX 630643","LANAI CITY","HI","96763"
992876,"PO BOX 630652","NACOGDOCHES","TX","75963"
992877,"PO BOX 630706","LANAI CITY","HI","96763"
992878,"PO BOX 630924","LITTLETON","CO","80163"
992879,"PO BOX 631","ATHENA","OR","97813"
992880,"PO BOX 631","CLAVERACK","NY","12513"
992881,"PO BOX 631","CLAY","WV","25043"
992882,"PO BOX 631","DEVILS LAKE","ND","58301"
992883,"PO BOX 631","EASTPOINTE","MI","48201"
992884,"PO BOX 631","GREEN MOUNTAIN FALLS","CO","80819"
992885,"PO BOX 631","KUNKLETOWN","PA","18058"
992886,"PO BOX 631","NEWARK","DE","19715"
992887,"PO BOX 631","RICHMOND","VT","05477"
992888,"PO BOX 631","ROBBINSVILLE","NC","28771"
992889,"PO BOX 631","WAVERLY HALL","GA","31831"
992890,"PO BOX 631","WINCHESTER","NH","03470"
992891,"PO BOX 631005","HIGHLANDS RANCH","CO","80163"
992892,"PO BOX 631033","LANAI","HI","96763"
992893,"PO BOX 631101","LANAI CITY","HI","96763"
992894,"PO BOX 631174","NACOGDOCHES","TX","75963"
992895,"PO BOX 6312","TORRANCE","CA","90504"
992896,"PO BOX 631222","LITTLETON","CO","80163"
992897,"PO BOX 631234","HOUSTON","TX","77263"
992898,"PO BOX 6313","HOBOKEN","NJ","07030"
992899,"PO BOX 6313","HOBOKEN","NJ",NA
992900,"PO BOX 631362","HOUSTON","TX","77263"
992901,"PO BOX 631375","LANAI CITY","HI","96763"
992902,"PO BOX 631392","LANAI CITY","HI","96763"
992903,"PO BOX 6314","VENTURA","CA","93006"
992904,"PO BOX 63142","N CHARLESTON","SC","29419"
992905,"PO BOX 631522","IRVING","TX","75063"
992906,"PO BOX 631534","HOUSTON","TX","77263"
992907,"PO BOX 631680","LANAI CITY","HI","96763"
992908,"PO BOX 631691","LANAICITY","HI","96763"
992909,"PO BOX 631884","LANAI CITY","HI","96763"
992910,"PO BOX 631894","HOUSTON","TX","77263"
992911,"PO BOX 632","BLOOMINGTON","IL","61702"
992912,"PO BOX 632","DAYTON","OR","97114"
992913,"PO BOX 632","DEWITT","AR","72042"
992914,"PO BOX 632","GARBERVILLE","CA","95542"
992915,"PO BOX 632","KNOXVILLE","IA","50138"
992916,"PO BOX 632","LONDON","OH","43140"
992917,"PO BOX 632","NOVATO","CA","94948"
992918,"PO BOX 632","PERRYSBURG","OH","43552"
992919,"PO BOX 632","QUILCENE","WA","98376"
992920,"PO BOX 632","SPRUCE PINE","NC","28777"
992921,"PO BOX 632","WILDROSE","ND","58795"
992922,"PO BOX 6321","AMERICUS","GA","31709"
992923,"PO BOX 63213","PHOENIX","AZ","85082"
992924,"PO BOX 632361","NACOGDOCHES","TX","75963"
992925,"PO BOX 6326","SITKA","AK","99835"
992926,"PO BOX 633","BERRY CREEK","CA","95916"
992927,"PO BOX 633","BLUE HILL","ME","04614"
992928,"PO BOX 633","FAIRPLAY","CO","80440"
992929,"PO BOX 633","FORSYTH","GA","31029"
992930,"PO BOX 633","HENDERSONVILLE","NC","28793"
992931,"PO BOX 633","HUNTSVILLE","TX","77342"
992932,"PO BOX 633","NORFOLK","VA","23501"
992933,"PO BOX 633","PALO CEDRO","CA","96073"
992934,"PO BOX 633","RIBERA","NM","87560"
992935,"PO BOX 633","WARRENTON","OR","97146"
992936,"PO BOX 633","WARSAW","VA","22572"
992937,"PO BOX 6331","ALBUQUERQUE","NM","87197"
992938,"PO BOX 6331","YUMA","AZ","85366"
992939,"PO BOX 63324","PIPE CREEK","TX","78063"
992940,"PO BOX 6333","SPRINGFIELD","MO","65801"
992941,"PO BOX 6334","WOODLAND HILLS","CA","91365"
992942,"PO BOX 63342","COLORADO SPRINGS","CO","80962"
992943,"PO BOX 6336","BELLEVUE","WA","98008"
992944,"PO BOX 634","ALTA","CA","95701"
992945,"PO BOX 634","BRADFORD","VT","05033"
992946,"PO BOX 634","CANAL WINCHESTER","OH","43110"
992947,"PO BOX 634","CHRISTIANSTED","VI","00821"
992948,"PO BOX 634","COLFAX","WA","99111"
992949,"PO BOX 634","DALHART","TX","79022"
992950,"PO BOX 634","EDINBURG","TX","78540"
992951,"PO BOX 634","HONOLULU","HI","96809"
992952,"PO BOX 634","ITALY","TX","76651"
992953,"PO BOX 634","LITTLE FALLS","NY","13365"
992954,"PO BOX 634","MCLEAN","VA","22101"
992955,"PO BOX 634","MEXICO","NY","13114"
992956,"PO BOX 634","NEWPORT","OR","97365"
992957,"PO BOX 634","REDDICK","FL","32686"
992958,"PO BOX 634","STANDISH","ME","04084"
992959,"PO BOX 634","SUNSET BEACH","CA","90742"
992960,"PO BOX 634","TULSA","OK","74101"
992961,"PO BOX 63415","PIPE CREEK","TX","78063"
992962,"PO BOX 6345","HICKORY","NC","28603"
992963,"PO BOX 63464","COLORADO SPRINGS","CO","80962"
992964,"PO BOX 6348","NORFOLK","VA","23508"
992965,"PO BOX 635","BRIDGTON","ME","04009"
992966,"PO BOX 635","CHARLOTTE","TX","78011"
992967,"PO BOX 635","CHOTEAU","MT","59422"
992968,"PO BOX 635","FULTON","MD","20759"
992969,"PO BOX 635","LINCOLN","MA","01773"
992970,"PO BOX 635","LIVINGSTON","GA","35470"
992971,"PO BOX 635","NEWBERN","VA","24126"
992972,"PO BOX 635","NORWAY","ME","04268"
992973,"PO BOX 635","ONALASKA","WA","98570"
992974,"PO BOX 635","ORANGE SPRINGS","FL","32182"
992975,"PO BOX 635","OXFORD","NE","68967"
992976,"PO BOX 635","PALM SPRINGS","CA","92263"
992977,"PO BOX 635","PARKER","SD","57053"
992978,"PO BOX 635","POINT REYES STA","CA","94956"
992979,"PO BOX 635","SOUTH BEND","WA","98586"
992980,"PO BOX 6351","CHATTANOOGA","TN","37401"
992981,"PO BOX 63525","PIPE CREEK","TX","78063"
992982,"PO BOX 6353","HENDERSONVILLE","NC","28793"
992983,"PO BOX 6354","WASHINGTON","DC","20029"
992984,"PO BOX 636","AGUILA","AZ","85320"
992985,"PO BOX 636","ASHLAND","KS","67831"
992986,"PO BOX 636","BETHEL","ME","04217"
992987,"PO BOX 636","CARLTON","OR","97111"
992988,"PO BOX 636","CHALLIS","ID","83226"
992989,"PO BOX 636","EATONTOWN","NJ","07724"
992990,"PO BOX 636","GILLETTE","WY","82717"
992991,"PO BOX 636","GLENPOOL","OK","74033"
992992,"PO BOX 636","KINGSHILL","VI","00851"
992993,"PO BOX 636","NEEDVILLE","TX","77461"
992994,"PO BOX 636","NINE MILE FALLS","WA","99026"
992995,"PO BOX 636","OCCOQUAN","VA","22125"
992996,"PO BOX 636","PAGO PAGO","AS","96799"
992997,"PO BOX 636","STATE CENTER","IA","50247"
992998,"PO BOX 636","TEKOA","WA","99033"
992999,"PO BOX 636","TETON VILLAGE","WY","83025"
993000,"PO BOX 6361","CHINA","ME","04926"
