"ID","Address","City","State","Zip"
197501,"150 N BEACON ST","HARTFORD","CT","06105"
197502,"150 N BEAUDRY AVE","LOS ANGELES","CA","90012"
197503,"150 N BEDFORD RD","CHAPPAQUA","NY","10514"
197504,"150 N BENNETT STREET","SOUTHERN PINES","NC","28387"
197505,"150 N BERENDO STREET - APT 405","LOS ANGELES","CA","90004"
197506,"150 N BROADWAY ST","FALLON","NM","89406"
197507,"150 N CENTER ST","TORREY","UT","84775"
197508,"150 N COFFMAN ST APT 216","ANAHEIM","CA","92805"
197509,"150 N COLLEGE ST STE 2800","CHARLOTTE","NC","28202"
197510,"150 N COUNTY ROAD 3","FORT COLLINS","CO","80524"
197511,"150 N CRANDON AVE","NILES","OH","44446"
197512,"150 N DURANGO DRIVE STE 190","LAS VEGAS","NV","89145"
197513,"150 N HARVEST CREST COURT","HIGHLAND","IL","62249"
197514,"150 N HOLMES BLVD","ST AUGUSTINE","FL","32080"
197515,"150 N HOLMES BLVD","ST AUGUSTINE","FL","32084"
197516,"150 N LAKEVIEW BLVD NO 25","CHANDLER","AZ","85225"
197517,"150 N LAS VEGAS BLVD","LAS VEGAS","NV","89101"
197518,"150 N MAIN ST","SYCAMORE","IL","60178"
197519,"150 N MARKET ST","WICHITA","KS","67202"
197520,"150 N MICHIGAN AVE STE 1000","CHICAGO","IL","60601"
197521,"150 N MICHIGAN AVE STE 2800","CHICAGO","IL","60601"
197522,"150 N MICHIGAN AVE SUITE 2800","CHICAGO","IL","60601"
197523,"150 N MICHIGAN AVE","CHICAGO","IL","60601"
197524,"150 N OAKRIDGE DR","HUDSON OAKS","TX","76087"
197525,"150 N RADNOR CHESTER RD STE F200","RADNOR","PA","19087"
197526,"150 N RESEARCH CAMPUS DRIVE","KANNAPOLIS","NC","28021"
197527,"150 N RIVER CIR UNIT 106","OCEANSIDE","CA","92057"
197528,"150 N RIVER ST","NEWCOMERSTOWN","OH","43832"
197529,"150 N RIVERSIDE PLZ STE 1800","CHICAGO","IL","60606"
197530,"150 N ROBERTSON BLVD SUITE 210","BEVERLY HILLS","CA","90211"
197531,"150 N SPRING BLVD","TARPON SPRINGS","FL","34689"
197532,"150 N UNIVERSITY ST","WEST LAFAYETTE","IN","47907"
197533,"150 N WACKER DRIVE SUITE 1400","CHICAGO","IL","60606"
197534,"150 N WALLIS AVE","GILLETT","WI","54124"
197535,"150 NASSAU ST APT 4G","NEW YORK","NY","10038"
197536,"150 NASSAU STREET 12B","NEW YORK","NY","10038"
197537,"150 NATIVE TRACE","NICHOLASVILLE","KY","40356"
197538,"150 NAUBUC AVE","GLASTONBURY","CT","06033"
197539,"150 NE 17TH CT","BOYNTON BEACH","FL","33435"
197540,"150 NE 70TH ST","MIAMI","FL","33138"
197541,"150 NE 95TH STREET","SEATTLE","WA","98115"
197542,"150 NEBO RD","CHAMPION","PA","15622"
197543,"150 NEVADA AVENUE","PALO ALTO","CA","94301"
197544,"150 NEW HAW CREEK RD","ASHEVILLE","NC","28805"
197545,"150 NEW STREET","HELLERTOWN","PA","18055"
197546,"150 NEWELL AVE EXT","ST CLAIRSVILLE","OH","43950"
197547,"150 NIGHTHAWK LANE","MADISON LAKE","MN","56063"
197548,"150 NOAH LANE","TOLLAND","CT","06084"
197549,"150 NORTH AVENUE","TALLMADGE","OH","44278"
197550,"150 NORTH BLUFF","ALPHARETTA","GA","30004"
197551,"150 NORTH BROADWAY APT 28","LINDENHURST","NY","11757"
197552,"150 NORTH CHICAGO STREET","JOLIET","IL","60432"
197553,"150 NORTH CREST BLVD","MACON","GA","31210"
197554,"150 NORTH D","FREMONT","NE","68025"
197555,"150 NORTH FULTON STREET","AUBURN","NY","13021"
197556,"150 NORTH GALT AVE","LOUISVILLE","KY","40206"
197557,"150 NORTH GREENFIELD ROAD","PORTER CORNERS","NY","12859"
197558,"150 NORTH MAGNOLIA AVENUE","MONROVIA","CA","91016"
197559,"150 NORTH MAIN STREET","SHAVERTOWN","PA","18708"
197560,"150 NORTH MICHIGAN AVE-28TH FLOOR","CHICAGO","IL","60601"
197561,"150 NORTH MICHIGAN AVE","CHICAGO","IL","60601"
197562,"150 NORTH MIDWAY ST","CAMPBELL","CA","95008"
197563,"150 NORTH NICHOLAS STREET","SAINT CLAIR","PA","17970"
197564,"150 NORTH UNION","MANCHESTER","MI","48158"
197565,"150 NORTHLAND RIDGE TRAIL NE","SANDY SPRINGS","GA","30342"
197566,"150 NORTHPARK PLAZA DR APT 719","KINGWOOD","TX","77339"
197567,"150 NORTHPARK PLAZA DR STE 615","KINGWOOD","TX","77339"
197568,"150 NORTHPARK PLAZA DRIVE APT 8310","KINGWOOD","TX","77339"
197569,"150 NOTH HURON SHORE DRIVE","HARRISVILLE","MI","48740"
197570,"150 NW 49TH STREET","MIAMI","FL","33127"
197571,"150 OAK ROAD","DURANGO","CO","81303"
197572,"150 OAK STREET","PITTSTON","PA","18640"
197573,"150 OAK STREET","YONKERS","NY","10701"
197574,"150 OAKLAND AVE STE 233","ROCK HILL","SC","29730"
197575,"150 OAKLEIGH DRIVE","BATESVILLE","MS","38606"
197576,"150 OAKWOOD DR","DENHAM SPRINGS","LA","70726"
197577,"150 OCEAN AVE 2A","BROOKLYN","NY","11225"
197578,"150 OHIO ST","APOLLO","PA","15613"
197579,"150 OLD CANOY LANE","LEESBURG","GA","31763"
197580,"150 OLD MEADOW DRIVE","DRACUT","MA","01816"
197581,"150 OLD MEADOW DRIVE","DRACUT","MA","01826"
197582,"150 OLD MILL DR","LOCUST GROVE","GA","30248"
197583,"150 OLD MOUNTAIN ROAD","NORTHWOOD","NH","03261"
197584,"150 OLD POST ROAD","WAPPINGERS FALLS","NY","12590"
197585,"150 ONIX DRIVE","KENNETT SQUARE","PA","19348"
197586,"150 ORANGE AVE 415","ORLANDO","FL","32801"
197587,"150 ORANGE AVENUE","CORONADO","CA","92118"
197588,"150 ORIOLE AVE","INDIANA","PA","15701"
197589,"150 ORIOLE","NOVATO","CA","94949"
197590,"150 ORVIN LANCE CONNECTOR","BLUE RIDGE","GA","30513"
197591,"150 OSIGIAN BLVD SUITE 300","WARNER ROBINS","GA","31088"
197592,"150 OUACHITA 212","CAMDEN","AR","71701"
197593,"150 OVERLOOK AVE APT 7N","PEEKSKILL","NY","10566"
197594,"150 PALM AVENUE","AUBURN","CA","95603"
197595,"150 PALM VALLEY BLVD APT 1125","SAN JOSE","CA","95123"
197596,"150 PALM VALLEY BLVD SUITE 2193","SAN JOSE","CA","95123"
197597,"150 PALM","VENICE","FL","34292"
197598,"150 PAMELA DRIVE","WINTHROP","ME","04364"
197599,"150 PARDEE AVENUE","JAMESTOWN","NY","14701"
197600,"150 PARISH LANE 717","ROANOKE","TX","76262"
197601,"150 PARISH LANE APT 218","ROANOKE","TX","76262"
197602,"150 PARK CIRCLE DR APT F72","FLOWOOD","MS","39232"
197603,"150 PARKDALE AVENUE","BUFFALO","NY","14213"
197604,"150 PARKLANE DR","LAGRANGE","OH","44050"
197605,"150 PASCACK RD","PARK RIDGE","NJ","07656"
197606,"150 PAYNE ST","SAN DIEGO","CA","92113"
197607,"150 PEARL ROAD","BRUNSWCIK","OH","44212"
197608,"150 PEARL ROAD","BRUNSWICK","OH","44212"
197609,"150 PECAN DR","GRIFFIN","GA",NA
197610,"150 PECAN LN","GRIFFIN","GA","30223"
197611,"150 PEMBERTON WAY","AUSTIN","TX","78737"
197612,"150 PEMBERWICK ROAD","GREENWICH","CT","06831"
197613,"150 PENCOYD AVENUE","BALA CYNWYD","PA","19004"
197614,"150 PENN AVE","BUCYRUS","OH","44820"
197615,"150 PEYTON PL  3408","ATLANTA","GA","30311"
197616,"150 PEYTON PL","ATLANTA","GA","30311"
197617,"150 PICKETT CREEK RD","TOXEY","AL","36921"
197618,"150 PIEDMONT CIRCLE","COVINGTON","GA","30016"
197619,"150 PIERCE STREET","SOMERSET","NJ","08873"
197620,"150 PILLSBURY DR","MINNEAPOLIS","MN","55455"
197621,"150 PIN OAK PLACE","MCSHERRYSTOWN","PA","17344"
197622,"150 PINE LOOP","GREENEVILLE","TN","37744"
197623,"150 PINE STREET","LAKEWOOD","NJ","08701"
197624,"150 PINEBROOK RD","PADUCAH","KY","42001"
197625,"150 PLEASANT VIEW CR","JASPER","TN","37347"
197626,"150 PLEASANTON DR","OTEGO","NY","13825"
197627,"150 PLENTYWOOD WAY","MOREHEAD","KY","40351"
197628,"150 POFF RD   A","PATALASKA","OH","43062"
197629,"150 POMPTON PLAINS ROAD","WAYNE","NJ","07474"
197630,"150 PONDEROSA WAY","EAGLE POINT","OR","97524"
197631,"150 PORTER RD","ASHEILLE","NC","28803"
197632,"150 PORTO MARINO DRIVE","TIBURON","CA","94920"
197633,"150 PORTOLA DRIVE 202","SAN FRANCISCO","CA","94131"
197634,"150 POST OFFICE ROAD PMB 767","WALDORF","MD","20602"
197635,"150 POWDER MILL ROAD","MORRIS PLAINS","NJ","07950"
197636,"150 PR 864","ROCHELLE","TX","76872"
197637,"150 PRESTIGE DR","ROYAL PLAM BEACH","FL","33411"
197638,"150 PRESTON AVE","LEXINGTON","KY","40502"
197639,"150 PRIVATE ROAD 864","ROCHELLE","TX","76872"
197640,"150 PROMPTON ROAD","HONESDALE","PA","18431"
197641,"150 PRUITT DRIVE","ALPHARETTA","GA","30004"
197642,"150 PRYOR RD","NEWINGTON","GA","30446"
197643,"150 PUBLIC SQUARE","LEBANON","TN","37087"
197644,"150 PURCHASE STREET SUITE 9","RYE","NY","10580"
197645,"150 PUTNAM AVE","FREEPORT","NY","11520"
197646,"150 Q ST NE","WASHINGTON","DC","20002"
197647,"150 Q STREET NE  APT 1417","WASHINGTON","DC","20002"
197648,"150 Q STREET NE","WASHINGTON","DC","20002"
197649,"150 QUARRY STREET APT 114","QUINCY","MA","02169"
197650,"150 QUINCY AVE UNIT 5B","QUINCY","MA","02169"
197651,"150 RANSOM AVE","LEXINGTON","KY","40507"
197652,"150 RASPBERRY WAY","MADISON","AL","35757"
197653,"150 RAVELOE CT","LEAVITTSBURG","OH","44430"
197654,"150 RAVEN PATH DR","MOUNTAIN REST","SC","29664"
197655,"150 RAVENHEAD DRIVE","HOUSTON","TX","77034"
197656,"150 RAVINE AVENUE APT 3D","YONKERS","NY","10701"
197657,"150 RAWLS LN","GRAND JUNCTION","TN","38039"
197658,"150 RED OAK DR","FAYETTEVILLE","GA","30214"
197659,"150 RES OAK LANE","DRY PRONG","LA","71423"
197660,"150 RESERVE DRIVE","COVINGTON","GA","30014"
197661,"150 REVOLUTIONARY WAR WAY","MYRTLE BEACH","SC","29579"
197662,"150 RICE ST","SAN FRANCISCO","CA","94112"
197663,"150 RIDGE PIKE APT 302X","LAFAYETTE HILLS","PA","19444"
197664,"150 RIDGE RD","PENNSYLVANIA FURNACE","PA","16865"
197665,"150 RIDGE ST","RENO","NV","89501"
197666,"150 RIDGELINE WAY","LEXINGTON","VA","24450"
197667,"150 RIDGEWOOD AVE","SAN FRANCISCO","CA","94112"
197668,"150 RIMFIRE LANE","HAVANA","FL","32333"
197669,"150 RIOPELLE ST  UNIT 106","DETROIT","MI","48207"
197670,"150 RIVEROAK DR","FAYETTEVILLE","GA","30215"
197671,"150 RIVERS EDGE DR APT 287","MEDFORD","MA","02155"
197672,"150 RIVERS EDGE DR APT 433","MEDFORD","MA","02155"
197673,"150 RIVERS EDGE DRIVE","MEDFORD","MA","02155"
197674,"150 RIVERVIEW","PORT EWEN","NY","12466"
197675,"150 RIVERWIND DRIVE","HENDERSONVILLE","NC","28739"
197676,"150 ROLLING HILLS DR","CARMEL","IN","46032"
197677,"150 RONALD REAGAN DRIVE","PARKERSBURG","WV","26101"
197678,"150 ROOK ROAD","GOLDSBORO","NC","27530"
197679,"150 ROSE HILL TRAIL","SANFORD","FL","32773"
197680,"150 ROSEBOWER CHURCH ROAD","PADUCAH","KY","42003"
197681,"150 ROUND LAKE DR","ROSENBERG","TX","77469"
197682,"150 ROUNSEVILLE AVE","SOMERSET","MA","02726"
197683,"150 ROYAL PINE DRIVE","WARRENVILLE","SC","29851"
197684,"150 ROYALSTON ROAD","FITZWILLIAM","NH","03447"
197685,"150 RUSTIC RIDGE ROAD","FREDERICKSBURG","VA","22405"
197686,"150 S 12TH ST","PHOENIX","AZ","85034"
197687,"150 S 13TH STREET","SAINT HELENS","OR","97051"
197688,"150 S 34TH ST","BOULDER","CO","80305"
197689,"150 S 3RD AVE W","HARTLEY","IA","51346"
197690,"150 S 700 E","PRICE","UT","84501"
197691,"150 S ARROYO PARKWAY SUITE 102","PASADENA","CA","91105"
197692,"150 S CIELO AVE","WILLCOX","AZ","85643"
197693,"150 S COLUMBIA 70","WALDO","AR","71770"
197694,"150 S COURTLAND 306","ARROYO GRANDE","CA","93420"
197695,"150 S CRYSTAL LAKES DRIVE UNIT 45","ST GEORGE","UT","84770"
197696,"150 S EAST STREET SUITE 103","FREDERICK","MD","21701"
197697,"150 S GLENDORA AVE","GLENDORA","CA","91741"
197698,"150 S HIGHLANDER WAY","HOWELL","MI","48843"
197699,"150 S HIGHWAY 160  APT 305","PAHRUMP","NV","89048"
197700,"150 S HWY 160 SUITE 118 PMB","PAHRUMP","NV","89048"
197701,"150 S INTEROCEAN","HOLYOKE","CO","80734"
197702,"150 S LAKEVIEW DR","TERRE HAUTE","IN","47803"
197703,"150 S MCKINLEY ST","CASPER","WY","82601"
197704,"150 S MINNEQUA AVE","CANTON","PA","17724"
197705,"150 S PINE ISLAND RD SUITE 312","FORT LAUDERDALE","FL","33324"
197706,"150 S QUINCE ST","YAMHILL","OR","97148"
197707,"150 S SAN JOSE DR","YUMA","AZ","85364"
197708,"150 S THIRD STREET","LOUISVILLE","KY","40202"
197709,"150 S WARNER ROAD SUITE 402","KING OF PRUSSIA","PA","19406"
197710,"150 SABINE ST APT 431","HOUSTON","TX","77007"
197711,"150 SABINE STREET APT 314","HOUSTON","TX","77007"
197712,"150 SADDLEBROOK DRIVE","SENOIA","GA","30276"
197713,"150 SAFFORD DRIVE","PINEHURST","NC","28374"
197714,"150 SAGRATTI ST","EDGERTON","MN","56128"
197715,"150 SAINT JOSEPH STREET","MOBILE","AL","36602"
197716,"150 SAN ANTONIO","AVERY","TX","75554"
197717,"150 SAN LUIS WAY","NOVATO","CA","94945"
197718,"150 SANDLIN ROAD PO BOX 155","ALEXANDRIA","TN","37012"
197719,"150 SANTA MONICA","ROYAL PALM BEACH","FL","33411"
197720,"150 SARAH ELIZABETH DR","CLARKSVILLE","TN","37042"
197721,"150 SAWNEY DRIVE","GLASGOW","MT","59230"
197722,"150 SCENIC VIEW DRIVE","CAVE CITY","KY","42127"
197723,"150 SCHOOL HOUSE ROAD","NICHOLSON","PA","18446"
197724,"150 SCHROYERS LANE","CARMICHAELS","PA","15320"
197725,"150 SCOTLAND ROAD","SOUTH ORANGE","NJ","07079"
197726,"150 SCRANTON CONNECTOR","BRUNSWICK","GA","31525"
197727,"150 SE 25TH RD  SUITE 5M","MIAMI","FL","33129"
197728,"150 SE 25TH RD APT 5G","MIAMI","FL","33129"
197729,"150 SE 25TH RD APT 6G","MIAMI","FL","33129"
197730,"150 SE 25TH RD STE 7A","MIAMI","FL","33129"
197731,"150 SE 2ND AVE PH6","MIAMI","FL","31130"
197732,"150 SE 2ND AVENUE SUITE 300","MIAMI","FL","33131"
197733,"150 SE 3RD AVE APT 516","MIAMI","FL","33131"
197734,"150 SE 3RD AVENUE APT 202","MIAMI","FL","33131"
197735,"150 SE 6TH ROAD","HOMESTEAD","FL","33030"
197736,"150 SE FOUR WINDS DR B208","STUART","FL","34996"
197737,"150 SE GATEWAY DR","GRIMES","IA","50111"
197738,"150 SEA POINT DRIVE","PITTSBURG","CA","94565"
197739,"150 SEA POINT WAY","PITTSBURG","CA","94565"
197740,"150 SEASONS CIRCLE APT 4","FLETCHER","NC","28732"
197741,"150 SECOND AVENUE","BROWNSVILLE","PA","15417"
197742,"150 SECTOR CENTRAL","SAN JUAN","PR","00979"
197743,"150 SENECA TRAIL","BLOOMINGDALE","IL","60108"
197744,"150 SHADY LANE","DAYTON","NV","89403"
197745,"150 SHAKER HILL ROAD","HENNIKER","NH","03242"
197746,"150 SHANE WAY","NEWPORT","TN","37821"
197747,"150 SHEAR HILL RD","MAHOPAC","NY","10541"
197748,"150 SHELL BEACH RD","PIERRE PART","LA","70339"
197749,"150 SHINGLE HILL RD","WEST HAVEN","CT","06516"
197750,"150 SHOFFNERS LOOP","BURLINGTON","NC","27217"
197751,"150 SHORELINE HWY SUITE B28","MILL VALLEY","CA","94941"
197752,"150 SHREVE STREET","MOUNT HOLLY","NJ","08060"
197753,"150 SIGNAL HILL RD","TWISP","WA","98856"
197754,"150 SILO RIDGE LANE","VILAS","NC","28692"
197755,"150 SILVERBROOK","ST. CHARLES","MO","63301"
197756,"150 SITTON SHOALS ROAD","SENECA","SC","29678"
197757,"150 SIX MILE ROAD","COMSTOCK PARK","MI","49321"
197758,"150 SKYLINE DRIVE","KERSEY","PA","15846"
197759,"150 SOUTH 5TH STREET STE 1200","MINNEAPOLIS","MN","55402"
197760,"150 SOUTH AVE","SYRACUSE","NY","13204"
197761,"150 SOUTH DRIVE","BUTLER","PA","16001"
197762,"150 SOUTH FRONT STREET STE 200","COLUMBUS","OH","43215"
197763,"150 SOUTH GLENOAKS BLVD SUITE 9","BURBANK","CA","91502"
197764,"150 SOUTH HICKORY STREET","MOUNT CARMEL","PA","17851"
197765,"150 SOUTH LANIER ROAD","MIDWAY","FL","32333"
197766,"150 SOUTH MAIN STREET","BOONSBORO","MD","21713"
197767,"150 SOUTH MAIN STREET","VALE","OR","97918"
197768,"150 SOUTH PINE ISLAND SUITE 300","PLANTATION","FL","33324"
197769,"150 SOUTH ROAD SUITE 101 CB3302","CHAPEL HILL","NC","27599"
197770,"150 SOUTH SPRING STREET","BLAIRSVILLE","PA","15717"
197771,"150 SOUTH STAEBLER RD TRLR 887","ANN ARBOR","MI","48103"
197772,"150 SOUTHERN AVE","KITTANNING","PA","16201"
197773,"150 SOUTHWOOD LANE","ROCHESTER","NY","14618"
197774,"150 SOWERS DR","HACKETTSTOWN","NJ","07840"
197775,"150 SPANISH TRAIL UNIT A","HAMPTON","VA","23669"
197776,"150 SPINNAKER RIDGE DR APT D216","HUNTSVILLE","AL","35824"
197777,"150 SPRING DRIVE","ROSWELL","GA","30075"
197778,"150 SPRINGDALE DR","SPINDALE","NC","28160"
197779,"150 SQUARE LANE","SHANNON","NC","28386"
197780,"150 ST PAULS BLVD  7TH FLOOR","NORFOLK","VA","23510"
197781,"150 STANIFORD STREET APT 709","BOSTON","MA","02114"
197782,"150 STATE STREET","ALBANY","NY","12207"
197783,"150 STERLING DR","FRANKLIN","NH","03235"
197784,"150 STIMSON ST","DETROIT","MI","48201"
197785,"150 STOBE AVENUE","STATEN ISLAND","NY","10306"
197786,"150 STRIKER ROAD","FREEPORT","PA","16229"
197787,"150 SUNNYDALE ROAD","TRUMBULL","CT","06611"
197788,"150 SUNNYFIELD DR","BLOUNTVILLE","TN","37617"
197789,"150 SUNOL ST","SAN JOSE","CA","95126"
197790,"150 SURREY LANE","YORK","PA","17402"
197791,"150 SW 10TH STREET","MIAMI","FL","33130"
197792,"150 SW 12TH AVENUE","POMPANO BEACH","FL","33069"
197793,"150 SW HARRISON ST SUITE 200","PORTLAND","OR","97201"
197794,"150 SW ROBIN RD","LEES SUMMIT","MO","64063"
197795,"150 SWEED RD","NEWARK","NY","14513"
197796,"150 SWEET BAY TRAIL","PETAL","MS","39465"
197797,"150 SWEET GUM DRIVE","ATHENS","GA","30605"
197798,"150 SYCAMORE AVE","NORTH PLAINFIELD","NJ","07060"
197799,"150 TAHUYEA DR W","BREMERTON","WA","98312"
197800,"150 THEODOR LANE","SONOMA","CA","95476"
197801,"150 THIRD AVE SOUTH SUITE 2800","NASHVILLE","TN","37201"
197802,"150 THORNBUSH ROAD","MANSFIELD","CT","06250"
197803,"150 THRUSHWOOD DRIVE","FAYETTEVILLE","GA","30215"
197804,"150 TIFFANY ESTATE DRIVE","ELM GROVE","LA","71051"
197805,"150 TIMMS MILL ROAD","PENDLETON","SC","29670"
197806,"150 TORREY KNOLL STE 12","MANCHESTER CENTER","VT","05255"
197807,"150 TOWNE HOUSE RD","HAMDEN","CT","06514"
197808,"150 TRANQUILITY LANE","HARMONY","NC","28634"
197809,"150 TRELAWNEY DR","COVINGTON","GA","30016"
197810,"150 TROY SCHENECTADY RD APT 1K","WATERVLIET","NY","12189"
197811,"150 TRYON AVE SUITE B16","ENGLEWOOD","NJ","07631"
197812,"150 TURKEY STREET","NORTH BERWICK","ME","03906"
197813,"150 TURNER LANE","PAIGE","TX","78659"
197814,"150 UNION RIDGE LANE","BLOOMINGTON SPRINGS","TN","38545"
197815,"150 UNION ROAD 171","EL DORADO","AR","71730"
197816,"150 V ST NW APT V209","WASHINGTON","DC","20001"
197817,"150 VALLEY SPRINGS RD","ASHEVILLE","NC","28803"
197818,"150 VALLEY ST UNIT 1046","PASADENA","CA","91105"
197819,"150 VALLEY STREET","PASADENA","CA","91105"
197820,"150 VALLEYVIEW DR","LITTLESTOWN","PA","17340"
197821,"150 VAN NESS AVE 1124","SAN FRANCISCO","CA","94102"
197822,"150 VAN NESS AVE APT 922","SAN FRANCISCO","CA","94102"
197823,"150 VERMILYEA AVE APT 33","NEW YORK","NY","10034"
197824,"150 VERONA DR","LAFAYETTE","LA","70507"
197825,"150 VERONA DRIVE","LAFAYETTE","LA","70507"
197826,"150 VICTOR ST","HIGHLAND PARK","MI","48203"
197827,"150 VICTORIA PLACE","MADISON","MS","39110"
197828,"150 VICTORY BLVD","STATEN ISLAND","NY","10301"
197829,"150 VIGILANTE","GWINN","MI","49841"
197830,"150 VILLA ALEGRE STREET","SANTA FE","NM","87501"
197831,"150 VILLA COURT","TROUTVILLE","VA","24175"
197832,"150 VILLA DI ESTE TER UNIT 104","LAKE MARY","FL","32746"
197833,"150 VINCENT ROAD","GUEYDAN","LA","70542"
197834,"150 VISTA DEL MAR","SHELL BEACH","CA","93449"
197835,"150 VISTA DRIVE","MOORE","SC","29369"
197836,"150 W 130TH ST - SUITE 4","NEW YORK","NY","10027"
197837,"150 W 1450 N","PROVO","UT","84604"
197838,"150 W 15TH STREET","GRAFTON","ND","58237"
197839,"150 W 225TH STREET APT 19H","BRONX","NY","10463"
197840,"150 W 225TH STREET","BRONX","NY","10463"
197841,"150 W 3RD AVENUE","DENVER","CO","80223"
197842,"150 W 56TH ST","NEW YORK","NY","10019"
197843,"150 W 62ND ST STE 7-123","NEW YORK","NY","10023"
197844,"150 W 62ND ST SUITE 8-137","NEW YORK","NY","10023"
197845,"150 W 92 HWY","KEARNEY","MO","64060"
197846,"150 W 9TH AVE UNIT 1311","DENVER","CO","80204"
197847,"150 W 9TH AVE UNIT 1511","AURORA","CO","80204"
197848,"150 W 9TH AVE UNIT 1511","DENVER","CO","80204"
197849,"150 W 9TH AVE UNIT1511","DENVER","CO","80204"
197850,"150 W CENTENNIAL","MEDFORD","NJ","08055"
197851,"150 W CLARKE STREET","MANCHESTER","NH","03104"
197852,"150 W COURT ST","HASTINGS","MI","49058"
197853,"150 W CR 1075 N","LIZTION","IN","46149"
197854,"150 W CR 1075 N","LIZTON","IN","46149"
197855,"150 W DUMPLIN VALLEY RD","JEFFERSON CITY","TN","37760"
197856,"150 W EDITH AVE UNIT 18","LOS ALTOS","CA","94022"
197857,"150 W FLAGLER STREET STE 2200","MIAMI","FL","33130"
197858,"150 W FRIENDSHIP ST","MEDINA","OH","44256"
197859,"150 W GARFIELD","TRURO","ID","50257"
197860,"150 W JEFFERSON STE 100","DETROIT","MI","48226"
197861,"150 W JEFFERSON SUITE 100","DETROIT","MI","48226"
197862,"150 W JEFFERSON SUITE","DETROIT","MI","48226"
197863,"150 W JEFFERSON","JOLIET","IL","60432"
197864,"150 W MAPLE","CHICAGO","IL","60610"
197865,"150 W MARKET ST 1","YORK","PA","17401"
197866,"150 W PIKE ST APT 401","TROY","AL","36081"
197867,"150 W RIDGEWOOD AVENUE","RIDGEWOOD","NJ","07450"
197868,"150 W SAM NOUSTON PKWY UNIT 1205","HOUSTON","TX","77024"
197869,"150 W SEMINOLE DRIVE","PHOENIX","AZ","85023"
197870,"150 W THOMPSON LANE O-103","MURFREESBORO","TN","37129"
197871,"150 W THOMPSON STREET","BOGART","GA","30622"
197872,"150 W UNIVERSITY BLVD","MELBOURNE","FL","32901"
197873,"150 W WASHINGTON","JOLIET","IL","60432"
197874,"150 W WINDSOR AVENUE","LOMBARD","IL","60148"
197875,"150 W WINTER ST","DELAWARE","OH","43015"
197876,"150 WAGON FORD RD","BEULAVILLE","NC","28518"
197877,"150 WALKING STICK WAY","PELZER","SC","29669"
197878,"150 WALNUT STREET","ARDEN","NC","28704"
197879,"150 WALNUT STREET","HOUMA","LA","70364"
197880,"150 WALNUT","FRANKFORT","IL","60423"
197881,"150 WARANKA RD","ROSBURG","WA","98643"
197882,"150 WARD HILL ROAD","PHILLIPSTON","MA","01331"
197883,"150 WARREN AVE","KENMORE","NY","14217"
197884,"150 WARREN STREET","NEEDHAM","MA","02492"
197885,"150 WARRINGTON ST","WELLSVILLE","PA","17365"
197886,"150 WASHINGTON LANE","ALABASTER","AL","35007"
197887,"150 WASHINGTON ST APT 3M","HEMPSTEAD","NY","11550"
197888,"150 WASHINGTON ST","ARLINGTON","MA","02474"
197889,"150 WASHINGTON STREET APT 3M","HEMPSTEAD","NY","11550"
197890,"150 WASHINGTON STREET","NEWTON","MA","02458"
197891,"150 WATERSON AVENUE APT 2","QUINCY","MA","02170"
197892,"150 WATERSTRADT COMMERCE DR","DUNDEE","MI","48131"
197893,"150 WEBSTER DR","WAYNE","NJ","07470"
197894,"150 WELDON PARKWAY","ST LOUIS","MO","63043"
197895,"150 WEST 140TH ST APT 5C","NEW YORK","NY","10030"
197896,"150 WEST 225TH STREET 5H","BRONX","NY","10456"
197897,"150 WEST 47TH ST","NEW YORK","NY","10036"
197898,"150 WEST 50TH STREET APT 3711","NEW YORK","NY","10019"
197899,"150 WEST 55TH STREET 6E","NEW YORK","NY","10019"
197900,"150 WEST 55TH STREET APT PHSE","NEW YORK","NY","10019"
197901,"150 WEST 56 STREET","NEW YORK","NY","10019"
197902,"150 WEST 58TH ST","NEW YORK","NY","10019"
197903,"150 WEST 5TH ST","BENSON","AZ","85602"
197904,"150 WEST 6TH STREET","SOUTH BOSTON","MA","02127"
197905,"150 WEST 75TH STREET","NEW YORK","NY","10023"
197906,"150 WEST 79TH ST","NEW","NY","10024"
197907,"150 WEST 88TH PL","CUT OFF","LA","70345"
197908,"150 WEST 95TH STREET 4C","NEW YORK","NY","10025"
197909,"150 WEST 9TH AVENUE UNIT 2412","DENVER","CO","80204"
197910,"150 WEST ABBOTTSFORD AVENUE","PHILADELPHIA","PA","19144"
197911,"150 WEST BAYVIEW BLVD","NORFOLK","VA","23503"
197912,"150 WEST CLAIBORNE ROAD APT 104","NORTH EAST","MD","21901"
197913,"150 WEST CYPRESS AVE SUITE D","BURBANK","CA","91502"
197914,"150 WEST EDITH AVENUE - APT 22","LOS ALTOS","CA","94022"
197915,"150 WEST END AVE 20K","NEW YORK","NY","10023"
197916,"150 WEST END AVENUE 20K","NEW YORK","NY","10023"
197917,"150 WEST END AVENUE 20K","NEW YORK","NY","12203"
197918,"150 WEST FLAGLER ST SUITE 1675","MIAMI","FL","33130"
197919,"150 WEST JUANITA AVENUE","GILBERT","AZ","85233"
197920,"150 WEST MAIN STREET SUITE 1700","NORFOLK","VA","23510"
197921,"150 WEST MAIN STREET SUITE 2100","NORFOLK","VA","23510"
197922,"150 WEST MAPLE","CHICAGO","IL","60610"
197923,"150 WEST MARKET STREET SUITE 400","INDIANAPOLIS","IN","46204"
197924,"150 WEST SICKLE STREET","KENNETT SQUARE","PA","19348"
197925,"150 WEST THOMPSON LN APT O303","MURFREESBORO","TN","37129"
197926,"150 WEST WINTER STREET","DELAWARE","OH","43015"
197927,"150 WESTBOURNE DRIVE","TYRONE","GA","30290"
197928,"150 WESTLAND DRIVE","PITTSBURGH","PA","15217"
197929,"150 WESTSIDE WAY","FAYETTEVILLE","GA","30214"
197930,"150 WEYBRIDGE STREET","MIDDLEBURY","VT","05753"
197931,"150 WIGGINS LANE","UNIONTOWN","PA","15401"
197932,"150 WILDER DRIVE","FORSYTH","GA","31029"
197933,"150 WILDER RIDGE","CHAPEL HILL","NC","27517"
197934,"150 WILLOW SPRINGS RD","TEN MILE","TN","37880"
197935,"150 WILSON AVE","LYONS","GA","30436"
197936,"150 WINCHESTER PVT","FLORA","MS","39071"
197937,"150 WINDERMERE CIRCLE","YOUNGSVILLE","LA","70592"
197938,"150 WINDING CREEK DRIVE","PAWLEYS ISLAND","SC","29585"
197939,"150 WINDSOR RD","NORTH LIBERTY","IA","52317"
197940,"150 WOOD VALLEY DR","WOODLAND PARK","CO","80863"
197941,"150 WOODLAND SPRINGS DR","GRAMBLING","LA","71245"
197942,"150 WOODMONT","EADS","TN","38208"
197943,"150 WOODSIDE DRIVE","FREELAND","PA","18224"
197944,"150 WRENN DRIVE BOX 609","CARY","NC","27511"
197945,"150 YMCA DRIVE","MADISONVILLE","KY","42431"
197946,"150 YOST AVE","PARK RIDGE","IL","60068"
197947,"150-09 SHORE AVE","JAMAICA","NY","11433"
197948,"150-10 JEWEL AVE APT 51A","FLUSHING","NY","11367"
197949,"150-11 72ND APT 13 A","KEW GARDEN HILLS","NY","11367"
197950,"150-19 16TH RD","WHITESTONE","NY","11357"
197951,"150-19 41ST AVE","FLUSHING","NY","11354"
197952,"150-22 119TH AV","JAMAIACA","NY","11434"
197953,"150-22 119TH AV","JAMAICA","NY","11434"
197954,"150-24 118TH AVENUE","JAMAICA","NY","11434"
197955,"150-24 60TH AVENUE 2ND FL","FLUSHING","NY","11355"
197956,"150-25 61ST RD","FLUSHING","NY","11367"
197957,"150-26 MELBOURNE AVE","FLUSHING","NY","11367"
197958,"150-27  58 ROAD","FLUSHING","NY","11355"
197959,"150-29 114TH ROAD","JAMAICA","NY","11434"
197960,"150-29 HORACE HARDING","FLUSHING","NY","11367"
197961,"150-31 99TH PLACE","OZONE PARK","NY","11417"
197962,"150-32 115TH DRIVE","JAMAICA","NY","11434"
197963,"150-35 114 PLACE","SOUTH OZONE PARK","NY","11420"
197964,"150-35 YATES RD","QUEENS","NJ","11433"
197965,"150-35 YATES ROAD","JAMAICA","NY","11433"
197966,"150-36 20TH ROAD","WHITESTONE","NY","11357"
197967,"150-37 12TH ROAD","WHITESTONE","NY","11357"
197968,"150-37 YATES ROAD 1ST FL","JAMAICA","NY","11433"
197969,"150-38 UNION TURNPIKE APT 10A","FLUSHING","NY","11367"
197970,"150-40 122ND AVENUE","JAMAICA","NY","11434"
197971,"150-40 73RD AVE APT 2G","FLUSHING","NY","11367"
197972,"150-48 75TH AVE  APT 1C","FLUSHING","NY","11367"
197973,"150-48 8TH AVE","FLUSHING","NY","11357"
197974,"150-5 BLOW FLATS RD","WILLIAMSBURG","VA","23185"
197975,"150-62 87 AVENUE","JAMAICA","NY","11432"
197976,"150-74 116TH AVENUE","JAMAICA","NY","11434"
197977,"150-78 116TH  DRIVE","JAMAICA","NY","11434"
197978,"150-8635 SOMERSET BOULEVARD","PARAMOUNT","CA","90723"
197979,"150-91 116 DRIVE","JAMAICA","NY","11434"
197980,"150-A MOHEGAN DRIVE","HAVRE DE GRACE","MD","21078"
197981,"150","CLARKSVILLE","TN","37042"
197982,"150","COLONIA","NJ","07067"
197983,"150","GORDON","KY","41819"
197984,"1500 1/2 MAIN STREET","OAK HILL","WV","25901"
197985,"1500 12TH ST","LOS OSOS","CA","93402"
197986,"1500 12TH STREET","CAYCE","SC","29033"
197987,"1500 13TH ST SW","DICKINSON","ND","58601"
197988,"1500 15TH ST","HOXIE","KS","67740"
197989,"1500 16TH ST APT 307","SAN FRANCISCO","CA","94103"
197990,"1500 16TH ST NW","WASHINGTON","DC","20036"
197991,"1500 16TH STREET NW","NEW BRIGHTON","MN","55112"
197992,"1500 186TH LANE","LONG BEACH","WA","98631"
197993,"1500 1ST AVE NE NUMBER 210","ROCHESTER","MN","55906"
197994,"1500 1ST AVENUE APARTMENT 3B","NEW YORK","NY","10075"
197995,"1500 1ST AVENUE NORTH 91","BIRMINGHAM","AL","35203"
197996,"1500 1ST STREET","NEPTUNE BEACH","FL","32266"
197997,"1500 207TH AVENUE NE","SAMMAMISH","WA","98074"
197998,"1500 23RD ST","MENOMINEE","MI","49858"
197999,"1500 2ND AVENUE SOUTH","NASHVILLE","TN","37210"
198000,"1500 2ND ST NW","KASSON","MN","55955"
