"ID","Address","City","State","Zip"
976501,"PO BOX 189063","SACRAMENTO","CA","95818"
976502,"PO BOX 1891","CASTLE ROCK","WA","98611"
976503,"PO BOX 1891","LIVINGSTON","TX","77351"
976504,"PO BOX 1891","MASON","TX","76856"
976505,"PO BOX 1891","ROUND ROCK","TX","78680"
976506,"PO BOX 1891","WILMINGTON","DE","19899"
976507,"PO BOX 1892","ANTIOCH","TN","37011"
976508,"PO BOX 1892","CLUTE","TX","77531"
976509,"PO BOX 1892","EL GRANADA","CA","94018"
976510,"PO BOX 1892","GRASS VALLEY","CA","95945"
976511,"PO BOX 1892","KINSTON","NC","28503"
976512,"PO BOX 1892","LOUISVILLE","KY","40201"
976513,"PO BOX 18921","ASHEVILLE","NC","28804"
976514,"PO BOX 189222","SACRAMENTO","CA","95818"
976515,"PO BOX 1893","FRASIER PARK","CA","93225"
976516,"PO BOX 1893","PAHOA","HI","96778"
976517,"PO BOX 1894","KIHEI","HI","96753"
976518,"PO BOX 1894","KINDER","LA","70648"
976519,"PO BOX 1894","LOWELL","AR","72745"
976520,"PO BOX 1894","MOUNT PLEASANT","TX","75456"
976521,"PO BOX 1894","SOQUEL","CA","95073"
976522,"PO BOX 189411","SACRAMENTO","CA","95818"
976523,"PO BOX 1895","HOLLYWOOD","CA","90078"
976524,"PO BOX 1896","GILBERT","AZ","85299"
976525,"PO BOX 1896","HIGH SPRINGS","FL","32655"
976526,"PO BOX 1896","LAFAYETTE","CA","94549"
976527,"PO BOX 1896","WESTMINSTER","MD","21158"
976528,"PO BOX 18965","SUGAR LAND","TX","77496"
976529,"PO BOX 18966","PHILADELPHIA","PA","19116"
976530,"PO BOX 1897","AUBURN","ME","04211"
976531,"PO BOX 1897","AVON PARK","FL","33826"
976532,"PO BOX 1897","WHITEFISH","MT","59937"
976533,"PO BOX 1898","KALAMA","WA","98625"
976534,"PO BOX 18989","DENVER","CO","80218"
976535,"PO BOX 1899","ARVADA","CO","80001"
976536,"PO Box 19","BROHMAN","MI","49312"
976537,"PO BOX 19","Brohman","MI","49312"
976538,"PO BOX 19","BUFFALO","MO","65622"
976539,"PO BOX 19","CLENDENIN","WV","25045"
976540,"PO BOX 19","CLEVELAND","MO","64734"
976541,"PO BOX 19","COLLINS","NY","14034"
976542,"PO BOX 19","DARLINGTON","SC","29540"
976543,"PO BOX 19","FORT THOMPSON","SD","57339"
976544,"PO BOX 19","JAY","OK","74346"
976545,"PO BOX 19","KAILUA KONA","HI","96745"
976546,"PO BOX 19","LABADIE","MO","63055"
976547,"PO BOX 19","LONG BEACH","NJ","08008"
976548,"PO BOX 19","NAPLES","ID","83847"
976549,"PO BOX 19","NEW EGYPT","NJ","08533"
976550,"PO BOX 19","TEMPLE","NH","03084"
976551,"PO BOX 19","TROY","KS","66087"
976552,"PO BOX 190","ALACHUA","FL","32616"
976553,"PO BOX 190","AMSTERDAM","NY","12010"
976554,"PO BOX 190","BERLIN","MA","01503"
976555,"PO BOX 190","BETHEL","AK","99559"
976556,"PO BOX 190","DISNEY","OK","74340"
976557,"PO BOX 190","FULTON","TX","78358"
976558,"PO BOX 190","GREENVILLE","VA","24440"
976559,"PO BOX 190","HAIKU","HI","96708"
976560,"PO BOX 190","NORRIS","TN","37828"
976561,"PO BOX 190","PALM SPRINGS","CA","92263"
976562,"PO BOX 190","POCONO PINES","PA","18350"
976563,"PO BOX 190","ROLLINSFORD","NH","03869"
976564,"PO BOX 190","SIOUX RAPIDS","IA","50585"
976565,"PO BOX 190","UNIONVILLE","NY","10988"
976566,"PO BOX 190","YACHATS","OR","97498"
976567,"PO BOX 19000","CLOVIS","NM","88102"
976568,"PO BOX 190038","MOBILE","AL","36619"
976569,"PO BOX 190063","LAUDERHILL","FL","33319"
976570,"PO BOX 1901","ARLINGTON","TX","76004"
976571,"PO BOX 1901","DAHLONEGA","GA","30533"
976572,"PO BOX 1901","DENTON","TX","76202"
976573,"PO BOX 1901","GAYLORD","MI","49734"
976574,"PO BOX 1901","GRAND JUNCTION","CO","81502"
976575,"PO BOX 1901","HONOLULU","HI","96805"
976576,"PO BOX 1901","LAURENS","SC","29630"
976577,"PO BOX 1901","LOS ALAMITOS","CA","90720"
976578,"PO BOX 1901","SEMINOLE","OK","74818"
976579,"PO BOX 1901","WALDPORT","OR","97394"
976580,"PO BOX 190111","BRIAN HEAD","UT","84719"
976581,"PO BOX 190135","SAN ANTONIO","TX","78220"
976582,"PO BOX 190154","DALLAS","TX","75219"
976583,"PO BOX 1902","BONNERS FERRY","ID","83805"
976584,"PO BOX 1902","BRADENTON","FL","34206"
976585,"PO BOX 1902","CUPERTINO","CA","95015"
976586,"PO BOX 1902","CUPERTINO, CA","CA","95015"
976587,"PO BOX 1902","EVANSTON","WY","82931"
976588,"PO BOX 1902","HARTSVILLE","SC","29550"
976589,"PO BOX 1902","KILMARNOCK","VA","22482"
976590,"PO BOX 1902","MATTHEWS","NC","28106"
976591,"PO BOX 1902","MORGAN HILL","CA","95038"
976592,"PO BOX 190221","BRIAN HEAD","UT","84719"
976593,"PO BOX 190226","SAINT LOUIS","MO","63119"
976594,"PO BOX 190258","BOISE","ID","83719"
976595,"PO BOX 190291","DALLAS","TX","75219"
976596,"PO BOX 1903","BANGOR","ME","04401"
976597,"PO BOX 1903","MONT BELVIEU","TX","77580"
976598,"PO BOX 19032","OAKLAND","CA","94619"
976599,"PO BOX 190345","BIRMINGHAM","AL","35219"
976600,"PO BOX 19039","ATLANTA","GA","31126"
976601,"PO BOX 190396","MOBILE","AL","36619"
976602,"PO BOX 1904","BONNERS FERRY","ID","83805"
976603,"PO BOX 1904","HONOKAA","HI","96727"
976604,"PO BOX 190434","BOISE","ID","83719"
976605,"PO BOX 1905","METAIRIE","LA","70004"
976606,"PO BOX 1905","MOUNT AIRY","NC","27030"
976607,"PO BOX 1905","WALLER","TX","77484"
976608,"PO BOX 190546","BURTON","MI","48519"
976609,"PO BOX 19056","DETROIT","MI","48219"
976610,"PO BOX 1906","BETHLEHEM","PA","18016"
976611,"PO BOX 1906","CAPE GIRARDEAU","MO","63701"
976612,"PO BOX 1906","RICHMOND","CA","94802"
976613,"PO BOX 190613","HAWI","HI","96719"
976614,"PO BOX 19062","SOUTH LAKE TAHOE","CA","96151"
976615,"PO BOX 190632","NASHVILLE","TN","37219"
976616,"PO BOX 190646","HUNGRY HORSE","MT","59919"
976617,"PO BOX 190655","HAWI","HI","96719"
976618,"PO BOX 1907","BERLIN","MD","21811"
976619,"PO BOX 1907","MILL VALLEY","CA","94942"
976620,"PO BOX 1907","VALDEZ","AK","99686"
976621,"PO BOX 19070","LAS VEGAS","NV","89132"
976622,"PO BOX 1908","BUFFALO","NY","14225"
976623,"PO BOX 1908","MEDIA","PA","19063"
976624,"PO BOX 1908","SEDONA","AZ","86339"
976625,"PO BOX 1908","UKIAH","CA","95482"
976626,"PO BOX 190828","ARLINGTON","TX","76019"
976627,"PO BOX 19085","CHICAGO","IL","60619"
976628,"PO BOX 19091","MINNEAPOLIS","MI","55419"
976629,"PO BOX 19091","MINNEAPOLIS","MN","55419"
976630,"PO BOX 191   101 PERRY STREET","UNION","IA","50258"
976631,"PO BOX 191","ARTESIA","NM","88211"
976632,"PO BOX 191","CENTRE HALL","PA","16828"
976633,"PO BOX 191","CERRO","NM","87519"
976634,"PO BOX 191","COAL CREEK","CO","81221"
976635,"PO BOX 191","GLENWOOD SPRINGS","CO","81602"
976636,"PO BOX 191","GRAND MARAIS","MI","49839"
976637,"PO BOX 191","HAMPTON","SC","29924"
976638,"PO BOX 191","HEBRON","NH","03241"
976639,"PO BOX 191","HOUCK","AZ","86506"
976640,"PO BOX 191","JACKSBORO","TX","76458"
976641,"PO BOX 191","JAMESTOWN","CA","95327"
976642,"PO BOX 191","KIMBALL","SD","57355"
976643,"PO BOX 191","LEES SUMMIT","MO","64063"
976644,"PO BOX 191","LITCHFIELD","ME","04350"
976645,"PO BOX 191","MELBOURNE","AR","72556"
976646,"PO BOX 191","MIZPAH","NJ","08342"
976647,"PO BOX 191","MONTAUK","NY","11954"
976648,"PO BOX 191","PARLIN","NJ","08859"
976649,"PO BOX 191","PARMELEE","SD","57566"
976650,"PO BOX 191","PIPERSVILLE","PA","18947"
976651,"PO BOX 191","PLAINFIELD","PA","17081"
976652,"PO BOX 191","PRAIRIE CITY","IA","50228"
976653,"PO BOX 191","ROCKY MOUNT","VA","24151"
976654,"PO BOX 191","RULEVILLE","MS","38771"
976655,"PO BOX 191","STRATFORD","IA","50249"
976656,"PO BOX 191","WALLA WALLA","WA","99362"
976657,"PO BOX 191","WILSON","WY","83014"
976658,"PO BOX 1910","OAKDALE","CA","95361"
976659,"PO BOX 19102","SHREVEPORT","LA","71149"
976660,"PO BOX 191029","BROOKLYN","NY","11219"
976661,"PO BOX 19104","CLEVELAND","OH","44119"
976662,"PO BOX 19105","TOWSON","MD","21286"
976663,"PO BOX 191081","ST. LOUIS","MO","63119"
976664,"PO BOX 1911","ANGIER","NC","27501"
976665,"PO BOX 1911","BRANSON","MO","65615"
976666,"PO BOX 1911","GRANBURY","TX","76048"
976667,"PO BOX 1911","NEW PORT RICHIE","FL","34656"
976668,"PO BOX 1911","RICHLAND","WA","99352"
976669,"PO BOX 19111","PANAMA CITY BEACH","FL","32411"
976670,"PO BOX 191132","LOS ANGELES","CA","90019"
976671,"PO BOX 1912","CHEROKEE","NC","28719"
976672,"PO BOX 1912","FLAGSTAFF","AZ","86002"
976673,"PO BOX 1912","FORT LEE","NJ","07024"
976674,"PO BOX 1912","HILLSBORO","OR","97123"
976675,"PO BOX 1912","TRACY","CA","95378"
976676,"PO BOX 1912","WINDERMERE","FL","34786"
976677,"PO BOX 1913","KAILUA","HI","96734"
976678,"PO BOX 1913","NAPLES","FL","34106"
976679,"PO BOX 19130","HONOLULU","HI","96817"
976680,"PO BOX 191372","ATLANTA","GA","31119"
976681,"PO BOX 1914","BATTLER GROUND","WA","98604"
976682,"PO BOX 1914","GALLATIN","TN","37066"
976683,"PO BOX 1914","GRAND JUNCTION","CO","81502"
976684,"PO BOX 1914","LAKE ARROWHEAD","CA","92352"
976685,"PO BOX 1914","SNOQUALMIE","WA","98065"
976686,"PO BOX 1914","TELLURIDE","CO","81435"
976687,"PO BOX 19142","JONESBORO","AR","72403"
976688,"PO BOX 191445","SAN DIEGO","CA","92159"
976689,"PO BOX 191476","LOS ANGELES","CA","90019"
976690,"PO BOX 1915","WEAVERVILLE","CA","96093"
976691,"PO BOX 19156","ST. LOUIS","MO","63118"
976692,"PO BOX 1916","KAPAA","HI","96746"
976693,"PO BOX 1916","KINGSHILL","VI","00851"
976694,"PO BOX 1916","SILVER CITY","NM","88062"
976695,"PO BOX 1916","SUMTER","SC","29151"
976696,"PO BOX 191606","SAN JUAN","PR","00919"
976697,"PO BOX 1917","LAKESIDE","AZ","85929"
976698,"PO BOX 191726","SAN FRANCISCO","CA","94119"
976699,"PO BOX 19173","CINCINNATI","OH","45219"
976700,"PO BOX 19176","ATLANTA","GA","31126"
976701,"PO BOX 1918","PALATKA","FL","32178"
976702,"PO BOX 19184","PANAMA CITY BEACH","FL","32417"
976703,"PO BOX 191901","DALLAS","TX","75219"
976704,"PO BOX 191972","ROXBURY","MA","02119"
976705,"PO BOX 192","ABILENE","TX","79604"
976706,"PO BOX 192","AGUA DULCE","TX","78330"
976707,"PO BOX 192","ALBERTON","MT","59820"
976708,"PO BOX 192","BALTIC","OH","43804"
976709,"PO BOX 192","BANNING","CA","92220"
976710,"PO BOX 192","CATAULA","GA","31804"
976711,"PO BOX 192","DUCKTOWN","TN","37326"
976712,"PO BOX 192","EARTH","TX","79031"
976713,"PO BOX 192","EUSTIS","NE","69028"
976714,"PO BOX 192","GORDON","TX","76453"
976715,"PO BOX 192","LA LUZ","NM","88337"
976716,"PO BOX 192","MEDIAPOLIS","IA","52637"
976717,"PO BOX 192","MILFORD","IA","51351"
976718,"PO BOX 192","MOKELUMNE HILL","CA","95245"
976719,"PO BOX 192","NEW LONDON","MN","56273"
976720,"PO BOX 192","ORO GRANDE","CA","92368"
976721,"PO BOX 192","PARKERSBURG","WV","26101"
976722,"PO BOX 192","PRINCETON","IN","47670"
976723,"PO BOX 192","RED FEATHER LAKES","CO","80545"
976724,"PO BOX 192","ROMNEY","WV","26757"
976725,"PO BOX 192","SHIRO","TX","77876"
976726,"PO BOX 192","THEDFORD","NE","69166"
976727,"PO BOX 192","UTOPIA","TX","78884"
976728,"PO BOX 192","WEST COLUMBIA","TX","77486"
976729,"PO BOX 192","WILBERFORCE","OH","45384"
976730,"PO BOX 1920","CARLIN","NV","89822"
976731,"PO BOX 1920","CONWAY","AR","72034"
976732,"PO BOX 1920","DILLON","SC","29536"
976733,"PO BOX 1920","WILLISTON","ND","58802"
976734,"PO BOX 192048","SACRAMENO","CA","95819"
976735,"PO BOX 1921","AIBONITO","PR","00705"
976736,"PO BOX 1921","FAYETTEVILLE","GA","30215"
976737,"PO BOX 1921","LUMBERTON","NC","28359"
976738,"PO BOX 1921","SUMTER","SC","29150"
976739,"PO BOX 192112","DALLAS","TX","75219"
976740,"PO BOX 19216","ST LOUIS","MO","63118"
976741,"PO BOX 1922","CRESCENT CITY","CA","95531"
976742,"PO BOX 1922","OVERGAARD","AZ","85933"
976743,"PO BOX 19228","CINCINNATI","OH","45219"
976744,"PO BOX 1923","ANDREWS","TX","79714"
976745,"PO BOX 1923","HIGHLANDS","NC","28741"
976746,"PO BOX 1923","PORT ORCHARD","WA","98366"
976747,"PO BOX 1923","ROCK SPRINGS","WY","82902"
976748,"PO BOX 1923","WYLIE","TX","75098"
976749,"PO BOX 19233","PORTLAND","OR","97280"
976750,"PO BOX 1924","BETHEL","ME","04271"
976751,"PO BOX 1924","EASTON","MD","21601"
976752,"PO BOX 1924","EDMONDS","WA","98020"
976753,"PO BOX 1924","FREDERIKSTED","VI","00841"
976754,"PO BOX 1924","NOME","AK","99762"
976755,"PO BOX 19244","B","MD","21213"
976756,"PO BOX 19246","PANAMA CITY BEACH","FL","32417"
976757,"PO BOX 192490","SAN FRANCISCO","CA","94119"
976758,"PO BOX 1925","SISTERS","OR","97759"
976759,"PO BOX 1925","SPRINGTOWN","TX","76082"
976760,"PO BOX 1925","ST FRANCISVILLE","LA","70775"
976761,"PO BOX 1925","WAKEFIELD","MA","01880"
976762,"PO BOX 1926","EDWARDS","CO","81632"
976763,"PO BOX 1926","FREDERICK","MD","21702"
976764,"PO BOX 1926","OVERGAARD","AZ","85933"
976765,"PO BOX 1926","WILMINGTON","DE","19899"
976766,"PO BOX 1927","BROOKINGS","OR","97415"
976767,"PO BOX 19274","SHREVEPORT","LA","71149"
976768,"PO BOX 1928","ALLEN","TX","75013"
976769,"PO BOX 1928","WIMBERLEY","TX","78676"
976770,"PO BOX 1929","AMES","IA","50010"
976771,"PO BOX 19293","JONESBORO","AR","72403"
976772,"PO BOX 19293","THORNE BAY","AK","99919"
976773,"PO BOX 193 3245 MAIN ST 235","FRISCO","TX","75034"
976774,"PO BOX 193","APPLETON","WI","54912"
976775,"PO BOX 193","BLESSING","TX","77419"
976776,"PO BOX 193","COUNCE","TN","38326"
976777,"PO BOX 193","DAYVILLE","OR","97825"
976778,"PO BOX 193","ECTOR","TX","75439"
976779,"PO BOX 193","GAINESVILLE","MO","65655"
976780,"PO BOX 193","HOLMAN","WI","54636"
976781,"PO BOX 193","HOUSATONIC","MA","01236"
976782,"PO BOX 193","LAMPETER","PA","17537"
976783,"PO BOX 193","LAYTONVILLE","CA","95454"
976784,"PO BOX 193","LEMING","TX","78050"
976785,"PO BOX 193","LINTON","ND","58552"
976786,"PO BOX 193","MANLIUS","IL","61338"
976787,"PO BOX 193","NEW GRETNA","NJ","08224"
976788,"PO BOX 193","PETERSBURG","IL","47567"
976789,"PO BOX 193","SANTA","ID","83866"
976790,"PO BOX 193","SHABBONA","IL","60550"
976791,"PO BOX 193","SIERRA CITY","CA","96125"
976792,"PO BOX 193","SPOFFORD","NH","03462"
976793,"PO BOX 193","SPRINGFIELD CENTER","NY","13468"
976794,"PO BOX 193","ST JOHN","WA","99171"
976795,"PO BOX 193","VIRGINIA CITY","MT","59755"
976796,"PO BOX 193","WILDWOOD","MO","63040"
976797,"PO BOX 1930","GREELEY","CO","80632"
976798,"PO BOX 1930","ISABELLA","PR","00662"
976799,"PO BOX 19301","DETROIT","MI","48219"
976800,"PO BOX 1931","HIGLEY","AZ","85236"
976801,"PO BOX 1931","LAS VEGAS","NV","89125"
976802,"PO BOX 19316","ARLINGTON","TX","76016"
976803,"PO BOX 19316","ARLINGTON","TX","76019"
976804,"PO BOX 1932","RUNNING SPRINGS","CA","92382"
976805,"PO BOX 1933","KINGS MOUNTAIN","NC","28086"
976806,"PO BOX 1933","LA MESA","CA","91941"
976807,"PO BOX 1933","LEMON GROVE","CA","91946"
976808,"PO BOX 193341","SAN FRANCISCO","CA","94119"
976809,"PO BOX 1934","CASPER","WY","82602"
976810,"PO BOX 1934","LOS GATOS","CA","95031"
976811,"PO BOX 19345","CINCINNATI","OH","45219"
976812,"PO BOX 19349","THORNE BAY","AK","99919"
976813,"PO BOX 193491","LITTLE ROCK","AR","72212"
976814,"PO BOX 1935","EDWARDS","CO","81632"
976815,"PO BOX 1935","NEWNAN","GA","30263"
976816,"PO BOX 1935","PRINEVILLE","OR","97754"
976817,"PO BOX 19358","CINCINNATI","OH","45219"
976818,"PO BOX 1937","BEVERLY HILLS","CA","90213"
976819,"PO BOX 1937","PELL CITY","AL","35125"
976820,"PO BOX 1938","WAILUKU","HI","96793"
976821,"PO BOX 19381","COLORADO CITY","CO","81019"
976822,"PO BOX 19388","CLEVELAND","OH","44119"
976823,"PO BOX 19390","LAS VEGAS","NV","89132"
976824,"PO BOX 194","ASHFIELD","MA","01330"
976825,"PO BOX 194","AVON LAKE","OH","44012"
976826,"PO BOX 194","CARBONADO","WA","98323"
976827,"PO BOX 194","CASCO","ME","04015"
976828,"PO BOX 194","CEDAR HILL","TX","75106"
976829,"PO BOX 194","CHAPPELL HILL","TX","77426"
976830,"PO BOX 194","ELKTON","KY","42220"
976831,"PO BOX 194","FLAT ROCK","MI","48134"
976832,"PO BOX 194","FLAT ROCK","MI",NA
976833,"PO BOX 194","FLOMATON","AL","36441"
976834,"PO BOX 194","FORT RECOVERY","OH","45846"
976835,"PO BOX 194","FOXWORTH","MS","39483"
976836,"PO BOX 194","GERMANTOWN","MD","20874"
976837,"PO BOX 194","GREEN MOUNTAIN FALLS","CO","80819"
976838,"PO BOX 194","GROVELAND","MA","01834"
976839,"PO BOX 194","HALL","MT","59837"
976840,"PO BOX 194","HERMOSA","SD","57744"
976841,"PO BOX 194","HIGGANUM","CT","06441"
976842,"PO BOX 194","HILLSDALE","NY","12529"
976843,"PO BOX 194","JUNTURA","OR","97911"
976844,"PO BOX 194","LA VETA","CO","81055"
976845,"PO BOX 194","LEXINGTON","MS","39095"
976846,"PO BOX 194","MARENGO","OH","43334"
976847,"PO BOX 194","PRAIRIEVILLE","LA","70769"
976848,"PO BOX 194","RICMOND","IN","47374"
976849,"PO BOX 194","SPARR","FL","32192"
976850,"PO BOX 194","TROUP","TX","75789"
976851,"PO BOX 194","VERNON","AZ","85940"
976852,"PO BOX 194","WESTLAKE","LA","70669"
976853,"PO BOX 1941","ELKO","NV","89801"
976854,"PO BOX 1941","ELKTON","MD","21922"
976855,"PO BOX 1941","GONZALES","CA","93926"
976856,"PO BOX 1941","ODEM","TX","78370"
976857,"PO BOX 1941","SAN ANTONIO","TX","78297"
976858,"PO BOX 1941","YELM","WA","98597"
976859,"PO BOX 1942","BURLSON","TX","76097"
976860,"PO BOX 1942","FORNEY","TX","75126"
976861,"PO BOX 1942","MOOSE PASS","AK","99631"
976862,"PO BOX 1942","THE DALLES","OR","97058"
976863,"PO BOX 1942","WEST PALM BEACH","FL","33402"
976864,"PO BOX 194247     50 BEALE STREET","SAN FRANCISCO","CA","94119"
976865,"PO BOX 1943","ALEXANDRIA","VA","22314"
976866,"PO BOX 1943","FORT MILL","SC","29715"
976867,"PO BOX 1943","HUNTINGTON","WV","25720"
976868,"PO BOX 19433","PORTLAND","OR","97280"
976869,"PO BOX 1944","FREDERIKSTED","VI","00841"
976870,"PO BOX 19442","CHICAGO","IL","60619"
976871,"PO BOX 1945","BROOKINGS","OR","97415"
976872,"PO BOX 1945","NOME","AK","99762"
976873,"PO BOX 1945","QUARTZSITE","AZ","85346"
976874,"PO BOX 1945","STATE UNIVERSITY","AR","72467"
976875,"PO BOX 19457","RALEIGH","NC","27614"
976876,"PO BOX 1946","JACKSON","WY","83001"
976877,"PO BOX 1947","ALAMOSA","CO","81101"
976878,"PO BOX 1947","ATHENS","TX","75751"
976879,"PO BOX 1947","BRACKETTVILLE","TX","78832"
976880,"PO BOX 1947","TAHLEQUAH","OK","74464"
976881,"PO BOX 1947","TAHLEQUAH","OK","74465"
976882,"PO BOX 194786","SAN JUAN","PR","00919"
976883,"PO BOX 19481","CHICAGO","IL","60619"
976884,"PO BOX 194863","SAN JUAN","PR","00919"
976885,"PO BOX 1949","BEAUFORT","SC","29901"
976886,"PO BOX 19495","LAS VEGAS","NV","89132"
976887,"PO BOX 19496","NEW ORLEANS","LA","70179"
976888,"PO BOX 19498","LENEXA","KS","66285"
976889,"PO BOX 195 111","SAN JUAN","PR","00919"
976890,"PO BOX 195","AVANT","OK","74001"
976891,"PO BOX 195","BERRIEN SPRINGS","MI","49103"
976892,"PO BOX 195","BLUE RIVER","OR","97413"
976893,"PO BOX 195","CALMAR","IA","52132"
976894,"PO BOX 195","CEREDO","WV","25507"
976895,"PO BOX 195","CRESCENT CITY","IL","60928"
976896,"PO BOX 195","DAYTON","MT","59914"
976897,"PO BOX 195","EAST BURKE","VT","05832"
976898,"PO BOX 195","ELK CITY","ID","83525"
976899,"PO BOX 195","FRENCHBURG","KY","40322"
976900,"PO BOX 195","HENNIKER","NH","03242"
976901,"PO BOX 195","LAVINA","MT","59046"
976902,"PO BOX 195","LEWELLEN","NE","69147"
976903,"PO BOX 195","MAYVILLE","MI","48744"
976904,"PO BOX 195","MOODUS","CT","06469"
976905,"PO BOX 195","MORVEN","NC","28119"
976906,"PO BOX 195","OCEANSIDE","CA","92049"
976907,"PO BOX 195","RENVILLE","MN","56284"
976908,"PO BOX 195","SCHOHARIE","NY","12157"
976909,"PO BOX 195","SIDNEY","MT","59270"
976910,"PO BOX 195","SOUTH BOSTON","VA","24592"
976911,"PO BOX 195","STAR PRAIRIE","WI","54026"
976912,"PO BOX 195","WEST JEFFERSON","NC","28694"
976913,"PO BOX 1950","MIDDLEBURG","VA","20118"
976914,"PO BOX 1950","RAWLINS","WY","82301"
976915,"PO BOX 19502","MINNEAPOLIS","MN","55419"
976916,"PO BOX 195052","WINTER SPRINGS","FL","32719"
976917,"PO BOX 19506","LOS ANGELES","CA","90019"
976918,"PO BOX 195064","SAN JUAN","PR","00919"
976919,"PO BOX 1951","EDMONDS","WA","98026"
976920,"PO BOX 1951","GREENVILLE","NC","27835"
976921,"PO BOX 1951","PAGO PAGO","AS","96799"
976922,"PO BOX 1951","SONOMA","CA","95476"
976923,"PO BOX 19511","PORTLAND","OR","97280"
976924,"PO BOX 195169","SAN JUAN","PR","00919"
976925,"PO BOX 19517","S LAKE TAHOE","CA","96151"
976926,"PO BOX 19517","SOUTH LAKE TAHOE","CA","96150"
976927,"PO BOX 19517","SOUTH LAKE TAHOE","CA","96151"
976928,"PO BOX 1952","BUFFALO","NY","14240"
976929,"PO BOX 19524","SAN JUAN","PR","00910"
976930,"PO BOX 1953","HUNTINGTON BEACH","CA","92647"
976931,"PO BOX 1953","OCEAN SHORES","WA","98569"
976932,"PO BOX 19533","DENVER","CO","80219"
976933,"PO BOX 1954","CONROE","TX","77305"
976934,"PO BOX 1954","EUREKA","MT","59917"
976935,"PO BOX 1954","FRESNO","TX","77545"
976936,"PO BOX 1954","ROANOKE","VA","24153"
976937,"PO BOX 19543","PORTLAND","OR","97280"
976938,"PO BOX 19543","SAN DIEGO","CA","92159"
976939,"PO BOX 195435","DALLAS","TX","75219"
976940,"PO BOX 1955","FORT MILL","SC","29716"
976941,"PO BOX 1955","PEORIA","IL","61656"
976942,"PO BOX 1956","METAIRIE","LA","70004"
976943,"PO BOX 19562","BIRMINGHAM","AL","35219"
976944,"PO BOX 195631","WINTER SPRINGS","FL","32719"
976945,"PO BOX 1957","KEAAU","HI","96749"
976946,"PO BOX 1957","SAN MARCOS","TX","78667"
976947,"PO BOX 1959","TURLOCK","CA","95381"
976948,"PO BOX 196","CERRILLOS","NM","87010"
976949,"PO BOX 196","CHIPLEY","FL","32428"
976950,"PO BOX 196","CLAFLIN","KS","67525"
976951,"PO BOX 196","CLIFF","NM","88008"
976952,"PO BOX 196","EVANS","GA","30809"
976953,"PO BOX 196","HAGAMAN","NY","12086"
976954,"PO BOX 196","HAMPDEN-SYDNEY","VA","23943"
976955,"PO BOX 196","NEW AUBURN","MN","55336"
976956,"PO BOX 196","OLDHAM","SD","57051"
976957,"PO BOX 196","OTEGO","NY","13825"
976958,"PO BOX 196","OTTAWA","KS","66067"
976959,"PO BOX 196","PORT ANGELES","WA","98362"
976960,"PO BOX 196","RIDERWOOD","MD","21139"
976961,"PO BOX 196","SKIPPACK","PA","19474"
976962,"PO BOX 196","SWITZ CITY","IN","47465"
976963,"PO BOX 196","TENNYSON","IN","47637"
976964,"PO BOX 196","WAINSCOTT","NY","11975"
976965,"PO BOX 196","WATERFLOW","NM","87421"
976966,"PO BOX 1960","BERNALILLO","NM","87004"
976967,"PO BOX 1960","CRYSTAL BEACH","TX","77650"
976968,"PO BOX 19602","HOUSTON","TX","77224"
976969,"PO BOX 19609","CINCINNATI","OH","45219"
976970,"PO BOX 1961","BOZEMAN","MT","59771"
976971,"PO BOX 1961","ELLIJAY","GA","30540"
976972,"PO BOX 1961","KEAAU","HI","96749"
976973,"PO BOX 1961","LONGVIEW","TX","75606"
976974,"PO BOX 1961","MONAHANS","TX","79756"
976975,"PO BOX 1961","TAVARES","FL","32778"
976976,"PO BOX 1962","BRACKETTVILLE","TX","78832"
976977,"PO BOX 1962","CASTLE ROCK","CO","80104"
976978,"PO BOX 19621","COLORADO CITY","CO","81019"
976979,"PO BOX 1963","ANGLETON","TX","77516"
976980,"PO BOX 1963","AUBURNDALE","FL","33823"
976981,"PO BOX 1963","LEWISTON","ID","83501"
976982,"PO BOX 1963","SITKA","AK","99835"
976983,"PO BOX 1963","VALLEY CENTER","CA","92054"
976984,"PO BOX 19631","FOUNTAIN HILLS","AZ","85269"
976985,"PO BOX 19631","FOUNTAIN HLS","AZ","85269"
976986,"PO BOX 19636","RALEIGH","NC","27619"
976987,"PO BOX 1964","ABERDEEN","WA","98520"
976988,"PO BOX 1965","RICHMOND","CA","94804"
976989,"PO BOX 1965","ROLLA","MO","65402"
976990,"PO BOX 1965","SAINT LEONARD","MD","20678"
976991,"PO BOX 1966","ANTIOCH","TN","27011"
976992,"PO BOX 1966","BROWNING","MT","59417"
976993,"PO BOX 1966","EAGAR","AZ","85925"
976994,"PO BOX 1966","USAF ACADEMY","CO","80841"
976995,"PO BOX 1966","WILSON","WY","83014"
976996,"PO BOX 1968","BLUFFTON","SC","29910"
976997,"PO BOX 1968","TAHLEQUAH","OK","74465"
976998,"PO BOX 1968","WELCOME","NC","27374"
976999,"PO BOX 1969","KINGATON","WA","98346"
977000,"PO BOX 19695","JEAN","NY","89019"
