"ID","Address","City","State","Zip"
970001,"PO BOX 11345","GOLDBSORO","NC","27532"
970002,"PO BOX 1135","BAKER CITY","OR","97814"
970003,"PO BOX 1135","CASTLE ROCK","CO","80104"
970004,"PO BOX 1135","HONOLULU","HI","96807"
970005,"PO BOX 1135","ROBERTA","GA","31078"
970006,"PO BOX 1135","TOLEDO","WA","98591"
970007,"PO BOX 1135","WHEATLAND","CA","95692"
970008,"PO BOX 1135/ 54A N MAIN STREET","SHERBURNE","NY","13460"
970009,"PO BOX 11351","FORT SMITH","AR","72917"
970010,"PO BOX 11351","HONOLULU","HI","96828"
970011,"PO BOX 11354","CLAYTON","MO","63105"
970012,"PO BOX 1136","BENNINGTON","VT","05201"
970013,"PO BOX 1136","LAKE ELSINORE","CA","92531"
970014,"PO BOX 1136","PARAMOUNT","CA","90723"
970015,"PO BOX 1136","PINON","AZ","86510"
970016,"PO BOX 1136","WENATCHEE","WA","98807"
970017,"PO BOX 11361","PORTLAND","OR","97211"
970018,"PO BOX 11363","LYNCHBURG","VA","24506"
970019,"PO BOX 1137","BOWLING GREEN","OH","43402"
970020,"PO BOX 1137","BOYD","TX","76023"
970021,"PO BOX 1137","MERCER ISLAND","WA","98040"
970022,"PO BOX 1137","NORTON","OH","44203"
970023,"PO BOX 1137","WHITNEY","TX","76692"
970024,"PO BOX 11376","PLEASANTON","CA","94566"
970025,"PO BOX 11376","TYSONS CORNER","VA","22102"
970026,"PO BOX 1138","AZLE","TX","76098"
970027,"PO BOX 1138","BOYD","TX","76023"
970028,"PO BOX 1138","ELMA","WA","98541"
970029,"PO BOX 1138","INDIAN ROCKS BEACH","FL","33785"
970030,"PO BOX 1138","JACKSON","WY","83001"
970031,"PO BOX 1138","NAALEHU","HI","96772"
970032,"PO BOX 1138","WASHOUGAL","WA","98671"
970033,"PO BOX 11383","RIVIERA BEACH","FL","33419"
970034,"PO BOX 11385","ALBANY","NY","12211"
970035,"PO BOX 11388","BOZEMAN","MT","59718"
970036,"PO BOX 11389","BOZEMAN","MT","59719"
970037,"PO BOX 11389","NORFOLK","VA","23517"
970038,"PO BOX 1139","HELOTES","TX","78023"
970039,"PO BOX 11396","WEST PALM BEACH","FL","33419"
970040,"PO BOX 114 269 RIVER ROAD","BOWDOINHAM","ME","04008"
970041,"PO BOX 114","BEVERLY","WV","26253"
970042,"PO BOX 114","BURLINGTON","VT","05402"
970043,"PO BOX 114","CARROLLTON","KY","41008"
970044,"PO BOX 114","CENTREVILLE","MD","21617"
970045,"PO BOX 114","CHINOOK","WA","98614"
970046,"PO BOX 114","CLINTON","MD","20735"
970047,"PO BOX 114","COLUMBIA","KY","42728"
970048,"PO BOX 114","CRAIG","CO","81626"
970049,"PO BOX 114","CRAWFORDVILLE","GA","30631"
970050,"PO BOX 114","EVERETTS","NC","27825"
970051,"PO BOX 114","FLALGLER BEACH","FL","32136"
970052,"PO BOX 114","FLORA","MS","39071"
970053,"PO BOX 114","FORESTDALE","VT","05733"
970054,"PO BOX 114","FORT ATKINSON","IA","52144"
970055,"PO BOX 114","FREDONIA","TX","76842"
970056,"PO BOX 114","FRENCH GULCH","CA","96033"
970057,"PO BOX 114","GEORGETOWN","CO","80444"
970058,"PO BOX 114","HARDIN","MT","59034"
970059,"PO BOX 114","LOTTSBURG","VA","22511"
970060,"PO BOX 114","LOVELAND","CO","80539"
970061,"PO BOX 114","METAMORA","OH","43540"
970062,"PO BOX 114","NORTH BRANCH","MN","55056"
970063,"PO BOX 114","PALO ALTO","CA","94302"
970064,"PO BOX 114","PARROTT","VA","24132"
970065,"PO BOX 114","POMEROY","WA","99347"
970066,"PO BOX 114","RICHLAND","MO","65556"
970067,"PO BOX 114","ROSE HILL","VA","24243"
970068,"PO BOX 114","TROY","ID","83871"
970069,"PO BOX 114","WAIALUA","HI","96791"
970070,"PO BOX 114","WASHINGTON","CA","95986"
970071,"PO BOX 114","WATERBURY","VT","05676"
970072,"PO BOX 114","WHEATON","IL","60187"
970073,"PO BOX 1140","LITHONIA","GA","30058"
970074,"PO BOX 1140","LUCERNE","CA","95458"
970075,"PO BOX 1140","PENUELAS","PR","00624"
970076,"PO BOX 1141","BRONSON","FL","32621"
970077,"PO BOX 1141","CIDRA","PR","00739"
970078,"PO BOX 1141","SITKA","AK","99835"
970079,"PO BOX 1141","SKIATOOK","OK","74070"
970080,"PO BOX 1141","SOUTH HOLLAND","IL","60473"
970081,"PO BOX 1141","SUNRAY","TX","79086"
970082,"PO BOX 11411","MIDLAND","TX","79702"
970083,"PO BOX 11411","WHITTIER","CA","90603"
970084,"PO BOX 11414","COLUMBIA","SC","29211"
970085,"PO BOX 11415","OVERLAND PARK","KS","66207"
970086,"PO BOX 11417","SHOREWOOD","WI","53211"
970087,"PO BOX 1142","BLOOMINGTON","IN","47402"
970088,"PO BOX 1142","DENVILLE","NJ","07834"
970089,"PO BOX 1142","INDIANOLA","MS","38751"
970090,"PO BOX 1142","LILLINGTON","NC","27546"
970091,"PO BOX 1142","SPRINGVILLE","IN","47462"
970092,"PO BOX 1142","WAUKEE","IA","50263"
970093,"PO BOX 1142","WILTON","ME","04294"
970094,"PO BOX 11421","PLEASANTON","CA","94588"
970095,"PO BOX 1143","ALFRED","NY","14802"
970096,"PO BOX 1143","CHEYENNE","WY","82003"
970097,"PO BOX 1143","LAVEEN","AZ","85339"
970098,"PO BOX 1143","MULLINS","SC","29574"
970099,"PO BOX 1143","PAINTSVILLE","KY","41240"
970100,"PO BOX 1143","QUINLAN","TX","75474"
970101,"PO BOX 11435","LAHAINA","HI","96761"
970102,"PO BOX 1144","ASH FORK","AZ","86320"
970103,"PO BOX 1144","BEAVERTON","OR","97075"
970104,"PO BOX 1144","CHICO","CA","95927"
970105,"PO BOX 1144","GULF SHORES","AL","36547"
970106,"PO BOX 1144","LAKE OSWEGO","OR","97035"
970107,"PO BOX 1144","MONTAUK","NY","11954"
970108,"PO BOX 1144","PRIOR LAKE","MN","55372"
970109,"PO BOX 1144","SAN LEANDRO","CA","94577"
970110,"PO BOX 1144","SHARPSBURG","GA","30277"
970111,"PO BOX 1144","SOLANA BEACH","CA","92075"
970112,"PO BOX 1144","WHITEHALL","MT","59759"
970113,"PO BOX 11442","COLLEGE STATION","TX","77842"
970114,"PO BOX 11444","NEW IBERIA","LA","70562"
970115,"PO BOX 11445","DANVILLE","VA","24543"
970116,"PO BOX 1145","CARLISLE","PA","17013"
970117,"PO BOX 1145","CHESTER","PA","19016"
970118,"PO BOX 1145","LAGRANDE","OR","97850"
970119,"PO BOX 11452","PORTLAND","ME","04062"
970120,"PO BOX 11454","PORTLAND","OR","97211"
970121,"PO BOX 1146 16301 MARLBORO PIKE","UPPER MARLBORO","MD","20773"
970122,"PO BOX 1146","ALEDO","TX","76008"
970123,"PO BOX 1146","BAIRD","TX","79504"
970124,"PO BOX 1146","DONNELLY","ID","83615"
970125,"PO BOX 1146","IMPERIAL BEACH","CA","91933"
970126,"PO BOX 1146","PORT ARANSAS","TX","78373"
970127,"PO BOX 11462","BALTIMORE","MD","21239"
970128,"PO BOX 11463","PORTLAND","OR","97211"
970129,"PO BOX 1147","EUSTIS","FL","32727"
970130,"PO BOX 1147","GLENDORA","CA","91740"
970131,"PO BOX 1147","INGLESIDE","TX","78362"
970132,"PO BOX 11474","PORTLAND","OR","97211"
970133,"PO BOX 1148","FRANKLIN","NC","28744"
970134,"PO BOX 1148","ISABELA","PR","00662"
970135,"PO BOX 1148","LAME DEER","MT","59043"
970136,"PO BOX 11489","OKMULGEE","OK","74447"
970137,"PO BOX 1149","COVINGTON","LA","70434"
970138,"PO BOX 1149","PAONIA","CO","81428"
970139,"PO BOX 1149","SPRINGFIELD","LA","70462"
970140,"PO BOX 11491","BLACKSBURG","VA","24062"
970141,"PO BOX 11495","BALTIMORE","MD","21239"
970142,"PO BOX 11499","HILO","HI","96721"
970143,"PO BOX 115","ADEL","OR","97620"
970144,"PO BOX 115","ASH FLAT","AR","72513"
970145,"PO BOX 115","BAT CAVE","NC","28710"
970146,"PO BOX 115","BLACK DIAMOND","WA","98010"
970147,"PO BOX 115","CALIPATRIA","CA","92233"
970148,"PO BOX 115","CARLETON","MI","48117"
970149,"PO BOX 115","CEDAR","MI","49621"
970150,"PO BOX 115","CHEBANSE","IL","60922"
970151,"PO BOX 115","CLAM LAKE","WI","54517"
970152,"PO BOX 115","CULBERSON","NC","28903"
970153,"PO BOX 115","DELANSON","NY","12053"
970154,"PO BOX 115","E GLACIER PARK","MT","59434"
970155,"PO BOX 115","EDNA","TX","77957"
970156,"PO BOX 115","FAIRBURN","SD","57738"
970157,"PO BOX 115","GLENWOOD","NJ","07418"
970158,"PO BOX 115","GRANITE","OK","73547"
970159,"PO BOX 115","HAWKEYE","IA","52147"
970160,"PO BOX 115","HILLSVILLE","PA","16132"
970161,"PO BOX 115","HUTTO","TX","78623"
970162,"PO BOX 115","HUTTO","TX","78634"
970163,"PO BOX 115","KENMORE","NY","14226"
970164,"PO BOX 115","LA POINTE","WI","54850"
970165,"PO BOX 115","LADY LAKE","FL","32158"
970166,"PO BOX 115","LOUISBURG","NC","27549"
970167,"PO BOX 115","MARBLE FALLS","TX","78654"
970168,"PO BOX 115","MOUNT GILEAD","NC","27306"
970169,"PO BOX 115","NORTH SUTTON","NH","03260"
970170,"PO BOX 115","PETERSBURG","AK","99833"
970171,"PO BOX 115","PLANKINGTON","SD","57368"
970172,"PO BOX 115","PORT GIBSON","NY","14537"
970173,"PO BOX 115","RUFUS","OR","97050"
970174,"PO BOX 115","SUMMIT","NY","12175"
970175,"PO BOX 115","TRENTON","ND","58853"
970176,"PO BOX 115","WALSTONBURG","NC","27888"
970177,"PO BOX 115","WATROUS","NM","87753"
970178,"PO BOX 115","WEBBERS FALLS","OK","74470"
970179,"PO BOX 115/22GORDON ST","SOUDAN","MN","55782"
970180,"PO BOX 1150","COLORADO SPRINGS","CO","80901"
970181,"PO BOX 1150","GLENWOOD SPRINGS","CO","81602"
970182,"PO BOX 1150","OHKAY OWINGEH","NM","87566"
970183,"PO BOX 1150","ORANGE","VA","22960"
970184,"PO BOX 1150","SILVERTHORNE","CO","80498"
970185,"PO BOX 1151","BATON ROUGE","LA","70821"
970186,"PO BOX 1151","BIG RAPIDS","MI","49307"
970187,"PO BOX 1151","DOVER","AR","72837"
970188,"PO BOX 1151","DRYDEN","NY","13053"
970189,"PO BOX 1151","HAWTHORNE","NV","89415"
970190,"PO BOX 1151","LATHROP","CA","95330"
970191,"PO BOX 1151","LEOMINSTER","MA","01453"
970192,"PO BOX 1151","MESILLA PARK","NM","88047"
970193,"PO BOX 1151","ROEBUCK","SC","29376"
970194,"PO BOX 1151","SEAFORD","DE","19973"
970195,"PO BOX 1151","SEDONA","AZ","86336"
970196,"PO BOX 1151","TINLEY PARK","IL","60477"
970197,"PO BOX 1151","YOUNGSVILLE","NC","27596"
970198,"PO BOX 1151","ZEBULON","GA","30295"
970199,"PO BOX 115144","ATLANTA","GA","30310"
970200,"PO BOX 115144","PO BOX 115144","GA","30310"
970201,"PO BOX 11517","ST THOMAS","VI","00801"
970202,"PO BOX 11518","TAMPA","FL","33680"
970203,"PO BOX 1152","CARMICHAEL","CA","95609"
970204,"PO BOX 1152","CEDAR HILL","TX","75106"
970205,"PO BOX 1152","FAIR OAKS","CA","95628"
970206,"PO BOX 1152","HARLEM","MT","59526"
970207,"PO BOX 1152","HILLIARD","OH","43026"
970208,"PO BOX 1152","KALAHEO","HI","96741"
970209,"PO BOX 1152","KNIGHTDALE","NC","27545"
970210,"PO BOX 1152","MONT BELVIEU","TX","77535"
970211,"PO BOX 1152","MONT BELVIEU","TX","77580"
970212,"PO BOX 1152","NEWPORT","TN","37822"
970213,"PO BOX 1152","ORLANDO","FL","32802"
970214,"PO BOX 1152","POLSON","MT","59860"
970215,"PO BOX 1152","SHELTER ISLAND","NY","11965"
970216,"PO BOX 1152","ST JOHN","VI","00831"
970217,"PO BOX 1152","STOCKBRIDGE","GA","30281"
970218,"PO BOX 1152","WHITE RIVER JUNCTION","VT","05001"
970219,"PO BOX 11522","EL DORADO","AR","71730"
970220,"PO BOX 11528","COLLEGE STATION","TX","77842"
970221,"PO BOX 1153","BELTON","TX","76513"
970222,"PO BOX 1153","BRYAN","TX","77806"
970223,"PO BOX 1153","HAIKU","HI","96708"
970224,"PO BOX 1153","SEMINOLE","TX","79360"
970225,"PO BOX 1153","SOUTHAVEN","MS","38671"
970226,"PO BOX 1153","WESTBROOK","ME","04098"
970227,"PO BOX 11530","TAKOMA PARK","MD","20913"
970228,"PO BOX 11531","ABQ","NM","87192"
970229,"PO BOX 11534","KILLEEN","TX","76547"
970230,"PO BOX 1154","CHILOQUIN","OR","97624"
970231,"PO BOX 1154","LOUISBURG","NC","27549"
970232,"PO BOX 1154","NEW CARLISLE","IN","46552"
970233,"PO BOX 1154","NEWTON","NC","28658"
970234,"PO BOX 1154","ROSEBUD","SD","57570"
970235,"PO BOX 1154","STANTON","TX","79782"
970236,"PO BOX 1154","TWIN FALLS","ID","83303"
970237,"PO BOX 11543","LEXINGTON","KY","40576"
970238,"PO BOX 11546","PORTLAND","OR","97211"
970239,"PO BOX 1155","CLYDE","TX","79510"
970240,"PO BOX 1155","DUQUOIN","IL","62832"
970241,"PO BOX 1155","LOS MOLINOS","CA","96055"
970242,"PO BOX 1155","MANILA","AR","72442"
970243,"PO BOX 1155","NAALEHU","HI","96772"
970244,"PO BOX 1155","RICHMOND HILL","NY","11418"
970245,"PO BOX 1155","VALPARAISO","IN","46384"
970246,"PO BOX 1156","PEARSON","GA","31642"
970247,"PO BOX 1156","PETERSBURG","VA","23804"
970248,"PO BOX 1156","PINON","AZ","86510"
970249,"PO BOX 1157","CLINTON","WA","98236"
970250,"PO BOX 1158","COSMOPOLIS","WA","98537"
970251,"PO BOX 1158","DAVENPORT","WA","99122"
970252,"PO BOX 1158","FLORENCE","MS","39073"
970253,"PO BOX 1158","GIG HARBOR","WA","98335"
970254,"PO BOX 1158","HOOPA","CA","95546"
970255,"PO BOX 1158","PHILIPSBURG","MT","59858"
970256,"PO BOX 1158","SANTA ISABEL","PR","00757"
970257,"PO BOX 1159","HUTTO","TX","78634"
970258,"PO BOX 1159","NICHOLASVILLE","KY","40340"
970259,"PO BOX 11598","SHOREWOOD","WI","53211"
970260,"PO BOX 11599","AUSTIN","TX","78711"
970261,"PO BOX 116","ALVADORE","OR","97409"
970262,"PO BOX 116","BROOKSIDE","NJ","07926"
970263,"PO BOX 116","CHARLES TOWN","WV","25443"
970264,"PO BOX 116","CHIPPEWA BAY","NY","13623"
970265,"PO BOX 116","CLEVELAND","OK","74020"
970266,"PO BOX 116","CLIFTON PARK","NY","12065"
970267,"PO BOX 116","COLE CAMP","MO","65325"
970268,"PO BOX 116","CORNWALL BRIDGE","CT","06796"
970269,"PO BOX 116","DILLSBURG","PA","17019"
970270,"PO BOX 116","ESMOND","ND","58332"
970271,"PO BOX 116","HARTFORD","SD","57033"
970272,"PO BOX 116","HAWKINSVILLE","GA","31036"
970273,"PO BOX 116","HEIDENHEIMER","TX","76533"
970274,"PO BOX 116","HEMPSTEAD","TX","77445"
970275,"PO BOX 116","JACKSONVILLE","OR","97530"
970276,"PO BOX 116","LISMAN","AL","36912"
970277,"PO BOX 116","MALAGA","WA","98828"
970278,"PO BOX 116","MC ARTHUR","OH","45651"
970279,"PO BOX 116","MCGRAWS","WV","25875"
970280,"PO BOX 116","NORTH SANDWICH","NH","03259"
970281,"PO BOX 116","ORGAS","WV","25148"
970282,"PO BOX 116","PITTSFIELD","ME","04967"
970283,"PO BOX 116","PORTSMOUTH","NH","03802"
970284,"PO BOX 116","POST MILLS","VT","05058"
970285,"PO BOX 116","RALSTON","PA","17763"
970286,"PO BOX 116","RICEVILLE","IA","50466"
970287,"PO BOX 116","RIDGEWAY","MO","64481"
970288,"PO BOX 116","ROCHESTER","MN","55903"
970289,"PO BOX 116","ROTHSCHILD","WI","54474"
970290,"PO BOX 116","SCOTTSBURG","IN","47170"
970291,"PO BOX 116","SHEPHERDSTOWN","WV","25443"
970292,"PO BOX 116","SHERMAN","NY","14781"
970293,"PO BOX 116","SUPERIOR","MT","59872"
970294,"PO BOX 116","THE SEA RANCH","CA","95497"
970295,"PO BOX 116","VALLEY BEND","WV","26293"
970296,"PO BOX 116","WEST CORNWALL","CT","06796"
970297,"PO BOX 116","WEST FRIENDSHIP","MD","21794"
970298,"PO BOX 1160","BIG PINEY","WY","83113"
970299,"PO BOX 1160","CARBDONALE","CO","81623"
970300,"PO BOX 1160","HUDSON","NY","12534"
970301,"PO BOX 1160","LAGUNA BEACH","CA","92651"
970302,"PO BOX 1160","MISSOURI CITY","TX","77459"
970303,"PO BOX 1160","PENUELAS","PR","00624"
970304,"PO BOX 1160","PINON","AZ","86510"
970305,"PO BOX 11601","LAHAINA","HI","96761"
970306,"PO BOX 11603","JACKSON","WY","83002"
970307,"PO BOX 1161","FOUNTAIN","TX","77856"
970308,"PO BOX 1161","LAUREL","MD","20725"
970309,"PO BOX 1161","OLALLA","WA","98359"
970310,"PO BOX 1161","PATAGONIA","AZ","85624"
970311,"PO BOX 1161","RED LODGE","MT","59068"
970312,"PO BOX 1161","TAPPAHANNOCK","VA","22560"
970313,"PO BOX 1161","WATERTOWN","MN","55388"
970314,"PO BOX 11613","ATLANTA","GA","30355"
970315,"PO BOX 11614","JACKSON","TN","38305"
970316,"PO BOX 1162 FARRINGTON HWY","WAIANAE","HI","96792"
970317,"PO BOX 1162","BEEVILLE","TX","78104"
970318,"PO BOX 1162","FAIRVIEW","TN","37062"
970319,"PO BOX 1162","LODI","NJ","07644"
970320,"PO BOX 1162","MANSFIELD","TX","76063"
970321,"PO BOX 1162","MATTESON","IL","60443"
970322,"PO BOX 1162","PORT ANGELES","WA","98362"
970323,"PO BOX 1162","WAIMEA","HI","96796"
970324,"PO BOX 11621","TAMPA","FL","33680"
970325,"PO BOX 11624","CLAYTON","MO","63105"
970326,"PO BOX 1163","ENUMCLAW","WA","98022"
970327,"PO BOX 1163","FAYETTEVILLE","GA","30214"
970328,"PO BOX 1163","GRAMERCY","LA","70052"
970329,"PO BOX 1163","HAINES","AK","99827"
970330,"PO BOX 1163","MAHOMET","IL","61853"
970331,"PO BOX 1163","OMAK","WA","98841"
970332,"PO BOX 1163","SIERRA VISTA","AZ","85636"
970333,"PO BOX 1163","VIENNA","VA","22183"
970334,"PO BOX 11632","HUNTSVILLE","AL","35814"
970335,"PO BOX 1164","BOISE","ID","83701"
970336,"PO BOX 1164","CANYON","TX","79015"
970337,"PO BOX 1164","PAGO PAGO","AS","96799"
970338,"PO BOX 1164","REPUBLIC","WA","99166"
970339,"PO BOX 1164","STOWE","VT","05672"
970340,"PO BOX 1164","WHITE SALMON","WA","98672"
970341,"PO BOX 1165","ALTO","NM","88312"
970342,"PO BOX 1165","BIG PINEY","WY","83113"
970343,"PO BOX 1165","EAST HELENA","MT","59635"
970344,"PO BOX 1165","LAKESIDE","MT","59922"
970345,"PO BOX 1165","MT. VERNON","IL","62864"
970346,"PO BOX 1165","NOME","AK","99762"
970347,"PO BOX 1165","WASHINGTON","UT","84780"
970348,"PO BOX 1166","ATLANTA","GA","30301"
970349,"PO BOX 1166","BOISE","ID","83701"
970350,"PO BOX 1166","CLEARLAKE PARK","CA","95424"
970351,"PO BOX 1166","MOUNTAIN VIEW","CA","94042"
970352,"PO BOX 1166","NEDERLAND","CO","80466"
970353,"PO BOX 1166","NORTH PLAINS","OR","97133"
970354,"PO BOX 11661","FORT WORTH","TX","76110"
970355,"PO BOX 11661","SHOREWOOD","WI","53211"
970356,"PO BOX 11661","WHITEFISH BAY","WI","53211"
970357,"PO BOX 116651","CARROLLTON","TX","75011"
970358,"PO BOX 1167","FOLEY","AL","36536"
970359,"PO BOX 1167","KURTISTOWN","HI","96760"
970360,"PO BOX 1167","PRESIDIO","TX","79845"
970361,"PO BOX 1168","ALAMEDA","CA","94501"
970362,"PO BOX 1168","BLAKESLEE","PA","18610"
970363,"PO BOX 1168","KURTISTOWN","HI","96760"
970364,"PO BOX 1168","LA PINE","OR","97739"
970365,"PO BOX 1168","MANHATTAN","MT","59741"
970366,"PO BOX 1168","RIMROCK","AZ","86335"
970367,"PO BOX 1168","SEASIDE","OR","97138"
970368,"PO BOX 1168","THOMASTON","GA","30286"
970369,"PO BOX 11682","DAYTONA BEACH","FL","32114"
970370,"PO BOX 11683","GLENDALE","AZ","85318"
970371,"PO BOX 11683","NEWPORT BEACH","CA","92658"
970372,"PO BOX 11683","RENO","NV","89510"
970373,"PO BOX 11684","PRESCOTT","AZ","86304"
970374,"PO BOX 11686","FORT SMITH","AR","72917"
970375,"PO BOX 116862","CARROLLTON","TX","75011"
970376,"PO BOX 116862","CARRROLLTON","TX","75011"
970377,"PO BOX 116874","CARROLLTON","TX","75011"
970378,"PO BOX 1169","FRANKLIN","TX","77856"
970379,"PO BOX 1169","HEMPSTEAD","TX","77445"
970380,"PO BOX 1169","OCCIDENTAL","CA","95465"
970381,"PO BOX 1169","SOUTH WINDSOR","CT","06074"
970382,"PO BOX 1169","TALKEETNA","AK","99676"
970383,"PO BOX 1169","WELLTON","AZ","85356"
970384,"PO BOX 116902","CARROLTON","TX","75011"
970385,"PO BOX 11691","YAKIMA","WA","98909"
970386,"PO BOX 116913","CARROLLTON","TX","75011"
970387,"PO BOX 11696","PORTLAND","OR","97211"
970388,"PO BOX 117","BARBOURVILLE","KY","40906"
970389,"PO BOX 117","CANAAN","CT","06018"
970390,"PO BOX 117","CATOOSA","OK","74015"
970391,"PO BOX 117","CAZADERO","CA","95421"
970392,"PO BOX 117","CHESTERFIELD","NH","03443"
970393,"PO BOX 117","CHESTERVILLE","OH","43317"
970394,"PO BOX 117","COOLVILLE","OH","45723"
970395,"PO BOX 117","COROZAL","PR","00783"
970396,"PO BOX 117","CROUSE","NC","28033"
970397,"PO BOX 117","ELK POINT","SD","57025"
970398,"PO BOX 117","HAMPSTEAD","NC","28443"
970399,"PO BOX 117","KENMARE","ND","58746"
970400,"PO BOX 117","LYNCH","KY","40855"
970401,"PO BOX 117","MAY","TX","76857"
970402,"PO BOX 117","MEMPHIS","MI","48041"
970403,"PO BOX 117","MENIFEE","AR","72107"
970404,"PO BOX 117","MISSOULA","MT","59834"
970405,"PO BOX 117","MOKELUMNE HILL","CA","95245"
970406,"PO BOX 117","NEW VERNON","NJ","07976"
970407,"PO BOX 117","PFLUGERVILLE","TX","78691"
970408,"PO BOX 117","ROYAL OAK","MD","21622"
970409,"PO BOX 117","SERGEANTSVILLE","NJ","08557"
970410,"PO BOX 117","SILVERTHORNE","CO","80498"
970411,"PO BOX 117","SOUTHAMPTON","NY","11969"
970412,"PO BOX 117","TEMPLE CITY","CA","91780"
970413,"PO BOX 117","WOODALND","AL","36280"
970414,"PO BOX 1170","GALLIPOLIS","OH","45631"
970415,"PO BOX 1170","HOOPA","CA","95546"
970416,"PO BOX 1170","MOLALLA","OR","97038"
970417,"PO BOX 1170","MUMIAS, KENYA",NA,NA
970418,"PO BOX 117000","GAINESVILLE","FL","32611"
970419,"PO BOX 11701","COLUMBUS","OH","43211"
970420,"PO BOX 117049","GAINESVILLE","FL","32611"
970421,"PO BOX 11706","ROCK HILL","SC","29731"
970422,"PO BOX 1171","CHINO VALLEY","AZ","86323"
970423,"PO BOX 1171","FORSYTH","MO","65653"
970424,"PO BOX 1171","JACKSONVILLE","AL","36265"
970425,"PO BOX 1171","PORT ISABEL","TX","78578"
970426,"PO BOX 1171","REDAN","GA","30213"
970427,"PO BOX 1171","REDONDO BEACH","CA","90278"
970428,"PO BOX 1171","SAN BERNARDINO","CA","92402"
970429,"PO BOX 1171","WATERFORD","CA","95386"
970430,"PO BOX 1171","ZANESVILLE","OH","43701"
970431,"PO BOX 11712","HUNTSVILLE","AL","35814"
970432,"PO BOX 1172","ALEDO","TX","76008"
970433,"PO BOX 1172","CALAIS","ME","04619"
970434,"PO BOX 1172","DURHAM","CA","95938"
970435,"PO BOX 1172","ELIZABETH CITY","NC","27906"
970436,"PO BOX 1172","GALVESTON","TX","77553"
970437,"PO BOX 1172","KILAUEA","HI","96754"
970438,"PO BOX 1172","PARK FOREST","IL","60466"
970439,"PO BOX 1172","SCOBEY","MT","59263"
970440,"PO BOX 1172","TEMECULA","CA","92593"
970441,"PO BOX 1172","TOPPENISH","WA","98948"
970442,"PO BOX 117222","BURBANK","CA","91510"
970443,"PO BOX 1173","CONWAY","NH","03818"
970444,"PO BOX 1173","LEMON GROVE","CA","91946"
970445,"PO BOX 1173","PLYMOUTH","FL","32768"
970446,"PO BOX 1173","PORT EWEN","NY","12466"
970447,"PO BOX 1173","SIKESTON","MO","63801"
970448,"PO BOX 11731","ATLANTA","GA","30355"
970449,"PO BOX 11732","CHARLOTTE AMALIE","VI","00801"
970450,"PO BOX 11732","WATERBURY","CT","06703"
970451,"PO BOX 11737","NEW IBERIA","LA","70562"
970452,"PO BOX 1174","DRAPER","UT","84020"
970453,"PO BOX 1174","LANGLEY","WA","98260"
970454,"PO BOX 1174","LEICESTER","NC","28748"
970455,"PO BOX 1174","PINEVILLE","KY","40977"
970456,"PO BOX 1174","WILLAMINA","OR","97396"
970457,"PO BOX 11741","SANTA ROSA","CA","95406"
970458,"PO BOX 1175","FORESTHILL","CA","95631"
970459,"PO BOX 1175","GEORGETOWN","TX","78627"
970460,"PO BOX 1175","HARLEM","MT","59526"
970461,"PO BOX 1175","HOMEWOOD","ID","60430"
970462,"PO BOX 1175","HOMEWOOD","IL","60430"
970463,"PO BOX 1175","INDIANOLA","MS","38751"
970464,"PO BOX 1175","JULIAN","CA","92036"
970465,"PO BOX 1175","MONTEAGLE","TN","37356"
970466,"PO BOX 1175","VAIL","CO","81658"
970467,"PO BOX 1175","WALLER","TX","77484"
970468,"PO BOX 11756","PORTLAND","OR","97211"
970469,"PO BOX 117578","BURLINGAME","CA","94011"
970470,"PO BOX 1176","ANGEL FIRE","NM","87710"
970471,"PO BOX 1176","ASHLAND","OH","44805"
970472,"PO BOX 1176","BAKER CITY","OR","97814"
970473,"PO BOX 1176","HAYFORK","CA","96041"
970474,"PO BOX 1176","LOS ANGELES","CA","90001"
970475,"PO BOX 1176","MARBLE FALLS","TX","78654"
970476,"PO BOX 1176","PAGO PAGO","AS","96799"
970477,"PO BOX 1176","PAWLEYS ISLAND","SC","29585"
970478,"PO BOX 1176","TAMUNING","GU","96913"
970479,"PO BOX 1176","TRUCKEE","CA","96160"
970480,"PO BOX 1176","WAYNESBORO","MS","39367"
970481,"PO BOX 11762","JACKSON","WY","83001"
970482,"PO BOX 1177","CHURCH ROCK","NM","87311"
970483,"PO BOX 1177","MANHATTAN BEACH","CA","90267"
970484,"PO BOX 1177","NANHATTAN BEACH","CA","90267"
970485,"PO BOX 1177","PARKER","CO","80134"
970486,"PO BOX 1177","REEDLEY","CA","93654"
970487,"PO BOX 1177","RUSTON","LA","71270"
970488,"PO BOX 1177","TRES PINOS","CA","95075"
970489,"PO BOX 11771","JACKSON","TN","38308"
970490,"PO BOX 11772","BRYAN","TX","77842"
970491,"PO BOX 11778","FRESNO","CA","93775"
970492,"PO BOX 1178","LANSDOWNE","PA","19050"
970493,"PO BOX 1178","ROCKLAND","ME","04841"
970494,"PO BOX 1178","SEDONA","AZ","86339"
970495,"PO BOX 1178","TEMPLE HILLS","MD","20757"
970496,"PO BOX 1178","USAF ACADEMY","CO","80841"
970497,"PO BOX 1178","WALKERTOWN","NC","27051"
970498,"PO BOX 11788","ZEPHYR COVE","NV","89448"
970499,"PO BOX 1179","BOWLING GREEN","VA","22427"
970500,"PO BOX 1179","CLARKDALE","AZ","86324"
