"ID","Address","City","State","Zip"
718001,"5424 SUNOL BLVD SUITE 10","PLEASANTON","CA","94566"
718002,"5424 TANGERINE AVE","WINTERPARK","FL","32792"
718003,"5424 TANGERINE AVENUE","WINTER PARK","FL","32792"
718004,"5424 UNITY AVE N","CRYSTAL","MN","55429"
718005,"5424 W 101ST TERRACE","OVERLAND PARK","KS","66207"
718006,"5424 W FREMONT RD","LAVEEN","AZ","85339"
718007,"5424 WILSON HILL ROAD","MANTON","CA","96059"
718008,"5424 ZEPHYR ST 101","ARVADA","CO","80002"
718009,"54243 RED HILL ROAD","JUNCTION CITY","CA","96048"
718010,"5425 1/2 VANTAGE AVE","VALLEY VILLAGE","CA","91607"
718011,"5425 38TH AVE WEST","BRADENTON","FL","34209"
718012,"5425 BARCELONA STREET","PACE","FL","32571"
718013,"5425 BOXELDER DRIVE","ARLINGTON","TX","76018"
718014,"5425 CAINE RD","RICHARDSON","TX","75082"
718015,"5425 CAPE HENRY AVENUE","NORFOLK","VA","23513"
718016,"5425 CARDINAL CREST COURT","CROZET","VA","22932"
718017,"5425 CARLTON WAY 307","LOS ANGELES","CA","90027"
718018,"5425 CAROLYN DR","WILMINGTON","NC","28409"
718019,"5425 CATHERINE ST","PHILADELPHIA","PA","19143"
718020,"5425 CEDAR ASH CROSSING","ANTIOCH","TN","37013"
718021,"5425 CEDARHAVEN DR","AGOURA HILLS","CA","91301"
718022,"5425 CELEBRATION POINT LANE","MARGATE","FL","33063"
718023,"5425 CELEBRATIONS POINT WAY APT 207","MARGATE","FL","33063"
718024,"5425 CLEMWOOD COURT","ADA","MI","49301"
718025,"5425 CLINTON BLVD APT SJ2","JACKSON","MS","39209"
718026,"5425 E 517","DICKINSON","TX","77539"
718027,"5425 E BROADWAY STE 214","TUCSON","AZ","85711"
718028,"5425 E THOMAS RD UNIT 1072","PHOENIX","AZ","85018"
718029,"5425 EAST FLOWER STREET","PHOENIX","AZ","85018"
718030,"5425 EL CAMPO","FORT WORTH","TX","76107"
718031,"5425 ELVIS PRESLEY SUITE B","MEMPHIS","TN","38116"
718032,"5425 FALMOUTH ROAD","BETHESDA","MD","20816"
718033,"5425 GALERIA DRIVE","BATON ROUGE","LA","70816"
718034,"5425 HEINZ LANE","EDWARDS","IL","61528"
718035,"5425 HIGHWOOD DRIVE","EDINA","MN","55436"
718036,"5425 JOHNETTE DRIVE","BATON ROUGE","LA","70812"
718037,"5425 LAKESHORE DRIVE","SHREVEPORT","LA","71119"
718038,"5425 LEWIS ROAD","AGOURA HILLS","CA","91301"
718039,"5425 MAGGIE RUN LANE","FUQUAY VARINA","NC","27526"
718040,"5425 MAJESTIC","COLORADO SPRINGS","CO","80919"
718041,"5425 MANSEL LANE","FORT WORTH","TX","76133"
718042,"5425 MERRITT ISLAND DR","APOLLO BEACH","FL","33572"
718043,"5425 N 38TH STREET","MILWAUKEE","WI","53209"
718044,"5425 N 81ST PLACE","SCOTTSDALE","AZ","85250"
718045,"5425 N ANDREWS AVE","OAKLAND PARK","FL","33309"
718046,"5425 N LAKE DRIVE","WHITEFISH BAY","WI","53217"
718047,"5425 N LOWELL AVE","CHICAGO","IL","60630"
718048,"5425 N TISCHER RD","DULUTH","MN","55804"
718049,"5425 NE 38TH AVE","PORTLAND","OR","97211"
718050,"5425 NICHOLSON DRIVE","HOFFMAN ESTATES","IL","60192"
718051,"5425 NW 16TH ST","LAUDERHILL","FL","33313"
718052,"5425 PALM ROYALE BLVD","SUGAR LAND","TX","77479"
718053,"5425 PARIS AVENUE","JACKSON","LA","70122"
718054,"5425 PEAKS VIEW RD","HELENA","MT","59602"
718055,"5425 S 31ST CT","LINCOLN","NE","68516"
718056,"5425 S GRAYSTONE AVE APT 239","SIOUX FALLS","SD","57108"
718057,"5425 S KORTHASE RD","BOYNE CITY","MI","49712"
718058,"5425 S LAKEWOOD PLACE","TULSA","OK","74135"
718059,"5425 S RIMPAU BLVD","LOS ANGELES","CA","90043"
718060,"5425 S WABASH","CHICAGO","IL","60615"
718061,"5425 SADDLEBACK COURT","EL SOBRANTE","CA","94803"
718062,"5425 SENTINEL OAK DRIVE","MASON","OH","45040"
718063,"5425 SHALLOW CREEK DRIVE","MIDLOTHIAN","TX","76065"
718064,"5425 SHARON ROAD","CHARLOTTE","NC","28210"
718065,"5425 SILVERLEAF AVENUE","BATON ROUGE","LA","70812"
718066,"5425 SKYWAY DRIVE","MISSOULA","MT","59804"
718067,"5425 SOUTH 165TH STREET","OMAHA","NE","68135"
718068,"5425 SOUTH TRIPP AVENUE","CHICAGO","IL","60632"
718069,"5425 SOUTH TROPICAL TRAIL","MERRITT ISLAND","FL","32952"
718070,"5425 SOUTHWYCK BOULEVARD / SUITE 20","TOLEDO","OH","43614"
718071,"5425 SOUTHWYCK BOULEVARD/SUITE 205","TOLEDO","OH","43614"
718072,"5425 STRATFORD RD","LOS ANGELES","CA","90042"
718073,"5425 SW 31ST STREET","OCALA","FL","34474"
718074,"5425 TREMPELEAU TRAIL","MADISON","WI","53705"
718075,"5425 TYSON CIRCLE","CAPE CHARLES","VA","23310"
718076,"5425 VALLES AVENUE APT 5P","BRONX","NY","10471"
718077,"5425 VIRGINIA TECH CT","VIRGINIA BEACH","VA","23455"
718078,"5425 W BERKS STREET","PHILADELPHIA","PA","19131"
718079,"5425 W EUCLID AVENUE","LITTLETON","CO","80123"
718080,"5425 W NATIONAL AVE","WEST MILWAUKEE","IA","53214"
718081,"5425 WEDEKIND RD","SPARKS","NV","89431"
718082,"5425 WEST MAPLE RD","WEST BLOOMFIELD","MH","48322"
718083,"5425 WEST MAPLE RD","WEST BLOOMFIELD","MI","48322"
718084,"5425 WISCONSIN AVE SUITE 401","CHEVY CHASE","MD","20815"
718085,"5425 WISCONSIN AVENUE  STE 600 647","CHEVY CHASE","MD","20815"
718086,"5425 WISCONSIN AVENUE SUITE 600 647","CHEVY CHASE","MD","20815"
718087,"5425 WISCONSIN AVENUE SUITE 600","CHEVY CHASE","MD","20815"
718088,"5425 YESTERDAY DRIVE","MADISON","WI","53718"
718089,"54259 AVENIDA DIAZ","LA QUINTA","CA","92253"
718090,"5426 13TH STREET","LUBBOCK","TX","79416"
718091,"5426 85TH AVE T1","NEW CARROLLTON","MD","20784"
718092,"5426 BEAR CUB DR NW","WALKER","MN","56484"
718093,"5426 BELMONT RD","HERNANDO","MS","38632"
718094,"5426 COLUMBIA RD","ORANGEBURG","SC","29118"
718095,"5426 FLOWERDALE AVE","CLEVELAND","OH","44144"
718096,"5426 FLOWERDALE AVENUE","CLEVELAND","OH","44144"
718097,"5426 HIAWATHA DR","CHEBOYGAN","MI","49721"
718098,"5426 HIGHLAND PRESEVE DR","MABLETON","GA","30126"
718099,"5426 HIGHWAY 174","ADAMS RUN","SC","29426"
718100,"5426 LAKEFORD LN","BOWIE","MD","20720"
718101,"5426 LAUREN COVE","ELLENWOOD","GA","30294"
718102,"5426 LINDEN CHASE LN","HOUSTON","TX","77066"
718103,"5426 MARLEY DR","MCLEANSVILLE","NC","27301"
718104,"5426 MEADOWCREEK DR APT A1032","DALLAS","TX","75248"
718105,"5426 MEADOWCREEK DRIVE APT 1025","DALLAS","TX","75248"
718106,"5426 N KENT","WHITEFISH BAY","WI","53217"
718107,"5426 N RD 68 STE D BOX 105","PASCO","WA","99301"
718108,"5426 N RD 68 STE D BOX 105","PASCO","WA","99310"
718109,"5426 OAKMONT DR","PACE","FL","32571"
718110,"5426 PLANTATION DR","SAN ANTONIO","TX","78230"
718111,"5426 POST OAK MANOR","HOUSTON","TX","77085"
718112,"5426 RED ROCK DRIVE","ROBSTOWN","TX","78380"
718113,"5426 RUTLAND STREET","PHILADELPHIA","PA","19124"
718114,"5426 S GILLETTE AVE","TULSA","OK","74107"
718115,"5426 SHATTALON DRIVE","WINSTON-SALEM","NC","27106"
718116,"5426 TILDENS GROVE BLVD","WINDERMERE","FL","34786"
718117,"5426 W ISABELLA RD","SHEPHERD","MI","48883"
718118,"54263 RD X","BURLINGTON","CO","80807"
718119,"5427 30TH STREET","LUBBOCK","TX","79407"
718120,"5427 ALBERT DRIVE","WINTER PARK","FL","32792"
718121,"5427 ASHLAND DRIVE","FT WAYNE","IN","46835"
718122,"5427 BRANDY CIR W","FORT MYERS","FL","33919"
718123,"5427 CAMDEN AVE N","BROOKLYN CENTER","MN","55430"
718124,"5427 CARLEY AVENUE","WHITTIER","CA","90601"
718125,"5427 CHESTNUT HILL ROAD","CENTER VALLEY","PA","18034"
718126,"5427 CORNELL ROAD","CINCINNATI","OH","45242"
718127,"5427 COUNTRY CLUB LANE","GRAND BLANC","MI","48439"
718128,"5427 DRIFTWOOD","SHAWNEE","KS","66220"
718129,"5427 FOREST BRIDGE WAY","HOUSTON","TX","77066"
718130,"5427 GASKILL BRANCH RD","SANTA FE","TN","38482"
718131,"5427 GATWICK COURT","KALAMAZOO","MI","49009"
718132,"5427 HIGHCASTLE DR","FORT COLLINS","CO","80525"
718133,"5427 HIGHCASTLE","FORT COLLINS","CO","80525"
718134,"5427 HOLLY ROAD","BEDFORD HTS","OH","44146"
718135,"5427 KYLES LANE","LIBERTY TOWNSHIP","OH","45044"
718136,"5427 LAKE MARGARET DR UNIT J","ORLANDO","FL","32812"
718137,"5427 LINDENWOOD ST","KALAMAZOO","MI","49004"
718138,"5427 MESQUITE RIDGE","FULSHEAR","TX","77441"
718139,"5427 MT HOLLY ROAD","EAST NEW MARKET","MD","21631"
718140,"5427 N MISSISSIPPI AVE","PORTLAND","OR","97217"
718141,"5427 N MONTANA AVE","PORTLAND","OR","97217"
718142,"5427 N STATE STREET","FRESNO","CA","93722"
718143,"5427 OCEAN MIST LOOP","BLAINE","WA","92830"
718144,"5427 OCEAN MIST LOOP","BLAINE","WA","98230"
718145,"5427 OLD LIBERTY ROAD","FRANKLINVILLE","NC","27248"
718146,"5427 OLDFIELD AVENUE","HOMOSASSA","FL","34446"
718147,"5427 PARK LAKE","SAN ANTONIO","TX","78244"
718148,"5427 S UNIVERSITY DR UNIT C","FARGO","ND","58104"
718149,"5427 SAINT LEGER DRIVE","PROVIDENCE FORGE","VA","23140"
718150,"5427 SAN PATRICIO DR","GRAND PRAIRIE","TX","75052"
718151,"5427 ST HWY 29","DENMARK","WI","54208"
718152,"5427 STATE ROAD 46 EAST","NASHVILLE","IN","47448"
718153,"5427 STATELY OAKS STREET","FORT PIERCE","FL","34981"
718154,"5427 TALON COURT","CLARKSVILLE","MD","21029"
718155,"5427 W OHIO ST","CHICAGO","IL","60644"
718156,"5427 WEST 27TH AVENUE","HIALEAH","FL","33016"
718157,"5427 WESTON DR","FULSHEAR","TX","77441"
718158,"5427 WHISPER GLEN DRIVE","ARLINGTON","TX","76017"
718159,"54271 US HWY 2 APT 28","GLASGOW","MT","59230"
718160,"54279 INVERNESS WAY","LAQUINTA","CA","92253"
718161,"5428 CHANDLEY FARM CIR","CENTREVILLE","VA","20120"
718162,"5428 DUSTY LANE","BURLINGTON","WA","98233"
718163,"5428 E 88 ST SOUTH","TULSA","OK","74137"
718164,"5428 EAST BROOK DR","CRESTVIEW","FL","32539"
718165,"5428 FACTORS WALKWAY","SANFORD","FL","32771"
718166,"5428 GODDARD STREET","SHAWNEE","KS","66203"
718167,"5428 HILLTOP AVE","BALTIMORE","MD","21206"
718168,"5428 KESTERBROOKE BLVD","KNOXVILLE","TN","37918"
718169,"5428 MARSH ROAD","CHINA","MI","48054"
718170,"5428 MASON MANOR DRIVE","RICHMOND","VA","23223"
718171,"5428 N 9TH ST","TAMPA","FL","33604"
718172,"5428 N LOVEJOY AVE","CHICAGO","IL","60630"
718173,"5428 N LUDLAM","CHICAGO","IL","60630"
718174,"5428 N LYDELL AVENUE","WHITEFISH BAY","WI","53217"
718175,"5428 OAK TRAIL","DALLAS","TX","75232"
718176,"5428 SONOMA PLACE","SAN DIEGO","CA","92130"
718177,"5428 SOUTH NC HWY 18","BOOMER","NC","28606"
718178,"5428 TUSCANY LN","SORRENTO","LA","70778"
718179,"5428 WHITEHURST ARCH","VIRGINIA BEACH","VA","23464"
718180,"5428 WILLIAMS PLACE CT","WINSTON SALEM","NC","27106"
718181,"5428","KENNER RIDGE RD","NC","28216"
718182,"5429 45TH STREET","LUBBOCK","TX","79414"
718183,"5429 ALDRIN STREET","DUBLIN","VA","24084"
718184,"5429 BLUFTON CT","CHARLESTON","SC","29418"
718185,"5429 BRANDON BLUFF WAY","RICHMOND","VA","23223"
718186,"5429 CHIPPER LANE","MILTON","FL","32571"
718187,"5429 CHIPPER LANE","PENSACOLA","FL","32571"
718188,"5429 COLLIER LN","JEFFERSON CITY","MO","65109"
718189,"5429 COLONIAL CIRCLE NORTH","MOBILE","AL","36618"
718190,"5429 COVE POINT DRIVE","LAS VEGAS","NV","89130"
718191,"5429 E 27TH ST","INDIANAPOLIS","IN","46218"
718192,"5429 EAST BROOK DR","CRESTVIEW","FL","32539"
718193,"5429 ENDICOTT LANE","COLUMBIA","MD","21044"
718194,"5429 INDIANA AVENUE","KANSAS CITY","MO","64130"
718195,"5429 INDIANA","KANSAS CITY","MO","64130"
718196,"5429 LOGGERHEAD PLACE","WOODBRIDGE","VA","22193"
718197,"5429 N MILWAUKEE RIVER PARKWAY","MILWAUKEE","WI","53209"
718198,"5429 N MILWAUKEE RIVER PKWY","MILWAUKEE","WI","53209"
718199,"5429 N SPAULDING AVE","CHICAGO","IL","60625"
718200,"5429 NC 211 E","CLARKTON","NC","28433"
718201,"5429 NEWCASTLE AVENUE 301","ENCINO","CA","91316"
718202,"5429 NORFOLK RD","PORTSMOUTH","VA","23703"
718203,"5429 PARKER HENDERSON RD LOT 04","DUNCANVILLE","TX","76119"
718204,"5429 PARKER HENDERSON RD LOT 04","FORT WORTH","TX","76119"
718205,"5429 POOLBEG ST","CANAL WINCHESTER","OH","43110"
718206,"5429 S DREXEL AVE","CHICAGO","IL","60615"
718207,"5429 S EAST VIEW PARK APT 3","CHICAGO","IL","60615"
718208,"5429 S WOODLAWN AVE APT 1","CHICAGO","IL","60615"
718209,"5429 SABIN COURT","MURFREESBORO","TN","37128"
718210,"5429 SAVOY CHASE XING","LITHONIA","GA","30038"
718211,"5429 SCHULTZ DRIVE","SYLVANIA","OH","43560"
718212,"5429 ST RT 309","ADA","OH","45810"
718213,"5429 TALMO ST","NORTH LAS VEGAS","NV","89081"
718214,"5429 TALUS TRACE LANE","CHARLOTTE","NC","28215"
718215,"5429 VILLAGE","SALINE","MI","48176"
718216,"5429 WILBARGER ST","FORT WORTH","TX","76119"
718217,"54295 ADDISON ROAD","INDEPENDENCE","LA","70443"
718218,"54297 SCARBORO WAY","SHELBY TWONSHIP","MI","48316"
718219,"5429B HIDALGO STREET","Houston","TX","77056"
718220,"5429E 1117N","DEMOTTE","IN","46310"
718221,"542A HAMILTON AVENUE","NASHVILLE","TN","37203"
718222,"543   28 3/4 ROAD","GRAND JUNCTION","CO","81501"
718223,"543 11TH ST","TELL CITY","IN","47586"
718224,"543 14TH AVENUE","PATERSON","NJ","07504"
718225,"543 14TH STREET","SANTA MONICA","CA","90402"
718226,"543 237TH AVE SE","SAMMAMISH","WA","98074"
718227,"543 2ND AVE E","COGGON","IA","52218"
718228,"543 44TH STREET","RICHMOND","CA","94805"
718229,"543 6TH STREET","DOVER","NH","03820"
718230,"543 AMHURSTSTREET","CONCORD","NC","28025"
718231,"543 ANDERSON","MARKS","MS","38646"
718232,"543 ANN STREET","STROUDSBURG","PA","18360"
718233,"543 AUBURN AVENUE","ATL;ANTA","GA","30321"
718234,"543 AUGUSTA CIR","NORTH LIBERTY","IA","52317"
718235,"543 BALFOUR DR","DECATUR","GA","30032"
718236,"543 BANNOCK AVE","AMERICANFALLS","ID","83211"
718237,"543 BASSETT AVENUE","COLUMBUS","OH","43203"
718238,"543 BEACH 129TH STREET","BELLE HARBOR","NY","11694"
718239,"543 BEACH POND ROAD","WOLFEBORO","NH","03894"
718240,"543 BEECHWOOD LANE","PAINESVILLE","OH","44077"
718241,"543 BLOOMFIELD AVE","DREXEL HILL","PA","19026"
718242,"543 BLOOMFIELD AVENUE","DREXEL HILL","PA","19026"
718243,"543 BROADWAY","MASSAPEQUA","NY","11758"
718244,"543 CANDLER ST NEAY","ATLANTA","GA","30307"
718245,"543 CANTERBURY LANE","BOSSIER CITY","LA","71111"
718246,"543 CATALPA DRIVE","BIRMINGHAM","MI","48009"
718247,"543 CEDAR BRANCH DR","LEAGUE CITY","TX","77573"
718248,"543 CEDAR ST","CHILLICOTHE","OH","45601"
718249,"543 CINCINNATI AVENUE","SAN ANTONIO","TX","78201"
718250,"543 CO RD 208","BRIDGEPORT","AL","35740"
718251,"543 COOPER AVENUE","MILFORD","OH","45150"
718252,"543 CORBITT DRIVE","BURLINGAME","CA","94010"
718253,"543 CORDILLERA TRACE","BOERNE","TX","78006"
718254,"543 COUNTRY CLUB DR B336","SIMI VALLEY","CA","93065"
718255,"543 COUNTRY CLUB DRIVE","SIMI VALLEY","CA","93065"
718256,"543 CREEKVIEW OVERLOOK","STOCKBRIDGE,","GA","30281"
718257,"543 CRESCENT DR","THOMPSON","ND","58278"
718258,"543 CROSS GREEN LANE","CREVE COEUR","MO","63141"
718259,"543 DOAN TOWN ROAD","BURNSVILLE","NC","28714"
718260,"543 DOLLY HARRIS ROAD","SENOIA","GA","30276"
718261,"543 DOLLY PARTON PARKWAY","SEVIERVILLE","TN","37862"
718262,"543 DORAL COUNTRY DRIVE","NASHVILLE","TN","37221"
718263,"543 DRYSDALE DRIVE","JACKSONVILLE","FL","32257"
718264,"543 DRYSDALE DRIVE","ORANGE PARK","FL","32065"
718265,"543 E 4 S","REXBURG","ID","83440"
718266,"543 E 4TH ST","NEWPORT","KY","41071"
718267,"543 E 600 S","SALT LAKE CITY","UT","84102"
718268,"543 E 7TH PL","MESA","AZ","85203"
718269,"543 E BLUEBIRD STREET","GARDNER","KS","66030"
718270,"543 E COUNTY LINE RD","SPRINGFIELD","OH","45502"
718271,"543 E GAGE AVE","MEMPHIS","TN","38106"
718272,"543 E GLASS AVE","SPOKANE","WA","99207"
718273,"543 E KINGS COLLEGE DR","ST JOHNS","FL","32259"
718274,"543 EAGLE BROOK LN","NAPERVILLE","IL","60565"
718275,"543 EAGLESHAM DRIVE","CHRISTIANA","TN","37037"
718276,"543 EAST 108TH STREET APT 4","BROOKLYN","NY","11236"
718277,"543 EAST 36TH STREET","INDIANAPOLIS","IN","46205"
718278,"543 EAST CUMBERLAND ROAD","ORANGE","CA","92865"
718279,"543 EAST DIVISION STREET","KEWANEE","IL","61443"
718280,"543 ELDERT LANE 2ND FL","BROOKLYN","NY","11208"
718281,"543 ENCHANTED PARKWAY","MANCHESTER","MO","63021"
718282,"543 FIELDSTREAM WAY","LAWRENCEVILLE","GA","30044"
718283,"543 FIRETOWER ROAD","DUBLIN","GA","31021"
718284,"543 FM 1564","GREENVILLE","TX","75402"
718285,"543 FOXGLOVE LANE","WYNNEWOOD","PA","19096"
718286,"543 FRANKLIN AVENUE","BROOKLYN","NY","11238"
718287,"543 GLENAIRE WALK SE","ATLANTA","GA","30316"
718288,"543 GLENAIRE WALK","ATLANTA","GA","30316"
718289,"543 GOLF GLEN DRIVE","SAN MARCUS","CA","92069"
718290,"543 GRAND STREET 2FL","BROOKLYN","NY","11211"
718291,"543 GRASSMEADE WAY","SNELLVILLE","GA","30078"
718292,"543 GVANDE VISTA DRIVE","KALISPELL","MT","59901"
718293,"543 HAMILTON HILLS DRIVE","AUBURN","AL","36830"
718294,"543 HANNAH AVE","FOREST PARK","IL","60130"
718295,"543 HARBOR BLVD STE 201","DESTIN","FL","32541"
718296,"543 HUGO STREET","SAN FRANCISCO","CA","94122"
718297,"543 HURLESS ROAD","CHILLICOTHE","OH","45601"
718298,"543 INGLESIDE DR","BATON ROUGE","LA","70806"
718299,"543 ISLAND VIEW DRIVE","CAMANO ISLAND","WA","98282"
718300,"543 LAFAYETTE AVE","GRAND RAPIDS","MI","49503"
718301,"543 LAFAYETTE AVE","GRAND","MI","49503"
718302,"543 LAKE CHARLES ST","NORTH LAS VEGAS","NV","89031"
718303,"543 LAKETOWER DRIVE UNIT 131","LEXINGTON","KY","40502"
718304,"543 LAKETOWER DRIVE UNIT 141","LEXINGTON","KY","40502"
718305,"543 LAKEVIEW CREST DRIVE","PELL CITY","AL","35128"
718306,"543 LARAMIE TRAIL","WYOMING","OH","45215"
718307,"543 LINCOLN AVE","SAINT PAUL","MN","55102"
718308,"543 LINDEN VIEW DR","FORT COLLINS","CO","80524"
718309,"543 LORIDANS DRIVE","ATLANTA","GA","30342"
718310,"543 LOST BRANCH","LEXINGTON","SC","29072"
718311,"543 LOWRIDER DR","RICHBURG","SC","29729"
718312,"543 MADISON ST NE","WASHINGTON","DC","20011"
718313,"543 MAGNOLIA AVE","SEBRING","FL","33870"
718314,"543 MAIN ST UNIT 705","NEW ROCHELLE","NY","10801"
718315,"543 MAIN STREET UNIT 302","NEW ROCHELLE","NY","10801"
718316,"543 MARTIN LUTHER BLVD","INDIANAPOLIS","IN","46231"
718317,"543 MCBRIDE POINTE DRIVE","WILDWOOD","MO","63011"
718318,"543 MEGAN LANE","WEST JEFFERSON","NC","28694"
718319,"543 MERCER ROAD","BUTLER","PA","16001"
718320,"543 MIDDLE BRANCH ROAD","NEW BOSTON","NH","03070"
718321,"543 MILDRED AVE","CAHOKIA","IL","62206"
718322,"543 N   WOOD DALE ROAD","WOOD DALE","IL","60191"
718323,"543 N CAMBRIDGE ST","ORANGE","CA","92867"
718324,"543 N CHURCH","GOLIAD","TX","77963"
718325,"543 N MAIN ST","HUNTSVILLE","MO","65259"
718326,"543 NE 47ST","BOCA RATON","FL","33431"
718327,"543 NEW SCOTLAND AVENUE APT 1","ALBANY","NY","12208"
718328,"543 NORTH 22ND STREET","PHILADELPHIA","PA","19130"
718329,"543 NORTH PARK DRIVE","JACKSON","MS","39206"
718330,"543 NORTHGATE DR","GREENWOOD","IN","46143"
718331,"543 NORVELL ST","EL CERRITO","CA","94530"
718332,"543 NOSTRAND AVENUE","BROOKLYN","NY","11216"
718333,"543 NW CRIPPLE CREEK STREET","LAKE CITY","FL","32055"
718334,"543 OAKLAND MEADOWS BLVD","WILMINGTON","OH","45177"
718335,"543 OLD WESTFIELD RD","PILOT MOUNTAIN","NC","27041"
718336,"543 PALO VERDE COMMONS","FREMONT","CA","94539"
718337,"543 PANDORA RD","DERRY","PA","15627"
718338,"543 PANDORA ROAD","DERRY","PA","15627"
718339,"543 PAR DRIVE SUITE 4","MARION","AR","72364"
718340,"543 PARKER AVENUE SOUTH","MERIDEN","CT","06450"
718341,"543 PLEASANT ST","BLOOMINGTON","WI","53804"
718342,"543 RADCLIFFE AVE","PACIFIC PALISADES","CA","90272"
718343,"543 REVERE DRIVE","YORKTOWN HEIGHTS","NY","10598"
718344,"543 RICE ROAD","SAN ANTONIO","TX","78220"
718345,"543 RIDGE VIEW CROSSING","WOODSTOCK","GA","30188"
718346,"543 RIVER ROAD","FAIR HAVEN","NJ","07704"
718347,"543 RIVER ROAD","LISBON","CT","06351"
718348,"543 S CENTER STREET","CASPER","WY","82601"
718349,"543 S FIFTH STREET","FAIRBURY","IL","61379"
718350,"543 S FIFTH STREET","FAIRBURY","IL","61739"
718351,"543 S SEVENTH STREET","SHARPSVILLE","PA","16150"
718352,"543 SEQUOIA DRIVE","DAVISON","MI","48423"
718353,"543 SEQUOIA","DAVISON","MI","48423"
718354,"543 SHERWOOD DRIVE","BLUE RIDGE","VA","24064"
718355,"543 SKYLINE DR W","LAKELAND","FL","33801"
718356,"543 SNOWDEN ROAD","UPPER DARBY","PA","19082"
718357,"543 SOUTH 900 EAST A15","SALT LAKE CITY","UT","84102"
718358,"543 SOUTH CURTIS AVENUE","KANKAKEE","IL","60901"
718359,"543 SOUTH FERRIS AVE","LOS ANGELES","CA","90022"
718360,"543 SUMMIT RIDGE","DUNCANVILLE","TX","75116"
718361,"543 TATE RD","CORINTH","ME","04427"
718362,"543 THIRD STREET","GREENPORT","NY","11944"
718363,"543 TIKELL DR","CRESTVIEW","FL","32536"
718364,"543 TOBIN DR","INKSTER","MI","48141"
718365,"543 TOLSON RD","LAFAYETTE","LA","70508"
718366,"543 TWELE ROAD","GREENOCK","PA","15047"
718367,"543 UNION AVE SE APT 1","GRAND RAPIDS","MI","49503"
718368,"543 VIA SORRENTO","MORGAN HILL","CA","95037"
718369,"543 W 49TH STREET","NEW YORK","NY","10019"
718370,"543 W 6TH ST","TEMPE","AZ","85281"
718371,"543 W EDGEWOOD RD","LOMBARD","IL","60148"
718372,"543 W FOX FARM ROAD","LARKSPUR","CO","80118"
718373,"543 WALNUT STREET","HAMMONTON","NJ","08037"
718374,"543 WEST CLAPIER ST","PHILADELPHIA","PA","19144"
718375,"543 WEST ELM STREET","LIMA","OH","45801"
718376,"543 WEST SHORE RD","SOUTH HERO","VT","05486"
718377,"543 WEST WASHINGTON","CAMDEN","AR","71701"
718378,"543 WESTBURY LANE","GEORGETOWN","TX","78633"
718379,"543 WILLIAM D FITCH PKWY STE 104","COLLEGE STATION","TX","77845"
718380,"543 WINDY HILL ROAD","WEST CHESTER","PA","19382"
718381,"543 WOODFIRE WAY","CASSELBERRY","FL","32707"
718382,"543-A BROAD ST","PORTSMOTH","VA","23707"
718383,"5430 152ND STREET","FLUSHING","NY","11355"
718384,"5430 160TH PL NE","REDMOND","WA","98052"
718385,"5430 7TH ST NW","TILLAMOOK","OR","97141"
718386,"5430 ALVERN CIRCLE D201","LOS ANGELES","CA","90045"
718387,"5430 BARTIG WAY","CITRUS HEIGHTS","CA","95621"
718388,"5430 BEECH AVE","BETHESDA","MD","20814"
718389,"5430 BROOKLINE DR","ORLANDO","FL","32819"
718390,"5430 BRUNSWICK DRIVE","CUMMING","GA","30040"
718391,"5430 CALIFORNIA AVE SW 3A","SEATTLE","WA","98136"
718392,"5430 CANDLEIST DR","HOUSTON","TX","77091"
718393,"5430 CANDLEMIST DR","HOUSTON","TX","77091"
718394,"5430 CINDERLANE PARKWAY","ORLANDO","FL","32808"
718395,"5430 CLARK COURT","MEAD","CO","80542"
718396,"5430 COUNTY RD 49","RANBURNE","AL","36273"
718397,"5430 E CARITA STREET","LONG BEACH","CA","90808"
718398,"5430 E OLYMPIC BLVD","LOS ANGELES","CA","90022"
718399,"5430 E YATER RD","BRONAUGH","MO","64728"
718400,"5430 ESPUELA LANE","BAYTOWN","TX","77521"
718401,"5430 ETTA DRIVE","MT. OLIVE","AL","35117"
718402,"5430 FAIRVIEW AVE","DOWNERS GROVE","IL","60515"
718403,"5430 FAIRVIEW AVENUE","DOWNERS GROVE","IL","60515"
718404,"5430 FAIRWAY COURT","DISCOVERY BAY","CA","94505"
718405,"5430 FORESTER DR","HIGH POINT","NC","27265"
718406,"5430 GLEN LAKES DR SUITE 150","DALLAS","TX","75231"
718407,"5430 HARBURY LANE","SUWANEE","SC","30024"
718408,"5430 HARROW TERRACE","SARASOTA","FL","34241"
718409,"5430 HEATHERDOWNS BOULEVARD APT 3","TOLEDO","OH","43614"
718410,"5430 HESPERUS DRIVE","COLUMBIA","MD","21044"
718411,"5430 HICKORY PLACE WAY","GLEN ALLEN","VA","23059"
718412,"5430 HIGHWAY 35","PARKDALE","OR","97041"
718413,"5430 HUNTS DR","LINCOLN","NE","68144"
718414,"5430 HUNTS DR","LINCOLN","NE","68512"
718415,"5430 HWY 129 S","CLEVELAND","GA","30528"
718416,"5430 JAEGER ROAD SUITE 202","NAPLES","FL","34109"
718417,"5430 JIMMY CARTER BLVD STE 234","NORCROSS","GA","30093"
718418,"5430 LAKEFORD LN","BOWIE","MD","20720"
718419,"5430 LBJ FREEWAY SUITE 1200","DALLAS","TX","75240"
718420,"5430 LINDA VISTA RD APT 15","SAN DIEGO","CA","92110"
718421,"5430 LYONS ROAD  APT 306","COCONUT CREEK","FL","33301"
718422,"5430 LYONS ROAD APT 106","COCONUT CREEK","FL","33073"
718423,"5430 LYONS ROAD APT 306","COCONUT CREEK","FL","33073"
718424,"5430 MAGNOLIA AVENUE","SAVANNAH","GA","31406"
718425,"5430 MCCULLOCH CIRCLE","HOUSTON","TX","77056"
718426,"5430 MERRIAM ST","BETHESDA","MD","20814"
718427,"5430 MOSHOLU AVE","BRONX","NY","10471"
718428,"5430 MURIETTA  AVENUE","SHERMAN OAKS","CA","91401"
718429,"5430 N DESERT SAGUARO CT","TUCSON","AZ","85745"
718430,"5430 N SHERIDAN RD 304","CHICAGO","IL","60640"
718431,"5430 NEW SMYRNA CIRCLE","ANCHORAGE","AK","99508"
718432,"5430 NORTH US HIGHWAY 1 LOT 10","MELBOURNE","FL","32940"
718433,"5430 NW 107 AVE APT 607","MIAMI","FL","33178"
718434,"5430 OCANA","LAKEWOOD","CA","90713"
718435,"5430 OXBOW DRIVE","SAN ANTONIO","TX","78228"
718436,"5430 PARKFORD CIRCLE","GRANITE BAY","CA","95746"
718437,"5430 PINE SPRINGS CT","CONROE","TX","77304"
718438,"5430 PULASKI AVENUE","PHILADELPHIA","PA","19144"
718439,"5430 RUSKIN","SAINT LOUIS","MO","63115"
718440,"5430 S MALTA ROAD","MALTA","IL","60150"
718441,"5430 SARATOGA BLVD APT 41","CORPUS CHRISTI","TX","78413"
718442,"5430 SE 100TH AVE","PORTLAND","OR","97266"
718443,"5430 SHASTA AVE APTC","SAN PABLO","CA","94806"
718444,"5430 SOUTH BYRNESVILLE ROAD","HOUSE SPRINGS","MO","63051"
718445,"5430 STEVENS CREEK BOULEVARD","CUPERTINO","CA","95014"
718446,"5430 STILLWATER DR","NEW ORLEANS","LA","70128"
718447,"5430 SUNNYSIDE RD","CAPE CHARLES","VA","22310"
718448,"5430 TRABUCO RD","IRVINE","CA","92620"
718449,"5430 VILLAGE DRIVE","ROCKLEDGE","FL","32955"
718450,"5430 WAGON WHEEL DRIVE","HELENA","MT","59602"
718451,"5430 WARNER ROAD","CLEVELAND","OH","44125"
718452,"5430 WEST CRYSTAL STREET","CHICAGO","IL","60651"
718453,"5430 WEST MONROE","CHICAGO","IL","60644"
718454,"5430 WEST MONROE","CHICAHO","IL","60644"
718455,"5430 WILDLIFE WAY","FLORENCE","MT","59833"
718456,"5430 YAKIMA AVENUE","TACOMA","WA","98408"
718457,"54300 CAPTINA DRIVE","POW","OH","43942"
718458,"54303 ROY BOOTH RD","CALLAHAN","FL","32001"
718459,"54306 E 353 RD","JAY","OK","74346"
718460,"5431 ANGORA TERRACE APT A","PHILADELPHIA","PA","19143"
718461,"5431 ANGORA TERRACE APT","PHILADELPHIA","PA","19143"
718462,"5431 ANGORA TERRACE","PHILADELPHIA","PA","19143"
718463,"5431 BARKER CYPRESS ROAD","HOUSTON","TX","77084"
718464,"5431 BOCA GRANDA CIR","DOVER","FL","33527"
718465,"5431 BROADWAY","EVERETT","WA","98203"
718466,"5431 CAMERON ELLIS DRIVE 105","WESTERVILLE","OH","43081"
718467,"5431 CHARING WAY AVENUE","BATON ROUGE","LA","70817"
718468,"5431 COUNTRY CLUB PKWY","SAN JOSE","CA","95138"
718469,"5431 E SHAW BUTTE DR","SCOTTSDALE","AZ","85254"
718470,"5431 EASTWIND ROAD","WILMINGTON","NC","28403"
718471,"5431 FLICKER WAY","HUBER HEIGHTS","OH","45424"
718472,"5431 IRVING AVENUE NORTH","MINNEAPOLIS",NA,NA
718473,"5431 LONGWOOD CT","ADA","MI","49301"
718474,"5431 MARYLAND AVENUE N","CRYSTAL","MN","55428"
718475,"5431 MASTER STREET 2B","PHILADELPHIA","PA","19131"
718476,"5431 MIDDLEFIELD DR","SAN ANTONIO","TX","78242"
718477,"5431 MILLERS GLEN LANE","MEMPHIS","TN","38125"
718478,"5431 MORNINGSIDE DR","NEW ORLEANS","LA","70126"
718479,"5431 N ORACLE RD STE 101","TUCSON","AZ","85704"
718480,"5431 N SONORA LN","ELOY","AZ","85131"
718481,"5431 NE 35TH ST LOT 36","SILVER SPRINGS","FL","34488"
718482,"5431 NORTH HWY 99","CENTURY","FL","32535"
718483,"5431 NW 15TH STREET 3","MARGATE","FL","33063"
718484,"5431 OJIBWAY AVE N","OAK PARK HEIGHTS","MN","55082"
718485,"5431 OJIBWAY AVE N","OAK PARK HEIGHTS","MN","55083"
718486,"5431 OSCEOLA AVE","INTERCESSION CITY","FL","33848"
718487,"5431 S 100 E","WASHINGTON","IN","47501"
718488,"5431 SE 27TH ST","DES MOINES","IA","50320"
718489,"5431 SE 27TH STREET","DES MOINES","IA","50320"
718490,"5431 SPRING LAKE WAY","BALTIMORE","MD","21212"
718491,"5431 STRAWBERRY HILL DRIVE APT C","CHARLOTTE","NC","28211"
718492,"5431 SUPERIOR DRIVE","BATON ROUGE","LA","70816"
718493,"5431 TARENA CT SW","CEDAR RAPIDS","IA","52404"
718494,"5431 TWIN CREEKS DRIVE","VALRICO","FL","33596"
718495,"5431 US HIGHWAY 93 S","CONNER","MT","59827"
718496,"5431 VIA DELRAY","DELRAY BEACH","FL","33484"
718497,"5431 VICKERY BLVD","DALLAS","TX","75206"
718498,"5431 W GLADYS AVE","CHICAGO","IL","60644"
718499,"5431 W VAN BUREN ST","CHICAGO-METRO-AREA","IL","60644"
718500,"5431 W VAN BUREN ST","CHICAGO","IL","60644"
