"ID","Address","City","State","Zip"
278001,"185 DAYTON VALLEY VIEW","COLONA","IL","61241"
278002,"185 DEL MONTE AVENUE","CHULA VISTA","CA","91911"
278003,"185 DELWARE AVENUE","LAKE HELEN","FL","32744"
278004,"185 DUB WALKER DR","JACKSON","GA","30233"
278005,"185 DUCK HOLLOW AVE","LAS VEGAS","NV","89148"
278006,"185 DUNCAN SPRINGS RD","ATHENS","GA","30606"
278007,"185 DUNE RD","WESTHAMPTON BEACH","NY","11978"
278008,"185 E AUBURN AVE","PUEBLO WEST","CO","81007"
278009,"185 E KEYSER HEIGHT DR","PIKESVILLE","MD","41501"
278010,"185 E MAIN ST SUITE 402","BENTON HARBOR","MI","49022"
278011,"185 E MAIN ST","ORWELL","OH","44076"
278012,"185 E NORWOOD","MEMPHIS","TN","38109"
278013,"185 E OTTAWA ST","RICHWOOD","OH","43344"
278014,"185 EAST 159TH STREET APT 6A","BRONX","NY","10451"
278015,"185 EAST 3RD STREET","NEW YORK","NY","10009"
278016,"185 EAST NELSON AVE","WASILLA","AK","99654"
278017,"185 EAST ROAD","TIVERTON","RI","02878"
278018,"185 EDWARDS ST","RUTHERFORDTON","NC","28139"
278019,"185 ELIZABETH LAKE RD","PONTIAC","MI","48323"
278020,"185 ELMWOOD LANE","NAPLES","FL","34112"
278021,"185 ELROD ROAD","MAXTON","NC","28364"
278022,"185 EMBASSY CT","INWOOD","WV","25428"
278023,"185 EMBASSY CT","MARTINSBURG","WV","25405"
278024,"185 ESTANCIA DR UNIT 208","SAN JOSE","CA","95134"
278025,"185 ESTANCIA DRIVE APT 453","SAN JOSE","CA","95134"
278026,"185 EUCLID AVE","DELAWARE","OH","43015"
278027,"185 EXCHANGE ST","ROCHESTER","NY","14609"
278028,"185 FAIRWAY DRIVE","DIKE","IA","50624"
278029,"185 FINN CIRCLE","SAVANNAH","GA","31419"
278030,"185 FITZPATRICK RD","BECKLEY","WV","25801"
278031,"185 FLOYD CLARK ROAD","STATESBORO","GA","30461"
278032,"185 FOSTER ROAD","STATEN ISLAND","NY","10309"
278033,"185 FOUR SPRINGS RD","WYALUSING","PA","18853"
278034,"185 FOXGLOVE DRIVE","COVINGTON","GA","30016"
278035,"185 FRANKLIN STREET","NEWTOM","MA","02458"
278036,"185 FREDERICK DRIVE","GEORGETOWN","SC","29440"
278037,"185 FREEDLANDER DR","CLYDE","NC","28721"
278038,"185 FRIENDSHIP LN","AFTON","TN","37616"
278039,"185 FRONT ST","PERTH AMBOY","NJ","08861"
278040,"185 FRONTIER","PALM COAST","FL","32137"
278041,"185 FUJITA RD","TUMON","GU","96913"
278042,"185 GARFIIELD AVE","JERSEY","NJ","07305"
278043,"185 GENESEE STREET","UTICA","NY","13501"
278044,"185 GINGER LN","SOQUEL","CA","95073"
278045,"185 GLEN AVENUE","SEA CLIFF","NY","11579"
278046,"185 GRANGE RD LOWER SUITE 1","OTISVILLE","NY","10963"
278047,"185 GREEN ACRES ROAD","BOTTINEAU","ND","58318"
278048,"185 GREWIA PLACE","HONOLULU","HI","96818"
278049,"185 GREYSTONE DR","BASTROP","TX","78602"
278050,"185 HABERSHAM PL","FAYETTEVILLE","GA","30214"
278051,"185 HALL ST 1510","BROOKLYN","NY","11205"
278052,"185 HALL ST APT 1506","BROOKLYN","NY","11205"
278053,"185 HALL ST APT 414","BROOKLYN","NY","11205"
278054,"185 HALL ST","BROOKLYN","NY","11205"
278055,"185 HALL STREET / 506","BROOKLYN","NY","11205"
278056,"185 HALL STREET 1101","BROOKLYN","NY","11205"
278057,"185 HALL STREET","BROOKLYN","NY","11205"
278058,"185 HANCOCK ST","EVERETT","MA","02155"
278059,"185 HART STREET","BROOKLYN","NY","11206"
278060,"185 HAYSVILLE RD","EKRON","KY","40108"
278061,"185 HEATON PLACE TRAIL","COVINGTON","GA","30016"
278062,"185 HEDGE APPLE DRIVE","STRAFFORD","MO","65757"
278063,"185 HERNDON ROAD","VIRGINIA","VA","23462"
278064,"185 HERON OAKS","ROCKPORT","TX","78382"
278065,"185 HERRING POND RD","PLYMOUTH","MA","02360"
278066,"185 HIGH ST","EXETER","NH","03833"
278067,"185 HIGH STREET","NEWBURYPORT","MA","01950"
278068,"185 HILLSIDE AVENUE","KENTFIELD","CA","94904"
278069,"185 HILLSIDE COVE","WOODBURY","TN","37190"
278070,"185 HONORS COURSE DR","LAS VEGAS","NV","89148"
278071,"185 HOPE SPRINGS ROAD","LEXINGTON","SC","29072"
278072,"185 HOYT STREET","KEARNY","NJ","07032"
278073,"185 HUNTINGTON DR NW","WARREN","OH","44481"
278074,"185 HWY 92","PLEASANTVILLE","IA","50225"
278075,"185 IDLE WILD DRIVE","HOPE HULL","AL","36043"
278076,"185 IRA LANE","PORT MATILDA","PA","16870"
278077,"185 IRWIN MILL ROAD","CLINTON","TN","37716"
278078,"185 ISOLINA LANE","CHARLOTTESVILLE","VA","22902"
278079,"185 IVYWOOD LANE","ROSWELL","GA","30076"
278080,"185 JACKS RD","CLEARWATER","ID","83552"
278081,"185 JACKSON HILL ROAD","MIDDLEFIELD","CT","06455"
278082,"185 JAMES STREET","JONESBORO","GA","30236"
278083,"185 JENNA DR","NEWARK","OH","43055"
278084,"185 JOHN JOY ROAD","WOODSTOCK","NY","12498"
278085,"185 JOHN LANE","DENIO","NV","89404"
278086,"185 KENSINGTON ROAD","HAMPTON FALLS","NH","03844"
278087,"185 KENWITH CT","LAKELAND","FL","33803"
278088,"185 KILLARNEY RD","WINFIELD","WV","25213"
278089,"185 KISLINGBURY ST","ROCHESTER","NY","14613"
278090,"185 KNOWER RD","WESTMINSTER","MA","01473"
278091,"185 KRISE ROAD","KERSEY","PA","15846"
278092,"185 LAKEPOINTE DRIVE","SAVANNAH","GA","31407"
278093,"185 LAKEWOOD POINT","BOSSIER CITY","LA","71111"
278094,"185 LANTERN ROAD","STRATFORD","CT","06614"
278095,"185 LEACH DRIVE","RALEIGH","NC","27603"
278096,"185 LEO PLACE","UNION","NJ","07083"
278097,"185 LEONARD ST 1G","BROOKLYN","NY","11206"
278098,"185 LEVEE TRAIL","DAKOTA DUNES","SD","57049"
278099,"185 LEWIS MILL RD","CLARKSVILLE","VA","23927"
278100,"185 LILAC TRAIL","MURPHY","NC","99999"
278101,"185 LINCOLN STATION DR","SIMPSONVILLE","KY","40067"
278102,"185 LINKSIDE COURT SE APT 115","LENOIR","NC","28645"
278103,"185 LITTLE CREEK TRAIL","BERKELEY SPRINGS","WV","25411"
278104,"185 LLAGAS ROAD","MORGAN HILL","CA","95037"
278105,"185 LOCH CIRCLE","HAMPTON","VA","23663"
278106,"185 LONG LAUREL RIDGE DRIVE","LAKEMONT","GA","30552"
278107,"185 LONG RUN ROAD","PENNSBORO","WV","26415"
278108,"185 LOOP ROAD","CAMPOBELLO","SC","29322"
278109,"185 LUNADO WAY","SAN FRANCISCO","CA","94127"
278110,"185 MAIN ST APT 2","DUBUQUE","IA","52001"
278111,"185 MAIN STREET APT 11","MALDEN","MA","02148"
278112,"185 MAIN STREET","GROVELAND","MA","01834"
278113,"185 MAIN STREET","KINGFIELD","ME","04947"
278114,"185 MARNE STREET","MEMPHIS","TN","38111"
278115,"185 MARTIN ST","RENO","NV","89509"
278116,"185 MARY ANN DR","PEARL","MS","39208"
278117,"185 MARY ELMER DR","BRIDGETON","NJ","08302"
278118,"185 MARYLAND AVE NE","GRAND RAPIDS","MI","49503"
278119,"185 MAYNARD RD","WILBRAHAM","MA","01095"
278120,"185 MCCLELLAN STREET","BRONX","NC","10456"
278121,"185 MCDONALD AVE","BROOKLYN","NY","11218"
278122,"185 MCDONOUGH ROAD","FAYETTEVILLE","GA","30215"
278123,"185 MEANS ROAD","CARLSBAD","NM","88220"
278124,"185 MELISSA CT","ROCKY MOUNT","NC","27829"
278125,"185 MIDHILL RD","MARTINEZ","CA","94553"
278126,"185 MILLCREST LANE","NEW BERN","NC","28560"
278127,"185 MILLER AVE","MERIDEN","CT","06450"
278128,"185 MILLER AVENUE","ELMWOOD PARK","NJ","07407"
278129,"185 MONTAG CIRCLE NE UNIT 465","ATLANTA","GA","30307"
278130,"185 MONTAG CIRCLE NE","ATLANTA","GA","30307"
278131,"185 MONTICELLO RD","WEAVERVILLE","NC","28787"
278132,"185 MORNING DEW CIRCLE","FAIRFIELD","CT","06824"
278133,"185 MORRIS AVE","GIRARD","OH","44420"
278134,"185 MORROW MTN ROAD","WAYNESVILLE","NC","28785"
278135,"185 MOSSDALE RD","STONEVILLE","NC","27048"
278136,"185 MOTHER VINEYARD RD","MANTEO","NC","27954"
278137,"185 MOUNTAIN VIEW RD","GRAY","ME","04039"
278138,"185 N APACHE TRAIL SUITE 1","APACHE JUNCTION","AZ","85120"
278139,"185 N APCHE TRAIL SUITE 1","APACHE JUNCTION","AZ","85120"
278140,"185 N BROAD ST","NORWICH","NY","13815"
278141,"185 N FRANKLIN ST 5TH FLOOR","CHICAGO","IL","60606"
278142,"185 N GEORGE CIRCLE","MARION","AR","72364"
278143,"185 N ROSALIND CT","COLUMBIA CITY","IN","46725"
278144,"185 N VIRGINIALEE RD","COLUMBUS","OH","43209"
278145,"185 N WHEATON RD","AKRON","OH","44313"
278146,"185 NEVINS STREET","BROOKLYN","NY","11217"
278147,"185 NORTH BROADWAY","SOUTH AMBOY","NJ","08879"
278148,"185 NORTH HIGHWAY 27 SUITE B","CLERMONT","FL","34711"
278149,"185 NORTH MAIN ST  APT 9","PEEBLES","OH","45660"
278150,"185 NORWOOD AVENUE APT 303","CRANSTON","RI","02905"
278151,"185 NW 13TH AVE APT 829","MIAMI","FL","33125"
278152,"185 NW 4TH AVE","CANBY","OR","07013"
278153,"185 OAKMONT AVE","LOMPOC","CA","93436"
278154,"185 OAKRIDGE DR","SPRINGFIELD","OH","45504"
278155,"185 OLD BALTIMORE ROAD","WINCHESTER","VA","22603"
278156,"185 OLD PINE HILL ROAD","WESTPORT","MA","02790"
278157,"185 OLD WESTBURY RD","OLD WESTBURY","NY","11568"
278158,"185 PAHAA PLACE","KAPAA","HI","96746"
278159,"185 PANORAMA COURT","BREA","CA","92821"
278160,"185 PARK AVENUE","LAKE FOREST","IL","60045"
278161,"185 PARK PLACE","BROOKLYN","NY","11238"
278162,"185 PARKVIEW DR APT 9","TRENTON","IL","62293"
278163,"185 PARKWOOD AVENUE","ROCHESTER","NY","14620"
278164,"185 PATRIOT HILL DRIVE","BASKING RIDGE","NJ","07920"
278165,"185 PAUL LANE DR","DAYTON","TN","37321"
278166,"185 PAULARINO AVE SUITE D","COSTA MESA","CA","92626"
278167,"185 PEACHTREE DRIVE","BYRAM","MS","39272"
278168,"185 PECKHAM STREET","BUFFALO","NY","14206"
278169,"185 PEPPERDINE WAY","FAYETTEVILLE","GA","30214"
278170,"185 PHEASANT HILLS CT","VALPARAISO","IN","46385"
278171,"185 PINE LANE","OIL CITY","PA","16426"
278172,"185 PINE STREET 625V","MANCHESTER","CT","06040"
278173,"185 PINEHURST CIRCLE","NAPLES","FL","34113"
278174,"185 PITTSBURGH GRADE ROAD","HOOKSTOWN","PA","15050"
278175,"185 PLAISTED ROAD","JAY","ME","04239"
278176,"185 PLANTATION RD","BISHOP","GA","30621"
278177,"185 PLYMOUTH STREET APT 2N","BROOKLYN","NY","11201"
278178,"185 POMONA AVENUE","NEWARK","NJ","07112"
278179,"185 POTOMAC CROSSING ST","CHARLES TOWN","WV","25414"
278180,"185 PROSPECT AVE APT 8M","HACKENSACK","NJ","07601"
278181,"185 PROSPECT AVE APT 9G","HACKENSACK","NJ","07601"
278182,"185 PROSPECT AVENUE APT 3N","HACKENSACK","NJ","07601"
278183,"185 PROSPECT PARK SW APT 307","BROOKLYN","NY","11228"
278184,"185 QUINCY AVE 202","LONG BEACH","CA","90803"
278185,"185 RANDON TER","LAKE MARY","FL","32746"
278186,"185 REEVES ISLAND ROAD","GOLD HILL","NC","28071"
278187,"185 REVETTE DRIVE UNIT 105","BRECKENRIDGE","CO","80424"
278188,"185 RIVER LANDING DRIVE","ROSWELL","GA","30076"
278189,"185 ROBERTS RD","CANAAN","NH","03741"
278190,"185 ROBINA STREET","PORT CHARLOTTE","FL","33954"
278191,"185 ROCKAWAY AVE","ROCKAWAY","NJ","07866"
278192,"185 ROSWELL STREET","MARIETTA","GA","30090"
278193,"185 ROUTE 50","MAYS LANDING","NJ","08330"
278194,"185 RUSSELL BRADEN ROAD","COVINGTON","GA","30016"
278195,"185 RUTLEDGE AVE","EAST ORANGE","NJ","07017"
278196,"185 S BARFIELD HWY","PAHOKEE","FL","33476"
278197,"185 S FIFTH ST","CONNEAUT LAKE","PA","16316"
278198,"185 S MAIN STREET","SAINT LOUISVILLE","OH","43071"
278199,"185 S STATE STREET SUITE 800","SALT LAKE CITY","UT","84111"
278200,"185 SABIN ST","PAWTUCKET","RI","02860"
278201,"185 SANDY POINT COURT","UNION HALL","VA","24176"
278202,"185 SCOTT ROAD APT 3A","WATERBURY","CT","06705"
278203,"185 SE 14TH TER STE 2313","MIAMI","FL","33131"
278204,"185 SEMINARY DRIVE","MENLO PARK","CA","94025"
278205,"185 SHARE DRIVE","MORRISVILLE","PA","19067"
278206,"185 SHELBY SPRINGS FARM","CALERA","AL","35040"
278207,"185 SHEPHERDS WAY","SHEPHERDSVILLE","KY","40165"
278208,"185 SHEPPARD STREET","STRATFORD","CT","06615"
278209,"185 SHERWOOD DRIVE","AMERICUS","GA","31709"
278210,"185 SHINNECOCK HILL","AVONADALE","PA","19311"
278211,"185 SIGNATURE DR S","XENIA","OH","45385"
278212,"185 SOUTH 5TH STREET APT 73","WACO","TX","76706"
278213,"185 SOUTH 8TH STREET","NOBLESVILLE","IN","46060"
278214,"185 SOUTH HIBISCUS DRIVE","MIAMI BEACH","FL","33139"
278215,"185 SOUTH MAIN STREET","CEDARVILLE","OH","45314"
278216,"185 SOUTH ORANGE AVENUE MSB C759","NEWARK","NJ","07103"
278217,"185 SOUTH PLEASANT ROAD","LAKE ZURICH","IL","60047"
278218,"185 SOUTH WESTHAVEN 212","OSHKOSH","WI","54904"
278219,"185 SOUTHRIDGE","RENO","NV","89509"
278220,"185 SPANISH OAK LANE","HORTENSE","GA","31543"
278221,"185 SPANISH OAK LN","HORTENSE","GA","31543"
278222,"185 SPRING LAKE TERRACE","COVINGTON","GA","30016"
278223,"185 SPRING ST","NEWTON","NJ","07860"
278224,"185 ST MARKS PLACE APT 4A","STATEN ISLAND","NY","10301"
278225,"185 STATE ROUTE 187","MILAN","TN","38358"
278226,"185 STRAWBERRY BLONDE DR","BUDA","TX","78610"
278227,"185 SULGRAVE CT","STERLING","VA","20165"
278228,"185 SUMMERFIELD DR","ALPHARETTA","GA","30022"
278229,"185 SW CURINTON COURT","LAKE CITY","FL","32024"
278230,"185 TAYLOR HILL RD","DANBURY","NH","03230"
278231,"185 THURLOW DRIVE","SYRACUSE","NY","13205"
278232,"185 TILLMAN ROAD","QUINCY","FL","32351"
278233,"185 TORKTOWNE COURT","TWP OF WASHINGTON","NJ","07676"
278234,"185 TOWNSEND AVE","BOOTHBAY HARBOR","ME","04538"
278235,"185 TRIBAL ROAD 10","BOSQUE FARMS","NM","87068"
278236,"185 TURNBACK ROAD","MONTGOMERY","PA","17752"
278237,"185 TUSCANY","BRIDGE CITY","TX","77611"
278238,"185 TYLER CT","LAKE ZURICH","IL","60047"
278239,"185 UPPER OAK DRIVE","STATESVILLE","NC","28625"
278240,"185 VIOLET RIDGE","WAYNESVILLE","NC","28785"
278241,"185 W 416 S","HUNTINGTON","IN","46750"
278242,"185 W BUCHANAN STREET","STATEN ISLAND","NY","10301"
278243,"185 W CHESTNUT AVE","MONROVIA","CA","91016"
278244,"185 W HALPIN ST","MERIDIAN","ID","83646"
278245,"185 W ILLINOIS","MEMPHIS","TN","38106"
278246,"185 W MADISON AVENUE","DUMONT","NJ","07628"
278247,"185 W MELCHOIR DRIVE S","SANTA CLAUS","IN","47579"
278248,"185 W WHITCOMB HILL RD","BARTON","AL","13734"
278249,"185 WADSWORTH AVENUE","NEW YORK","NY","10034"
278250,"185 WALLACE ST","FREEPORT","NY","11520"
278251,"185 WALNUT AVE","BUFFALO","NY","14204"
278252,"185 WALNUT AVENUE","BUFFALO","NY","14204"
278253,"185 WALNUT ST","BUFFALO","NY","14204"
278254,"185 WALNUT STREET","BUFFALO","NY","14204"
278255,"185 WALNUT STREET","BUFFALO","NY","14216"
278256,"185 WASHINGTON AVENUE","WEST WYOMING","PA","18644"
278257,"185 WATER ST","AUGUSTA","ME","04345"
278258,"185 WATERFORD PARK","GRAND ISLAND","NY","14072"
278259,"185 WELLSTONE PL","COVINGTON","GA","30014"
278260,"185 WEST 1380 NORTH","TOOELE","UT","84074"
278261,"185 WEST BROADWAY","NEW YORK","NY","10013"
278262,"185 WEST BROADWAY","NEW YORK","NY","10014"
278263,"185 WEST END AVE","NEW YORK","NY","10023"
278264,"185 WEST EVANS ST","NORFOLK","VA","23503"
278265,"185 WEST ILLINOIS AVENUE","MEMPHIS","TN","38106"
278266,"185 WEST PELHAM ROAD","SHUTESBURY","MA","01072"
278267,"185 WETHERELL STREET","MANCHESTER","CT","06040"
278268,"185 WHIPPORWILL DRIVE","OAK RIDGE","TN","37830"
278269,"185 Wilder Davis Road","BRADFORD","ME","04410"
278270,"185 WILDER DAVIS ROAD","BRADFORD","ME","04410"
278271,"185 WILLOW STREET","SPARTA","NC","28675"
278272,"185 WINDSONG DRIVE","SOCIAL CIRCLE","GA","30025"
278273,"185 WOOD POINT","LILLINGTON","NC","27546"
278274,"185 WOOD STREET","LANDER","WY","82520"
278275,"185 WOPOWOG ROAD","EAST HAMPTON","CT","06424"
278276,"185 WRIGHTSBURG CT","WETUMPKA","AL","36093"
278277,"185 WYTHE AVENUE","BROOKLYN","NY","11249"
278278,"185-02 FONDA AVE","ST ALBANS","NY","11412"
278279,"185-102 NEWBERRY  COMMONS","ETTERS","PA","17319"
278280,"185-102 NEWBERRY COMMONS","ETTERS","PA","17319"
278281,"185-19 N CONDUIT AVE STE 2","LAURELTON","NY","11413"
278282,"185-PECAN ACERS","STARKVILLE","MS","39759"
278283,"185","CLIVE","IA","50325"
278284,"185","IRVINE","CA","92618"
278285,"1850 19TH ST","AKRON","OH","44314"
278286,"1850 1ST ST W STE 1","JBSA RANDOLPH","TX","78150"
278287,"1850 49TH ST S APT 207","FARGO","ND","58103"
278288,"1850 49TH STREET","BROOKLYN","NY","11204"
278289,"1850 82ND STREET APT6B","BROOKLYN","NY","11214"
278290,"1850 82ND STREET","BROOKLYN","NY","11214"
278291,"1850 ABBOTT RD ROOM-B11","EAST LASNING","MI","48824"
278292,"1850 ALICE STREET APT 263","OAKLAND","CA","94612"
278293,"1850 ALICE STREET","OAKLAND","CA","94610"
278294,"1850 ALICE","OAKLAND","CA","94612"
278295,"1850 ALMACH CT","CONLEY","GA","30288"
278296,"1850 AMSTERDAM AVE","NEW YORK","NY","10031"
278297,"1850 ARBORFIELD PL","COLUMBUS","OH","43219"
278298,"1850 ASBURY DR","CLEARWATER","FL","33765"
278299,"1850 ASHLEY CROSSING LN APT 23D","CHARLESTON","SC","29414"
278300,"1850 ATHENS STREET APT 4","BOULDER","CO","80302"
278301,"1850 ATHENS STREET APT 4","BOULLDER","CO","80302"
278302,"1850 ATLANTIC DRIVE UNIT 431","COLUMBIA","SC","29210"
278303,"1850 AVONLEA AVE","CINCINNATI","OH","45237"
278304,"1850 BABCOCK ST APT 13","OWOSSO","MI","48867"
278305,"1850 BALDWIN RD","YORKTOWN HEIGHTS","NY","10598"
278306,"1850 BASSETT APARTMENT 106","DENVER","CO","80202"
278307,"1850 BASSETT ST 410","DENVER","CO","80202"
278308,"1850 BASSETT ST 410","DENVER","CO",NA
278309,"1850 BLACK WALNUT CT","COLUMBIA","MO","65202"
278310,"1850 BLACKSTONE PARKWAY","EL DORADO HILLS","CA","95762"
278311,"1850 BONANZA ST","GERING","NE","69341"
278312,"1850 BONANZA STREET","GERING","NE","69341"
278313,"1850 BRADLEY LANE","ESTES PARK","CO","80517"
278314,"1850 BRANCH VIEW DR","MARIETTA","GA","30062"
278315,"1850 BROJAN DRIVE","ELM GROVE","WI","53122"
278316,"1850 BROWNS GAP TPKE","CHARLOTESVILLE","VA","22901"
278317,"1850 BUCKINGHAM DRIVE","SALINAS","CA","93906"
278318,"1850 BULL LANE","PERRYVILLE","KY","40468"
278319,"1850 BURNLEY RD","SCOTTSVILLE","KY","42164"
278320,"1850 CALLE DEL CONEJO","EL CAJON","CA","92021"
278321,"1850 CAMBERLEY LN","HACIENDA HEIGHTS","CA","91745"
278322,"1850 CAMDEN AVE APT 12","LOS ANGELES","CA","90025"
278323,"1850 CERROS COLORADOS","SANTA FE","NM","87501"
278324,"1850 CHESTNUT PL APT 330","DENVER","CO","80202"
278325,"1850 CLUB CENTER DR","SACRAMENTO","CA","95835"
278326,"1850 COLQUITT APT 7","HOUSTON","TX","77070"
278327,"1850 COLUMBIA PIKE APARTMENT 602","ARLINGTON","VA","22204"
278328,"1850 COLUMBIA PIKE APT 310","ARLINGTON","VA","22204"
278329,"1850 COLUMBIA PIKE APT 419","ARLINGTON","VA","22204"
278330,"1850 COLUMBIA PIKE APT 621","ARLINGTON","VA","22204"
278331,"1850 CORAL LANE","MONTGOMERY","AL","36116"
278332,"1850 COTILLION DR - UNIT 3206","DUNWOODY","GA","30338"
278333,"1850 COTILLION DR APT 2203","ATLANTA","GA","30338"
278334,"1850 COTILLION DR STE 4120","DUNWOODY","GA","30338"
278335,"1850 COTILLION DR","DUNWOODY","GA","30338"
278336,"1850 COUNTY RD 5","CARLTON","MN","55718"
278337,"1850 COUNTY ROAD 193","CLEARWATER","FL","33759"
278338,"1850 CR 216A","OXFORD","FL","34484"
278339,"1850 DANIELSVILLE ROAD","ATHENS","GA","30601"
278340,"1850 DELPHINE COURT","DECATUR","GA","30032"
278341,"1850 DODGE ROAD","EAST AMHERST","NY","14051"
278342,"1850 E EGBERT ST STE 100","BRIGHTON","CO","80601"
278343,"1850 E ERIE AVE","LORAIN","OH","44052"
278344,"1850 E REDWOOD AVENUE","ANAHEIM","CA","92805"
278345,"1850 E TRAILS END ROAD","STURGEON","MO","65284"
278346,"1850 ECHO PARK AVE","LOS ANGELES","CA","90026"
278347,"1850 ESIC DRIVE","EDWARDSVILLE","IL","62025"
278348,"1850 FAIRCHILD DR","CARMICHAEL","CA","95608"
278349,"1850 FAIRWAY DR SPC 100","CHINO HILLS","CA","91709"
278350,"1850 FAIRWAY DR SPC 26","CHINO HILLS","CA","91709"
278351,"1850 FAIRWAY DR SPC 33","CHINO HILLS","CA","91709"
278352,"1850 FAIRWAY DR SPC 36","CHINO HILLS","CA","91709"
278353,"1850 FM 814","TRENTON","TX","75490"
278354,"1850 GLAMORGAN LANE","MIDLOTHIAN","VA","23113"
278355,"1850 GOPHER CANYON ROAD","VISTA","CA","92084"
278356,"1850 GRADY HOPE RD","FORT MILL","SC","29708"
278357,"1850 GRAVES ROAD APT 1024","NORCROSS","GA","30093"
278358,"1850 GREER RD","PAYNEVILLE","KY","40157"
278359,"1850 HANOVER DR APT 7","DAVIS","CA","95616"
278360,"1850 HAWK CT","SEVERN","MD","21144"
278361,"1850 HEATHER STREET","BOLINGBROOK","IL","60490"
278362,"1850 HOHN ROAD","NORDHEIM","TX","78141"
278363,"1850 HOLLANDALE","ROWLAND HEIGHTS","CA","91746"
278364,"1850 HOLLYWOOD RD","SALUDA","SC","29138"
278365,"1850 HOMEWOOD BLVD","DELRAY BEACH","FL","33496"
278366,"1850 HUNTERS HILL BLVD","MARYVILLE","TN","37803"
278367,"1850 HUNTINGTON BLVD","HOFFMAN ESTATES","IL","60169"
278368,"1850 IDLEWILD DRIVE APT B-2","RENO","NV","89509"
278369,"1850 JACKSON ST NE","MINNEAPOLIS","MN","55418"
278370,"1850 KICKAPOO CT","MORGAN HILL","CA","95037"
278371,"1850 LAFAYATTE AVENUE SUITE 22G","BRONX","NY","10473"
278372,"1850 LAFAYETTE AVE","BRONX","NY","10456"
278373,"1850 LEE ROAD SUITE 323","WINTER PARK","FL","32789"
278374,"1850 LEXINGTON AVENUE 6A","NEW YORK","NY","10029"
278375,"1850 LINCOLN AVE 83","EL CENTRO","CA","92243"
278376,"1850 LINDEN RD","PLYMOUTH","IN","46563"
278377,"1850 MALLARD LAKES DRIVE","WINSTON-SALEM","NC","27106"
278378,"1850 MANTEO RD","BUCKINGHAM","VA","23921"
278379,"1850 MERIDIAN AVE","MIAMI BEACH","FL","33139"
278380,"1850 MOHICAN STREET","PHILADELPHIA","PA","19138"
278381,"1850 MORGAN TRACE DR","WINSTON SALEM","NC","27127"
278382,"1850 N CENTRAL AVE 400","PHOENIX","AZ","85004"
278383,"1850 N HARVARD BLVD APT 4","LOS ANGELES","CA","90027"
278384,"1850 N MOHAWK ST","CHICAGO","ID","60614"
278385,"1850 NE 162ND AVE","PORTLAND","OR","97230"
278386,"1850 NE GILLISPIE LANE","HERMISTON","OR","97838"
278387,"1850 NORTH ALAFAYA TRAIL UNIT 1A/1","ORLANDO","FL","32826"
278388,"1850 NORTH CENTRAL AVENUE","PHOENIX","AZ","85004"
278389,"1850 NW 121ST STREET","MIAMI","FL","33167"
278390,"1850 NW 186TH ST","MIAMI GARDENS","FL","33056"
278391,"1850 NW 36TH TERRACE","LAUDERHILL","FL","33311"
278392,"1850 NW 42 TERR APT R410","LAUDERHILL","FL","33313"
278393,"1850 OAK BLUFF WAY","SACRAMENTO","CA","95833"
278394,"1850 OAKRIDGE COURT","LEBANON","PA","17046"
278395,"1850 OAKWOOD AVE","ARCADIA","CA","91006"
278396,"1850 OH 12","FREMONT","OH","43420"
278397,"1850 OLD SATTLER ROAD","CANYON LAKE","TX","78133"
278398,"1850 OPEN FORK ROAD","MOREHEAD","KY","40351"
278399,"1850 ORCHARD LANE","OSHKOSH","WI","54902"
278400,"1850 OVERLOOK DRIVE-UNIT 233","CALDWELL","TX","77836"
278401,"1850 P STREET","GERING","NE","68341"
278402,"1850 PARKVIEW DR S","MONTGOMERY","AL","36117"
278403,"1850 PEACHES LN","CANTONMENT","FL","32533"
278404,"1850 POPLAR CREST COVE","MEMPHIS","TN","38119"
278405,"1850 POPPS FERRY ROAD APT K1122","BILOXI","MS","39532"
278406,"1850 PROVIDENCE PIKE NSMS ROOM 137","NORTH SMITHFIELD","RI","02896"
278407,"1850 PROVIDENCE PLACE DR","ALPHARETTA","GA","30009"
278408,"1850 PRUNE RIDGE AVE NO 18","SANTA CLARA","CA","95050"
278409,"1850 RED OAK DRIVE","PLOVER","WI","54467"
278410,"1850 REED VALLEY RD","FAYETTEVILLE","AR","72704"
278411,"1850 RIDGE RD","ONTARIO","NY","14519"
278412,"1850 RIDGEVIEW CIRCLE DR","MANCHESTER","MO","63021"
278413,"1850 RIEBLI ROAD","SANTA ROSA","CA","95404"
278414,"1850 RIVERFORK DR WEST","HUNTINGTON","IN","46750"
278415,"1850 RIVERGATE ROAD","FAYETTEVILLE","NC","28304"
278416,"1850 S 151 W","GODDARD","KS","67052"
278417,"1850 S AVENUE B APT 1C","YUMA","AZ","85364"
278418,"1850 S EL CAMINO","PALM SPRINGS","CA","92264"
278419,"1850 S FAIRFIELD","CHICAGO","IL","60608"
278420,"1850 S FIRESTONE RD","WOOSTER","OH","44691"
278421,"1850 S MORRIS HILL DR APT 3A","MOUNT PROSPECT","IL","60056"
278422,"1850 S OCEAN DRIVE APT 118","FORT LAUDERDALE","FL","33316"
278423,"1850 S SHENANDOAH ST UNIT 206","LOS ANGLELES","CA","90035"
278424,"1850 SAN PEDRO DR NE","ALBUQUERQUE","NM","87110"
278425,"1850 SANDHILL CRANE DR","FORT PIERCE","FL","34982"
278426,"1850 SAWMILL","LUCAS","TX","75002"
278427,"1850 SEPVIVA ST","PHILADELPHIA","PA","19125"
278428,"1850 SEPVIVA ST","PHILADEPHIA","PA","19125"
278429,"1850 SIRIUS LANE","WESTON","FL","33327"
278430,"1850 SOUTH PACIFIC AVE","SAN PEDRO","CA","90731"
278431,"1850 SPRUILL RD","CALEDONIA","MS","39740"
278432,"1850 STATE ST","NEW ALBANY","IN","47150"
278433,"1850 STELLA LANE","FORT WALTON","FL","32548"
278434,"1850 SUMMERVILLE","ORANGE","TX","77630"
278435,"1850 SWANN STREET","FAYETTEVILLE","NC","28303"
278436,"1850 TOMATO FARM RD","MIMS","FL","32754"
278437,"1850 TWINING DR","ANCHORAGE","AK","99504"
278438,"1850 W 15TH LN","YUMA","AZ","85364"
278439,"1850 W FRYE ROAD","CHANDLER","AZ","85224"
278440,"1850 W MAIN ST STE G","EL CENTO","CA","92243"
278441,"1850 W MAIN ST STE G","EL CENTRO","CA","92243"
278442,"1850 W MESQUITE AVE","PAHRUMP","NV","89060"
278443,"1850 W WINCHESTER ROAD UNIT 111","LIBERTYVILLE","IL","60048"
278444,"1850 WALNUT LN","QUAKERTOWN","PA","18951"
278445,"1850 WAREHAM WAY","CANTONMENT","FL","32533"
278446,"1850 WATERCOLOR PLACE","GRAYSLAKE","IL","60030"
278447,"1850 WELSH HILLS ROAD","GRANVILLE","OH","43023"
278448,"1850 WEST 79TH STREET","LOS ANGELES","CA","90047"
278449,"1850 WEST CRYSTAL AVENUE","VISALIA","CA","93291"
278450,"1850 WEST RD","LA HABRA HEIGHTS","CA","90631"
278451,"1850 WESTWOOD AVENUE","UPPER ARLINGTON","OH","43212"
278452,"1850 WHITLEY AVE APT 1201","LOS ANGELES","CA","90028"
278453,"1850 WHITLEY AVE APT 704","LOS ANGELES","CA","90028"
278454,"1850-D SHAFFER DRIVE","FORT GORDON","GA","30905"
278455,"18500 ALBION ST","DETROIT","MI","48234"
278456,"18500 ASHTON","DETROIT","MI","48219"
278457,"18500 COUNTY ROAD 114","CALHAN","CO","80808"
278458,"18500 COUNTY ROAD 4057","KEMP","TX","75143"
278459,"18500 DIEGO PLACE","EDMOND","OK","73012"
278460,"18500 HAWKSVIEW DR","ARLINGTON","WA","98223"
278461,"18500 HOOD AV","HOMEWOOD","IL","60430"
278462,"18500 NW 42TH AVE","MIAMI","FL","33055"
278463,"18500 PINEHURST","DETROIT","MI","48221"
278464,"18500 PLANTATION BLVD","PRAIRIEVILLE","LA","70769"
278465,"18500 REA AVENUE","AROMAS","CA","95004"
278466,"18500 S 1600 ROAD","NEVADA","MO","64772"
278467,"18500 SANTA FE","DEVORE","CA","92407"
278468,"18500 SE SUNNYSIDE RD","DAMASCUS","OR","97089"
278469,"18500 SUNDANCER LN","AMARILLO","TX","79124"
278470,"18500 WATERBURY AVE","MAPLE HEIGHTS","OH","44137"
278471,"18501 AMBLY LN","TAMPA","FL","33647"
278472,"18501 BOONESS LANE","GLENCOE","MO","63038"
278473,"18501 COUNTRY MEADOW RD","BOYDS","MD","20841"
278474,"18501 EMPRESA PLACE","AUSTIN","TX","78738"
278475,"18501 MANOR","DETROIT","MI","48221"
278476,"18501 NW 7TH AVENUE","MIAMI GARDENS","FL","33169"
278477,"18501 PINES BOULEVARD 336","PEMBROKE PINES","FL","33029"
278478,"18501 PORTUGAL CIRCLE","ANCHORAGE","AK","99516"
278479,"18501 ROAD J","CORTEZ","CO","81321"
278480,"18501 SOUTH STETSON RANGE ROAD","CONGRESS","AZ","85332"
278481,"18501 SWEET AUTUMN DR APT 201","GAITHERSBURG","MD","20879"
278482,"18501 SWEET AUTUMN DRIVE UNIT 104","GAITHERSBURG","MD","20879"
278483,"18502 CYPRESS STEPPE LANE","CYPRESS","TX","77433"
278484,"18502 EAST 46TH STREET","TULSA","OK","74134"
278485,"18502 INDIANA ST","ELKHORN","NE","68022"
278486,"18502 LOCHNER ROAD","SPENCERVILLE","IN","46788"
278487,"18502 TORRENCE AVENUE","LANSING","IL","60438"
278488,"18502 TORRENCE AVEUNE","LANSING","IL","60438"
278489,"18502 VALENTINE RD","MOUNT VERNON","WA","98273"
278490,"18502 W 156TH ST","KELLYVILLE","OK","74039"
278491,"18503 93RD AVE E","PUYALLUP","WA","98375"
278492,"18503 BELLAMY ROAD","COUNTRY CLUB HILLS","IL","60478"
278493,"18503 BLUFFVIEW DR","CROSBY","TX","77532"
278494,"18503 GOLDEN MAIZE","SAN ANTONIO","TX","78258"
278495,"18503 LIPPIZANER DR","CYPRESS","TX","77433"
278496,"18503 N CONCORD CIR","INDEPENDENCE","MO","64058"
278497,"18503 PRAIRIE LARKSPUR DR","HOUSTON","TX","77073"
278498,"18503 STEDHALL","HOMEWOOD","IL","60430"
278499,"18503 W CINNEBAR AVE","WADDELL","AZ","85355"
278500,"18504 BEACH BOULEVARD A-300","HUNTINGTON BEACH","CA","92648"
