"ID","Address","City","State","Zip"
930001,"9200 CENTERWAY ROAD","GAITHERSBURG","ME","20879"
930002,"9200 CHURCH STREET SUITE 400","MANASSAS","VA","20110"
930003,"9200 CLINTON RD","JACKSON","MI","49201"
930004,"9200 E 155TH ST","KANSAS CITY","MO","64149"
930005,"9200 E MINERAL AVE SUITE 100","CENTENNIAL","CO","80112"
930006,"9200 EDGEWORTH DRIVE","CAPITOL HEIGHTS","MD","20743"
930007,"9200 EDWARDS WAY APT 505","HYATTSVILLE","MD","20783"
930008,"9200 EDWARDS WAY UNIT 1007","HYATTSVILLE","MD","20783"
930009,"9200 EDWARDS WAY","HYATTSVILLE","MD","20783"
930010,"9200 FRANCISCO AVE","EVERGREEN PARK","IL","60805"
930011,"9200 GAUTIER VANCLEAVE RD","VANCLEAVE","MS","39565"
930012,"9200 HADDON AVE","SUN VALLEY","CA","91352"
930013,"9200 HAMPTON OAKS LANE","CHARLOTTE","NC","28270"
930014,"9200 HARTWELL","DETROIT","MI","48228"
930015,"9200 JAMES RIVER AND KANAWHA TPKE","SMOOT","WV","24977"
930016,"9200 JORDANN LN","CHEYENNE","WY","82009"
930017,"9200 KENTSDALE DRIVE","POTOMAC","MD","20854"
930018,"9200 LIVERY LANE APT N","LAUREL","MD","20723"
930019,"9200 MASON VALLEY RD","BENTONVILLE","AR","72713"
930020,"9200 MEADOW GROVE DRIVE","ELK GROVE","CA","95624"
930021,"9200 N HOLLYBROOK LAKE DR APT 109","PEMBROKE PINES","FL","33025"
930022,"9200 NEW TRAILS DR SUITE 200","THE WOODLANDS","TX","77381"
930023,"9200 NORTH PLAZA APT 3402","AUSTIN","TX","78753"
930024,"9200 NW 12TH AVE","MIAMI","FL","33150"
930025,"9200 NW 53RD STREET","SUNRISE","FL","33351"
930026,"9200 OWINGS PARK DRIVE UNIT-P","OWING MILLS","MD","21117"
930027,"9200 POYNTER RD","FORT WORTH","TX","76123"
930028,"9200 POYNTER ST","FORT WORTH","TN","76123"
930029,"9200 POYNTER ST","FORT WORTH","TX","76123"
930030,"9200 REDMOND WOODINVILLE ROAD D322","REDMOND","WA","98052"
930031,"9200 REDTAIL CT","JACKSONVILLE","FL","32222"
930032,"9200 S CLYDE","CHICAGO","IL","60617"
930033,"9200 S DADELAND BLVD","MIAMI","FL","33156"
930034,"9200 S DADELAND BOULEVARD SUITE 508","MIAMI","FL","33156"
930035,"9200 S DAUPHIN AVE APT 3C","CHICAGO","IL","60619"
930036,"9200 S FRANCISCO","EVERGREEN PARK","IL","60805"
930037,"9200 S MERRILL AV","CHICAGO","IL","60617"
930038,"9200 S VAIL WAY","INGELWOOD","CA","90305"
930039,"9200 S VAIL WAY","INGLEWOOD","CA","90305"
930040,"9200 SEARS ROAD","CONCORD","MI","49237"
930041,"9200 SHASTA BLVD","LOS MOLINOS","CA","96055"
930042,"9200 SHIRECREST DRIVE","FORT SMITH","AR","72916"
930043,"9200 SUMMIT CENTRE WAY","ORLANDO","FL","32810"
930044,"9200 SW 24TH ST","OKLAHOMA CITY","OK","73128"
930045,"9200 SW JAMIESON RD","BEAVERTON","OR","97005"
930046,"9200 SW PARKVIEW LOOP","BEAVERTON","OR","97008"
930047,"9200 TIDAL LANE APT 206","HAMPTON","VA","23666"
930048,"9200 UNIVERSITY BOULEVARD","N CHARLESTON","SC","29406"
930049,"9200 UNIVERSITY CITY BLVD","CHARLOTTE","NC","28213"
930050,"9200 VERNON DR","GREAT FALLS","VA","22066"
930051,"9200 W BROADWAY AVENUE","BROOKLYN PARK","MN","55445"
930052,"9200 W BROGAN DR APT 204","BOISE","ID","83709"
930053,"9200 W WISCONSIN AVE","MILWAUKEE","WI","53226"
930054,"9200 WALSINGHAM ROAD","LARGO","FL","33773"
930055,"9200 WEST 280TH STREET","NEW PRAGUE","MN","56071"
930056,"9200 WESTHEIMER RD 606","HOUSTON","TX","77063"
930057,"9200 WESTHEIMER RD APT 1102","HOUSTON","TX","77063"
930058,"9200 WESTHEIMER RD APT 1209","HOUSTON","TX","77063"
930059,"9200 WESTMINSTER BLVD  UNIT 4","WESTMINSTER","CA","92683"
930060,"9200 WOODHALL BAY","BROOKLYN PARK","MN","55443"
930061,"9201 122ND CT NE G148","KIRKLAND","WA","98033"
930062,"9201 3RD AVE S","BLOOMINGTON","MN","55420"
930063,"9201 75TH AVE N","BROOKLYN PARK","MN","55428"
930064,"9201 8TH AVE NE","SEATTLE","WA","98115"
930065,"9201 ALLISON LANE","OKLAHOMA CITY","OK","73151"
930066,"9201 ARBORETUM PARKWAY","RICHMOND","VA","23236"
930067,"9201 ARNOLD AVE NW","MONTICELLO","MN","55362"
930068,"9201 BARROWS RIDGE COURT","CHESTERFIELD","VA","23838"
930069,"9201 BELLGROVE COURT","KILLEEN","TX","76542"
930070,"9201 BRINT RD","SYLVANIA","OH","43560"
930071,"9201 BRINT","SYLVANIA","OH","43560"
930072,"9201 COMPTON ST","DENTON","TX","76207"
930073,"9201 CORAL","ST. LOUIS","MO","63123"
930074,"9201 E CENTRAL ST","KANSAS CITY","MO","64114"
930075,"9201 E STELLA RD","TUCSON","AZ","85730"
930076,"9201 E WHIPSAW LA","PRESCOTT VALLEY","AZ","86314"
930077,"9201 E WHIPSAW LANE","PRESCOTT VALLEY","AZ","86314"
930078,"9201 EAST MISSISSIPPI AVE APT 6","DENVER","CO","80247"
930079,"9201 EAST MISSISSIPPI AVENUE","DENVER","CO","80247"
930080,"9201 EAST WOOD AVE","CROSS ROADS","TX","76227"
930081,"9201 EDGEVALE DRIVE","CHARLOTTE","NC","28216"
930082,"9201 EDGEWOOD DRIVE UNIT 4904","CAPITOL HEIGHTS","MD","20790"
930083,"9201 FORSHEY STREET","NEW ORLEANS","LA","70118"
930084,"9201 GARLAND LN N APT B 208","MAPLE GROVE","MN","55311"
930085,"9201 HOPELAND DR","AUSTIN","TX","78749"
930086,"9201 HOPELAND DRIVE","AUSTIN","TX","78749"
930087,"9201 JOHNSON DRIVE","SHERWOOD","AR","72120"
930088,"9201 KANIS RD APT 7H","LITTLE ROCK","AR","72205"
930089,"9201 LEATHERWOOD ROAD","GUILFORD","IN","47022"
930090,"9201 LILY LAKE ROAD","WASILLA","AK","99623"
930091,"9201 LINN STATION RD","HURSTBOURNE","KY","40222"
930092,"9201 MASON AVE","MORTON GROVE","IL","60053"
930093,"9201 MELRUDE ROAD","COTTON","MN","55724"
930094,"9201 MILLENIUM DR","WILLINGBORO","NJ","08046"
930095,"9201 N 7TH AVENUE","PHOENIX","AZ","85021"
930096,"9201 N INDIANA AVE","KANSAS CITY","MO","64156"
930097,"9201 NW 78TH ST","WEATHERBY LAKE","MO","64152"
930098,"9201 NYE AVE SE","SNOQUALMIE,","WA","98065"
930099,"9201 PADDOCK LANE","POTOMAC","MD","20854"
930100,"9201 PINE VIEW LANE","CLINTON","MD","20735"
930101,"9201 PRINCE WILLIAMS AVE APT 514","MANASSAS","VA","20110"
930102,"9201 QUAIL HILL CIRCLE","AUSTIN","TX","78758"
930103,"9201 QUAIL WOOD DR","AUSTIN","TX","78758"
930104,"9201 QUINTANA DRIVE","BETHESDA","MD","20817"
930105,"9201 S AVENIDA DEL YAQUI STE 25","GUADALUPE","AZ","85283"
930106,"9201 S AVENIDA DEL YAQUI STE","GUADALUPE","AZ","85283"
930107,"9201 S CENTRAL PARK","EVERGREEN PARK","IL","60805"
930108,"9201 S MERRILL AVE","CHICAGO","IL","60617"
930109,"9201 S PALO VERDE RD","BUCKEYE","AZ","85326"
930110,"9201 S WENTWORTH AVENUE","CHICAGO","IL","60620"
930111,"9201 SANDY CREEK ROAD","FORT WASHINGTON","MD","20744"
930112,"9201 SE 52ND AVE","PORTLAND","OR","97206"
930113,"9201 SEVILLE ROAD","FORT MYERS","FL","33967"
930114,"9201 SOUTH KARLOV AVE","OAK LAWN","IL","60453"
930115,"9201 SUNSET BLVD SUITE 812","LOS ANGELES","CA","90069"
930116,"9201 SW 25TH STREET","OKLAHOMA CITY","OK","73128"
930117,"9201 UNIVERSITY BLVD MARTIN HALL 4","RALEIGH","NC","28223"
930118,"9201 UNIVERSITY CITY BLVD C3065B","CHARLOTTE","NC","28223"
930119,"9201 UNIVERSITY CITY BLVD LYNCH HAL","CHARLOTTE","NC","28223"
930120,"9201 UNIVERSITY CITY BLVD","CHARLITTE","NC","28223"
930121,"9201 UNIVERSITY CITY BLVD","CHARLOTTE","NC","28223"
930122,"9201 US HWY 33 E","LINN","WV","26384"
930123,"9201 UUNIVERSITY CITY BLVD","CHARLOTTE","NC","28223"
930124,"9201 W 112TH STREET","OVERLAND PARK","KS","66210"
930125,"9201 WARM SPRING CIR","PLANO","TX","75024"
930126,"9201 WARREN PKWY STE 273","FRISCO","TX","75035"
930127,"9201 WARREN PKWY STE 300 200","FRISCO","TX","75035"
930128,"9201 WESLEY ST STE B","GREENVILLE","TX","75402"
930129,"9201 WOODHALL LAKE DRIVE","WAXHAW","NC","28173"
930130,"9201","SUNRISE","FL","33322"
930131,"9202 206TH STREET COURT EAST","GRAHAM","WA","98338"
930132,"9202 229TH AVE E","BUCKLEY","WA","98321"
930133,"9202 BREEDEN DRIVE","BATON ROUGE","LA","70811"
930134,"9202 COLLINGTON SQUARE","ALLISON PARK","PA","15101"
930135,"9202 COLLINGWOOD LN","ALPHARETTA","GA","30022"
930136,"9202 CONWAY COURT","FISHERS","IN","46037"
930137,"9202 CREST HILL COURT","GILROY","CA","95020"
930138,"9202 CRUTCHFIELD LANE","BOWIE","MD","20720"
930139,"9202 DARNELL LANE","SHAWNEE MISSION","KS","66215"
930140,"9202 E RIVER DRIVE","NAVARRE","FL","52466"
930141,"9202 FIVE FORKS ST","SAN ANTONIO","TX","78245"
930142,"9202 FRY ST APT 205","MANASSAS","VA","20110"
930143,"9202 HOWARD AVENUE","FORT HOWARD","MD","21052"
930144,"9202 LASATER","SAN ANTONIO","TX","78254"
930145,"9202 LEMONA DRIVE","SAINT LOUIS","MO","63123"
930146,"9202 LONG BRANCH PARKWAY","SILVER SPRING","MD","20901"
930147,"9202 MARKHAM RD","MANVEL","TX","77578"
930148,"9202 MEMORIAL GROVE DR","SPRING","TX","77379"
930149,"9202 MOONSTONE DR","AUSTIN","TX","78729"
930150,"9202 OAK HILLS AVE","BAKERSFIELD","CA","93312"
930151,"9202 RODEO DRIVE","IRVING","TX","75063"
930152,"9202 ROY BEAN DRIVE","HOUSTON","TX","77041"
930153,"9202 S HEATHER DRIVE","TEMPE","AZ","85284"
930154,"9202 SHAFERS MILL DR","FREDERICK","MD","21704"
930155,"9202 SKIPPING STONE LN","HOUSTON","TX","77064"
930156,"9202 SUNNYOAK DRIVE","RIVERVIEW","FL","33569"
930157,"9202 VENTURE CT","MANASSAS PARKER","VA","20111"
930158,"9202 W CAMBRIDGE AVE","PHOENIX","AZ","85037"
930159,"9202 WELLSWORTH DR","HOUSTON","TX","77083"
930160,"9202 WINDMILL ROAD","PASO ROBLES","CA","93446"
930161,"92027 GLASGOW DRIVE","ASTORIA","OR","97103"
930162,"9203 24TH COURT SE","OLYMIA","WA","98513"
930163,"9203 ALTA OAKS DR","DALLAS","TX","75243"
930164,"9203 ASH LAND CT","PEWEE VALLEY","KY","40056"
930165,"9203 CENTRAL BLVD SE","WINNABOW","NC","28479"
930166,"9203 CHASTAIN PLACE","CORDOVA","TN","38018"
930167,"9203 CR 445","JAY","OK","74346"
930168,"9203 DAIRY VIEW LANE","HOUSTON","TX","77099"
930169,"9203 DEWBERRY LANE","COLLEGE PARK","MD","20740"
930170,"9203 FLORIDA AVENUE","PITTSBURGH","PA","15235"
930171,"9203 FONTAINEBLEAU BLDG 6","MIAMI","FL","33172"
930172,"9203 FOREST HAVEN DR","ALEXANDRIA","VA","22309"
930173,"9203 GAMBIER DR","SAN ANTONIO","TX","78250"
930174,"9203 GLEN FOREST DR","GREENVILLE","SC","29607"
930175,"9203 HWY 6 SOUTH SUITE 124-236","HOUSTON","TX","77083"
930176,"9203 IVANHOE RD","FORT WASHINGTON","MD","20744"
930177,"9203 LINN STATION ROAD","LOUISVILLE","KY","40222"
930178,"9203 LUCCHESI DRIVE","SACRAMENTO","CA","95829"
930179,"9203 MARSH DRIVE","AUSTIN","TX","78748"
930180,"9203 MICHAELS LANE","MARCY","NY","13403"
930181,"9203 NATIONAL AVENUE","LELAND","NC","28451"
930182,"9203 OAK ROAD","WILLIS","MI","48191"
930183,"9203 ROLLING OAKS DRIVE","TOMBALL","TX","77375"
930184,"9203 SHERIDAN PARK CT","BRENTWOOD","TN","37027"
930185,"9203 SUNSHADOW CT","PEARLAND","TX","77584"
930186,"9203 TOPEKA STREET","BETHESDA","MD","20817"
930187,"9203 TOWN TERRACE","SPRING","TX","77379"
930188,"9203 TOWNE TERRACE DR","SPRING","TX","77379"
930189,"9203 TURNBERRY PLACE","LITHONIA","GA","30038"
930190,"9203 TWIN ACRES DR","WANATAH","IN","46390"
930191,"9203 UNION MEADOW LN","CYPRESS","TX","77433"
930192,"9203 W 157TH TERRACE","OVERLAND PARK","KS","66221"
930193,"9203 WHITWORTH DR","BEVERLY HILLS","CA","90212"
930194,"9204 218TH PL","QUEENS VILLAGE","NY","11428"
930195,"9204 ABACO WAY","FORT WORTH","TX","76123"
930196,"9204 AFTON CT","MANASSAS","VA","20110"
930197,"9204 ALMOND ST","ALTA LOMA","CA","91737"
930198,"9204 APPLETON","DETROIT","MI","48239"
930199,"9204 ARNIE COURT","MANASSAS","VA","20111"
930200,"9204 BELL STATION ROAD","STOUTSVILLE","OH","43154"
930201,"9204 BIG SPRINGS LOOP","BRISTOW","VA","20136"
930202,"9204 BRONZE RIVER AVE","LAS VEGAS","NV","89149"
930203,"9204 COLUMBIA AVENUE","MUNSTER","IN","46321"
930204,"9204 CROWFIELD RESERVE LANE","LADSON","SC","29456"
930205,"9204 CRYSTAL COVE","CEDAR HILL","TX","75104"
930206,"9204 ESPADA AVE","HESPERIA","CA","92345"
930207,"9204 GOOD LUCK RD","LANHAM","MD","20706"
930208,"9204 GOOD LUCK ROAD","LANHAM","MD","20706"
930209,"9204 HAILEY COURT","NORTH RICHLAND HILLS","TX","76182"
930210,"9204 HEATHERWOOD DRIVE","AUSTIN","TX","78748"
930211,"9204 HOTEL RD","CLAUDE","TX","79019"
930212,"9204 MAHOGANY DR","BOYNTON BEACH","FL","33436"
930213,"9204 MOUNTAIN MAGNOLIA DR","RIVERVIEW","FL","33578"
930214,"9204 OSWALD WAY 2A","BALTIMORE","MD","21237"
930215,"9204 OSWALD WAY 2A","ROSEVILLE","MD","21237"
930216,"9204 RIBBON FALLS LOOP","BRISTOW","VA","20136"
930217,"9204 ROST PLACE APT 2","BROOKLYN","NY","11236"
930218,"9204 S COMMERCIAL AVE STE 206","CHICAGO","IL","60617"
930219,"9204 S THOMAS AVE","BRIDGEVIEW","IL","60455"
930220,"9204 SOUTH MCKINLEY AVENUE","OKLAHOMA CITY","OK","73139"
930221,"9204 SOUTH MERRILL AVENUE","CHICAGO","IL","60617"
930222,"9204 SOUTHERN BREEZE DRIVE","ORLANDO","FL","32836"
930223,"9204 SPIRIT HAVEN ROAD","TOMAHAWK","WI","54487"
930224,"9204 TERWILLIGERS WOOD COURT","CINCINNATI","OH","45249"
930225,"9204 THOMPSON AVE","YUKON","OK","73099"
930226,"9204 VANVLEET RD","GAINES","MI","48436"
930227,"9204 WARM SPRINGS CIR","PLANO","TX","75024"
930228,"9204 WEST 141ST STREET","OVERLAND PARK","KS","66221"
930229,"9204 WINSTON ROAD","PINE BLUFF","AR","71601"
930230,"9205 ANDREA DR","WOODBURY","MN","55125"
930231,"9205 ASH SPRING RD APT 4","LOUISVILLE","KY","40291"
930232,"9205 BLOSSOM LANE - APT 1","LOUISVILLE","KY","40241"
930233,"9205 BURLEY DR","BETHESDA","MD","20817"
930234,"9205 CAMBERWELL RD","MINT HILL","NC","28227"
930235,"9205 CASSIDY COURT","MIDWEST CITY","OK","73130"
930236,"9205 CENTERWAY RD","GAITHERSBURG","MD","20879"
930237,"9205 CHARLTON PLACE","DOUGLASVILLE","GA","30135"
930238,"9205 COLLEGE WAY N","SEATTLE","WA","98103"
930239,"9205 COMMONS PL","ANCHORAGE","AK","99502"
930240,"9205 FM 78 APT 3203","CONVERSE","TX","78109"
930241,"9205 FM 78 APT 7102","CONVERSE","TX","78109"
930242,"9205 FM 78 APT 9101","CONVERSE","TX","78109"
930243,"9205 GLENWATER DR  APT 1104","CHARLOTTE","NC","28262"
930244,"9205 GRAND PALM COURT","RIVERVIEW","FL","33578"
930245,"9205 GREENSHIRE DRIVE","MANASSAS","VA","20111"
930246,"9205 GWYNNDALE DRIVE","CLINTON","MD","20735"
930247,"9205 LAZY HOLLOW","SMYRNA","TN","37167"
930248,"9205 LINN STATION RD","LOUISVILLE","KY","40222"
930249,"9205 LIVERY LANE APT H","LAUREL","MD","20723"
930250,"9205 LYAL LANE","LOS MOLINOS","CA","96055"
930251,"9205 N ARCH VILLAGE CT APT E","N CHESTERFIELD","VA","23236"
930252,"9205 O STREET","OMAHA","NE","68127"
930253,"9205 OAR PARK AVE","MORTON GROVE","IL","60053"
930254,"9205 OLD HIGHWAY 30","HAMMETT","ID","83627"
930255,"9205 ORBITER DR","DALLAS","TX","75243"
930256,"9205 OVALLA DRIVE","AUSTIN","TX","78749"
930257,"9205 PINE TRAIL LANE","SUMMERVILLE","SC","29486"
930258,"9205 POINT REPLETE DRIVE","FORT BELVOIR","VA","22060"
930259,"9205 PRAIRIE AVE","HIGHLAND","IN","46322"
930260,"9205 PRINCE WILLIAM STREET SUITE 2","MANASSAS","VA","20110"
930261,"9205 QUAIL HILL CIRCLE","AUSTIN","TX","78758"
930262,"9205 RAMBLEWOOD DRIVE APT 837","CORAL SPRINGS","FL","33071"
930263,"9205 RENAISANCE WAY","INGLEWOOD","CA","90305"
930264,"9205 RENOIR CT","BOYNTON BEACH","FL","33472"
930265,"9205 S ESSEX STREET","CHICAGO","IL","60617"
930266,"9205 SAINT MARTIN","FORT WORTH","TX","76123"
930267,"9205 SAN PASQUAL WAY","STOCKTON","CA","95201"
930268,"9205 SIERRA COLLEGE BLVD  SUITE 120","ROSEVILLE","CA","95661"
930269,"9205 SIERRA COLLEGE BLVD SUITE 120","ROSEVILLE","CA","95661"
930270,"9205 SKILLMAN STREET SUITE 100","DALLAS","TX","75243"
930271,"9205 SKILLMAN STREET SUITE 119","DALLAS","TX","75243"
930272,"9205 SKILLMAN STREET SUITE 127","DALLAS","TX","75243"
930273,"9205 SOUTH 91ST EAST AVE","TULSA","OK","74133"
930274,"9205 STREAM PEBBLE DRIVE","COLUMBUS","OH","43240"
930275,"9205 SW 227TH LN","CUTLER BAY","FL","33190"
930276,"9205 WESTPORT RD","MARYSVILLE","IN","47141"
930277,"9205 WHISPERING OAK DR","MIDWEST CITY","OK","73130"
930278,"9205 WILD RIVER DR","ARLINGTON","TX","76002"
930279,"9205 WYRICKRD","CORRYTONT","TN","37721"
930280,"9206 121ST AVE NE","LAKE STEVENS","WA","98258"
930281,"9206 APPIN CT","HOUSTON","TX","77095"
930282,"9206 BENGAL ROAD","RANDALLSTOWN","MD","21133"
930283,"9206 BERGENWOOD AVE","NORTH BERGEN","NJ","07047"
930284,"9206 BLAZING STAR LANE","PROSPECT","KY","40059"
930285,"9206 BRIGHTLEAF PL","CHARLOTTE","NC","28269"
930286,"9206 FAIRWAY CT","RIVERDALE","GA","30274"
930287,"9206 FRANKLIN ST","CHATSWORTH","CA","91311"
930288,"9206 GARDNER AVE","LUBBOCK","TX","79424"
930289,"9206 LINKMEADOW","HOUSTON","TX","77025"
930290,"9206 MCCORD ROAD","ORIENT","OH","43146"
930291,"9206 MILL CREEK DRIVE","MARSHFIELD","WI","54449"
930292,"9206 N MAIN ST APT 1","COELLO","IL","62825"
930293,"9206 OLD BARDSTOWN RD","LOUISVILLE","KY","40291"
930294,"9206 PRINCE AVE","CLEVELAND","OH","44105"
930295,"9206 RICE AVENUE","GLENARDEN","MD","20706"
930296,"9206 RICHMOND DR","KANSAS CITY","MO","64138"
930297,"9206 RUNALDUE RD","MANASSAS","VA","20110"
930298,"9206 RUTGERS DR","LITTLE ROCK","AR","72204"
930299,"9206 S DENKER AVE","LOS ANGELES","CA","90047"
930300,"9206 S GARVEY WAY","INGLEWOOD","CA","90305"
930301,"9206 SAINT CLAIR DRIVE NE","ATLANTA","GA","30329"
930302,"9206 SOPHIA AVE","NORTH HILLS","CA","91343"
930303,"9206 SOUTH 700 EAST 407","SANDY","UT","84070"
930304,"9206 TANGLEY LANE","LOUISVILLE","KY","40242"
930305,"9206 TIMBERLINE DRIVE","OMAHA","NE","68152"
930306,"9206 TIMERLINE DRIVE","OMAHA","NE","68152"
930307,"9206 WATER OAK","ARLINGTON","TX","76002"
930308,"9206 WINTERGREEN COURT","SYLVANIA","OH","43560"
930309,"9206 WOODENBRIDGE ROAD","PHILADELPHIA","PA","19114"
930310,"9206 YOUNGSTOWN","HUMBLE","TX","77396"
930311,"9207 BEVERLY DR","ORANGE","TX","77630"
930312,"9207 BRAKE ROAD","PINE BLUFF","AR","71603"
930313,"9207 BROKEN TIMBER WAY","COLUMBIA","MD","21045"
930314,"9207 CHAMPIONS CIRCLE","FRANKLIN","TN","37064"
930315,"9207 CORTANA PLACE","BATON ROUGE","LA","70815"
930316,"9207 DEER XING","LORTON","VA","22079"
930317,"9207 DULENE","LAKESIDE","CA","92040"
930318,"9207 E C R 25 SOUTH","SELMA","IN","47383"
930319,"9207 EUROPEAN OLIVE DR","RIVERVIEW","FL","33578"
930320,"9207 FELDBANK DR","CHARLOTTE","NC","28216"
930321,"9207 FELDBANK DRIVE","CHARLOTTE","NC","28216"
930322,"9207 FESTIVAL COURT","TAMPA","FL","33647"
930323,"9207 GREAT LAKES CIRCLE","CENTERVILLE","OH","45458"
930324,"9207 JOHNSON ROAD","MOBILE","AL","36695"
930325,"9207 LAZZINI","CORDOVA","TN","38016"
930326,"9207 LEXINGTON FARMS DR","ALPHARETTA","GA","30004"
930327,"9207 MALLISON AVE","SOUTH GATE","CA","90280"
930328,"9207 MEADOWMONT COURT","TAMPA","FL","33626"
930329,"9207 MESSINA DRIVE","FT. WASHINGTON","MD","20744"
930330,"9207 MOUNTAIN MAGNOLIA DR","RIVERVIEW","FL","33578"
930331,"9207 N 95TH STREET","MILWAUKEE","WI","53234"
930332,"9207 NE 92ND ST","VANCOUVER","WA","98662"
930333,"9207 NORTH ASHLAND AVENUE","NILES","IL","60714"
930334,"9207 NOTRE DAME AVENUE","CHATSWORTH","CA","91311"
930335,"9207 OLD COACH ROAD","CINCINNATI","OH","45249"
930336,"9207 RIVER RIDGE DRIVE","CANTON","GA","30114"
930337,"9207 SMITH CROSSING DRIVE","KERNERSVILLE","NC","27284"
930338,"9207 SOUTH NOBEL WAY","INGLEWOOD","CA","90305"
930339,"9207 SW 193RD CR","DUNNELLON","FL","34432"
930340,"9207 TWIN HILLS DR","HOUSTON","TX","77031"
930341,"9207 W  ADLER","MILWAUKEE","WI","53214"
930342,"9207 W ADLER ST","MILWAUKEE","WI","53214"
930343,"9207 WINTERSET CT","CLINTON","MD","20735"
930344,"9208 28TH ST CT E","EDGEWOOD","WA","98371"
930345,"9208 ADALEE COURT","COLUMBIA","MD","21045"
930346,"9208 ANNAPOLIS ROAD","LANHAM","MD","20706"
930347,"9208 ARNIE COURT","MANASSAS PARK","VA","20111"
930348,"9208 BEDFORD","ODESSA","TX","79764"
930349,"9208 BREISH COURT","EL PASO","TX","79925"
930350,"9208 CENTRAL STREET","KANSAS CITY","MO","64114"
930351,"9208 CHANDLER DR","GROVELAND","FL","34736"
930352,"9208 CINDER PL NW","ALBUQUERQUE","NM","87120"
930353,"9208 CROOKED CREEK LANE","OKC","OK","73160"
930354,"9208 CUB RUN DR","CONCORD","NC","28027"
930355,"9208 E BEDELL STREET","WICHITA","KS","67207"
930356,"9208 E CHAMPAGNE DR","SUN LAKES","AZ","85248"
930357,"9208 EL CAMINITO","GILROY","CA","95020"
930358,"9208 FAIRLANE PL","LAUREL","DC","20708"
930359,"9208 FOX HOLLOW TRAIL","IRVING","TX","75063"
930360,"9208 GRAFFINGTON WAY","RALEIGH","NC","27615"
930361,"9208 HARRISBURG LN","MCKINNEY","TX","75071"
930362,"9208 HONEYSUCKLE DR","EASTON","MD","21601"
930363,"9208 KLINGER RD","COVINGTON","OH","45318"
930364,"9208 LONGVIEW DR","JOHNSTON","IA","50131"
930365,"9208 MARILYN DRIVE","WHITE SETTLEMENT","TX","76108"
930366,"9208 N 96TH E AVE","OWASSO","OK","74055"
930367,"9208 NE 116TH TERR","KANSAS CITY","MO","64157"
930368,"9208 NE HWY 99  BOX 107-432","VANCOUVER","WA","98665"
930369,"9208 NE HWY 99 STE 107-357","VANCOUVER","WA","98665"
930370,"9208 NE HWY 99 STE 107-386","VANCOUVER","WA","98665"
930371,"9208 NE HWY 99 SUITE 107-386","VANCOUVER","WA","98665"
930372,"9208 NW 99TH ST","YUKON","OK","73099"
930373,"9208 RIVERSIDE STATION BLVD","SECAUCUS","NJ","07094"
930374,"9208 S LOOMIS-UNIT 1","CHICAGO","IL","60620"
930375,"9208 S LOOMIS-UNIT 2","CHICAGO","IL","60620"
930376,"9208 SANDHILLS DRIVE","ARGYLE","TX","76226"
930377,"9208 SHADYDALE DRIVE","ST LOUIS","MO","63138"
930378,"9208 SOUTH 41ST STREET","FRANKLIN","WI","53132"
930379,"9208 SOUTH FLORENCE AVE","TULSA","OK","74137"
930380,"9208 SOUTH LOOMIS","CHICAGO","IL","60620"
930381,"9208 SUMNER GROVE DRIVE","LAUREL","MD","20708"
930382,"9208 TROY RD","NEW CARLISLE","OH","45344"
930383,"9208 TWINS STREET","BRAINERD","MN","56401"
930384,"9208 W 156TH PLACE","OVERLAND PARK","KS","66221"
930385,"9208 W CENTURY DR 517","ARIZONA CITY","AZ","85123"
930386,"9208 W CENTURY DRIVE 517","ARIZONA CITY","AZ","85123"
930387,"9208 WINDSOR HWY","DIMONDALE","MI","48821"
930388,"9208 WOODEN BRIDGE ROAD","POTOMAC","MD","20854"
930389,"92086 460TH AVENUE","WINDOM","MN","56101"
930390,"9209  TUCKAHOE LANE TUCKAHOE LANE","ADELPHI","MD","20783"
930391,"9209 8TH AVENUE SW","SEATTLE","WA","98106"
930392,"9209 BLACKSTONE DRIVE","PROVIDENCE VILLAGE","TX","76227"
930393,"9209 CHARTERHOUSE RD","FREDERICK","MD","21704"
930394,"9209 CLAY CANYON DR","CORONA","CA","92833"
930395,"9209 CLINTON ANDERSON DRIVE NW","ALBURQUERQUE","NM","87114"
930396,"9209 CORNWELL DRIVE","WAKE FOREST","NC","27587"
930397,"9209 CYPRESS COVE DR","ORLANDO","FL","32819"
930398,"9209 DAYSTAR DRIVE","PLANO","TX","75025"
930399,"9209 DEWEY GIBBS ROAD","URBANDALE","IA","50322"
930400,"9209 GARY LANE","GLENARDEN","MD","20774"
930401,"9209 GREAT LAKES CIRCLE","MIAMISBURG","OH","45458"
930402,"9209 HI VIEW LN","LOUISVILLE","KY","40272"
930403,"9209 HUNTINGTON CIRCLE","JOHNSTON","IA","50131"
930404,"9209 LAGUNA LAKE WAY","ELK GROVE","CA","95758"
930405,"9209 LORTON VALLEY ROAD","LORTON","VA","22079"
930406,"9209 MIDLAND TURN","UPPER MARLBORO","MD","20772"
930407,"9209 NORTH 103RD EAST AVENUE","OWASSO","OK","74055"
930408,"9209 NW 53RD CT","SUNRISE","FL","33351"
930409,"9209 SCENIC BLUFF DRIVE","AUSTIN","TX","78733"
930410,"9209 SEMINOLE BLVD  UNIT 99","SEMINOLE","FL","33772"
930411,"9209 SR 333 NORTH","LONDON","AR","72847"
930412,"9209 SW 136 STREET CIR","MIAMI","FL","33176"
930413,"9209 SW 1ST PLACE","GAINESVILLE","FL","32607"
930414,"9209 SW 227TH STREET  UNIT 3","CUTLER BAY","FL","33190"
930415,"9209 TUCKAHOE LN","ADELPHI","MD","20783"
930416,"9209 WESTDRUM COURT","INDIANAPOLIS","IN","46231"
930417,"9209 WOODHURST COURT","LOUISVILLE","KY","40222"
930418,"921 13TH STREET NW","FAYETTE","AL","35555"
930419,"921 18TH STREET","ZION","IL","60099"
930420,"921 21ST AVE","SEATTLE","WA","98112"
930421,"921 24TH AVE S APT 5","MINNEAPOLIS","MN","55406"
930422,"921 26TH STREET","ORLANDO","FL","32805"
930423,"921 31ST PLACE","BELLINGHAM","WA","98225"
930424,"921 3RD STREET","HAVRE","MT","59501"
930425,"921 48TH AVENUE","VERO BEACH","FL","32966"
930426,"921 52 ST          APT 302","NE WASHGINTON","DC","20019"
930427,"921 56TH STREET","WEST DES MOINES","IA","50266"
930428,"921 63RD AVENUE EAST","BRADENTON","FL","34203"
930429,"921 7TH STREET","LAUREL","MD","20707"
930430,"921 9TH STREET","LAKE LINDEN","MI","49945"
930431,"921 AIRPORT SERVICE ROAD","NASHVILLE","TN","37214"
930432,"921 AIRPORT WAY","HAILEY","ID","83333"
930433,"921 ALLENDALE  STREET","BALTIMORE","MD","20212"
930434,"921 AMANDA DR","LITHONIA","GA","30058"
930435,"921 AMELIA COURT","WINDSOR","CA","95492"
930436,"921 ANCHORAGE LANE","GRAYSON","GA","30017"
930437,"921 ANCHORAGE LN","GRAYSON","GA","30017"
930438,"921 ANGELA ST","ARABI","LA","70032"
930439,"921 ANNAPOLIS AVE","EDGEWATER","MD","21037"
930440,"921 ARTHUR ROAD","MONTOURSVILLE","PA","17754"
930441,"921 ASBURY AVE","EVANSTON","IL","60202"
930442,"921 ASBURY AVENUE","EVANSTON","IL","60202"
930443,"921 ASHFORD LANE","WESTMONT","IL","60559"
930444,"921 ASPEN CT","DESOTO","TX","75115"
930445,"921 ASSEMBLY STREET","COLUMBIA","SC","29208"
930446,"921 BAKER AVE","DICKINSON","ND","58601"
930447,"921 BASSWOOD DRIVE","WEBSTER","NY","14605"
930448,"921 BELLEFONTE AVENUE","LOCK HAVEN","PA","17745"
930449,"921 BERESFORD WAY","LAKE MARY","FL","32746"
930450,"921 BERGEN AVE","JERSEY CITY","NJ","07601"
930451,"921 BEVERLY ROAD","RYDAL","PA","19046"
930452,"921 BIRCHWOOD DRIVE","RAYMORE","MO","64083"
930453,"921 BIRKSHIRE AVENUE","CHANDLER","IN","47610"
930454,"921 BLACK JACK LANE","MOORE","OK","73160"
930455,"921 BOURBON STREET","NEW ORLEANS","LA","70116"
930456,"921 BOURLAND RD","KELLER","TX","76248"
930457,"921 BOXWOOD COURT","CHATHAM","IL","62629"
930458,"921 BRAD STREET","LANSING","MI","48911"
930459,"921 BRENTWOOD DRIVE","MURPHY","TX","75094"
930460,"921 BRIARWOOD CT","MASON","OH","45040"
930461,"921 BRITTEN AVE","LANSING","MI","48910"
930462,"921 BROADHAVEN DRIVE","RALEIGH","NC","27603"
930463,"921 BROADWAY ST","PLAINVIEW","TX","79072"
930464,"921 BROOKBERRY FARM CIRCLE","WINSTON-SALEM","NC","27106"
930465,"921 BROOKFIELD DR APT 6","MANSFIELD","OH","44907"
930466,"921 BRYAN PLACE A6","GARNER","NC","27529"
930467,"921 BRYAN PLACE APT B1","GARNER","NC","27529"
930468,"921 BUFFALO SPRINGS DRIVE","FORT WORTH","TX","76140"
930469,"921 BUSLEIGH CASTLE WAY","PFLUGERVILLE","TX","78660"
930470,"921 CAPWOOD AVENUE","LITCHFIELD","MN","55355"
930471,"921 CASSEQUE PROVINCE","MT PLEASANT","SC","29464"
930472,"921 CEDARBERRY RD","NORTH PLATTE","NE","69101"
930473,"921 CENTRAL AVENUE NORTH","KENT","WA","98032"
930474,"921 CHURCH ST","HOUMA","LA","70360"
930475,"921 CHURCH ST","SAN FRANCISCO","CA","94114"
930476,"921 CLARK ROAD","PASCO","WA","99301"
930477,"921 COLERIDGE ROAD","BALTIMORE","MD","21229"
930478,"921 COLLEGE STREET","BOWLING GREEN","KY","42101"
930479,"921 COUNTY RD 39","SOUTHAMPTON","NY","11968"
930480,"921 COUNTY STREET 2935","TUTTLE","OK","73089"
930481,"921 COVENANT WAY","CHESAPEAKE","VA","23322"
930482,"921 CRABTREE CROSSING PKWY","MORRISVILLE","NC","27560"
930483,"921 CRAWFORD APT 4212","FORT WORTH","TX","76104"
930484,"921 CREEKDALE DR","RICHARDSON","TX","75080"
930485,"921 CRESTVIEW DRIVE","LA CRESCENTA","CA","91202"
930486,"921 CYPRESS POINT CIRCLE","BOWIE","MD","20721"
930487,"921 CYPRESS","PLANO","TX","75025"
930488,"921 DELMAR ROAD","MORGAN CITY","LA","70342"
930489,"921 DOGWOOD DRIVE","PELL CITY","AL","35128"
930490,"921 E 25TH STREET","WILMINGTON","DE","19802"
930491,"921 E 3RD AVE","LUCK","WI","54853"
930492,"921 E 53RD ST S","WICHITA","KS","67216"
930493,"921 E 90TH ST","CHICAGO","IL","60619"
930494,"921 E ANGELENO AVE","BURBANK","CA","91501"
930495,"921 E CHULA VISTA ROAD","TUCCSON","AZ","85718"
930496,"921 E CLAUDE ST","CARSON","CA","90746"
930497,"921 E DUPONT ROAD 794","FORT WAYNE","IN","46825"
930498,"921 E HAYES","OKMULGEE","OK","74447"
930499,"921 E MULBERRY STREET","ANGLETON","TX","77515"
930500,"921 E OLD HICKORY BLVD APT 14","MADISON","TN","37208"
