"ID","Address","City","State","Zip"
585501,"40 DALTON CT","REDLANDS","CA","92373"
585502,"40 DAMON ROAD","SCITUATE","MA","02066"
585503,"40 DANIEL ST SUITE 4","ATLANTA","GA","30312"
585504,"40 DEER CREEK LANE","DANVILLE","CA","94406"
585505,"40 DEER RUN","LIVERMORE","ME","04253"
585506,"40 DELAWARE AVE","PENNS GROVE","NJ","08069"
585507,"40 DEPEW STREET","ROCHESTER","NY","14611"
585508,"40 DERBY CT","COVINGTON","GA","30016"
585509,"40 DETHA LANE","RINGGOLD","GA","30736"
585510,"40 DIXON DRIVE","FLORHAM PARK","NJ","07932"
585511,"40 DOCK STREET","LITTLE EGG HARBOR","NJ","08087"
585512,"40 DOVE LANDING","COVINGTON","GA","30016"
585513,"40 DOW ROAD","GORHAM","ME","04038"
585514,"40 DOWNING DRIVE","WYOMISSING","PA","19610"
585515,"40 DUDLEY RD","BLANCHESTER","OH","45107"
585516,"40 DUKES CIRCLE","LINCOLNSHIRE","IL","60069"
585517,"40 DUNCASTER RD","BLOOMFIELD","CT","06002"
585518,"40 DUTCHER ST","HOPEDALE","MA","01747"
585519,"40 DUTCHER STREET","HOPEDALE","MA","01747"
585520,"40 E 1ST AVENUE","LEXINGTON","NC","27292"
585521,"40 E 4800 S","MURRAY","UT","84107"
585522,"40 E 500 S","CUTLER","IN","46920"
585523,"40 E 9TH ST","CHICAGO","IL","60605"
585524,"40 E 9TH ST","CHICAGO","IL","60620"
585525,"40 E 9TH STREET APARTMENT 804","CHICAGO","IL","60605"
585526,"40 E ACADEMY ST SUITE 405","LUDOWICI","GA","31316"
585527,"40 E ACADEMY ST SUITE 826","LUDOWICI","GA","31316"
585528,"40 E CENTER ST","FALLON",NA,NA
585529,"40 E CHICAGO AVE NUM 139","CHICAGO","IL","60611"
585530,"40 E CHICAGO AVE NUM 313","CHICAGO","IL","60611"
585531,"40 E CHICAGO AVE STE 311","CHICAGO","IL","60611"
585532,"40 E CHRISTIAN COURT","ANGIER","NC","27501"
585533,"40 E COMMERCE ST","BRIDGETON","NJ","08302"
585534,"40 E COMMERCE STREET","BRIDGETON","NJ","08302"
585535,"40 E COUNTRY CLUB DR","BRENTWOOD","CA","94513"
585536,"40 E DIVISION ST APT B UP","FOND DU LAC","WI","54935"
585537,"40 E HUDSON VIEW DR","BEACON","NY","12508"
585538,"40 E LAKE DRIVE N","LITTLE ARKANSAS","AR","72116"
585539,"40 E LAKE STREET","WINCHESTER","MA","01890"
585540,"40 E MAIN ST STE 844","NEWARK","DE","19711"
585541,"40 E MAIN","ESCALANTE","UT","84726"
585542,"40 E MCMICKEN AVENUE","CINCINNATI","OH","45202"
585543,"40 E MOWRY STREET","CHESTER","PA","19013"
585544,"40 E SIDNEY AVE APT 7E","MOUNT VERNON","NY","10550"
585545,"40 E SIEBENTHALER AV","DAYTON","OH","45324"
585546,"40 E WORKS ST 2G","SHERIDAN","WY","82801"
585547,"40 E WORKS SUITE 2B","SHERIDAN","WY","82801"
585548,"40 E WORKS","SHERIDAN","WY","82801"
585549,"40 EAAST COLONIAL DRIVE 509","ORLANDO","FL","32803"
585550,"40 EAGLE RIDGE WAY","WEST ORANGE","NJ","07052"
585551,"40 EAGLEY VALLEY COURT","BROADVIEW HEIGHTS","OH","44147"
585552,"40 EAST 100 NORTH","JOSEPH","UT","84739"
585553,"40 EAST 104TH STREET","CHICAGO","IL","60628"
585554,"40 EAST 10TH ST","NEW YORK","NY","10003"
585555,"40 EAST 10TH STREET SUITE 1W","NEW YORK CITY","NY","10003"
585556,"40 EAST 43RD STREET","BROOKLYN","NY","11203"
585557,"40 EAST 54TH STREET","KANSAS CITY","MO","64112"
585558,"40 EAST 8TH STREET","LAKEWOOD","NJ","08701"
585559,"40 EAST 9TH ST APT 1018","CHICAGO","IL","60605"
585560,"40 EAST 9TH STREET  604","CHICAGO","IL","60605"
585561,"40 EAST CHICAGO AVENUE SUITE 170","CHICAGO","IL","60611"
585562,"40 EAST MOCKINGBIRD WAY","GALLOWAY","NJ","08205"
585563,"40 EAST MOORES CREEK RD","FINLEY","KY","42718"
585564,"40 EAST SIDNEY AVE   19K","MT VERNON","NY","10550"
585565,"40 EAST ST","BROOKFIELD","VT","05036"
585566,"40 EAST WALNUT STREET","EAST MASSAPEQUA","NY","11758"
585567,"40 EDGEMOOR DRIVE","NEWPORT NEWS","VA","23603"
585568,"40 EE 108TH TER","KANSAS CITY","MO","64114"
585569,"40 EILEEN DR","WANTAGE","NJ","07461"
585570,"40 ELECTRIC AVE","SOMERVILLE","MA","02144"
585571,"40 ELIZABETH COURT","SECAUCUS","NJ","07094"
585572,"40 ELIZABETH STREET","DANSVILLE","NY","14437"
585573,"40 ELK RUN RD","BELLEVILLE","WV","26133"
585574,"40 ELLIOT ROAD","PARSIPPANY","NJ","07054"
585575,"40 ELM STREET","JACKSON","NJ","08527"
585576,"40 ELM TREE LANE","CARBONDALE","IL","62901"
585577,"40 EMANUEL RD","MARSHFIELD","MA","02050"
585578,"40 ENGLISH STREET","SALEM","MA","01970"
585579,"40 ERIK STREET","MERRIMACK","NH","03054"
585580,"40 ERIKA LANE","WEYMOUTH","MA","02190"
585581,"40 ERVING AVE","EAST PATCHOGUE","NY","11772"
585582,"40 ESCOBAR STREET","MARTINEZ","CA","94553"
585583,"40 ESPANOLA STREET","SAN FRANCISCO","CA","94124"
585584,"40 EUCALYPTUS KNOLL ST","MILL VALLEY","CA","94941"
585585,"40 EVERETT GAYLORD BLVD","WORCESTER","MA","01608"
585586,"40 EVERGREEN DR","ORINDA","CA","94563"
585587,"40 EXCHANGE PL STE 1602","NEW YORK","NY","10005"
585588,"40 EXCHANGE PL","NEW YORK","NY","10005"
585589,"40 EXCHANGE PLACE SUITE 1602","NEW YORK","NY","10005"
585590,"40 EXCHANGE PLACE","NEW YORK","NJ","10005"
585591,"40 EXCHANGE PLACE","NEW YORK","NY","10005"
585592,"40 FAIRBANKS ST","KEENE","NH","03431"
585593,"40 FARMSTEAD RD","FAIRFIELD","CT","06824"
585594,"40 FARNSWORTH WAY","LANCASTER","MA","01523"
585595,"40 FAWN DRIVE","BARABOO","WI","53913"
585596,"40 FEATHER LANE","ROCKY POINT","NC","28457"
585597,"40 FEATHERBED LANE","BRONX","NY","10452"
585598,"40 FENTON ST","LAKEWOOD","CO","80226"
585599,"40 FENWICK DRIVE","CHARLESTON","SC","29407"
585600,"40 FERNWALD DR","BEAVERCREEK","OH","45440"
585601,"40 FERNWOOD RD","BANGOR","PA","18013"
585602,"40 FIELD STREET","PAWTUCKET","RI","02860"
585603,"40 FIRCREST LN","CHAGRIN FALLS","OH","44022"
585604,"40 FIREWATER LN","SUCHES","GA","30572"
585605,"40 FIRST AVE APT 4E","NEW YORK","NY","10009"
585606,"40 FIRST AVE APT 9G","NEW YORK","NY","10009"
585607,"40 FIRST AVENUE 4G","NEW YORK","NY","10009"
585608,"40 FISKE AVENUE","WHITMAN","MA","02382"
585609,"40 FLEETWOOD AVENUE","MOUNT VERNON","NY","10553"
585610,"40 FLETCHER STREET","KENNEBUNK","ME","04043"
585611,"40 FLINTLOCK COURT","BERNARDSVILLE","NJ","07924"
585612,"40 FLORENCE AVE","NEW HAVEN","CT","06512"
585613,"40 FLUME LANE","MARSTONS MILLS","MA","02648"
585614,"40 FLYNN ROAD","STOUGHTON","MA","02072"
585615,"40 FOLEY RD","MARLBORO","MA","01752"
585616,"40 FOLLETT RD","CENTER HARBOR","NH","03226"
585617,"40 FORD RD","CARMEL VALLEY","CA","93924"
585618,"40 FOREST AVENUE","ORONO","ME","04473"
585619,"40 FOREST DRIVE","JEFFERSONVILLE","IN","47130"
585620,"40 FOREST STREET","SHERBORN","MA","01770"
585621,"40 FOX CIRCLE","KEENE","NH","03431"
585622,"40 FOX DEN DR","FLETCHER","NC","28732"
585623,"40 FOX FIRE LANE","DANVILLE","PA","17821"
585624,"40 FOX GLEN DRIVE","STAMFORD","CT","06903"
585625,"40 FOX RUN ROAD","ESSEX JUNCTION","VT","05452"
585626,"40 FOXMOOR CIRCLE","NASHUA","NH","03063"
585627,"40 FOXON HILL RD UNIT 54","NEW HAVEN","CT","06513"
585628,"40 FOXON HILL RD","NEW HAVEN","CT","06513"
585629,"40 FOXON HILL ROAD UNIT K39","NEW HAVEN","CT","06513"
585630,"40 FOXWOOD COURT","DEATSVILLE","AL","36022"
585631,"40 FULKERSON CIR","LIBERTY","MO","64068"
585632,"40 FURMAN DRIVE","WAYNE","NJ","07470"
585633,"40 GALVASTON LOOP","STATEN ISLAND","NY","10314"
585634,"40 GARDENVILLE PKWY W STE 209","WEST SENECA,NY","NY","14224"
585635,"40 GARRISON DRIVE","SCITUATE","MA","02066"
585636,"40 GARY LANE","UXBRIDGE","MA","01569"
585637,"40 GATSBY DR APT 5","RAYNHAM","MA","02767"
585638,"40 GAZEBO CT","CAMDEN","SC","29020"
585639,"40 GENEBERN WAY","SAN FRANCISCO","CA","94112"
585640,"40 GEORGE STREET","BURLINGTON","VT","05401"
585641,"40 GEORGETOWN CT","DEARBORN","MI","48126"
585642,"40 GERALD AVE","CLAWSON","MI","48017"
585643,"40 GILCHRIST STREET","LUNENBERG","MA","01462"
585644,"40 GLACIER DRIVE","MORRI",NA,NA
585645,"40 GLACIER DRIVE","MORRIS PLAINS","NJ","07950"
585646,"40 GLEN STREET","MELROSE","MA","02176"
585647,"40 GLENGARRY DRIVE","STRATHAM","NH","03885"
585648,"40 GLENMORE LANE","BRIDGEWATER","MA","02324"
585649,"40 GOLDEN SPRUCE LANE","MAPLE ON CANADA",NA,NA
585650,"40 GOLDENROD STREET","SPRINGFIELD","MA","01109"
585651,"40 GORSKI","BUFFALO","NY","14215"
585652,"40 GOULD ROAD","BEDFORD","MA","01730"
585653,"40 GOVERNOR WENTWORTH RD","AMHERST","NH","03031"
585654,"40 GOVERNORS RD","HILTON HEAD ISLAND","SC","29928"
585655,"40 GRANDVIEW AVE","BUFFALO","NY","14223"
585656,"40 GRANT 73","SHERIDAN","AR","72150"
585657,"40 GRAPE STREET","PITTSBURGH","PA","15210"
585658,"40 GRAPEVINE AVE","LEXINGTON","MA","02421"
585659,"40 GRASSMERE AVENUE","OAKDALE","NY","11769"
585660,"40 GRASSY KNOLL","RSM","CA","92688"
585661,"40 GREAT HILLS TERRACE","SHORT HILLS","NJ","07078"
585662,"40 GREAT LAKES DRIVE","SAINT PETERS","MO","63376"
585663,"40 GREENBROOK ROAD","BERKELEY HEIGHTS","NJ","07922"
585664,"40 GREENFIELD DR","WESTON","CT","06883"
585665,"40 GREENVIEW DRIVE","MCKEES ROCKS","PA","15136"
585666,"40 GREENWELL DRIVE","HAMPTON","VA","23666"
585667,"40 GREY MEADOW ROAD","ORLAND","ME","04472"
585668,"40 GUM TREE","COVINGTON","GA","30016"
585669,"40 HAGAR RD","MILAN","NH","03588"
585670,"40 HALL CIR","LEXINGTON","VA","24450"
585671,"40 HAMILTON ST UNIT 5","BRIDGEPORT","CT","06608"
585672,"40 HAMPSTEAD ROAD","JAMAICA PLAIN","MA","02130"
585673,"40 HAMPTON GATE DRIVE","SICKLERVILLE","NJ","08081"
585674,"40 HANS COURT","HAVANA","FL","32333"
585675,"40 HANSEN STREET","TAPPAN","NY","10983"
585676,"40 HARBORVIEW DR","RACINE","WI","53403"
585677,"40 HARES EAR LANE","SILVERTHORNE","CO","80498"
585678,"40 HARNESS LANE","LEVITTOWN","NY","11756"
585679,"40 HARRIMAN ROAD","MERRIMAC","MA","01860"
585680,"40 HARRINGTON ROAD","NORTH KINGSTOWN","RI","02852"
585681,"40 HARRISON ST APT 25 A","NEW YORK","NY","10013"
585682,"40 HARRISON STREET 12F","NEW YORK","NY","10013"
585683,"40 HARRISON STREET 23C","NEW YORK","NY","10013"
585684,"40 HARRISON STREET","SOMERVILLE","MA","02143"
585685,"40 HART AVENUE","HOPEWELL","NJ","08525"
585686,"40 HARVARD WAY","BOSTON","MA","02163"
585687,"40 HASTINGS","BRIDGEPORT","CT","06610"
585688,"40 HAWK HILL LANE","EAST CHATHAM","NY","12060"
585689,"40 HAWTHORNE ST","SPRINGFIELD","MA","01105"
585690,"40 HAYDEN RD","HOLLIS","NH","03049"
585691,"40 HAYES AVE","BEVERLY","MA","01915"
585692,"40 HEADLEY ROAD","MORRISTOWN","NJ","07960"
585693,"40 HEATH STREET","EVERETT","MA","02149"
585694,"40 HEMBURY LANE","PALM COAST","FL","32137"
585695,"40 HERSEY ROAD","CRANSTON","RI","02910"
585696,"40 HEWITT ROAD","SWOOPE","VA","24479"
585697,"40 HIDDEN VIEW LANE","MOUNDSVILLE","WV","26041"
585698,"40 HIGGINS RD","FLETCHER","NC","28732"
585699,"40 HIGH POINT RD","PLANTATION KEY","FL","33070"
585700,"40 HIGH REEVES ROAD","RICHMOND","KY","40475"
585701,"40 HIGH ROCK STREET","WESTWOOD","MA","02090"
585702,"40 HIGHLAND AVENUE","PIEDMONT","CA","94611"
585703,"40 HIGHLAND AVENUE","SOUTH HADLEY","MA","01075"
585704,"40 HIGHLAND DRIVE","CABOT","AR","72023"
585705,"40 HIGHLAND ST","MILTON","MA","02186"
585706,"40 HIGHPOINT CROSSING","POWDER SPRINGS","GA","30127"
585707,"40 HILDRETH AVENUE","BRIDGEHAMPTON","NY","11932"
585708,"40 HILL STREET","GLEN COVE","NY","11542"
585709,"40 HILLCREST DR","SPENCERPORT","NY","14559"
585710,"40 HILLOW SPRINGS LN","HIRAM","GA","30141"
585711,"40 HILLSIDE DRIVE","STRATFORD","NJ","08084"
585712,"40 HILLTOP LANE APT 105","MANKATO","MN","56001"
585713,"40 HILTOP LANE APT 201","MANKATO","MN","56001"
585714,"40 HOLDEN BLVD 2ND FL","STATEN ISLAND","NY","10314"
585715,"40 HOLLY DR","NEW ROCHELLE","NY","10801"
585716,"40 HOLLY KNOLL DRIVE","ROCKY MOUNT","VA","24151"
585717,"40 HOLMES PL","FREDONIA","NY","14063"
585718,"40 HOLMES TERRACE","WHITMAN","MA","02382"
585719,"40 HOME AVE","PROVIDENCE","RI","02908"
585720,"40 HOPKINSON AVE","PISCATAWAY","NJ","08854"
585721,"40 HOPYARD ROAD","STAFFORD SPRINGS","CT","06076"
585722,"40 HORATIO STREET APT 1","NYC","NY","10014"
585723,"40 HORN ROAD","LEVITTOWN","PA","19056"
585724,"40 HORSESHOE RIDGE RD","SANDY HOOK","CT","06482"
585725,"40 HOWARD COURT","NEWARK","NJ","07102"
585726,"40 HOWARD DRIVE","MANAHAWKIN","NJ","08050"
585727,"40 HOYT ROAD","GOFFSTOWN","NH","03045"
585728,"40 HOYT ST APT A6","STAMFORD","CT","06905"
585729,"40 HUBBELL","OAKVILLE","CT","06779"
585730,"40 HUDSON STREET","HALIFAX","MA","02338"
585731,"40 HUDSON VIEW DRIVE APT A","BEACON","NY","12508"
585732,"40 HUNT CLUB DRIVE APT 306","COPLEY","OH","44321"
585733,"40 HUNTER AVENUE","NEWPORT","RI","02840"
585734,"40 HUNTER ROAD","PLYMOUTH MEETING","PA","19462"
585735,"40 HUNTERS TRAIL","DALLAS","GA","30152"
585736,"40 HUNTINGTON AVE","BROCKTON","MA","02301"
585737,"40 HUNTLY ROAD","QUINCY","MA","02169"
585738,"40 HUNTSVILLE ROAD APT 42","KATONAH","NY","10536"
585739,"40 HURLCROFT ROAD","MILTON","MA","02186"
585740,"40 HYDE AVENUE","NILES","OH","44446"
585741,"40 IMLAYSTOWN ROAD","EAST WINDSOR","NJ","08520"
585742,"40 IRONWOOD LN","ELTOPIA","WA","99330"
585743,"40 IROQUOIS ROAD","LEVITTOWN","PA","19057"
585744,"40 IRVING PLACE 4TH FL RM 422","NYC","NY","10003"
585745,"40 IRVING ST APARTMENT 1","NEWARK","NJ","07104"
585746,"40 IRWIN ST","SAVANNAH","TN","38372"
585747,"40 ISLAND LANE","CLAYTON","DE","19938"
585748,"40 JACKSON ST 3400","WORCESTER","MA","01608"
585749,"40 JACKSON STREET SUITE 3400","WORCESTER","MA","01608"
585750,"40 JACKSON STREET","FREEHOLD","NJ","07728"
585751,"40 JASON LANE","STAFFORD","VA","22554"
585752,"40 JAY STREET","LAKEWOOD","NJ","08701"
585753,"40 JEFFREY PLACE","MANHASSET HILLS","NY","11040"
585754,"40 JENSEN ROAD","SAYREVILLE","NJ","08872"
585755,"40 JESSE ANN CIRCLE","EARLTON","NY","12058"
585756,"40 JODO WAY","BETHLEHEM","NH","03574"
585757,"40 JUNCTION DRIVE","CANDLER","NC","28715"
585758,"40 KAREN ELIZABETH LN","RINGGOLD","GA","30736"
585759,"40 KAUFFMAN LANE","FRANKFORD","DE","19945"
585760,"40 KENNEDY AVENUE","ROCKVILLE CENTRE","NY","11570"
585761,"40 KENSINGTON DRIVE","HAMILTON","OH","45013"
585762,"40 KENT LANE APT 1","CENTEREACH","NY","11702"
585763,"40 KENT RD","UPPER DARBY","PA","19082"
585764,"40 KERN ROAD","YORK","PA","17406"
585765,"40 KIHALANI PLACE UNIT 3503","KIHEI","HI","96753"
585766,"40 KING COURT","ENFIELD","CT","06082"
585767,"40 KINGS PARK RD","LITTLE ROCK","AR","72227"
585768,"40 KINGS PARK ROAD","COMMACK","NY","11725"
585769,"40 KINGS WAY APT 304A","WALTHAM","MA","02451"
585770,"40 KINGSWOOD DR","CHULA VISTA","CA","91911"
585771,"40 KINGSWOOD PLACE","RIDGEFIELD","CT","06877"
585772,"40 KLIENKILL DRIVE","NEW PALTZ","NY","12561"
585773,"40 KNIGHT CREST COURT","SOUDERTON","PA","18964"
585774,"40 KNOLL RD","WOODBURY","CT","06798"
585775,"40 KY RT 302","HAGERHILL","KY","41222"
585776,"40 LADY SLIPPER LANE","ABINGTON","MA","02351"
585777,"40 LADY SLIPPER LANE","WELD","ME","04285"
585778,"40 LAFAYETTE AVE","PASSAIC","NJ","07055"
585779,"40 LAKES POND RD","WATERFORD","CT","06385"
585780,"40 LAKEVIEW AVENUE","BRIDGEPORT","CT","06606"
585781,"40 LANE 200H LAKE JAMES","ANGOLA","IN","46703"
585782,"40 LANNIN RD","SUNDANCE","WY","82729"
585783,"40 LARK DRIVE APT 42A","ALBANY","NY","12210"
585784,"40 LARK ROAD","COVINGTON","GA","30016"
585785,"40 LAURA DRIVE","GILLETTE","NJ","07933"
585786,"40 LAUREL HILL RD","BROOKFIELD","CT","06804"
585787,"40 LAUREL PLACE","BRIDGEPORT","CT","06604"
585788,"40 LAUREL RIDGE TRAIL","KILLINGWORTH","CT","06419"
585789,"40 LAUREL STREET","INVERNESS","CA","94937"
585790,"40 LAVER CIRCLE","LITTLE ROCK","AR","72210"
585791,"40 LAWRENCE ST","LITTLETON","MA","01460"
585792,"40 LAWRENCE STREET","DOVER","NJ","07801"
585793,"40 LEANDER ST APT 102","PROVIDENCE","RI","02909"
585794,"40 LEANNA CIRCLE","BROCKPORT","NY","14420"
585795,"40 LEE COURT","MERRITT ISLAND","FL","32935"
585796,"40 LEISURE LANE","WOODLAND PARK","CO","80863"
585797,"40 LEXINGTON AVE NW","GRAND RAPIDS","MI","49504"
585798,"40 LEXINGTON AVE","SOMERVILLE","MA","02144"
585799,"40 LIGHT SHINE LANE","COLUMBUS","OH","43235"
585800,"40 LINCOLN DRIVE","LEWIS RUN","PA","16738"
585801,"40 LINCOLN RD","BROOKLYN","NY","11225"
585802,"40 LINCOLN ROAD SUITE 4J","BROOKLYN","NY","11225"
585803,"40 LINCOLN","LEWIS RUN","PA","16738"
585804,"40 LINDA LANE","MILLERSVILLE","MD","21108"
585805,"40 LINDEN AVENUE","IRVINGTON","NJ","07111"
585806,"40 LINDEN PLACE","SEWICKLEY","PA","15143"
585807,"40 LISPENARD STREET 5","NEW YORK","NY","10013"
585808,"40 LITCHFIELD DR","SAVANNAH","GA","31419"
585809,"40 LITHFIELD DR","SAVANNAH","GA","31419"
585810,"40 LITTLE BROOK RD","NEW HARTFORD","CT","06057"
585811,"40 LITTLE CAPER RD","BEAUFORT","SC","29907"
585812,"40 LITTLE DEER TRL","MCDONOUGH","GA","30253"
585813,"40 LOCUST LN","FAIRPORT","NY","14450"
585814,"40 LOGAN SW APT 3A","GRAND RAPIDS","MI","49503"
585815,"40 LONE TREE DR","CAMDEN","DE","19934"
585816,"40 LONG MEADOW ESTATES","TURNER","ME","04282"
585817,"40 LONGFELLOW AVENUE","PITTSFIELD","MA","01201"
585818,"40 LONGYEAR DR","NEGAUNEE","MI","49866"
585819,"40 LOON LAKE RD","FREEDOM","NH","03836"
585820,"40 LOPEZ ST","CAMBRIDGE","MA","02139"
585821,"40 LORDS BEACH ROAD","TRENTON","ME","04605"
585822,"40 LORING AVE","STATEN ISLAND","NY","10312"
585823,"40 LOUNSBURY STREET","NAUGATUCK","CT","06770"
585824,"40 LOWELL AVE","SIERRA MADRE","CA","91024"
585825,"40 LOWELL LANE","HEBRON","ME","04238"
585826,"40 LOWRY ROAD","FALMOUTH","MA","02540"
585827,"40 LYNETTE BOULEVARD","KINGSTON","NY","12401"
585828,"40 LYNWOOD COURT","BLOOMINGTON","NY","12411"
585829,"40 MACDOUGAL ST APT 1B","NEW YORK","NY","10012"
585830,"40 MADISON CIRCLE","DAVENPORT","IA","52806"
585831,"40 MAIN STREET APT 3","BROOKLYN","NY","11201"
585832,"40 MAIZE DR","SOMERSWORTH","NH","03878"
585833,"40 MALLARD POINTE DRIVE","DOUGLAS","GA","31535"
585834,"40 MALLORY RD","COLORADO SPRINGS","CO","80906"
585835,"40 MANITO TRL","MALVERN","OH","44644"
585836,"40 MANOR LANE","MORRIS PLAINS","NJ","07950"
585837,"40 MARGARET DRIVE","SAG HARBOR","NY","11963"
585838,"40 MARGARET ROAD","MONROE","NY","10950"
585839,"40 MARIPOSA","LAKE FOREST","CA","92630"
585840,"40 MARKET STREET","NEW HAVEN","CT","06513"
585841,"40 MARSH HILL ROAD","PUTNAM VALLEY","NY","10579"
585842,"40 MARSTON DR","MARTINSBURG","WV","25403"
585843,"40 MARTINDALE RD","SHORT HILLS","NJ","07078"
585844,"40 MARTINDALE ROAD","SHORT HILLS","NJ","07078"
585845,"40 MARY TALBERT BLVD","BUFFALO","NY","14204"
585846,"40 MARYWOOD ST","UXBRIDGE","MA","01569"
585847,"40 MARYWOOD STREET","UXBRIDGE","MA","01569"
585848,"40 MASON DRIVE","PRINCETON","NJ","08540"
585849,"40 MATTHEWS DRIVE","BEDMINSTER","NJ","07921"
585850,"40 MAUJER ST 2F","BROOKLYN","NY","11206"
585851,"40 MAUPAS ROAD","GUILFORD","CT","06437"
585852,"40 MCDONALD DRIVE","COHOES","NY","12047"
585853,"40 MCGARRAH ROAD","MONROE","NY","10950"
585854,"40 MCINTYRE ST","FORT EDWARD","NY","12828"
585855,"40 MCKINLEY ST","COOKEVILLE","TN","38506"
585856,"40 MCLEAN","HIGHLAND PARK","MI","48203"
585857,"40 MEADOW RIDGE","SOCIAL CIRCLE","GA","30025"
585858,"40 MEADOW VIEW BLVD","N PROVIDENCE","RI","02904"
585859,"40 MEADOWN ST","AGAWAM","MA","01001"
585860,"40 MEMORIAL HIGHWAY / APT 35G","NEW ROCHELLE","NY","10801"
585861,"40 MEMORIAL HIGHWAY 29 L","NEW ROCHELLE","NY","10801"
585862,"40 MEMORIAL HIGHWAY APT 28A","NEW ROCHELLE","NY","10801"
585863,"40 MEMORIAL HIGHWAY APT 5K","NEW ROCHELLE","NY","10801"
585864,"40 MEMORIAL HIGHWAY SUITE 6B","NEW ROCHELLE","NY","10801"
585865,"40 MEMORIAL HIGHWAY","NEW ROCHELLE","NY","10801"
585866,"40 MEMORIAL HWY APT 2J","NEW ROCHELLE","NY","10801"
585867,"40 MEMORIAL HWY APT 8K","NEW ROCHELLE","NY","10801"
585868,"40 MEMORIAL HWY UNIT 27L","NEW ROCHELLE","NY","10801"
585869,"40 MEMORIAL HWY","NEW ROCHELLE","NY","10801"
585870,"40 MEPKIN CT","AIKEN","SC","29803"
585871,"40 MERRIMAC STREET","NEWBURYPORT","MA","01950"
585872,"40 MERRITT DR","BELLA VISTA","AR","72714"
585873,"40 METRO TOWER","MORGANTOWN","WV","26505"
585874,"40 METRO VISTA DR","HAWTHORNE","NJ","07506"
585875,"40 MIDWOOD AVENUE","NESCONSET","NY","11767"
585876,"40 MIL TRACE ROAD","YOUNGSTOWN","OH","44511"
585877,"40 MILFORD AVE","NEWARK","NJ","07108"
585878,"40 MILLER ROAD","MOUNT TREMPER","NY","12457"
585879,"40 MINTAGU ST","CHARLESTON","SC","29401"
585880,"40 MITCHELL AVENUE","EAST NORTHPORT","NV","11731"
585881,"40 MITCHELL AVENUE","EAST NORTHPORT","NY","11731"
585882,"40 MOMBERT DRIVE","BALLWIN","MO","63021"
585883,"40 MONROE CENTER ST NW STE 11","GRAND RAPIDS","MI","49503"
585884,"40 MONROE STREET","SHEBOYGAN FALLS","WI","53085"
585885,"40 MONTAUK HWY","SOUTHAMPTON","NY","11968"
585886,"40 MONTEREY LANE","SIERRA MADRE","CA","91024"
585887,"40 MONTVIEW AVE","SHORT HILLS","NJ","07078"
585888,"40 MONUMENT ST","CRANSTON","RI","02921"
585889,"40 MOONRISE RIDGE","LEICESTER","NC","28748"
585890,"40 MOOSE HILL ROAD","OXFORD","CT","06478"
585891,"40 MORNE STREET","NEW YORK","NY","10002"
585892,"40 MORNING GLORY ROAD","LEVITTOWN","NY","11756"
585893,"40 MORROW AVENUE 6HN","SCARSDALE","NY","10583"
585894,"40 MOSELLE ST","BUFFALO","NY","14211"
585895,"40 MOSS PINK WAY","LANDRUM","SC","29356"
585896,"40 MOSSY OAK TRAIL","JACKSON","TN","38305"
585897,"40 MOUNT ZION RD APT 38","ATLANTA","GA","30354"
585898,"40 MOUNTAIN ROAD","LEDGEWOOD","NJ","07852"
585899,"40 MOUNTAIN VIEW CT","MILFORD","NH","03055"
585900,"40 MT ZION ROAD","ATLANTA","GA","30354"
585901,"40 MULCAHY DR","E HARTFORD","CT","06118"
585902,"40 MUSCONETCONG RIVER ROAD","HAMPTON","NJ","08827"
585903,"40 MYRTLE AVE","DOBBS FERRY","NY","10522"
585904,"40 MYRTLE ST  UNIT 3","WALTHAM","MA","02453"
585905,"40 N  MAIN STREET APT  2B","MILLTOWN","NJ","08850"
585906,"40 N 1170 E","LOGAN","UT","84321"
585907,"40 N 2ND ST","LEBANON","OR","97355"
585908,"40 N 4TH ST APT 7J","BROOKLYN","NY","11249"
585909,"40 N 4TH ST","ZANESVILLE","OH","43701"
585910,"40 N BERKELY AVE","TURLOCK","CA","95380"
585911,"40 N BYBEE LANE","YERINGTON","NV","89447"
585912,"40 N CROMWELL RD","SAVANNAH","GA","31410"
585913,"40 N DOGWOOD DR","MAYFLOWER","AR","72106"
585914,"40 N HIGHLAND AVE","AKRON","OH","44303"
585915,"40 N HOBART STREET","PHILADELPHIA","PA","19139"
585916,"40 N I ST","LAKEVIEW","OR","97630"
585917,"40 N INTERSTATE HWY 35","AUSTIN","TX","78701"
585918,"40 N RURAL STREET","INDIANAPOLIS","IN","46201"
585919,"40 N WABASH AVE APT 4811","CHICAGO","IL","60611"
585920,"40 N WELLS STREET SUITE 350","CHICAGO","IL","60606"
585921,"40 NATE WHIPPLE HIGHWAY","CUMBERLAND","RI","02864"
585922,"40 NE 61ST APT 1B","KANSAS CITY","MO","64118"
585923,"40 NEIMAN ROAD","LAKEWOOD","NJ","08701"
585924,"40 NEW WAY LANE","GLOUCESTER","MA","01930"
585925,"40 NEWCOMB ST","SONOMA","CA","95476"
585926,"40 NEWPORT PARK 2809","JERSEY CITY","NJ","07310"
585927,"40 NEWPORT PARKWAY APT 3403","JERSEY CITY","NJ","07310"
585928,"40 NORFOLK ST","FREDERICKSBURG","VA","22406"
585929,"40 NORTH ALDER ROAD","ORLANDO","FL","32807"
585930,"40 NORTH CLARENDON AVENUE","MARGATE","NJ","08402"
585931,"40 NORTH CONGER AVENUE","CONGERS","NY","10920"
585932,"40 NORTH COURT LANE","LEVITTOWN","PA","19054"
585933,"40 NORTH ELLAMONT ST","BALTIMORE","MD","21229"
585934,"40 NORTH FULTON AVE","MOUNT VERNON","NY","10550"
585935,"40 NORTH KERSHAW STREET","YORK","PA","17403"
585936,"40 NORTH MAIN STREET","DAYTON","OH","45423"
585937,"40 NORTH MAIN STREET","MEDFORD","NJ","08055"
585938,"40 NORTH PEARL STREET","NORTH EAST","PA","16428"
585939,"40 NORTHWOOD DRIVE","PORTLAND","ME","04103"
585940,"40 NORWELL STREET","WEST HAVEN","CT","06516"
585941,"40 NOTCH ROAD","ROCKAWAY","NJ","07435"
585942,"40 NOUVELLE WAY T930","NATICK","MA","01760"
585943,"40 NW 12TH AVENUE","DELRAY  BEACH","FL","33444"
585944,"40 NW 29TH ST","MIAMI","FL","33127"
585945,"40 NW 3RD ST PH 1","MIAMI","FL","33128"
585946,"40 OAK KNOLL CIR","LEBANON","PA","17042"
585947,"40 OAK RIDGE ROAD","RAMSEY","NJ","07446"
585948,"40 OAK RIDGE ST","INDIAN ORCHARD","MA","01151"
585949,"40 OAK TREE LANE","VINEYARD HAVEN","MA","02568"
585950,"40 OAKLEY KELLY DRIVE","MERCER","PA","16137"
585951,"40 OAKWOOD AVE","HURON","OH","44839"
585952,"40 OAKWOOD DRIVE","MANKOTA","MN","56001"
585953,"40 OBLONG ROAD","WILLIAMSTOWN","MA","01267"
585954,"40 OCEAN PARKWAY 1J","BROOKLYN","NY","11218"
585955,"40 OCELOT TRAIL DR","LAGUNA VISTA","TX","78578"
585956,"40 OCONEE WOODS TRAIL","SHARPSBURG","GA","30277"
585957,"40 ODONALD ROAD","ASHEVILLE","NC","28806"
585958,"40 OGDEN AVE","WHITE PLAINS","NY","10605"
585959,"40 OKENUCK TRAIL","STRATFORD","CT","06814"
585960,"40 OLD FORGE RD","CLEMENTON","NJ","08021"
585961,"40 OLD FRANKFORT PIKE","VERSAILLES","KY","40383"
585962,"40 OLD LOUISQUISSET PIKE UNIT 1204","NORTH SMITHFIELD","RI","02896"
585963,"40 OLD LOUISQUISSET PIKE","SMITHFIELD","RI","02896"
585964,"40 OLD MCELHANEY RD","GREENVILLE","SC","29617"
585965,"40 OLD TOWNE ROAD","CHESHIRE","CT","06410"
585966,"40 OLIVE CT","IOWA CITY","IA","52246"
585967,"40 OLIVER","ST LOUIS","MO","63135"
585968,"40 OLIVIA ST","TRINITY","AL","35673"
585969,"40 OLSEN ROAD","RHINEBECK","NY","12572"
585970,"40 OLYMPIC DRIVE","SOUTH BARRINGTON","IL","60010"
585971,"40 ORANGE STREET","ST AUGUSTINE","FL","32084"
585972,"40 ORCHARD","WESTON","MA","02493"
585973,"40 OUTLOOK WAY","STARKSBORO","VT","05487"
585974,"40 OVERBY LN","ATLANTA","GA","30327"
585975,"40 OVERHILL ROAD","STRATFORD","NJ","08084"
585976,"40 OVERHILL ROAD","WOODBRIDGE","CT","06525"
585977,"40 OWENS STREET","HARTFORD","CT","06105"
585978,"40 OXBOW LANE","GILFORD","NH","03249"
585979,"40 PACKARD DRIVE","MILLVILLE","NJ","08332"
585980,"40 PACKARD RD","ORANGE","MA","01364"
585981,"40 PALADINI ROAD","NOVATO","CA","94947"
585982,"40 PAMONA DRIVE","BARENGAT","NJ","08005"
585983,"40 PANHANDLE ROAD","WEST TISBURY","MA","02575"
585984,"40 PANORAMA COURT","DANVILLE","CA","94506"
585985,"40 PARAMETER LANE","NORTH ATTLEBORO","MA","02760"
585986,"40 PARK AVENUE","WINDSOR","CT","06095"
585987,"40 PARK CITY COURT 3104","SACRAMENTO","CA","95831"
585988,"40 PARK LANE","RICHMOND","CA","94803"
585989,"40 PARK PLACE","SHORT HILLS","NJ","07078"
585990,"40 PARK ROAD","ISLAMORADA","FL","33036"
585991,"40 PARK ST","ROSELLE","IL","60172"
585992,"40 PAULA LANE","MANCHESTER","CT","06040"
585993,"40 PEARL ST APT 12","NEW LONDON","CT","06320"
585994,"40 PEARL STREET NW 5TH FLOOR","GRAND RAPIDS","MI","49503"
585995,"40 PEARL STREET NW STE 1000","GRAND RAPIDS","MI","49503"
585996,"40 PEARL STREET","HUDSON FALLS","NY","12839"
585997,"40 PEARSALL AVENUE","GLEN COVE","NY","11542"
585998,"40 PERGOLA DR","STARFFIRD","VA","22554"
585999,"40 PERSHING AVENUE","STAMFORD","CT","06905"
586000,"40 PFOHL PLACE","WILLIAMSVILLE","NY","14221"
