"ID","Address","City","State","Zip"
552001,"3610 HOLLYWOOD AVE","BROOKFIELD","IL","60513"
552002,"3610 IVY STREET","DENVER","CO","80207"
552003,"3610 JASMINE COVE LN","SNELLVILLE","GA","30039"
552004,"3610 KENARD AVE NW","HUNTSVILLE","AL","35810"
552005,"3610 LARIAT ROAD","PARK CITY","UT","84098"
552006,"3610 LEFAYS PT","LAND O LAKES","FL","34638"
552007,"3610 MAPLE AVENUE","NORTHBROOK","IL","60062"
552008,"3610 MCGUIRE DRIVE","RICHMOND","VA","23224"
552009,"3610 MILBOURNE","FLINT","MI","48504"
552010,"3610 N 30TH ST","OZARK","MO","65721"
552011,"3610 N 56TH AVE","HOLLYWOOD","FL","33021"
552012,"3610 N 900 E","MONTGOMERY","IN","47558"
552013,"3610 N NORFOLK ST","INDIANAPOLIS","IN","46224"
552014,"3610 N OXFORD STREET","INDIANAPOLIS","IN","46218"
552015,"3610 N UNIVERSITY AVE SUITE 275","PROVO","UT","84604"
552016,"3610 N UNIVERSITY AVENUE SUITE 275","PROVO","UT","84604"
552017,"3610 NAVARO STREET","DALLAS","TX","75212"
552018,"3610 NE 13TH AVE","POMPANO BEACH","FL","33064"
552019,"3610 NEWPPORT BAY DRIVE","ALPHARETTA","GA","30005"
552020,"3610 NORTH 163RD PLAZA","OMAHA","NE","68116"
552021,"3610 NORTH PINE GROVE","CHICAGO","IL","60613"
552022,"3610 NOTTINGHAM DR","MONTGOMERY","AL","36109"
552023,"3610 OLD PAGELAND RD","WINGATE","NC","28174"
552024,"3610 PASSIFLORA","SAN ANTONIO","TX","78261"
552025,"3610 PAUL ROBBINS LN","MANILA","AR","72442"
552026,"3610 PINE VALLEY DRIVE","PEARLAND","TX","77581"
552027,"3610 POINTER WAY","HIGHLANDS RANCH","CO","80126"
552028,"3610 QUAIL CREEK DR","BUFORD","GA","30519"
552029,"3610 QUAIL RUN RD","WELLINGTON","NV","89444"
552030,"3610 RAMBOZ DR","LOS ANGELES","CA","90063"
552031,"3610 RENEE DRIVE","SANFORD","NC","27332"
552032,"3610 RHODOVENDRON ST","SUMTER","SC","29154"
552033,"3610 RIDGECREST","C","WY","82601"
552034,"3610 RIDGECREST","CASPER","WY","82604"
552035,"3610 ROSEWOOD LANDING DRIVE","CASTLE HAYNE","NC","28429"
552036,"3610 RUSSEL ST","SAGINAW","MI","48601"
552037,"3610 S 100TH ST","OMAHA","NE","68124"
552038,"3610 S GLENBROOK","GARLAND","TX","75041"
552039,"3610 S GREYTHORNE WAY","CHANDLER","AZ","85248"
552040,"3610 S OCEAN BLVD APT 202","SOUTH PALM BEACH","FL","33480"
552041,"3610 S ROSALIND AVE","ORLANDO","FL","32806"
552042,"3610 SAANTIAGO ST","SAN FRANCISOC","CA","94116"
552043,"3610 SANTIAGO ST","SAN FRANCISCO","CA","94116"
552044,"3610 SE 1ST STREET","HOMESTEAD","FL","33033"
552045,"3610 SE HILL ST","ALBANY","OR","97322"
552046,"3610 SHIRE BLVD NUMBER 106","RICHARDSON","TX","75082"
552047,"3610 SOUTH 14TH ST","ALEXANDRIA","VA","22302"
552048,"3610 SPINNAKER DRIVE","ANCHORAGE","AK","99516"
552049,"3610 STONEHAVEN DRIVE","FLORISSANT","MO","63033"
552050,"3610 SUNSET DR","NORTH PLATTE","NE","69101"
552051,"3610 SW KIMSTIN CIRCLE","BLUE SPRINGS","MO","64015"
552052,"3610 TIMBER OAK CIRCLE","HELENA","AL","35022"
552053,"3610 TIMBERLAKE DRIVE","JOLIET","IL","60435"
552054,"3610 TRUTH LANE","MAGNA","UT","84044"
552055,"3610 US 701 SOUTH","FOUR OAKS","NC","27524"
552056,"3610 VANCE STREET 203","WHEAT RIDGE","CO","80033"
552057,"3610 VIOLET ST","SEAL BEACH","CA","90740"
552058,"3610 W 10TH ST","ANACORTES","WA","98221"
552059,"3610 W CHESTNUT","YAKIMA","WA","98902"
552060,"3610 W PALMIRA AVE","TAMPA","FL","33629"
552061,"3610 WALLINGFORD AVE N 201","SEATTLE","WA","98103"
552062,"3610 WALMSLEY AVE","NORTH PORT","FL","34287"
552063,"3610 WATKINS RIDGE COURT","RALEIGH","NC","27616"
552064,"3610 WOODSCAPE","JOHNS ISLAND","SC","29455"
552065,"3610 YACHT CLUB DRIVE SUITE 304","AVENTURA","FL","33180"
552066,"3610 YOLANDO RD","BALTIMORE","MD","21218"
552067,"36101 BOB HOPE DR E5-125","RANCHO MIRAGE","CA","92270"
552068,"36101 BOB HOPE DRIVE E-125","RANCHO MIRAGE","CA","92270"
552069,"36101 BOB HOPE DRIVE E5-125","RANCHO MIRAGE","CA","92270"
552070,"36102 POST OAK CIR","MAGNOLIA","TX","77355"
552071,"36104 AVENUE 13","MADERA","CA","93636"
552072,"36108 TOULOUSE ST","NEWARK","CA","94560"
552073,"36109 10TH CT SW","FEDERAL WAY","WA","98023"
552074,"36109 GENEVA RD","BURLINGTON","WI","53105"
552075,"3611 21ST AVE","ASTORIA","NY","11105"
552076,"3611 72ND AVE SE","MERCER ISLAND","WA","98040"
552077,"3611 ALAMEDA CIRCLE","BALTIMORE","MD","21218"
552078,"3611 BOWERS AVE","BALTIMORE","MD","21207"
552079,"3611 BOYER CIRCLE","LAFAYETTE","CA","94549"
552080,"3611 BRIDGE ROAD","HOLLYWOOD","FL","33026"
552081,"3611 BRITTLEWOOD AVE","LAS VEGAS","NV","89120"
552082,"3611 BUTTERNUT DR","HOLLAND","MI","49424"
552083,"3611 CALEB LANE","MISSOURI CITY","TX","77459"
552084,"3611 CAVENDISH COURT","WEST LAFAYETTE","IN","47906"
552085,"3611 CHAIN BRIDGE ROAD SUITE C","FAIRFAX","VA","22030"
552086,"3611 CHANCELOR WAY","WEST LAFAYETTE","IN","47906"
552087,"3611 COLE AVE APT 173","DALLAS","TX","75204"
552088,"3611 CORAL TREE CIRCLE","COCONUT CREEK","FL","33073"
552089,"3611 COUNTY RD 15","RAYLAND","OH","43943"
552090,"3611 DARLINGTON ROAD","MATTHEWS","NC","28105"
552091,"3611 DATA DRIVE APT 303","TAMPA","FL","33613"
552092,"3611 DORADO CIRCLE APT 105","FAYETTEVILLE","NC","28304"
552093,"3611 DRIFTING DRIVE","HELLERTOWN","PA","18055"
552094,"3611 E BLUE STONE DR","FAYETTEVILLE","AR","72764"
552095,"3611 E SAN MIGUEL STREET APT 303","COLORADO SPRINGS","CO","80909"
552096,"3611 EAST 185TH PLACE","BELTON","MO","64012"
552097,"3611 EAST HARDING STREET","LONG BEACH","CA","90805"
552098,"3611 FAWN VALLEY DR APT 2023","DALLAS","TX","75224"
552099,"3611 FM 60 E","SOMERVILLE","TX","77879"
552100,"3611 FORBES TRAIL DRIVE","MURRYVILLE","PA","15668"
552101,"3611 FOREST AVENUE","MUNHALL","PA","15120"
552102,"3611 FORWARD WAY","RALEIGH","NC","27614"
552103,"3611 GENEFIELD RD APT C10","ST JOSEPH","MO","64506"
552104,"3611 GRANT RD","JOHNSBURG","IL","60051"
552105,"3611 GRIZZLY LANE","DULUTH","GA","30096"
552106,"3611 GROVE TERRACE DRIVE","LAKELAND","IN","33813"
552107,"3611 GUINEVERE TRACE","DOUGLASVILLE","GA","30135"
552108,"3611 HECTOR LANE","NAPERVILLE","IL","60564"
552109,"3611 HENRICO STREET","NORFOLK","VA","23513"
552110,"3611 HIGH RIDGE RD 101","BOYNTON BEACH","FL","33426"
552111,"3611 HIGH RIDGE WAY 101","BOYNTON BEACH","FL","33426"
552112,"3611 HOOVER AVE","ALTOONA","WI","54720"
552113,"3611 HYACINTH DRIVE","SAN DIEGO","CA","92106"
552114,"3611 INTERLAKE AVE N UNIT A","SEATTLE","WA","98103"
552115,"3611 IRIS RIDGE WAY","FRESNO","TX","77545"
552116,"3611 KIOWA TRAIL","BILLINGS","MT","59106"
552117,"3611 LAKEVIEW DRIVE","UNION CITY","TN","38261"
552118,"3611 LORRAINE STREET","BATON ROUGE","LA","70805"
552119,"3611 MAHNAZ COURT","SPRINGDALE","MD","20774"
552120,"3611 MARGUERITE COURT","MT. AIRY","MD","21771"
552121,"3611 MILL CT","ELLICOTT CITY","MD","21043"
552122,"3611 MILL LAWN CT","ELLICOTT CITY","MD","21043"
552123,"3611 MOUNT HOLLY HUNTERSVILLE ROAD","CHARLOTTE","NC","28216"
552124,"3611 MT HOLLY HUNTRSLVLE RD 204 388","CHARLOTTE","NC","28216"
552125,"3611 MT HOLLY HUNTSVILLE RD 204-388","CHARLOTTE","NC","28216"
552126,"3611 N 33 RD TERRACE","HOLLYWOOD","FL","33021"
552127,"3611 N 53RD STREET","TAMPA","FL","33619"
552128,"3611 N DAMEN AVE","CHICAGO","IL","60618"
552129,"3611 N DAMEN","CHICAGO","IL","60618"
552130,"3611 N KELLY DR","GREENFIELD","IN","46140"
552131,"3611 NE 132ND","SMITHVILLE","MO","64089"
552132,"3611 NE 68TH TER","GLADSTONE","MO","64119"
552133,"3611 NE 68TH TERR","GLADSTONE","MO","64119"
552134,"3611 NE RIVERSIDE AVE","PENDLETON","OR","97801"
552135,"3611 NORTH 25TH STREET","ST LOUIS","MO","63107"
552136,"3611 NORTHRIDGE DR","PURCELL","OK","73080"
552137,"3611 NW 110TH LANE","CORAL SPRINGS","FL","33065"
552138,"3611 NW 24TH BLVD  APT 112","GAINESVILLE","FL","32605"
552139,"3611 OAKDALE DRIVE","GARY","IN","46403"
552140,"3611 OLD HICKORY LANE","MEDINA","OH","44256"
552141,"3611 OWENS WAY","NORTH HIGHLANDS","CA","95660"
552142,"3611 PALM GROVE DRIVE","MISSOURI CITY","TX","77459"
552143,"3611 PARK AVE UNIT 401","UNION CITY","NJ","07087"
552144,"3611 PENNSY DRIVE","LANDOVER","MD","20785"
552145,"3611 PEREGRINE CIR","MOUNTVILLE","PA","17554"
552146,"3611 PINE SISKIN LN","WAUSAU","WI","54401"
552147,"3611 POINCIANA AVENUE","MIAMI","FL","33133"
552148,"3611 REDMONT ROAD","BIRMINGHAM","AL","35213"
552149,"3611 RICHBORO DRIVE","HOLIDAY","FL","34691"
552150,"3611 RIDGE CLUSTER","SAN ANTONIO","TX","78247"
552151,"3611 RIDGEWAY","DULUTH","GA","30096"
552152,"3611 ROSALINDA","SAN CLEMENTE","CA","92673"
552153,"3611 ROYAL ROYCE DRIVE","HOUSTON","TX","77042"
552154,"3611 RUSKIN AVE","FREMONT","CA","94536"
552155,"3611 S 18TH STREET","MILWAUKEE","WI","53221"
552156,"3611 S 19TH ST","MILWAUKEE","WI","53221"
552157,"3611 S SAINT LUCIE DRIVE","CASSELBERRY","FL","32707"
552158,"3611 SAN JUAN DR","MOBILE","AL","36609"
552159,"3611 SAXON DRIVE","NEW SMYRNA BEACH","FL","32169"
552160,"3611 SE PENNSYLVANIA","TOPEKA","KS","66605"
552161,"3611 SKYLINE BLVD","TEXARKANA","TX","75503"
552162,"3611 SOUTH OAK CIRCLE","SAINT CLOUD","MN","56301"
552163,"3611 SPRUNICA RD","NINEVEH","IN","46164"
552164,"3611 SUNFISH DR SE","SAINT PETERSBURG","FL","33711"
552165,"3611 SW 143 AVE","MIAMI","FL","33175"
552166,"3611 SW 34TH ST APT 218","GAINESVILLE","FL","32608"
552167,"3611 TAYTEN DRIVE","NAMPA","ID","83686"
552168,"3611 THISTLE OAK TRACE","DECATUR","GA","30034"
552169,"3611 UNIVERSITY BLVD","HOUSTON","TX","77005"
552170,"3611 VIENNA CT","COLLEGE STATION","TX","77845"
552171,"3611 VILLA TERRACE","SAN DIEGO","CA","92104"
552172,"3611 W 111 STREET","INGLEWOOD","CA","90301"
552173,"3611 W 140TH","LEAWOOD","KS","66224"
552174,"3611 W SAN LUIS ST","TAMPA","FL","33629"
552175,"3611 WARNER STREET","SAN DIEGO","CA","92106"
552176,"3611 WASHINGTON ST UNIT B310","BOSTON","MA",NA
552177,"3611 WEST BLVD","LOS ANGELES","CA","90016"
552178,"3611 WEST BOSTON COURT","BROKEN ARROW","OK","74012"
552179,"3611 WEST CHEYENNE","PHOENIX","AZ","85339"
552180,"3611 WEST G STREET","BREMERTON","WA","98312"
552181,"3611 ZUNI STREET APT 202","DENVER","CO","80211"
552182,"3611","CENTENNIAL","CO","80122"
552183,"36112 BROADWATER ROAD","IVOR","VA","23866"
552184,"36113 ELBA PLACE","FREMONT","CA","94536"
552185,"36113 JACKSON ST","NEW BALTIMORE","MI","48047"
552186,"36114 10TH COURT SW","FEDERAL WAY","WA","98023"
552187,"36115 SE ISLEY","SNOQUALMIE","WA","98065"
552188,"36116 COURTNEY CREEK DRIVE","BROWNSVILLE","OR","97327"
552189,"36116 SE 28TH ST","FALL CITY","WA","98024"
552190,"36117 EMERALDA AVENUE","LEESBURG","FL","32788"
552191,"361197EAST1010RD","PADEN","OK","74860"
552192,"3611A N TEUTONIA AVE","MILWAUKEE","WI","53206"
552193,"3611MTHOLLY HUNTRSVILE RD 204-388","CHARLOTTE","NC","28216"
552194,"3612 11TH AVE S","MINNEAPOLIS","MN","55407"
552195,"3612 12TH STREET NW","ALBUQUERQUE","NM","87107"
552196,"3612 53RD PLACE N","BROOKLYN CENTER","MN","55429"
552197,"3612 AIKEN CT","WELLINGTON","FL","33414"
552198,"3612 ARCADIAN  DR","CASTRO VALLEY","CA","94546"
552199,"3612 ARCADIAN","CASTRO VALLEY","CA","95835"
552200,"3612 BAGGETT ROAD","SPRINGFIELD","TN","37172"
552201,"3612 BARHAM BLVD W209","LOS ANGELES","CA","90068"
552202,"3612 BARHAM BLVD","LOS ANGELES","CA","90068"
552203,"3612 BARRINGTON DR","KALAMAZO","MI","49006"
552204,"3612 BLOCK DRIVE APT 514","IRVING","TX","75038"
552205,"3612 BRADFORD DR","HOLIDAY","FL","34691"
552206,"3612 BREAN DOWN ROAD","PFLUGERVILLE","TX","78660"
552207,"3612 BREITWIESER LANE","NAPERVILLE","IL","60564"
552208,"3612 BROOKSTONE TRAIL","INDIAN TRAIL","NC","28079"
552209,"3612 BURLINGTON DR","FLOWER MOUND","TX","75022"
552210,"3612 CANNONADE COURT","WEST LAYEYETTE","IN","47906"
552211,"3612 CARIBOU DRIVE","FORT COLLINS","CO","80525"
552212,"3612 CARNOUSTY COVE","ROUND ROCK","TX","78664"
552213,"3612 CAROLINA STREET","GARY","IN","46409"
552214,"3612 CARRIAGE PL","MONTGOMERY","AL","36116"
552215,"3612 CEDAR LN","FARMERS BRANCH","TX","75234"
552216,"3612 CHARLOTTE","KANSAS CITY","MO","64109"
552217,"3612 CLARENELL RD","BALTIMORE","MD","21229"
552218,"3612 CONNECTICUT AVENUE","PENNSAUKEN","NJ","08109"
552219,"3612 DOUBLE BRANCH LANE","JACKSONVILLE","FL","32073"
552220,"3612 DUST COMMANDER DR","HAMILTON","OH","45011"
552221,"3612 E G ST","TACOMA","WA","98404"
552222,"3612 EAGLE ST","HOUSTON","TX","77004"
552223,"3612 EAST G STREET","TACOMA","WA","98404"
552224,"3612 ELAINE PL","NEW ORLEANS","LA","70119"
552225,"3612 ELLIOTT BLVD","AUGUSTA","GA","30906"
552226,"3612 ELMSTED DRIVE","RICHARDSON","TX","75082"
552227,"3612 FOREST MANOR AVENUE","INDIANAPOLIS","IN","46218"
552228,"3612 FOXFIRE DR","ZANESVILLE","OH","43701"
552229,"3612 FRISCO DR","YUKON","OK","73099"
552230,"3612 GREENBRIAR DR","HUNTSVILLE","AL","35810"
552231,"3612 GWYNN OAK AVENUE","BALTIMORE","MD","21207"
552232,"3612 GYPSY LANE","PHILADELPHIA","PA","19129"
552233,"3612 HARVARD COURT","EVANSVILLE","IN","47711"
552234,"3612 HARVARD CT","EVANSVILLE","AL","47711"
552235,"3612 HIGHLAND TERRACE DRIVE","CHATTANOOGA","TN","37415"
552236,"3612 HIGHWAY 94 N","COLUMBIA","NC","27925"
552237,"3612 JAMES LANE","CONCORD","CA","94519"
552238,"3612 JANNEY LANE","ROANOKE","VA","27018"
552239,"3612 JEFFERSON DAVIS DRIVE","MONROE","LA","71201"
552240,"3612 KRAMER STREET","HARRISBURG","PA","17109"
552241,"3612 LAGUNA COURT","RANDALLSTOWN","MD","21133"
552242,"3612 LAKE AVE","ROCHESTER","NY","14612"
552243,"3612 LARKWOOD CIRCLE","HUNTSVILLE","AL","35810"
552244,"3612 LITTLE FOX LN","TALLAHASSEE","FL","32312"
552245,"3612 LIVINGSTON RD","JACKSON","MS","39213"
552246,"3612 LOCUST AVE","ODESSA","TX","79762"
552247,"3612 LYNNWOOD DR","ARLINGTON","TX","76013"
552248,"3612 MEADOW AVE N","RENTON","WA","98056"
552249,"3612 MORTON AVE","BROOKFIELD","IL","60513"
552250,"3612 N PRICE WAY","MERIDIAN","ID","83646"
552251,"3612 NE 95TH TERRACE","KANSAS CITY","MO","64156"
552252,"3612 NORTH DR","GREENVILLE","OH","45331"
552253,"3612 NW 71ST STREET","OKLAHOMA CITY","OK","73116"
552254,"3612 NW 71ST","OKLAHOMA CITY","OK","73116"
552255,"3612 NYEWOOD COURT","CHARLOTTE","NC","28269"
552256,"3612 NYEWOOD CT","CHARLOTTE","NC","28269"
552257,"3612 OAK CREEK PLACE","WEST DES MOINES","IA","50265"
552258,"3612 OLD VINE TRAIL","HILLSBOROUGH","NC","27278"
552259,"3612 PALMARITO STREET","CORAL GABLES","FL","33134"
552260,"3612 PASEO BLVD","KANSAS CITY","MO","64109"
552261,"3612 PEACH GROVE LN","HAZEL CREST","IL","60429"
552262,"3612 PEARCE ROAD","AUSTIN","TX","78730"
552263,"3612 PEBBLE HILLS DRIVE","FERGUS FALLS","MN","56537"
552264,"3612 QUAIL RIDGE DR","HARKER HEIGHTS","TX","76548"
552265,"3612 RAND CREEK TRL","MCKINNEY","TX","75070"
552266,"3612 RONDA DRIVE","DELTONA","FL","32738"
552267,"3612 RUE DR","YUBA CITY","CA","95993"
552268,"3612 S K STREET","TACOMA","WA","98418"
552269,"3612 SAN SEBASTIAN COURT","PUNTA GORDA","FL","33950"
552270,"3612 SILKWOOD TRAIL","ARLINGTON","TX","76016"
552271,"3612 SKYLARK COURT","ABINGDON","MD","21009"
552272,"3612 SOUTH 14TH STREET","ALEXANDRIA","VA","22302"
552273,"3612 SPARROW POND CIRCLE","BATH","OH","44333"
552274,"3612 SPRING STREET","CHEVY CHASE","MD","20815"
552275,"3612 SUGAR MAPLE STREET","DECATUR","GA","30034"
552276,"3612 SW 112TH AVE","MIAMI","FL","33165"
552277,"3612 SWIFT DRIVE","RALEIGH","NC","27606"
552278,"3612 T St NW","WASHINGTON","DC","20007"
552279,"3612 T STREET NW","WASHINGTON","DC","20007"
552280,"3612 THOMPSON STREET UNIT 1","AUSTIN","TX","78702"
552281,"3612 VAN NESS ST NW","WASHINGTON","DC","20008"
552282,"3612 VINTON AVE APT 6","LOS ANGELES","CA","90034"
552283,"3612 W 123RD PLACE","CROWN POINT","IN","46307"
552284,"3612 W DISTRICT PEAK CT","SOUTH JORDAN","UT","84095"
552285,"3612 W SAINT PATRICK STREET","RAPID CITY","SD","57702"
552286,"3612 WELBORNE LANE","FLOWER MOUND","TX","75022"
552287,"3612 WELLINGTON CT","HAZEL CREST","IL","60429"
552288,"3612 WEST CROWN AVE","PHILA","PA","19114"
552289,"3612 WEST JEFFERSON STREET","LOUISVILLE","KY","40212"
552290,"3612 WEST LAKESHORE DRIVE","MOSES LAKE","WA","98837"
552291,"3612 WIND RIVER COURT","TUCKER","GA","30084"
552292,"3612 WOODHILL DR","BRANDON","PA","33511"
552293,"3612 YAH WAY","BONITA","CA","91902"
552294,"36120 WALKING HORSE CT","WILDOMAR","CA","92595"
552295,"36121 GOLDEN GATE DRIVE","YUCAIPA","CA","92399"
552296,"36124 S HWY 3","ST MARIES","ID","83861"
552297,"36125 CROMPTON CIRCLE","FARMINGTON HILLS","MI","48235"
552298,"36129 LINCOLN ST","NEW BALTIMORE","MI","48047"
552299,"3613 191ST PLACE SE","BOTHELL","WA","98012"
552300,"3613 191ST PLACE SE","BOTHELL","WA","98021"
552301,"3613 26TH STREET NE","WASHINGTON DC","DC","20018"
552302,"3613 46TH STREET","LUBBOCK","TX","79413"
552303,"3613 ALDERSYDE DRIVE","FORT WORTH","TX","76244"
552304,"3613 ASPEN COURT","DAVIDSONVILLE","MD","21035"
552305,"3613 ASPERWOOD CIR","COCONUT CREEK","FL","33073"
552306,"3613 AVENUE D 6E","BROOKLYN","NY","11203"
552307,"3613 BAHNMAN DRIVE","MCKINNEY","TX","75070"
552308,"3613 BALATON DRIVE","ABERDEEN","MD","21001"
552309,"3613 BASSWOOD DR","ALAMOGORDO","NM","88310"
552310,"3613 BEACH BOULEVARD","PASCAGOULA","MS","39567"
552311,"3613 BENTGRASS COURT","APEX","NC","27539"
552312,"3613 BENTWINDS BLUFFS LANE","FUQUAY-VARINA","NC","27526"
552313,"3613 BEVIS AVE","CINCINNATI","OH","45207"
552314,"3613 BRISTOL OVERLOOK","REX","GA","30273"
552315,"3613 BROADWATER LN","CHESTER","VA","23831"
552316,"3613 BROPHY BOULEVARD","COCOA","FL","32926"
552317,"3613 BURBANK DRIVE","ANN ARBOR","MI","48105"
552318,"3613 CALLE JAZMIN","CALABASAS","CA","91302"
552319,"3613 CAMBRONE","NEW ORLEANS","LA","70118"
552320,"3613 CANBERRA WAY","MOUNT JULIET","TN","37122"
552321,"3613 CAPE LANE","CONYERS","GA","30013"
552322,"3613 CARBARTON LANE","BOISE","ID","83704"
552323,"3613 CHANCELLORS DRIVE","UPPER MARLBORO","MD","20772"
552324,"3613 CHAPMAN LANE","INGLEWOOD","CA","90305"
552325,"3613 CR 106","BAY CITY","TX","77414"
552326,"3613 DAYTON ST","SACRAMENTO","CA","95838"
552327,"3613 DAYTON STREET","HEPHZIBAH","GA","30815"
552328,"3613 DEER ISLAND DR E","LAKE TAPPS","WA","98391"
552329,"3613 DEERLAKES DRIVE","AMHERST","NY","14228"
552330,"3613 DENNLYN ROAD","BALTIMORE","MD","21215"
552331,"3613 E BISON TRL","SIOUX FALLS","SD","57108"
552332,"3613 E OLYMPIC BLVD","LOS ANGELES","CA","90023"
552333,"3613 EAST 151 STREET","CLEVELAND","OH","44120"
552334,"3613 EDEN CROFT DR","RALEIGH","NC","27612"
552335,"3613 EDEN CROFT DRIVE","RALEIGH","NC","27612"
552336,"3613 EITEMILLER ROAD","BALTIMORE","MD","21244"
552337,"3613 EITEMILLER","BALTIMORE","MD","21244"
552338,"3613 FRANKFORD ROAD - APT 626","DALLAS","TX","75287"
552339,"3613 GRAHAM PARK RD","TRIANGLE","VA","22172"
552340,"3613 GRANADA AVE","SAN DIEGO","CA","92104"
552341,"3613 GRATIOT AVE","FLINT","MI","48503"
552342,"3613 GRAYHAWK AVE UNIT 106","AMES","IA","50010"
552343,"3613 GREENBRIAR CT","COLLEYVILLE","TX","76034"
552344,"3613 HALING PLACE SW","ROCHESTER","MN","55902"
552345,"3613 HIGHLAND CREEK DRIVE","APEX","NC","27539"
552346,"3613 IBERVILLE STREET","NEW ORLEANS","LA","70119"
552347,"3613 JAMES AVE","FORT WORTH","TX","76110"
552348,"3613 JEANNETTE DRIVE","METAIRIE","LA","70003"
552349,"3613 LEANNE DR","FLOWER MOUND","TX","75022"
552350,"3613 LOCUST","ODESSA","TX","79762"
552351,"3613 LUCIE ST","LANSING","MI","48911"
552352,"3613 MAYFLOWER CIRCLE","BISMARCK","ND","58504"
552353,"3613 MELISSA DR","SPRINGFIELD","IL","62711"
552354,"3613 MONARCH CIRCLE","MANHATTAN","KS","66503"
552355,"3613 MONROE ST","TOLEDO","OH","43606"
552356,"3613 MORGAN STREET UNIT G","CHICAGO","IL","60609"
552357,"3613 MUIRFIELD DRIVE","TITUSVILLE","FL","32780"
552358,"3613 NE 67TH STREET","GLADSTONE","MO","64119"
552359,"3613 NEVADA STREET","WEST COVINA","CA","91792"
552360,"3613 NW 111TH TERRACE","SUNRISE","FL","33351"
552361,"3613 NW TALAMORE TER","PORTLAND","OR","97229"
552362,"3613 PARKSIDE PL","FLOWER MOUND","TX","75022"
552363,"3613 PECAN DR","CHALMETTE","LA","70043"
552364,"3613 PERCHING BIRD LANE","NORTH LAS VEGAS","NV","89084"
552365,"3613 PONTIAC DRIVE","CARLSBAD","CA","92010"
552366,"3613 ROCK WAY","SACRAMENTO","CA","95821"
552367,"3613 ROOSEVELT RD APT 6","KENOSHA","WI","53142"
552368,"3613 S WINCHESTER AVE UNIT 2","CHICAGO","IL","60609"
552369,"3613 SAINT EDWARDS DR","LOUISVILLE","KY","40299"
552370,"3613 SAPPHIRE DRIVE UNIT 3","FAYETTEVILLE","NC","28303"
552371,"3613 SE 30TH TERR 203","TOPEKA","KS","66605"
552372,"3613 SEABISCUIT PL","MOORPARK","CA","93021"
552373,"3613 SEMINARY AVENUE","RICHMOND","VA","23227"
552374,"3613 SHARPS LAKE DR","JACKSON","MI","49201"
552375,"3613 SHARPS LAKE DR","JACKSON","MI","49203"
552376,"3613 SNAPWOOD ROAD APT F","HOOVER","AL","35216"
552377,"3613 SOUTH CONCORDIA AVE","TAMPA","FL","33629"
552378,"3613 SPRING HOLLOW LN","FREDERICK","MD","21704"
552379,"3613 STETZER ROAD","BUCYRUS","OH","44820"
552380,"3613 THIRD STREET","NEW ORLEANS","LA","70125"
552381,"3613 TULARA DR","BOISE","ID","83709"
552382,"3613 VINTAGE PL","DALLAS","TX","75214"
552383,"3613 W BAY TO BAY BLVD","TAMPA","FL","33629"
552384,"3613 W DREXEL STREET","FRANKLIN","WI","53132"
552385,"3613 WEDGEWOOD DR","HARVEY","LA","70058"
552386,"3613 WEST 3RD STREET","ANACORTES","WA","98221"
552387,"3613 WESTRIDGE CIRCLE DRIVE","ROCKY MOUNT","NC","27804"
552388,"3613 WOODBRIDGE PL","CINCINNATI","OH","45226"
552389,"3613 WRIGHTS FERRY RD","LOUISVILLE","TN","37777"
552390,"36133 CREAMER LANE","HILLSBORO","VA","20132"
552391,"3614 103RD TRAIL NORTH","BROOKLYN PARK","MN","55443"
552392,"3614 24TH STREET","ROCK ISLAND","IL","61201"
552393,"3614 30TH ST SW","GRANDVILLE","MI","49418"
552394,"3614 37TH STREET","SACRAMENTO","CA","95817"
552395,"3614 A CALIFORNIA AVE STE 147","SEATTLE","WA","98116"
552396,"3614 ALEXANDRIA STREET","WICHITA FALLS","TX","76310"
552397,"3614 APPLE POINT PLACE","RICHMOND","TX","77406"
552398,"3614 ARMSTRONG DRIVE","BLOOMINGTON","IL","61704"
552399,"3614 BENDEMEER ROAD","CLEVELAND HEIGHTS","OH","44118"
552400,"3614 BENTON BLVD","KANSAS CITY","MO","64130"
552401,"3614 BROOK RUN DR","DES MOINES","IA","50317"
552402,"3614 BUCKEYE LANE","TRUSSVILLE","AL","35173"
552403,"3614 CASEYS CV","ELLENWOOD","GA","30294"
552404,"3614 CLARKSVILLE ROAD","CLARKSVILLE","OH","45113"
552405,"3614 CLEVELAND STREET NORTH EAST","MINNEAPOLIS","MN","55418"
552406,"3614 CO RD 38","AUBURN","IN","46706"
552407,"3614 COLLINS STREET","SARASOTA","FL","34232"
552408,"3614 COLUMBIA PKWY","DECATUR","GA","30034"
552409,"3614 DAWNWOOD DR","INDIANAPOLIS","IN","46227"
552410,"3614 EAST 400 NORTH","LAGRO","IN","46941"
552411,"3614 EAST BROAD STREET","RICHMOND","VA","23223"
552412,"3614 EAST VAUGHN AVE","GILBERT","AZ","85234"
552413,"3614 EDMOND WAY","BOWIE","MD","20716"
552414,"3614 EPPINGDALE DR","HOUSTON","TX","77066"
552415,"3614 FARIS DR","LOS ANGELES","CA","90034"
552416,"3614 FARIS DRIVE APT 27","LOS ANGELES","CA","90034"
552417,"3614 FARRAGUT AVENUE","BROOKLYN","NY","11210"
552418,"3614 FLEET AVE","CLEVELAND","OH","44105"
552419,"3614 GADY ROAD","TECUMSEH","MI","49286"
552420,"3614 GRAND AVE","BURNSVILLE","GA","55337"
552421,"3614 GRAND CANAL","VENICE","CA","90292"
552422,"3614 HAGERSTONE WAY","CHARLOTTE","NC","28216"
552423,"3614 HARTFORD STREET","SAINT LOUIS","MO","63116"
552424,"3614 HARTFORD","SAINT LOUIS","MO","63116"
552425,"3614 JOHNSON AVENUE","BRONX","NY","10463"
552426,"3614 KELLOGG","DALLAS","TX","75214"
552427,"3614 KREBBS CT","MANVEL","TX","77578"
552428,"3614 LAKE STREET","HOUSTON","TX","77098"
552429,"3614 LAKESHORE DR","SMYRNA","GA","30082"
552430,"3614 LARSON LN","ROANOKE","VA","24018"
552431,"3614 MACARTHUR LANE","INDIANAPOLIS","IN","46224"
552432,"3614 MARISOL CT","NEW SMYRNA BEACH","FL","32168"
552433,"3614 MEADOWLARK ST","EL MONTE","CA","91732"
552434,"3614 MENTEL RD","MONROE","MI","48162"
552435,"3614 MOTOR AVE UNIT 4","LOS ANGELES","CA","90034"
552436,"3614 MUNNINGS KNOLL","LAND O LAKES","FL","34639"
552437,"3614 N 36TH STREET","MILWAUKEE","WI","53216"
552438,"3614 N VERNON DR","MUNCIE","IN","47304"
552439,"3614 OAKMONT DRIVE","GRAND PRAIRIE","TX","75052"
552440,"3614 OCEAN RANCH BLVD","OCEANSIDE","CA","92056"
552441,"3614 PIPES O THE GLEN WAY","ORLANDO","FL","32808"
552442,"3614 QUAKER RUN ROAD","RICHFIELD","PA","17086"
552443,"3614 REAVIS BARRACKS RD","ST. LOUIS","MO","63125"
552444,"3614 RIDGESTONE DRIVE","GARLAND","TX","75040"
552445,"3614 ROGERO RD","JACKSONVILLE","FL","32277"
552446,"3614 ROUTE 430","BEMUS POINT","NY","14712"
552447,"3614 S BOLGER CT","INDEPENDENCE","MO","64055"
552448,"3614 S PACIFIC COAST CIR APT 202","LAUDERDALE LAKES","FL","33309"
552449,"3614 S PACIFIC COAST CIRCLE","LAUDERDALE LAKES","FL","33309"
552450,"3614 S ROLLING OAKS DR","TULSA","OK","74107"
552451,"3614 S ROSS","AMARILLO","TX","79118"
552452,"3614 SAINT NICHOLAS AVENUE","JACKSONVILLE","FL","32207"
552453,"3614 SAMUEL ADAMS LANE","MISSOURI CITY","TX","77459"
552454,"3614 SAN MARCO DR","STOCKTON","CA","95212"
552455,"3614 SARDINIA ISLAND WAY","SACRAMENTO","CA","95834"
552456,"3614 SE 9TH AVE","PORTLAND","OR","97202"
552457,"3614 SOUTH 94TH STREET","MILWAUKEE","WI","53228"
552458,"3614 SPRING MEADOWS DR","ARLINGTON","TX","76014"
552459,"3614 SPRING MEADOWS DRIVE","ARLINGTON","TX","76014"
552460,"3614 ST DAVIDS CHURCH RD","FORT VALLEY","VA","22652"
552461,"3614 STARKS STREET","ORLANDO","FL","32805"
552462,"3614 STARRY NIGHT LOOP","CASTLE ROCK","CO","80109"
552463,"3614 SYCAMORE DAIRY ROAD","FAYETTEVILLE","NC","28303"
552464,"3614 TUSCANNA GROVE","COLORADO SPRINGS","CO","80920"
552465,"3614 TUSCANNA GROVE","COLORADO SPRINGS","CO","80921"
552466,"3614 VILLA GLEN DRIVE","HOUSTON","TX","77088"
552467,"3614 W 109TH ST","CHICAGO","IL","60655"
552468,"3614 W COCHISE DRIVE","PHOENIX","AZ","85051"
552469,"3614 W GORDON","JEFFERSON CITY","MO","65109"
552470,"3614 WISECARVER LANE","JAMUL","CA","91935"
552471,"36140 LIME BANK RD","UNION FURNACE","OH","43158"
552472,"36141 HARDENBURG","FARMINGTON HILLS","MI","48331"
552473,"36148 YATES ROAD","PEARL RIVER","LA","70452"
552474,"36149 KYLE PL","WINDSOR","CO","80550"
552475,"3614A CALIFORNIA AVE SW NUM246","SEATTLE","WA","98116"
552476,"3615 19TH AVE NW","ROCHESTER","MN","55901"
552477,"3615 20TH ST","SAN FRANCISCO","CA","94101"
552478,"3615 38TH STREET NW","WASHINGTON","DC","20016"
552479,"3615 ABBY LANE","ELY","MN","55731"
552480,"3615 ARENDELL STREET","MOREHEAD CITY","NC","28557"
552481,"3615 ASHWOOD DRIVE","PLEASANTON","CA","94588"
552482,"3615 ATLANTIC STREET NE","WARREN","OH","44483"
552483,"3615 BAYSIDE AVE","NORFOLK","VA","23518"
552484,"3615 BEAUMONT AVENUE","LIBERTY","TX","77535"
552485,"3615 BELLEFONTAINE","HOUSTON","TX","77025"
552486,"3615 BRAMBLE PASS","SAN ANTONIO","TX","78261"
552487,"3615 CAPRICORN WAY","REDDING","CA","96002"
552488,"3615 CARDIFF MIST D","KATY","TX","77494"
552489,"3615 CARPENTER ST SE","WASHINGTON","DC","20020"
552490,"3615 CASSIA ST","BOISE","ID","83705"
552491,"3615 CASTLE TERRACE","SILVERSPRING","OH","20904"
552492,"3615 CHATSWORTH CT","STOCKTON","CA","95209"
552493,"3615 CHERRY HILL DR","GREENSBORO","NC","27410"
552494,"3615 CLARKE RD","MEMPHIS","TN","38115"
552495,"3615 COKER ST APT 216","IRVING","TX","75062"
552496,"3615 CONROY ROAD SUITE 629","ORLANDO","FL","32839"
552497,"3615 COUNTY RD 10","HEREFORD","TX","79045"
552498,"3615 CROYDON RD","BALTIMORE","MD","21117"
552499,"3615 DENEWOOD COURT","COLUMBUS","GA","31909"
552500,"3615 DIXIE ROAD SW","CORYDON","IN","47112"
