"ID","Address","City","State","Zip"
508501,"3215 COUNTY RD 104 S","ALAMOSA","CO","81101"
508502,"3215 CREDENZA RD","CHARLOTTE","NC","28208"
508503,"3215 CREOLE BAY LANE","ROSENBERG","TX","77471"
508504,"3215 CRESTED CREEK DR","NEW BRAUNFELS","TX","78130"
508505,"3215 CUMING ST","OMAHA","NE","68131"
508506,"3215 CUMMING STREET","OMAHA","NE","68131"
508507,"3215 DELAWARE AVE","FORT PIERCE","FL","34947"
508508,"3215 DOVER LANE","BILLINGS","MT","59105"
508509,"3215 E HWY 22","SMITHFIELD","KY","40031"
508510,"3215 EASTERN AVE","ROCHESTER HILLS","MI","48307"
508511,"3215 ECHOLS ROAD","CUMMING","GA","30041"
508512,"3215 ELMCREST DR","HOUSTON","TX","77088"
508513,"3215 ESPADA","NEW BRAUNFELS","TX","78132"
508514,"3215 FELINA AVE NE APT B","SALEM","OR","97301"
508515,"3215 FERN BROOK LN","ROSENBERG","TX","77471"
508516,"3215 FERN BROOK LN","ROSENBURG","TX","77471"
508517,"3215 FLEDGLING CIRCLE","WOODBRIDGE","VA","22193"
508518,"3215 GEORGE STREET","HONOLULU","HI","96815"
508519,"3215 GLENNON PLACE","BRONX","NY","10465"
508520,"3215 GRANDLAKE BLVD","KENNER","LA","70065"
508521,"3215 HACKBERRY ST","CINCINNATI","OH","45207"
508522,"3215 HARBOR VIEW CT","DECATUR","GA","30034"
508523,"3215 HARDING AVE","EAST LIVERPOOL","OH","43920"
508524,"3215 HEATHERSIDE DR","DUBLIN","OH","43017"
508525,"3215 HICKORY GROVE LANE","PEARLAND","TX","77584"
508526,"3215 HORNER AVE","PENNSAUKEN","NJ","08109"
508527,"3215 HULL AVE APT 1C","BRONX","NY","10467"
508528,"3215 IRISH VALLEY","PAXINOS","PA","17860"
508529,"3215 KEATING COURT","MANCHESTER","MD","21102"
508530,"3215 LAFLEUR RD","GREENWOOD","AR","72936"
508531,"3215 LAKE AVENUE","BRIDGETON","MO","63044"
508532,"3215 LEXINGTON AVENUE","MOHEGAN LAKE","NY","10547"
508533,"3215 LINDA CIRCLE","WINSTON SALEM","NC","27106"
508534,"3215 LOCUST RD","DECORAH","IA","52101"
508535,"3215 LOULU STR APT-A","HONOLULU","HI","96822"
508536,"3215 LOVE","SELMA","CA","93662"
508537,"3215 LYNWOOD LANE","YORK","PA","17402"
508538,"3215 MARTIN L KING JR AVE SE","WASHINGTON","DC","20032"
508539,"3215 MARTIN LUTHER KING JR AVE SE","WASHINGTON DC","DC","20032"
508540,"3215 MAUREPAS STREET","NEW ORLEANS","LA","70119"
508541,"3215 MICHELE LN","HAMILTON","MI","49419"
508542,"3215 MINNESOTA AVENUE","KANSAS CITY","KS","66102"
508543,"3215 MORNING DEW LANE","FT PIERCE","FL","34981"
508544,"3215 MOUNTAINVIEW DRIVE SW","DECATUR","AL","35603"
508545,"3215 NASH RD","ANNA","IL","62906"
508546,"3215 NE 184TH ST APT 14305","AVENTURA","FL","33160"
508547,"3215 NW CREST DRIVE","CORVALLIS","OR","97330"
508548,"3215 OAK CLIFF LANE","MISSOURI CITY","TX","77459"
508549,"3215 OVERLOOK CIRCLE","LOUISVILLE","KY","40026"
508550,"3215 PEARSALL AVENUE","BRONX","NY","10469"
508551,"3215 PHILADELPHIA ROAD","ABINGDON","MD","21009"
508552,"3215 PLUM POINT DRIVE","OLIVE BRANCH","MS","38654"
508553,"3215 POPLAR RIDGE DR","REX","GA","30273"
508554,"3215 RAILROAD ST","ROCK CREEK","OH","44084"
508555,"3215 RIMROCK ROAD","BILLINGS","MT","59102"
508556,"3215 ROUND MEADOW  LANE","MISSOURI CITY","TX","77459"
508557,"3215 S 47TH ST APT14","TACOMA","WA","98409"
508558,"3215 S CORONA ST","ENGLEWOOD","CO","80113"
508559,"3215 S DEXTER ST","DENVER","CO","80222"
508560,"3215 SAN SEBASTIAN DR","CARROLLTON","TX","75006"
508561,"3215 SANDY HOLLOW ROAD","ROCKFORD","IL","61109"
508562,"3215 SAUNDERS","CUYAHOGA FALLS","OH","44221"
508563,"3215 SHATTUCK","SAGINAW","MI","48603"
508564,"3215 SIMON RD","MANITOWOC","WI","54220"
508565,"3215 SMOKE RIDGE COURT","FAIRBURN","GA","30213"
508566,"3215 STATE HWY 1661","GRAYSON","KY","41143"
508567,"3215 SUNNYVALE ST","DALLAS","TX","75201"
508568,"3215 SUNNYVALE ST","DALLAS","TX","75216"
508569,"3215 SW 52ND AVE","PEMBROKE PARK","FL","33023"
508570,"3215 SWALLOW","SPRINGFIELD","MO","65804"
508571,"3215 TIMBER RIDGE","PALMYRA","MO","63461"
508572,"3215 TIMROD RD","BETHUNE","SC","29009"
508573,"3215 TRAPPERS COVE TRAIL APT 2A","LANSING","MI","48910"
508574,"3215 TRAVIS WAY","FRESNO","TX","77545"
508575,"3215 TUPELO CIR","AMES","IA","50014"
508576,"3215 TUSCAN PARK CT","SAN JOSE","CA","95135"
508577,"3215 VIA CAJITA","CARLSBAD","CA","92010"
508578,"3215 W 28TH STREET","LOS ANGELES","CA","90008"
508579,"3215 W 48TH STREET","LOS ANGELES","CA","90043"
508580,"3215 W BEACH DRIVE","MCHENRY","IL","60050"
508581,"3215 W KANSAS AVE","MIDLAND","TX","79701"
508582,"3215 W LUTZ LAKE FERN RD","LUTZ","FL","33558"
508583,"3215 W SOLANO DR","SOUTH PI","AR","85017"
508584,"3215 WEST 111TH STREET","CHICAGO","IL","60655"
508585,"3215 WEST LYNNE LANE","PHOENIX","AZ","85041"
508586,"3215 WEST THOMAS CANYON","WINNEMUCCA","NV","89445"
508587,"3215 WESTMINSTER RD","MONROE","LA","71201"
508588,"3215 WILSON ROAD","BARTLESLVILLE","OK","74006"
508589,"3215 WINDSHIRE LANE APT 312","CHARLOTTE","NC","28273"
508590,"3215 WOOD AVE","KANSAS CITY","KS","66104"
508591,"32151 ELLISON WAY","FORT BRAGG","CA","95437"
508592,"32151 SW 204TH CT","HOMESTEAD","FL","33030"
508593,"3215176TH PL NE","ARLINGTON","WA","98223"
508594,"32152 GLENHURST","WILLOWICK","OH","44095"
508595,"32153 168TH ST","LEBANON","SD","57455"
508596,"32153 COUGAR SPRINGS TRAIL","NORTH FORK","CA","93643"
508597,"32153 PIKE 219","CLARKSVILLE","MO","63336"
508598,"32153 US HIGHWAY 136","MARYVILLE","MO","64468"
508599,"32155 DAYTON AVE-PO BOX 104","VESTA","MN","56292"
508600,"32156 TANGENT LOOP","TANGENT","OR","97389"
508601,"32158 CAMINO CAPISTRANO SUITE 210","SAN JUAN CAPISTRANO","CA","92675"
508602,"32158 CAMINO CAPISTRANO SUITE A152","SAN JUAN CAPISTRANO","CA","92675"
508603,"3216 31ST AVE S","MINNEAPOLIS","MN","55406"
508604,"3216 33RD AVENUE","SAINT ANTHONY","MN","55418"
508605,"3216 9TH STREET","MUSKEGON","MI","49444"
508606,"3216 ADAMS ROAD","TROY","MI","48084"
508607,"3216 ANITA ST","HOUSTON","TX","77004"
508608,"3216 ARCHDALE DRIVE","CHARLOTTE","NC","28210"
508609,"3216 AUGUSTA DR","BOZEMAN","MT","59715"
508610,"3216 BEAUMONT STREET","TEMPLE HILLS","MD","20748"
508611,"3216 BLUEWATER TRCE","NASHVILLE","TN","37217"
508612,"3216 BOYKIN BRIDGE RD","CLINTON","NC","28328"
508613,"3216 BRAEMAR DR","MEMPHIS","TN","38128"
508614,"3216 BRAEMAR","MEMPHIS","TN","38128"
508615,"3216 BRIAR HILL ROAD","LEXINGTON","KY","50516"
508616,"3216 BRUNSWICK AVE","DREXEL HILL","PA","19026"
508617,"3216 BURNLEY STATION RD","BARBOURSVILLE","VA","22923"
508618,"3216 CELENA CT","N TONAWANDA","NY","14120"
508619,"3216 CHILTON WAY","EL DORADO HILLS","CA","95762"
508620,"3216 CLEVELAND HEIGHTS BLVD","LAKELAND","FL","33803"
508621,"3216 COMMERCE ST","LA CROSSE","WI","54603"
508622,"3216 COMO LAKE ROAD","DENTON","TX","76210"
508623,"3216 CONCORD ST","NEW CASTLE","PA","16105"
508624,"3216 CRESTWATER","CORPUS CHRISTI","TX","78415"
508625,"3216 DYNASTY DR","FORESTVILLE","MD","20747"
508626,"3216 E BELL CANYON ROAD","SANDY","UT","84092"
508627,"3216 E BLUE RIDGE PL","CHANDLER","AZ","85249"
508628,"3216 EARLMAR DR","LOS ANGELES","CA","90064"
508629,"3216 EAST 4TH ST","TULSA","OK","74104"
508630,"3216 FAIRWAY DRIVE","MONTGOMERY","AL","36116"
508631,"3216 GOSS COVE LANE","KNOXVILLE","TN","37931"
508632,"3216 GRAY LEAF DRIVE","WILMINGTON","NC","28409"
508633,"3216 HAWKS VIEW LN","DENTON","TX","76208"
508634,"3216 HENDERSON MILL ROAD","ATLANTA","GA","30341"
508635,"3216 HIGHLAND ROAD","NORTHBROOK","IL","60062"
508636,"3216 HOWEY RD","COLUMBUS","OH","43224"
508637,"3216 KING SPRINGS ROAD SE","SMYRNA","GA","30080"
508638,"3216 KINLOCK CT","PLANO","TX","75074"
508639,"3216 LESLIE ST","DETROIT","MI","48238"
508640,"3216 LINDEN PLACE","CANFIELD","OH","44406"
508641,"3216 LYNWOOD DRIVE","BROOKHAVEN","GA","30319"
508642,"3216 M L KING AVE","FLINT","MI","48505"
508643,"3216 MAPLE DRIVE","HUNTINGDON VALLEY","PA","19006"
508644,"3216 MEMPHIS AVE","NEDERLAND","TX","77627"
508645,"3216 N 110 E","SHERIDAN","IN","46069"
508646,"3216 N HOYNE AVENUE","CHICAGO","IL","60618"
508647,"3216 NASHVILLE AVENUE","NEW ORLEANS","LA","70125"
508648,"3216 NORTH KY 501","KINGS MOUNTAIN","KY","40442"
508649,"3216 NW 31ST TERRACE","OAKLAND PARK","FL","33309"
508650,"3216 PALOS VERDES DRIVE","CORINTH","TX","76210"
508651,"3216 PATE CREEK VIEW","SNELLVILLE","GA","30078"
508652,"3216 QUAIL CIRCLE","ALTUS","OK","73521"
508653,"3216 RANKIN ROAD","ST. ANTHONY","MN","55418"
508654,"3216 RIDGEWAY PLACE","WINDSOR MILL","MD","21244"
508655,"3216 RIDGEWOOD DR","CHAMPAIGN","IL","61821"
508656,"3216 ROCKPORT DRIVE","LITHONIA","GA","30038"
508657,"3216 ROOT AVENUE","CARMICHAEL","CA","95608"
508658,"3216 ROSSELLE ST","JACKSONVILLE","FL","32205"
508659,"3216 ROSSELLE ST","JACKSONVILLE","FL","32216"
508660,"3216 ROSSELLE ST","JACKSONVILLE","FL","32295"
508661,"3216 S 39TH ST","MILWAUKEE","WI","53215"
508662,"3216 S 86TH ST","MILWAUKEE","WI","53227"
508663,"3216 S CAMP CT","FORT WORTH","TX","76179"
508664,"3216 S DOSE TERRACE","SEATTLE","WA","98144"
508665,"3216 S HOWELL AVE","MILWAUKEE","WI","53207"
508666,"3216 SAINT PHILIP ST","NEW ORLEANS","LA","70119"
508667,"3216 SANDWOOD ST","LAKEWOOD","CA","90712"
508668,"3216 SIMPSON DR","RAPID CITY","SD","57702"
508669,"3216 SMITHVILLE RD","EATON RAPIDS","MI","48827"
508670,"3216 SOUTH UNIVERSITY DRIVE UNIT B","FORT WORTH","TX","76109"
508671,"3216 SOUTH VANDECAR RD","MOUNT PLEASANT","MI","48858"
508672,"3216 STATE UNIVERSITY DRIVE","FT. VALLEY","GA","31030"
508673,"3216 SUNRISE DRIVE","GUNTERSVILLE","AL","35976"
508674,"3216 SUNRISE","HIGH RIDGE","MO","63049"
508675,"3216 TAYLOR DRIVE","ROYSE CITY","TX","75189"
508676,"3216 TEAK AVENUE","LUBBOCK","TX","79404"
508677,"3216 TEXAS TOPAZ","AUSTIN","TX","78728"
508678,"3216 VALLEY DRIVE","ALEXANDRIA","VA","22302"
508679,"3216 VERSAILLES CT","LANCASTER","CA","93536"
508680,"3216 W 65TH","CLEVELAND","OH","44102"
508681,"3216 WALTER TRAVIS DRIVE","SARASOTA","FL","34240"
508682,"3216 WEST 86TH ST","CLEVELAND","OH","44102"
508683,"3216 YALE DRIVE","BROOMFIELD","CO","80031"
508684,"3216 ZENKNER VALLEY RD","CENTRALIA","WA","98531"
508685,"32161 PASEO SAN ESTEBAN","TEMECULA","CA","92592"
508686,"32161 SW 202 PLACE","HOMESTAD","FL","33030"
508687,"32164 NORTH ECHO CANYON RD","SAN TAN VALLEY","AZ","85143"
508688,"32166 WEISS RD","WALKER","LA","70785"
508689,"3217 102 PLACE SE","EVERETT","WA","98208"
508690,"3217 108TH ST SW","BRYON CENTER","MI","49315"
508691,"3217 108TH ST SW","BYRON CENTER","MI","49315"
508692,"3217 108TH STREET SW","BYRON CENTER","MI","49315"
508693,"3217 15TH STREET","MENOMINEE","MI","49858"
508694,"3217 17TH AVENUE S","SEATTLE","WA","98144"
508695,"3217 20TH ST","ROCKFORD","IL","61109"
508696,"3217 25TH ST SE","CANTON","OH","44707"
508697,"3217 75TH AVENUE","HYATTSVILLE","MD","20785"
508698,"3217 85TH AVE N","BROOKLYN PARK","MN","55443"
508699,"3217 ALGONQUIN PARKWAY","TOLEDO","OH","43606"
508700,"3217 ALSEY PLACE","DURHAM","NC","27707"
508701,"3217 ANGLE DRIVE","RICHMOND","VA","23223"
508702,"3217 ANNUNCIATION STREET","NEW ORLEANS","LA","70115"
508703,"3217 ASPEN CIRCLE","AMES","IA","50014"
508704,"3217 AUTUMN LANE","MANHATTAN","KS","66503"
508705,"3217 BAYARD ST","BUTTE","MT","59701"
508706,"3217 BEECHWOOD DRIVE","NEW CASTLE","IN","47362"
508707,"3217 BERRY BROW DRIVE","CHALFONT","PA","18914"
508708,"3217 BUCKHORN DRIVE","LEXINGTON","KY","40515"
508709,"3217 CARDINAL CREEK CIRCLE","BENTONVILLE","AR","72712"
508710,"3217 CAROLYN CIR","OCEANSIDE","CA","92054"
508711,"3217 CHERYL LN","HALTOM CITY","TX","76116"
508712,"3217 CIRCLE DRIVE","BESSEMER","AL","35023"
508713,"3217 CLINTON","CAMP VERDE","AZ","86322"
508714,"3217 CONNECTICUT AVE NW 74","WASHINGTON","DC","20008"
508715,"3217 DANIELS","TEXARKANA","TX","75501"
508716,"3217 DAVID COURT","CONCORD","CA","94519"
508717,"3217 DECATUR AVENUE","BRONX","NY","10467"
508718,"3217 DONNA AVE","WARREN","MI","48091"
508719,"3217 E HANNA AVE","TAMPA","FL","33610"
508720,"3217 E HAWTHORNE ST","TUCSON","AZ","85716"
508721,"3217 E POWHATAN AVENUE","TAMPA","FL","33610"
508722,"3217 EDGEMERE AVE","SAINT ANTHONY","MN","55418"
508723,"3217 FAWNWOOD DRIVE","OCOEE","FL","34761"
508724,"3217 FIELD STREET","HALTOM CITY","TX","76117"
508725,"3217 FILLMORE ST","JENISON","MI","49428"
508726,"3217 FORSYTH DRIVE","GREENSBORO","NC","27407"
508727,"3217 FRANKLIN","TOLEDO","OH","43608"
508728,"3217 FREMONT AVE S - UNIT 2","MINNEAPOLIS","MN","55408"
508729,"3217 GAP CREEK ROAD","HAMPTON","TN","37658"
508730,"3217 GAUCHO DR","LAS VEGAS","NV","89169"
508731,"3217 GETTYSBURG CT","NEW HOPE","MN","55427"
508732,"3217 GETTYSBURG","ALTUS","OK","73521"
508733,"3217 GLADYS AVENUE","ROSEMEAD","CA","91770"
508734,"3217 HAWKS SWOOP TRAIL","PFLUGERVILLE","TX","78660"
508735,"3217 HEIGHTS DRIVE","RENO","NV","89523"
508736,"3217 KINGSWAY","FT WASHINGTON","MD","20744"
508737,"3217 LAMANGA DRIVE","MELBOURNE","FL","32940"
508738,"3217 LIANFAIR LANE","APEX","NC","27539"
508739,"3217 LOCKRIDGE","KANSAS CITY","MO","64128"
508740,"3217 MALLOY STREET","LITTLE ROCK","AR","72204"
508741,"3217 MILE HIGH LN","MCKINNEY","TX","75070"
508742,"3217 N CLIFTON AVE","CHICAGO","IL","60657"
508743,"3217 N LOUISVILLE","TULSA","OK","74136"
508744,"3217 N NORTHWEST DR","HOBBS","NM","88240"
508745,"3217 NEW TOWNE ROAD","ANTIOCH","TN","37013"
508746,"3217 NORTH 47 STREET","TAMPA","FL","33605"
508747,"3217 NW 10TH STREET UNIT 302","FORT LAUDERDALE","FL","33309"
508748,"3217 ORIOLE AVENUE","MCALLEN","TX","78504"
508749,"3217 ORIOLE AVENUE","MCALLEN","TX","78541"
508750,"3217 OSCEOLA DRIVE","PLANO","TX","75074"
508751,"3217 OVERLAND AVE  8105","LOS ANGELES","CA","90034"
508752,"3217 PALMER CT","FULTON","MO","65251"
508753,"3217 PARK CIR","MANHATTAN","KS","66503"
508754,"3217 PARK PLACE","MELBOURNE","FL","32934"
508755,"3217 PEARL AVE","WARREN","MI","48091"
508756,"3217 PHILADELPHIA ROAD","ABINGDON","MD","21009"
508757,"3217 POWHATAN AVENUE","TAMPA","FL","33610"
508758,"3217 PRINCESS DIANA BLVD","ORLANDO","FL","32818"
508759,"3217 RALEIGH DR","TOLEDO","OH","43606"
508760,"3217 RED BUD ROAD","CALHOUN","GA","30701"
508761,"3217 REGENT PL","WEST BEND","WI","53095"
508762,"3217 RESERVE CT","ORLANDO","FL","32825"
508763,"3217 RIDGE PASS RD","LITTLE ROCK","AR","72227"
508764,"3217 SANDHILL DRIVE","FAYETTEVILLE","NC","28306"
508765,"3217 SEABROOK STREET","EL PASO","TX","79936"
508766,"3217 SHERIDAN AVE NO","MINNEAPOLIS","MN","55412"
508767,"3217 SOCIETY DR","CLAYMONT","DE","19703"
508768,"3217 SPRINGHILL ROAD","DALZELL","SC","29040"
508769,"3217 SPRUCE","ROYSE CITY","TX","75189"
508770,"3217 SPRUCEGATE CT","SAN JOSE","CA","95148"
508771,"3217 STADIUM DR","FORT WORTH","TX","76109"
508772,"3217 TWILIGHT DR","CRESTVIEW","FL","32539"
508773,"3217 W LISBON LANE","PHOENIX","AZ","85053"
508774,"3217 WELLSTONE LANE SE","OWENS CROSS ROADS","AL","35763"
508775,"3217 WELMAN DRIVE","LOUISVILLE","KY","40216"
508776,"3217 WEST 4TH AVENUE","INDIANOLA","IA","50125"
508777,"3217 WINTERWOOD DR","FAYETTEVILLE","NC","28306"
508778,"3217 WOODLAND","LOS ALAMOS","NM","87544"
508779,"3217 WOODSPRING DR","ABINGDON","MD","21009"
508780,"3217 ZILLAH STREET","TALLAHASSEE","FL","32305"
508781,"32172 A A CAMINO CAPISTRANO","SAN JUAN CAPISTRANO","CA","92675"
508782,"32172 AUDRAIN RD 448","LADDONIA","MO","63352"
508783,"32175 DUBLIN ROAD","PRINCESS ANNE","MD","21853"
508784,"32175 SW LAUREL RD","HILLSBORO","OR","97123"
508785,"32177 MONTCLAIR STREET","NEW HAVEN","MI","48048"
508786,"32178 192ND AVE","HEDRICK","IA","52563"
508787,"32178 CO RT 143","BLACK RIVER","NY","13612"
508788,"3217B BIRDWELL CT","LAUREL","MD","20724"
508789,"3218 11TH ST SUITE A","GULFPORT","MS","39501"
508790,"3218 1ST PLACE NORTH","ARLINGTON","VA","22201"
508791,"3218 33RD AVENUE WEST","SEATTLE","WA","98199"
508792,"3218 38TH AVE S","MINNEAPOLIS","MN","55406"
508793,"3218 43RD AVE W","SEATTLE","WA","98199"
508794,"3218 43RD AVENUE W","SEATTLE","WA","98109"
508795,"3218 48TH ST","DES MOINES","IA","50310"
508796,"3218 59TH STREET","DES MOINES","IA","50322"
508797,"3218 6TH AVENUE","COUNCIL BLUFFS","IA","51501"
508798,"3218 8TH ST SE STE 202","WASHINGTON","DC","20032"
508799,"3218 ALCOTT AVE","PLANT CITY","FL","33566"
508800,"3218 ASHBURY AVENUE","MADERA","CA","93637"
508801,"3218 ATLANTIC AVE","RALEIGH","NC","27604"
508802,"3218 AVE R 1/2","GALVESTON","TX","77550"
508803,"3218 AVENUE R 1/2","GALVESTON","TX","77550"
508804,"3218 BENDING BIRCH PLACE","CHARLOTTE","NC","28206"
508805,"3218 BLAZER LOOP - APT 203","WOODBRIDGE","VA","22193"
508806,"3218 BLUEBONNET","PASADENA","TX","77505"
508807,"3218 BROOKSIDE PARKWAY N DRIVE","INDIANAPOLIS","IN","46218"
508808,"3218 CAMBRIDGE ST","DES MOINES","IA","50313"
508809,"3218 CASTLE OAK AVENUE","ORLANDO","FL","32808"
508810,"3218 CATESBY LN","ST. CHARLES","MO","63301"
508811,"3218 COLLINS LANE","LOUISVILLE","KY","40245"
508812,"3218 COOLIDGE ST","HOLLYWOOD","FL","33021"
508813,"3218 CREOLE LN","DECATUR","GA","30032"
508814,"3218 CROSS KEYS APT 1","FLORISSANT","MO","63033"
508815,"3218 DAVIDSON ST","CROSS PLAINS","WI","53528"
508816,"3218 DOLORES AVENUE","WARREN","MI","48091"
508817,"3218 E 57TH ST","TULSA","OK","74105"
508818,"3218 E 7TH ST","PANAMA CITY","FL","32401"
508819,"3218 EAST BAY DRIVE","HOLMES BEACH","FL","34217"
508820,"3218 EAST COLONIAL DRIVE SUITE G","ORLANDO","FL","32803"
508821,"3218 EAST ENROSE STREET","MESA","AZ","85213"
508822,"3218 ESSIE RD","HOUSTON","TX","77086"
508823,"3218 EUCLID HEIGHTS BLVD","CLEVELAND HTS","OH","44118"
508824,"3218 FAR REACH DR","BALDWINSVILLE","NY","13027"
508825,"3218 FISH AVE","BRONX","NY","10469"
508826,"3218 FM 1275","NACOGDOCHES","TX","75961"
508827,"3218 FONTANA DR","GREENSBORO","NC","27406"
508828,"3218 FOSTER AVENUE","BALTIMORE","MD","21224"
508829,"3218 GONZALES ST APT 2107","AUSTIN","TX","78702"
508830,"3218 GONZALES ST APT 254","AUSTIN","TX","78702"
508831,"3218 GONZALES STREET / 1475","AUSTIN","TX","78702"
508832,"3218 GRIEST AVE","CINCINNATI","OH","45208"
508833,"3218 HAMPTON DOWNS DRIVE","MONROE","NC","28112"
508834,"3218 HEALY DRIVE","NASHVILLE","TN","37207"
508835,"3218 HEATHWOOD RD","WILMINGTON","DE","19810"
508836,"3218 HEMON ROAD","MONTGOMERY","AL","36108"
508837,"3218 LAKESHORE DR","CHAMPAIGN","IL","61822"
508838,"3218 LAKEVIEW RD","MEMPHIS","TN","38116"
508839,"3218 N PEACH HOLLOW CR","PEARLAND","TX","77584"
508840,"3218 N SAN SEBASTIAN PLACE","TUCSON","AZ","85715"
508841,"3218 NE 4TH LANE","ANKENY","IA","50021"
508842,"3218 NESCO ROAD","HAMMONTON","NJ","08037"
508843,"3218 NORTH 27TH STREET","PHOENIX","AZ","85008"
508844,"3218 NORTH GRANDVIEW TRAIL","FLAGSTAFF","AZ","86004"
508845,"3218 NORTH ROCHESTER STREET","ARLINGTON","VA","22213"
508846,"3218 PIERCE STREET","SIOUX CITY","IA","51104"
508847,"3218 PINNACLE PARK DRIVE","MORAINE","OH","45439"
508848,"3218 PITTSTON AVE","SCRANTON","PA","18640"
508849,"3218 PREAKNESS WAY","LANSING","MI","48906"
508850,"3218 RIMSWELL CT","MIDLOTHIAN","VA","23112"
508851,"3218 RIVER FOREST DRIVE","RICHMOND","TX","77406"
508852,"3218 ROLLING VIEW COURT","HUDSONVILLE","MI","49426"
508853,"3218 ROOT AVENUE","CARMICHAEL","CA","95608"
508854,"3218 ROSE OF SHARON RD","DURHAM","NC","27712"
508855,"3218 ROSE OF SHARON ROAD","DURHAM","NC","27712"
508856,"3218 S LANDL LANE   APT 323","GREENFIELD","WI","53227"
508857,"3218 STOCKTON ROAD","POCOMOKE CITY","MD","21851"
508858,"3218 THEODORE R HAGANS DR NE","WASHINGTON","DC","20018"
508859,"3218 TIDEWATER DRIVE","HOUSTON","TX","77045"
508860,"3218 TRELLIS LANE","ABINGDON","MD","21009"
508861,"3218 TRINITY DR","BAYTOWN","TX","77523"
508862,"3218 VALLEY HOME RD","SEVIERVILLE","TN","37862"
508863,"3218 W FM 818","BIG SPRING","TX","79720"
508864,"3218 WETTERHORN DRIVE","FORT COLLINS","CO","80525"
508865,"3218 WINDCLIFF DR","MARIETTA","GA","30067"
508866,"3218 WREN LANE","MIDLOTHIAN","TX","76065"
508867,"3218 YORK DR","MANSFIELD","TX","76063"
508868,"32180 S 627 RD","GROVE","OK","74344"
508869,"32181 ALAMEDA DR","FARMINGTON HILLS","MI","48331"
508870,"32181 ALAMEDA STREET","FARMINGTON HILLS","MI","48336"
508871,"32181 BLACK WIDOW DRIVE","CONIFER","CO","80433"
508872,"32181 VIA LOS COYOTES","SAN JUAN CAPISTRANO","CA","92675"
508873,"32186 FREEDOM ROAD APT 303","FARMINGTON HILLS","MI","48336"
508874,"3219 170TH AVE E","LAKE TAPPS","WA","98391"
508875,"3219 174TH AVE NE","REDMOND","WA","98052"
508876,"3219 7TH ST","LEWISTON","ID","83501"
508877,"3219 AINSWORTH LANE","Richmond","VA","23223"
508878,"3219 ALLENDALE DRIVE","BLOOMINGTON","IN","47401"
508879,"3219 AMBERFIELD CIRCLE","STOCKTON","CA","95219"
508880,"3219 ARBOR RD","LAKEWOOD","CA","90712"
508881,"3219 BROWNSVILLE ROAD","TREVOSE","PA","19053"
508882,"3219 CHESWICK DRIVE","GREENSBORO","NC","27410"
508883,"3219 COLLEGE ST","SAVANNAH","GA","31404"
508884,"3219 COUNTRY CLUB RD","BRONX","NY","10465"
508885,"3219 CREST DRIVE","MANHATTAN BEACH","CA","90266"
508886,"3219 CROWLEY ST","ARLETA","CA","91331"
508887,"3219 DEARBORN AVE","FLINT","MI","48507"
508888,"3219 E CAMELBACK RD NO 361","PHOENIX","AZ","85018"
508889,"3219 E CAMELBACK ROAD SUITE 403","PHOENIX","AZ","85018"
508890,"3219 E KERRY LANE","PHOENIX","AZ","85050"
508891,"3219 EAGLE WATCH DRIVE","KISSIMMEE","FL","34746"
508892,"3219 EAST 137TH STREET","CLEVELAND","OH","44120"
508893,"3219 GABLER AVE NE","BUFFALO","MN","55313"
508894,"3219 GARDEN BROOK PLACE","SOUTH JORDAN","UT","84095"
508895,"3219 GARDEN GLADE LANE","LITHONIA","NC","30038"
508896,"3219 GREENVIEW ROAD","SOUTH CHARLESTON","WV","25309"
508897,"3219 HALEYS WAY SE","CONYERS","GA","30013"
508898,"3219 HALEYS WAY SE","GEORGIA","GA","30013"
508899,"3219 HALLSPORT RD","WELLSVILLE","NY","14895"
508900,"3219 HARLSTONE DR","DULUTH","GA","30096"
508901,"3219 KING CHARLES CIRCLE","SEFFNER","FL","33584"
508902,"3219 KINGS MOUNTAIN DR","KINGWOOD","TX","77345"
508903,"3219 LA PLATA AVENUE","HACIENDA HEIGHTS","CA","91745"
508904,"3219 LEILA OAKS DR","HOUSTON","TX","77082"
508905,"3219 LONGMEADE DRIVE","DALLAS","TX","75234"
508906,"3219 MAIN ST","CLIFTON","CO","81520"
508907,"3219 MAPLEWOOD DRIVE","GULF  BREEZE","FL","32563"
508908,"3219 MEADOWFIELD DRIVE","ARNOLD","MO","63010"
508909,"3219 N 12TH STREET","TAMPA","FL","33605"
508910,"3219 N 1ST STREET","ARLINGTON","VA","22201"
508911,"3219 N 7TH ST","TACOMA","WA","98406"
508912,"3219 N YAVAPAI ST","KINGMAN","AZ","86401"
508913,"3219 N YAVAPAI STREET","KINGMAN","AZ","86401"
508914,"3219 NEOSHO RD","OTTAWA","KS","66067"
508915,"3219 NORTH 51ST BLVD","MILWAUKEE","WI","53216"
508916,"3219 NORTH AVE","RICHMOND","VA","23222"
508917,"3219 NORTH AVENUE","RICHMOND","VA","23222"
508918,"3219 OAK HOLLOW DRIVE","NEW BRAUNFELS","TX","78132"
508919,"3219 OAK ROAD","CLEVELAND HEIGHTS","OH","44118"
508920,"3219 OSUNA WAY","SACRAMENTO","CA","95833"
508921,"3219 PAHOA AVE","HONOLULU","HI","96816"
508922,"3219 PARKWOOD SCHOOL ROAD","MONROE","NC","28112"
508923,"3219 PARKWOOD","RICHMOND","VA","23221"
508924,"3219 PATTY RD","MARYVILLE","TN","37803"
508925,"3219 PINEWOOD AVE B8","BELLINGHAM","WA","98225"
508926,"3219 PLEASANT GARDEN ROAD","GREENSBORO","NC","27406"
508927,"3219 PRAIRIE PLACE","BEND","OR","97701"
508928,"3219 S 30TH ST","LINCOLN","NE","68502"
508929,"3219 SAN BERNADINO ST","CLEARWATER","FL","33759"
508930,"3219 SAND MARSH LANE","MT PLEASANT","SC","29466"
508931,"3219 SEQUOIA AVENUE","BALTIMORE","MD","21215"
508932,"3219 SEQUOIA AVENUE","BALTIMORE","MD","21217"
508933,"3219 SOUTH METROPOLITAN WAY","SALT LAKE CITY","UT","84109"
508934,"3219 SR 763","ABERDEEN","OH","45101"
508935,"3219 ST PHILLIPS CHURCH RD","NEWBERRY","SC","29108"
508936,"3219 STARMOUNT DRIVE","RALEIGH","NC","27610"
508937,"3219 TAMARIND","EDGEWATER","FL","32141"
508938,"3219 TRIPLE MEADOW","SAN ANTONIO","TX","78263"
508939,"3219 UNIVERSITY AVE UNIT 17","COLUMBUS","GA","31907"
508940,"3219 UNIVERSITY AVE","HIGHLAND PARK","IL","60035"
508941,"3219 VELMAGI","MEMPHIS","TN","38128"
508942,"3219 W BELLE PLAINE AVE 2B","CHICAGO","IL","60618"
508943,"3219 W CANYON LAKES DR","KENNEWICK","WA","99337"
508944,"3219 W MARKHAM","LITTLE ROCK","AR","72205"
508945,"3219 WALMAR DRIVE","COLUMBUS","OH","43224"
508946,"3219 WEST MARYLAND AVENUE","BALTIMORE","MD","21218"
508947,"3219 WINTERCREEPER DR","LITHONIA","GA","30038"
508948,"3219 ZIMMER ROAD","WILLIAMSTON","MI","48895"
508949,"3219-D REGENTS PARK LN","GREENSBORO","NC","27455"
508950,"3219","RICHMOND","VA","23222"
508951,"32190 DOWLING LN","VALLEY CENTER","CA","92082"
508952,"32191 SPEARIN RD","SALISBURY","MD","21804"
508953,"32192 ELK GROVE CT","TEMECULA","CA","92592"
508954,"32194 742 ROAD","IMPERIAL","NE","69033"
508955,"32195 GUNN PARK DR","GRAND RAPIDS","MN","55744"
508956,"32195 STATE HIGHWAY 27","GUYS MILLS","PA","16327"
508957,"32197 WOODFIELD DRIVE","AVON LAKE","OH","44012"
508958,"32199 CTY RD 33","LAKE CITY","MN","55041"
508959,"321H WIMBLEDON CHASE","CHESAPEAKE","VA","23320"
508960,"321N BROOKSIDE AVE","FREEPORT","NY","11520"
508961,"322  EDGEWATER DRIVE","ROANOKE RAPIDS","NC","27870"
508962,"322  TRACE HARBOR DR","MADISON","MS","39110"
508963,"322 1/2 47TH STREET NORTH","SAINT PETERSBURG","FL","33713"
508964,"322 1/2 E MARKET ST","BALTIMORE","OH","43105"
508965,"322 108TH STREET SE","CALEDONIA","MI","49316"
508966,"322 10TH AVE SE","ELBOW LAKE","MN","56531"
508967,"322 1121 MILITARY CUTOFF RD STE C","WILMINGTON","NC","28405"
508968,"322 1121 MILITARY CUTTOFF RD STE C","WILMINGTON","NC","28405"
508969,"322 11TH ST NE","WASHINGTON","DC","20010"
508970,"322 12TH STREET","BROOKLYN","NY","11215"
508971,"322 17TH AVE SO","ST PETERSBURG","FL","33711"
508972,"322 28TH AVE","SAN MATEO","CA","94403"
508973,"322 39TH AVE COURT NW","GIG HARBOR","WA","98335"
508974,"322 4TH AVE EAST","OLYMPIA","WA","98501"
508975,"322 4TH AVENUE","ENDERLIN","ND","58027"
508976,"322 57TH STREET","WEST NEW YORK","NJ","07093"
508977,"322 58TH AVE NE","TACOMA","WA","98422"
508978,"322 9TH AVE","HUNTINGTON","WV","25701"
508979,"322 ALDERWOOD LN NE","ATLANTA","GA","30328"
508980,"322 ALLEN STREET","YELLOW SPRINGS","OH","45387"
508981,"322 ALTA AVE","SANTA CRUZ","CA","95060"
508982,"322 AOLOA ST 511","KAILUA","HI","96734"
508983,"322 APACHE DR","GRAND JUNCTION","CO","81503"
508984,"322 ARCH STREET","ROYERSFORD","PA","19468"
508985,"322 ARCHWAY LN","PEACHTREE CITY","GA","30269"
508986,"322 ARDMORE COURT NW","ATLANTA","GA","30309"
508987,"322 AREZZO DRIVE","GREENVILLE","SC","29609"
508988,"322 ARISTOTLE DRIVE","MAYBROOK","NY","12543"
508989,"322 ASH STREET","WILLIMANTIC","CT","06226"
508990,"322 ASHBURNHAM ST APT 1","FITCHBURG","MA","01420"
508991,"322 AVERASBORO DR","CLAYTON","NC","27520"
508992,"322 B WOODCREEK","BOLINGBROOK","IL","60440"
508993,"322 BAHAMA DR","MURRELLS INLET","SC","29576"
508994,"322 BAILEY RIDGE DR","MORRISVILLE","NC","27560"
508995,"322 BAILEY RIDGE DRIVE","MORRISVILLE","NC","27560"
508996,"322 BALDWIN DRIVE","STAUNTON","VA","24401"
508997,"322 BATTLE RD","ANTIOCH","TN","37013"
508998,"322 BEALL AVE","ROCKVILLE","MD","20850"
508999,"322 BENDERIM ROAD","SULPHUR","OK","73086"
509000,"322 BENEDICTINE TERRACE","SEBASTIAN","FL","32968"
